14837KMSN MSN20011101000010011/01/01 00:00:31  5-MIN KMSN 010600Z 18016G21KT 10SM CLR 14/03 A2973 1040 47 1300 180/16G21 RMK AO2
14837KMSN MSN20011101000510011/01/01 00:05:31  5-MIN KMSN 010605Z 18016G22KT 10SM CLR 14/03 A2973 1040 47 1300 180/16G22 RMK AO2
14837KMSN MSN20011101001010011/01/01 00:10:31  5-MIN KMSN 010610Z 18014G23KT 10SM CLR 14/04 A2973 1040 49 1300 180/14G23 RMK AO2
14837KMSN MSN20011101001510011/01/01 00:15:31  5-MIN KMSN 010615Z 18017G23KT 10SM CLR 14/04 A2973 1040 49 1300 180/17G23 RMK AO2
14837KMSN MSN20011101002010011/01/01 00:20:31  5-MIN KMSN 010620Z 18015G23KT 10SM CLR 14/04 A2973 1040 49 1300 180/15G23 RMK AO2
14837KMSN MSN20011101002510011/01/01 00:25:31  5-MIN KMSN 010625Z 18017G21KT 10SM CLR 14/04 A2973 1050 49 1300 180/17G21 RMK AO2
14837KMSN MSN20011101003010011/01/01 00:30:31  5-MIN KMSN 010630Z 18015G21KT 10SM CLR 14/04 A2973 1040 49 1300 180/15G21 RMK AO2
14837KMSN MSN20011101003510011/01/01 00:35:31  5-MIN KMSN 010635Z 18015G21KT 10SM CLR 14/04 A2972 1050 49 1300 180/15G21 RMK AO2
14837KMSN MSN20011101004010011/01/01 00:40:31  5-MIN KMSN 010640Z 19015G21KT 10SM CLR 14/04 A2972 1050 49 1300 190/15G21 RMK AO2
14837KMSN MSN20011101004510011/01/01 00:45:31  5-MIN KMSN 010645Z 18015G21KT 10SM CLR 14/04 A2972 1050 49 1300 180/15G21 RMK AO2
14837KMSN MSN20011101005011711/01/01 00:50:31  5-MIN KMSN 010650Z 19013G21KT 10SM CLR 14/04 A2972 1050 49 1300 180/13G21 RMK AO2 SLP061 T01440039
14837KMSN MSN20011101005510011/01/01 00:55:31  5-MIN KMSN 010655Z 18017G22KT 10SM CLR 14/04 A2971 1060 49 1300 180/17G22 RMK AO2
14837KMSN MSN20011101010010011/01/01 01:00:31  5-MIN KMSN 010700Z 18015G23KT 10SM CLR 14/04 A2971 1060 49 1300 180/15G23 RMK AO2
14837KMSN MSN20011101010510011/01/01 01:05:31  5-MIN KMSN 010705Z 19014G23KT 10SM CLR 14/04 A2971 1060 49 1300 180/14G23 RMK AO2
14837KMSN MSN20011101011010011/01/01 01:10:31  5-MIN KMSN 010710Z 19015G23KT 10SM CLR 14/04 A2971 1060 49 1300 190/15G23 RMK AO2
14837KMSN MSN20011101011510011/01/01 01:15:31  5-MIN KMSN 010715Z 19017G22KT 10SM CLR 14/04 A2971 1060 49 1300 180/17G22 RMK AO2
14837KMSN MSN20011101012010011/01/01 01:20:31  5-MIN KMSN 010720Z 19014G21KT 10SM CLR 14/04 A2971 1060 49 1300 190/14G21 RMK AO2
14837KMSN MSN20011101012510011/01/01 01:25:31  5-MIN KMSN 010725Z 18016G22KT 10SM CLR 14/04 A2971 1060 50 1200 180/16G22 RMK AO2
14837KMSN MSN20011101013010011/01/01 01:30:31  5-MIN KMSN 010730Z 18015G22KT 10SM CLR 14/04 A2971 1060 50 1200 180/15G22 RMK AO2
14837KMSN MSN20011101013510011/01/01 01:35:31  5-MIN KMSN 010735Z 19018G24KT 10SM CLR 14/04 A2971 1060 50 1200 190/18G24 RMK AO2
14837KMSN MSN20011101014010011/01/01 01:40:31  5-MIN KMSN 010740Z 19018G24KT 10SM CLR 14/04 A2971 1060 50 1200 180/18G24 RMK AO2
14837KMSN MSN20011101014510011/01/01 01:45:31  5-MIN KMSN 010745Z 18015G24KT 10SM CLR 14/04 A2971 1060 50 1200 180/15G24 RMK AO2
14837KMSN MSN20011101015012011/01/01 01:50:31  5-MIN KMSN 010750Z 18018G23KT 10SM BKN120 14/04 A2971 1060 50 1200 180/18G23 RMK AO2 SLP058 T01390039
14837KMSN MSN20011101015510011/01/01 01:55:31  5-MIN KMSN 010755Z 19015G21KT 10SM CLR 14/06 A2971 1060 55 1300 190/15G21 RMK AO2
14837KMSN MSN20011101020010011/01/01 02:00:31  5-MIN KMSN 010800Z 19017G24KT 10SM CLR 14/06 A2971 1060 55 1300 190/17G24 RMK AO2
14837KMSN MSN20011101020510011/01/01 02:05:31  5-MIN KMSN 010805Z 19017G24KT 10SM CLR 14/04 A2970 1070 49 1300 180/17G24 RMK AO2
14837KMSN MSN20011101021010011/01/01 02:10:31  5-MIN KMSN 010810Z 18015G23KT 10SM CLR 14/04 A2970 1070 50 1200 180/15G23 RMK AO2
14837KMSN MSN20011101021509411/01/01 02:15:31  5-MIN KMSN 010815Z 19018KT 10SM CLR 14/04 A2970 1070 49 1300 190/18 RMK AO2
14837KMSN MSN20011101022010011/01/01 02:20:31  5-MIN KMSN 010820Z 19019G24KT 10SM CLR 14/04 A2970 1070 49 1300 180/19G24 RMK AO2
14837KMSN MSN20011101022510011/01/01 02:25:31  5-MIN KMSN 010825Z 19017G24KT 10SM CLR 14/04 A2970 1070 50 1200 180/17G24 RMK AO2
14837KMSN MSN20011101023010011/01/01 02:30:31  5-MIN KMSN 010830Z 19015G23KT 10SM CLR 14/04 A2969 1080 49 1300 190/15G23 RMK AO2
14837KMSN MSN20011101023510011/01/01 02:35:31  5-MIN KMSN 010835Z 19017G25KT 10SM CLR 14/04 A2969 1080 50 1200 190/17G25 RMK AO2
14837KMSN MSN20011101024010011/01/01 02:40:31  5-MIN KMSN 010840Z 18017G25KT 10SM CLR 14/04 A2969 1080 52 1200 180/17G25 RMK AO2
14837KMSN MSN20011101024510011/01/01 02:45:31  5-MIN KMSN 010845Z 19017G23KT 10SM CLR 14/04 A2969 1080 52 1200 190/17G23 RMK AO2
14837KMSN MSN20011101025012611/01/01 02:50:31  5-MIN KMSN 010850Z 18018G23KT 10SM SCT120 14/04 A2969 1080 50 1200 180/18G23 RMK AO2 SLP052 T01390039 58012
14837KMSN MSN20011101025510011/01/01 02:55:31  5-MIN KMSN 010855Z 19016G23KT 10SM CLR 14/04 A2969 1080 52 1200 180/16G23 RMK AO2
14837KMSN MSN20011101030010011/01/01 03:00:31  5-MIN KMSN 010900Z 19017G21KT 10SM CLR 14/04 A2969 1080 52 1200 190/17G21 RMK AO2
14837KMSN MSN20011101030510011/01/01 03:05:31  5-MIN KMSN 010905Z 18016G22KT 10SM CLR 14/04 A2968 1080 52 1200 180/16G22 RMK AO2
14837KMSN MSN20011101031010011/01/01 03:10:31  5-MIN KMSN 010910Z 19015G22KT 10SM CLR 13/04 A2968 1080 54 1200 190/15G22 RMK AO2
14837KMSN MSN20011101031509411/01/01 03:15:31  5-MIN KMSN 010915Z 19016KT 10SM CLR 13/04 A2968 1080 54 1200 190/16 RMK AO2
14837KMSN MSN20011101032010011/01/01 03:20:31  5-MIN KMSN 010920Z 19015G20KT 10SM CLR 13/04 A2968 1080 54 1200 190/15G20 RMK AO2
14837KMSN MSN20011101032510011/01/01 03:25:31  5-MIN KMSN 010925Z 19016G22KT 10SM CLR 13/04 A2968 1090 54 1200 190/16G22 RMK AO2
14837KMSN MSN20011101033010011/01/01 03:30:31  5-MIN KMSN 010930Z 19014G22KT 10SM CLR 13/04 A2968 1080 54 1200 190/14G22 RMK AO2
14837KMSN MSN20011101033510011/01/01 03:35:31  5-MIN KMSN 010935Z 19015G22KT 10SM CLR 13/04 A2968 1090 54 1200 180/15G22 RMK AO2
14837KMSN MSN20011101034010011/01/01 03:40:31  5-MIN KMSN 010940Z 18015G22KT 10SM CLR 13/04 A2968 1090 54 1200 180/15G22 RMK AO2
14837KMSN MSN20011101034510011/01/01 03:45:31  5-MIN KMSN 010945Z 19014G22KT 10SM CLR 13/04 A2968 1090 54 1200 190/14G22 RMK AO2
14837KMSN MSN20011101035011711/01/01 03:50:31  5-MIN KMSN 010950Z 19012G22KT 10SM CLR 13/04 A2968 1080 54 1200 190/12G22 RMK AO2 SLP051 T01330044
14837KMSN MSN20011101035510011/01/01 03:55:31  5-MIN KMSN 010955Z 19015G20KT 10SM CLR 13/04 A2968 1090 54 1200 190/15G20 RMK AO2
14837KMSN MSN20011101040009411/01/01 04:00:31  5-MIN KMSN 011000Z 18014KT 10SM CLR 13/05 A2968 1090 57 1200 180/14 RMK AO2
14837KMSN MSN20011101040510011/01/01 04:05:31  5-MIN KMSN 011005Z 19015G23KT 10SM CLR 13/04 A2968 1080 54 1200 190/15G23 RMK AO2
14837KMSN MSN20011101041010011/01/01 04:10:31  5-MIN KMSN 011010Z 19013G23KT 10SM CLR 13/04 A2968 1080 54 1200 190/13G23 RMK AO2
14837KMSN MSN20011101041510011/01/01 04:15:31  5-MIN KMSN 011015Z 19014G20KT 10SM CLR 13/05 A2968 1080 57 1200 190/14G20 RMK AO2
14837KMSN MSN20011101042010011/01/01 04:20:31  5-MIN KMSN 011020Z 19015G20KT 10SM CLR 13/05 A2969 1080 57 1200 190/15G20 RMK AO2
14837KMSN MSN20011101042510011/01/01 04:25:31  5-MIN KMSN 011025Z 19016G20KT 10SM CLR 13/05 A2968 1080 57 1200 190/16G20 RMK AO2
14837KMSN MSN20011101043010011/01/01 04:30:31  5-MIN KMSN 011030Z 19013G20KT 10SM CLR 13/05 A2968 1080 57 1200 190/13G20 RMK AO2
14837KMSN MSN20011101043510011/01/01 04:35:31  5-MIN KMSN 011035Z 19012G19KT 10SM CLR 13/05 A2968 1080 57 1200 190/12G19 RMK AO2
14837KMSN MSN20011101044010011/01/01 04:40:31  5-MIN KMSN 011040Z 19012G17KT 10SM CLR 13/05 A2969 1080 57 1200 190/12G17 RMK AO2
14837KMSN MSN20011101044510011/01/01 04:45:31  5-MIN KMSN 011045Z 19013G20KT 10SM CLR 13/05 A2969 1080 57 1200 190/13G20 RMK AO2
14837KMSN MSN20011101045011711/01/01 04:50:31  5-MIN KMSN 011050Z 18013G20KT 10SM CLR 13/05 A2969 1080 57 1200 180/13G20 RMK AO2 SLP052 T01330050
14837KMSN MSN20011101045510011/01/01 04:55:31  5-MIN KMSN 011055Z 19015G20KT 10SM CLR 13/05 A2969 1080 57 1200 190/15G20 RMK AO2
14837KMSN MSN20011101050010011/01/01 05:00:31  5-MIN KMSN 011100Z 20010G20KT 10SM CLR 13/05 A2969 1080 57 1200 190/10G20 RMK AO2
14837KMSN MSN20011101050509411/01/01 05:05:31  5-MIN KMSN 011105Z 19012KT 10SM CLR 13/05 A2969 1080 57 1200 190/12 RMK AO2
14837KMSN MSN20011101051010011/01/01 05:10:31  5-MIN KMSN 011110Z 19013G21KT 10SM CLR 13/05 A2969 1080 57 1200 190/13G21 RMK AO2
14837KMSN MSN20011101051510011/01/01 05:15:31  5-MIN KMSN 011115Z 19012G21KT 10SM CLR 13/05 A2969 1080 57 1200 190/12G21 RMK AO2
14837KMSN MSN20011101052010011/01/01 05:20:31  5-MIN KMSN 011120Z 19012G19KT 10SM CLR 13/05 A2969 1080 57 1200 190/12G19 RMK AO2
14837KMSN MSN20011101052510011/01/01 05:25:31  5-MIN KMSN 011125Z 19012G19KT 10SM CLR 13/05 A2969 1080 57 1200 190/12G19 RMK AO2
14837KMSN MSN20011101053010011/01/01 05:30:31  5-MIN KMSN 011130Z 19014G19KT 10SM CLR 13/05 A2969 1080 57 1200 190/14G19 RMK AO2
14837KMSN MSN20011101053510011/01/01 05:35:31  5-MIN KMSN 011135Z 19014G19KT 10SM CLR 13/05 A2969 1080 57 1200 190/14G19 RMK AO2
14837KMSN MSN20011101054010011/01/01 05:40:31  5-MIN KMSN 011140Z 19013G19KT 10SM CLR 13/05 A2969 1080 57 1200 190/13G19 RMK AO2
14837KMSN MSN20011101054510011/01/01 05:45:31  5-MIN KMSN 011145Z 19013G18KT 10SM CLR 13/06 A2969 1080 59 1200 190/13G18 RMK AO2
14837KMSN MSN20011101055013511/01/01 05:50:31  5-MIN KMSN 011150Z 20014G18KT 10SM CLR 13/06 A2969 1080 59 1200 190/14G18 RMK AO2 SLP052 T01330056 10144 20133 58015
14837KMSN MSN20011101055510011/01/01 05:55:31  5-MIN KMSN 011155Z 20011G18KT 10SM CLR 13/06 A2969 1080 59 1200 200/11G18 RMK AO2
14837KMSN MSN20011101060010011/01/01 06:00:31  5-MIN KMSN 011200Z 20012G18KT 10SM CLR 13/06 A2969 1080 61 1100 200/12G18 RMK AO2
14837KMSN MSN20011101060510011/01/01 06:05:31  5-MIN KMSN 011205Z 19014G18KT 10SM CLR 13/06 A2969 1080 59 1200 190/14G18 RMK AO2
14837KMSN MSN20011101061010011/01/01 06:10:31  5-MIN KMSN 011210Z 19011G18KT 10SM CLR 13/06 A2969 1080 61 1100 190/11G18 RMK AO2
14837KMSN MSN20011101061510011/01/01 06:15:31  5-MIN KMSN 011215Z 20012G18KT 10SM CLR 13/06 A2969 1080 61 1100 200/12G18 RMK AO2
14837KMSN MSN20011101062010011/01/01 06:20:31  5-MIN KMSN 011220Z 20011G18KT 10SM CLR 13/06 A2969 1080 61 1100 200/11G18 RMK AO2
14837KMSN MSN20011101062510011/01/01 06:25:31  5-MIN KMSN 011225Z 20010G15KT 10SM CLR 13/06 A2969 1080 61 1100 200/10G15 RMK AO2
14837KMSN MSN20011101063009411/01/01 06:30:31  5-MIN KMSN 011230Z 19012KT 10SM CLR 13/06 A2969 1070 61 1100 190/12 RMK AO2
14837KMSN MSN20011101063510011/01/01 06:35:31  5-MIN KMSN 011235Z 20010G17KT 10SM CLR 13/06 A2969 1070 61 1100 190/10G17 RMK AO2
14837KMSN MSN20011101064010011/01/01 06:40:31  5-MIN KMSN 011240Z 19011G17KT 10SM CLR 13/06 A2969 1070 61 1100 190/11G17 RMK AO2
14837KMSN MSN20011101064509711/01/01 06:45:31  5-MIN KMSN 011245Z 19011KT 10SM FEW037 13/06 A2970 1070 61 1100 190/11 RMK AO2
14837KMSN MSN20011101065012011/01/01 06:50:31  5-MIN KMSN 011250Z 20010G18KT 10SM BKN037 13/06 A2969 1070 63 1100 200/10G18 RMK AO2 SLP055 T01280061
14837KMSN MSN20011101065510311/01/01 06:55:31  5-MIN KMSN 011255Z 19011G18KT 10SM FEW037 13/06 A2970 1070 61 1200 190/11G18 RMK AO2
14837KMSN MSN20011101070011511/01/01 07:00:31  5-MIN KMSN 011300Z 20011KT 10SM -RA FEW037 13/06 A2970 1070 63 1100 200/11 RMK AO2 RAB1256 P0000
14837KMSN MSN20011101070512111/01/01 07:05:31  5-MIN KMSN 011305Z 20011G17KT 10SM -RA FEW037 13/06 A2970 1070 63 1100 200/11G17 RMK AO2 RAB1256 P0000
14837KMSN MSN20011101071012011/01/01 07:10:31  5-MIN KMSN 011310Z 20009G17KT 10SM FEW037 13/06 A2970 1070 63 1100 200/09G17 RMK AO2 RAB1256E07 P0000
14837KMSN MSN20011101071511711/01/01 07:15:31  5-MIN KMSN 011315Z 20011G18KT 10SM CLR 13/06 A2971 1060 61 1200 200/11G18 RMK AO2 RAB1256E07 P0000
14837KMSN MSN20011101072011711/01/01 07:20:31  5-MIN KMSN 011320Z 19008G18KT 10SM CLR 13/06 A2971 1060 61 1100 190/08G18 RMK AO2 RAB1256E07 P0000
14837KMSN MSN20011101072511411/01/01 07:25:31  5-MIN KMSN 011325Z 19011KT 10SM FEW038 13/07 A2971 1060 64 1100 190/11 RMK AO2 RAB1256E07 P0000
14837KMSN MSN20011101073011411/01/01 07:30:31  5-MIN KMSN 011330Z 20011KT 10SM FEW038 13/07 A2971 1060 64 1100 190/11 RMK AO2 RAB1256E07 P0000
14837KMSN MSN20011101073512711/01/01 07:35:31  5-MIN KMSN 011335Z 20011G17KT 10SM FEW038 SCT120 14/07 A2971 1060 61 1200 200/11G17 RMK AO2 RAB1256E07 P0000
14837KMSN MSN20011101074012711/01/01 07:40:31  5-MIN KMSN 011340Z 20010G17KT 10SM FEW038 SCT120 14/07 A2971 1060 61 1200 200/10G17 RMK AO2 RAB1256E07 P0000
14837KMSN MSN20011101074512111/01/01 07:45:31  5-MIN KMSN 011345Z 20011KT 10SM FEW038 SCT120 14/07 A2971 1060 61 1200 200/11 RMK AO2 RAB1256E07 P0000
14837KMSN MSN20011101075013811/01/01 07:50:31  5-MIN KMSN 011350Z 19013KT 10SM SCT090 BKN120 14/07 A2970 1070 61 1200 190/13 RMK AO2 RAB1256E07 SLP057 P0000 T01390067
14837KMSN MSN20011101075511011/01/01 07:55:31  5-MIN KMSN 011355Z 19011G17KT 10SM BKN090 BKN120 14/07 A2970 1070 61 1200 190/11G17 RMK AO2
14837KMSN MSN20011101080009711/01/01 08:00:31  5-MIN KMSN 011400Z 19013KT 10SM BKN090 13/07 A2970 1070 64 1200 190/13 RMK AO2
14837KMSN MSN20011101080509711/01/01 08:05:31  5-MIN KMSN 011405Z 19011KT 10SM BKN090 13/07 A2970 1070 64 1200 190/11 RMK AO2
14837KMSN MSN20011101081009711/01/01 08:10:31  5-MIN KMSN 011410Z 19011KT 10SM OVC090 14/07 A2971 1060 64 1200 190/11 RMK AO2
14837KMSN MSN20011101081511311/01/01 08:15:31  5-MIN KMSN 011415Z 19011KT 10SM -RA OVC090 13/07 A2971 1060 66 1200 190/11 RMK AO2 RAB14 P0000
14837KMSN MSN20011101082011311/01/01 08:20:31  5-MIN KMSN 011420Z 19010KT 10SM -RA OVC090 14/07 A2970 1070 64 1200 180/10 RMK AO2 RAB14 P0000
14837KMSN MSN20011101082511311/01/01 08:25:31  5-MIN KMSN 011425Z 17011KT 10SM -RA OVC090 13/07 A2968 1090 66 1200 170/11 RMK AO2 RAB14 P0000
14837KMSN MSN20011101083011311/01/01 08:30:31  5-MIN KMSN 011430Z 19012KT 10SM -RA OVC095 13/07 A2968 1080 66 1200 190/12 RMK AO2 RAB14 P0000
14837KMSN MSN20011101083512611/01/01 08:35:31  5-MIN KMSN 011435Z 19010G18KT 10SM -RA FEW065 OVC095 14/07 A2970 1070 64 1200 190/10G18 RMK AO2 RAB14 P0000
14837KMSN MSN20011101084012511/01/01 08:40:31  5-MIN KMSN 011440Z 20010G18KT 7SM -RA SCT047 OVC095 13/08 A2972 1050 71 1100 200/10G18 RMK AO2 RAB14 P0000
14837KMSN MSN20011101084511911/01/01 08:45:31  5-MIN KMSN 011445Z 20010KT 5SM -RA SCT046 OVC095 13/08 A2971 1060 71 1200 200/10 RMK AO2 RAB14 P0000
14837KMSN MSN20011101085015411/01/01 08:50:31  5-MIN KMSN 011450Z 20010G16KT 4SM -RA SCT050 BKN100 13/09 A2971 1060 77 1100 200/10G16 RMK AO2 RAB14 SLP060 P0000 60000 T01280089 55000
14837KMSN MSN20011101085511311/01/01 08:55:31  5-MIN KMSN 011455Z 20009KT 9SM -RA SCT050 BKN100 13/09 A2970 1070 74 1200 200/09 RMK AO2 P0000
14837KMSN MSN20011101090012011/01/01 09:00:31  5-MIN KMSN 011500Z 20009KT 9SM -RA FEW029 BKN044 BKN100 13/09 A2972 1050 74 1100 200/09 RMK AO2 P0001
14837KMSN MSN20011101090512011/01/01 09:05:31  5-MIN KMSN 011505Z 19011KT 8SM -RA SCT029 BKN042 BKN110 13/09 A2971 1060 74 1100 190/11 RMK AO2 P0001
14837KMSN MSN20011101091012011/01/01 09:10:31  5-MIN KMSN 011510Z 19010KT 9SM -RA BKN032 BKN046 BKN110 13/09 A2971 1060 74 1200 190/10 RMK AO2 P0001
14837KMSN MSN20011101091512211/01/01 09:15:31  5-MIN KMSN 011515Z 20010KT 9SM BKN032 BKN044 OVC110 13/09 A2972 1050 74 1100 190/10 RMK AO2 RAE13 P0001
14837KMSN MSN20011101092010911/01/01 09:20:31  5-MIN KMSN 011520Z 19011KT 10SM OVC032 13/09 A2971 1060 74 1100 190/11 RMK AO2 RAE13 P0001
14837KMSN MSN20011101092510611/01/01 09:25:31  5-MIN KMSN 011525Z 20008KT 8SM -RA OVC032 14/09 A2971 1060 74 1200 190/08 RMK AO2 P0001
14837KMSN MSN20011101093010611/01/01 09:30:31  5-MIN KMSN 011530Z 19007KT 8SM -RA OVC030 13/09 A2971 1060 77 1100 190/07 RMK AO2 P0001
14837KMSN MSN20011101093511311/01/01 09:35:31  5-MIN KMSN 011535Z 19009KT 8SM -RA BKN028 OVC033 14/09 A2971 1060 74 1200 190/09 RMK AO2 P0001
14837KMSN MSN20011101094010811/01/01 09:40:31  5-MIN KMSN 011540Z 19010KT 8SM OVC028 14/09 A2971 1060 74 1200 190/10 RMK AO2 RAE38 P0001
14837KMSN MSN20011101094510811/01/01 09:45:31  5-MIN KMSN 011545Z 18009KT 8SM OVC028 14/09 A2970 1060 74 1200 180/09 RMK AO2 RAE38 P0001
14837KMSN MSN20011101095012511/01/01 09:50:31  5-MIN KMSN 011550Z 18008KT 8SM OVC028 14/10 A2970 1070 77 1200 180/08 RMK AO2 RAE38 SLP057 P0001 T01390100
14837KMSN MSN20011101095509611/01/01 09:55:31  5-MIN KMSN 011555Z 19011KT 8SM OVC028 14/10 A2970 1070 77 1200 190/11 RMK AO2
14837KMSN MSN20011101100011011/01/01 10:00:31  5-MIN KMSN 011600Z 20008G17KT 10SM BKN028 OVC040 14/10 A2970 1070 74 1300 190/08G17 RMK AO2
14837KMSN MSN20011101100511011/01/01 10:05:31  5-MIN KMSN 011605Z 20010G17KT 10SM BKN028 OVC042 14/10 A2970 1070 74 1300 200/10G17 RMK AO2
14837KMSN MSN20011101101010411/01/01 10:10:31  5-MIN KMSN 011610Z 20010KT 10SM BKN028 OVC042 14/11 A2970 1070 77 1300 200/10 RMK AO2
14837KMSN MSN20011101101511111/01/01 10:15:31  5-MIN KMSN 011615Z 20010KT 10SM BKN028 BKN033 OVC042 14/11 A2970 1070 77 1300 200/10 RMK AO2
14837KMSN MSN20011101102011711/01/01 10:20:31  5-MIN KMSN 011620Z 19012G16KT 10SM SCT028 BKN035 OVC045 14/11 A2970 1070 77 1300 190/12G16 RMK AO2
14837KMSN MSN20011101102511711/01/01 10:25:31  5-MIN KMSN 011625Z 20012G16KT 10SM SCT028 BKN035 BKN045 14/11 A2970 1070 77 1300 190/12G16 RMK AO2
14837KMSN MSN20011101103013311/01/01 10:30:31  5-MIN KMSN 011630Z 20012G18KT 180V240 10SM BKN030 BKN038 BKN045 15/11 A2970 1070 74 1400 200/12G18 180V240 RMK AO2
14837KMSN MSN20011101103511011/01/01 10:35:31  5-MIN KMSN 011635Z 20011G18KT 10SM BKN028 BKN035 15/11 A2971 1060 74 1400 200/11G18 RMK AO2
14837KMSN MSN20011101104010411/01/01 10:40:31  5-MIN KMSN 011640Z 20012KT 10SM BKN028 BKN035 15/11 A2970 1070 74 1400 190/12 RMK AO2
14837KMSN MSN20011101104511011/01/01 10:45:31  5-MIN KMSN 011645Z 20011G19KT 10SM BKN028 BKN035 15/11 A2970 1070 74 1400 200/11G19 RMK AO2
14837KMSN MSN20011101105012011/01/01 10:50:31  5-MIN KMSN 011650Z 19011G19KT 10SM OVC028 15/11 A2970 1070 77 1400 190/11G19 RMK AO2 SLP056 T01500111
14837KMSN MSN20011101105510211/01/01 10:55:31  5-MIN KMSN 011655Z 20010G17KT 9SM OVC028 15/11 A2970 1060 77 1400 200/10G17 RMK AO2
14837KMSN MSN20011101110010311/01/01 11:00:31  5-MIN KMSN 011700Z 20009G17KT 10SM OVC026 15/11 A2971 1060 77 1300 200/09G17 RMK AO2
14837KMSN MSN20011101110510311/01/01 11:05:31  5-MIN KMSN 011705Z 21010G17KT 10SM OVC026 15/11 A2971 1060 77 1400 210/10G17 RMK AO2
14837KMSN MSN20011101111010411/01/01 11:10:31  5-MIN KMSN 011710Z 21008KT 10SM BKN024 OVC029 16/11 A2971 1060 74 1400 210/08 RMK AO2
14837KMSN MSN20011101111510311/01/01 11:15:31  5-MIN KMSN 011715Z 20010G16KT 10SM OVC024 16/11 A2971 1060 74 1400 200/10G16 RMK AO2
14837KMSN MSN20011101112010311/01/01 11:20:31  5-MIN KMSN 011720Z 22008G16KT 10SM OVC024 16/11 A2971 1060 74 1400 220/08G16 RMK AO2
14837KMSN MSN20011101112509711/01/01 11:25:31  5-MIN KMSN 011725Z 21006KT 10SM OVC022 16/11 A2971 1060 74 1400 210/06 RMK AO2
14837KMSN MSN20011101113009711/01/01 11:30:31  5-MIN KMSN 011730Z 21009KT 10SM OVC022 16/11 A2971 1060 74 1400 210/09 RMK AO2
14837KMSN MSN20011101113509711/01/01 11:35:31  5-MIN KMSN 011735Z 22010KT 10SM OVC022 16/11 A2971 1060 74 1400 220/10 RMK AO2
14837KMSN MSN20011101114009711/01/01 11:40:31  5-MIN KMSN 011740Z 21009KT 10SM OVC022 16/11 A2971 1060 74 1400 210/09 RMK AO2
14837KMSN MSN20011101114509711/01/01 11:45:31  5-MIN KMSN 011745Z 21007KT 10SM OVC022 16/12 A2971 1060 77 1400 210/07 RMK AO2
14837KMSN MSN20011101115013811/01/01 11:50:31  5-MIN KMSN 011750Z 22009KT 10SM OVC022 16/12 A2971 1060 77 1400 220/09 RMK AO2 SLP061 60001 T01560117 10156 20128 50004
14837KMSN MSN20011101115509711/01/01 11:55:31  5-MIN KMSN 011755Z 21008KT 10SM OVC022 16/12 A2971 1060 75 1500 210/08 RMK AO2
14837KMSN MSN20011101120010311/01/01 12:00:31  5-MIN KMSN 011800Z 20011G16KT 10SM BKN022 16/12 A2970 1070 75 1500 190/11G16 RMK AO2
14837KMSN MSN20011101120510311/01/01 12:05:31  5-MIN KMSN 011805Z 19012G16KT 10SM SCT022 17/12 A2970 1070 75 1600 190/12G16 RMK AO2
14837KMSN MSN20011101121009711/01/01 12:10:31  5-MIN KMSN 011810Z 19013KT 10SM SCT022 17/12 A2969 1070 72 1600 190/13 RMK AO2
14837KMSN MSN20011101121509711/01/01 12:15:31  5-MIN KMSN 011815Z 21009KT 10SM FEW022 17/12 A2970 1070 72 1600 210/09 RMK AO2
14837KMSN MSN20011101122010311/01/01 12:20:31  5-MIN KMSN 011820Z 22008G16KT 10SM SCT022 17/12 A2970 1070 72 1600 220/08G16 RMK AO2
14837KMSN MSN20011101122510311/01/01 12:25:31  5-MIN KMSN 011825Z 22008G16KT 10SM BKN022 17/12 A2970 1070 69 1600 220/08G16 RMK AO2
14837KMSN MSN20011101123010311/01/01 12:30:31  5-MIN KMSN 011830Z 22010G15KT 10SM BKN022 17/12 A2970 1070 72 1600 220/10G15 RMK AO2
14837KMSN MSN20011101123511311/01/01 12:35:31  5-MIN KMSN 011835Z 22010KT 190V250 10SM BKN022 17/12 A2970 1070 72 1600 220/10 190V250 RMK AO2
14837KMSN MSN20011101124009711/01/01 12:40:31  5-MIN KMSN 011840Z 22008KT 10SM BKN024 17/12 A2969 1070 72 1600 220/08 RMK AO2
14837KMSN MSN20011101124510311/01/01 12:45:31  5-MIN KMSN 011845Z 23011G15KT 10SM OVC024 17/12 A2969 1070 72 1600 230/11G15 RMK AO2
14837KMSN MSN20011101125012011/01/01 12:50:31  5-MIN KMSN 011850Z 23007G15KT 10SM OVC024 17/12 A2969 1070 72 1600 220/07G15 RMK AO2 SLP055 T01670117
14837KMSN MSN20011101125509711/01/01 12:55:31  5-MIN KMSN 011855Z 23007KT 10SM OVC024 17/12 A2969 1070 72 1600 230/07 RMK AO2
14837KMSN MSN20011101130009711/01/01 13:00:31  5-MIN KMSN 011900Z 22007KT 10SM OVC024 17/12 A2969 1070 72 1600 220/07 RMK AO2
14837KMSN MSN20011101130509711/01/01 13:05:31  5-MIN KMSN 011905Z 22006KT 10SM OVC024 17/12 A2970 1070 72 1600 220/06 RMK AO2
14837KMSN MSN20011101131009711/01/01 13:10:31  5-MIN KMSN 011910Z 22009KT 10SM OVC024 17/12 A2970 1070 72 1600 220/09 RMK AO2
14837KMSN MSN20011101131509711/01/01 13:15:31  5-MIN KMSN 011915Z 21008KT 10SM OVC026 17/12 A2970 1070 72 1600 210/08 RMK AO2
14837KMSN MSN20011101132009711/01/01 13:20:31  5-MIN KMSN 011920Z 21008KT 10SM OVC026 17/12 A2970 1070 72 1600 210/08 RMK AO2
14837KMSN MSN20011101132509711/01/01 13:25:31  5-MIN KMSN 011925Z 21008KT 10SM OVC028 17/12 A2969 1070 72 1600 200/08 RMK AO2
14837KMSN MSN20011101133009711/01/01 13:30:31  5-MIN KMSN 011930Z 22010KT 10SM OVC028 17/12 A2970 1070 69 1600 220/10 RMK AO2
14837KMSN MSN20011101133509711/01/01 13:35:31  5-MIN KMSN 011935Z 21007KT 10SM OVC028 17/12 A2970 1070 69 1600 210/07 RMK AO2
14837KMSN MSN20011101134011311/01/01 13:40:31  5-MIN KMSN 011940Z 22010KT 200V270 10SM OVC028 17/12 A2970 1070 69 1600 220/10 200V270 RMK AO2
14837KMSN MSN20011101134509711/01/01 13:45:31  5-MIN KMSN 011945Z 21009KT 10SM OVC028 17/12 A2970 1070 69 1600 210/09 RMK AO2
14837KMSN MSN20011101135011411/01/01 13:50:31  5-MIN KMSN 011950Z 22008KT 10SM OVC028 17/12 A2970 1070 69 1600 220/08 RMK AO2 SLP057 T01720117
14837KMSN MSN20011101135511211/01/01 13:55:31  5-MIN KMSN 011955Z 23009KT 200V260 9SM OVC028 17/12 A2970 1070 69 1600 220/09 200V260 RMK AO2
14837KMSN MSN20011101140009711/01/01 14:00:31  5-MIN KMSN 012000Z 22006KT 10SM OVC028 17/12 A2970 1070 72 1600 220/06 RMK AO2
14837KMSN MSN20011101140511311/01/01 14:05:31  5-MIN KMSN 012005Z 22008KT 200V260 10SM BKN028 17/12 A2971 1060 72 1600 220/08 200V260 RMK AO2
14837KMSN MSN20011101141009711/01/01 14:10:31  5-MIN KMSN 012010Z 22010KT 10SM SCT028 17/12 A2970 1060 72 1600 220/10 RMK AO2
14837KMSN MSN20011101141509711/01/01 14:15:31  5-MIN KMSN 012015Z 22008KT 10SM SCT028 18/12 A2970 1060 69 1700 220/08 RMK AO2
14837KMSN MSN20011101142009711/01/01 14:20:31  5-MIN KMSN 012020Z 22010KT 10SM SCT028 17/12 A2970 1060 72 1600 220/10 RMK AO2
14837KMSN MSN20011101142510311/01/01 14:25:31  5-MIN KMSN 012025Z 22009G16KT 10SM SCT028 17/12 A2971 1060 69 1600 220/09G16 RMK AO2
14837KMSN MSN20011101143010311/01/01 14:30:31  5-MIN KMSN 012030Z 21011G16KT 10SM SCT028 17/12 A2971 1060 69 1600 210/11G16 RMK AO2
14837KMSN MSN20011101143509711/01/01 14:35:31  5-MIN KMSN 012035Z 21010KT 10SM SCT028 18/12 A2971 1060 67 1700 210/10 RMK AO2
14837KMSN MSN20011101144009711/01/01 14:40:31  5-MIN KMSN 012040Z 22009KT 10SM SCT028 18/12 A2971 1060 69 1700 220/09 RMK AO2
14837KMSN MSN20011101144509711/01/01 14:45:31  5-MIN KMSN 012045Z 23012KT 10SM SCT028 18/12 A2972 1050 69 1700 220/12 RMK AO2
14837KMSN MSN20011101145012011/01/01 14:50:31  5-MIN KMSN 012050Z 22010KT 10SM SCT028 18/12 A2972 1050 69 1700 220/10 RMK AO2 SLP062 T01780122 53004
14837KMSN MSN20011101145509611/01/01 14:55:31  5-MIN KMSN 012055Z 21010KT 9SM FEW028 18/12 A2972 1050 67 1700 210/10 RMK AO2
14837KMSN MSN20011101150009711/01/01 15:00:31  5-MIN KMSN 012100Z 23008KT 10SM SCT028 18/12 A2972 1050 69 1700 220/08 RMK AO2
14837KMSN MSN20011101150511311/01/01 15:05:31  5-MIN KMSN 012105Z 23007KT 190V260 10SM SCT028 18/12 A2972 1050 69 1700 230/07 190V260 RMK AO2
14837KMSN MSN20011101151009711/01/01 15:10:31  5-MIN KMSN 012110Z 22009KT 10SM SCT028 18/12 A2973 1040 69 1700 220/09 RMK AO2
14837KMSN MSN20011101151509711/01/01 15:15:31  5-MIN KMSN 012115Z 22008KT 10SM SCT028 18/12 A2973 1040 69 1600 220/08 RMK AO2
14837KMSN MSN20011101152009711/01/01 15:20:31  5-MIN KMSN 012120Z 22008KT 10SM SCT028 18/12 A2973 1040 69 1600 220/08 RMK AO2
14837KMSN MSN20011101152509711/01/01 15:25:31  5-MIN KMSN 012125Z 23005KT 10SM SCT028 18/12 A2974 1040 69 1600 230/05 RMK AO2
14837KMSN MSN20011101153009711/01/01 15:30:31  5-MIN KMSN 012130Z 22009KT 10SM BKN031 18/12 A2974 1030 69 1600 220/09 RMK AO2
14837KMSN MSN20011101153509611/01/01 15:35:31  5-MIN KMSN 012135Z 21008KT 9SM BKN031 18/12 A2974 1030 67 1700 210/08 RMK AO2
14837KMSN MSN20011101154009711/01/01 15:40:31  5-MIN KMSN 012140Z 21007KT 10SM SCT031 18/12 A2974 1030 67 1700 210/07 RMK AO2
14837KMSN MSN20011101154509711/01/01 15:45:31  5-MIN KMSN 012145Z 21007KT 10SM SCT031 18/12 A2974 1030 67 1700 210/07 RMK AO2
14837KMSN MSN20011101155011411/01/01 15:50:31  5-MIN KMSN 012150Z 20006KT 10SM FEW031 18/12 A2974 1030 69 1600 200/06 RMK AO2 SLP069 T01780122
14837KMSN MSN20011101155509711/01/01 15:55:31  5-MIN KMSN 012155Z VRB06KT 10SM FEW031 18/12 A2974 1030 69 1600 VRB/06 RMK AO2
14837KMSN MSN20011101160009711/01/01 16:00:31  5-MIN KMSN 012200Z VRB06KT 10SM FEW033 18/12 A2974 1030 69 1600 VRB/06 RMK AO2
14837KMSN MSN20011101160509311/01/01 16:05:31  5-MIN KMSN 012205Z VRB05KT 9SM CLR 18/12 A2974 1030 69 1600 VRB/05 RMK AO2
14837KMSN MSN20011101161009411/01/01 16:10:31  5-MIN KMSN 012210Z VRB05KT 10SM CLR 17/12 A2974 1030 72 1600 VRB/05 RMK AO2
14837KMSN MSN20011101161509411/01/01 16:15:31  5-MIN KMSN 012215Z VRB06KT 10SM CLR 18/12 A2974 1030 69 1600 VRB/06 RMK AO2
14837KMSN MSN20011101162009411/01/01 16:20:31  5-MIN KMSN 012220Z 20005KT 10SM CLR 18/12 A2974 1030 69 1600 200/05 RMK AO2
14837KMSN MSN20011101162509411/01/01 16:25:31  5-MIN KMSN 012225Z 21005KT 10SM CLR 17/12 A2974 1030 69 1600 210/05 RMK AO2
14837KMSN MSN20011101163009411/01/01 16:30:31  5-MIN KMSN 012230Z 21005KT 10SM CLR 17/12 A2975 1030 69 1600 210/05 RMK AO2
14837KMSN MSN20011101163509411/01/01 16:35:31  5-MIN KMSN 012235Z 21005KT 10SM CLR 17/12 A2975 1030 69 1600 210/05 RMK AO2
14837KMSN MSN20011101164009411/01/01 16:40:31  5-MIN KMSN 012240Z 21006KT 10SM CLR 17/12 A2975 1020 69 1600 210/06 RMK AO2
14837KMSN MSN20011101164509411/01/01 16:45:31  5-MIN KMSN 012245Z 20005KT 10SM CLR 17/12 A2975 1020 69 1600 200/05 RMK AO2
14837KMSN MSN20011101165011111/01/01 16:50:31  5-MIN KMSN 012250Z 20005KT 10SM CLR 17/12 A2975 1020 72 1500 200/05 RMK AO2 SLP074 T01670117
14837KMSN MSN20011101165509311/01/01 16:55:31  5-MIN KMSN 012255Z 20006KT 9SM CLR 17/12 A2975 1020 72 1500 200/06 RMK AO2
14837KMSN MSN20011101170009311/01/01 17:00:31  5-MIN KMSN 012300Z 21006KT 9SM CLR 17/12 A2976 1020 72 1500 200/06 RMK AO2
14837KMSN MSN20011101170509311/01/01 17:05:31  5-MIN KMSN 012305Z 20006KT 9SM CLR 17/12 A2976 1010 72 1500 200/06 RMK AO2
14837KMSN MSN20011101171009411/01/01 17:10:31  5-MIN KMSN 012310Z 21007KT 10SM CLR 17/12 A2976 1010 72 1500 210/07 RMK AO2
14837KMSN MSN20011101171509411/01/01 17:15:31  5-MIN KMSN 012315Z 20006KT 10SM CLR 17/12 A2976 1010 72 1500 200/06 RMK AO2
14837KMSN MSN20011101172009411/01/01 17:20:31  5-MIN KMSN 012320Z 20006KT 10SM CLR 17/12 A2976 1010 72 1500 200/06 RMK AO2
14837KMSN MSN20011101172509411/01/01 17:25:31  5-MIN KMSN 012325Z 20006KT 10SM CLR 17/12 A2976 1010 72 1500 200/06 RMK AO2
14837KMSN MSN20011101173009411/01/01 17:30:31  5-MIN KMSN 012330Z 20006KT 10SM CLR 17/12 A2976 1010 72 1500 200/06 RMK AO2
14837KMSN MSN20011101173509411/01/01 17:35:31  5-MIN KMSN 012335Z 20007KT 10SM CLR 17/12 A2977 1010 72 1500 200/07 RMK AO2
14837KMSN MSN20011101174009411/01/01 17:40:31  5-MIN KMSN 012340Z 19007KT 10SM CLR 17/12 A2977 1000 72 1500 190/07 RMK AO2
14837KMSN MSN20011101174509411/01/01 17:45:31  5-MIN KMSN 012345Z 20005KT 10SM CLR 16/12 A2977 1000 75 1400 190/05 RMK AO2
14837KMSN MSN20011101175012811/01/01 17:50:31  5-MIN KMSN 012350Z 19006KT 9SM CLR 16/12 A2977 1000 75 1400 190/06 RMK AO2 SLP082 T01610117 10183 20161 53003
14837KMSN MSN20011101175509311/01/01 17:55:31  5-MIN KMSN 012355Z 19005KT 9SM CLR 16/12 A2978 1000 75 1400 190/05 RMK AO2
14837KMSN MSN20011101180009311/01/01 18:00:31  5-MIN KMSN 020000Z 19006KT 10SM CLR 16/12 A2978 990 75 1400 190/06 RMK AO2
14837KMSN MSN20011101180509311/01/01 18:05:31  5-MIN KMSN 020005Z 19007KT 10SM CLR 16/12 A2978 990 75 1400 190/07 RMK AO2
14837KMSN MSN20011101181009411/01/01 18:10:31  5-MIN KMSN 020010Z 18006KT 10SM CLR 16/12 A2978 1000 77 1300 180/06 RMK AO2
14837KMSN MSN20011101181509311/01/01 18:15:31  5-MIN KMSN 020015Z 19007KT 10SM CLR 16/12 A2978 990 75 1400 180/07 RMK AO2
14837KMSN MSN20011101182009311/01/01 18:20:31  5-MIN KMSN 020020Z 19006KT 10SM CLR 16/12 A2978 990 77 1300 190/06 RMK AO2
14837KMSN MSN20011101182509311/01/01 18:25:31  5-MIN KMSN 020025Z 19006KT 10SM CLR 16/12 A2979 990 77 1300 190/06 RMK AO2
14837KMSN MSN20011101183009311/01/01 18:30:31  5-MIN KMSN 020030Z 20005KT 10SM CLR 16/12 A2979 990 75 1400 200/05 RMK AO2
14837KMSN MSN20011101183509311/01/01 18:35:31  5-MIN KMSN 020035Z 20006KT 10SM CLR 16/12 A2979 980 75 1400 200/06 RMK AO2
14837KMSN MSN20011101184009311/01/01 18:40:31  5-MIN KMSN 020040Z 20006KT 10SM CLR 16/12 A2979 980 75 1400 200/06 RMK AO2
14837KMSN MSN20011101184509311/01/01 18:45:31  5-MIN KMSN 020045Z 20007KT 10SM CLR 17/12 A2979 980 72 1400 200/07 RMK AO2
14837KMSN MSN20011101185011011/01/01 18:50:31  5-MIN KMSN 020050Z 20006KT 10SM CLR 16/12 A2979 980 75 1400 200/06 RMK AO2 SLP089 T01610117
14837KMSN MSN20011101185509311/01/01 18:55:31  5-MIN KMSN 020055Z 19007KT 10SM CLR 17/12 A2979 980 72 1400 190/07 RMK AO2
14837KMSN MSN20011101190009311/01/01 19:00:31  5-MIN KMSN 020100Z 20006KT 10SM CLR 16/12 A2979 980 75 1400 200/06 RMK AO2
14837KMSN MSN20011101190509311/01/01 19:05:31  5-MIN KMSN 020105Z 20006KT 10SM CLR 16/12 A2980 980 75 1400 190/06 RMK AO2
14837KMSN MSN20011101191009311/01/01 19:10:31  5-MIN KMSN 020110Z 20007KT 10SM CLR 16/12 A2980 980 75 1400 200/07 RMK AO2
14837KMSN MSN20011101191509311/01/01 19:15:31  5-MIN KMSN 020115Z 20006KT 10SM CLR 16/12 A2980 980 75 1400 190/06 RMK AO2
14837KMSN MSN20011101192009311/01/01 19:20:31  5-MIN KMSN 020120Z 20006KT 10SM CLR 16/12 A2980 980 75 1400 200/06 RMK AO2
14837KMSN MSN20011101192509311/01/01 19:25:31  5-MIN KMSN 020125Z 19007KT 10SM CLR 16/12 A2980 980 75 1400 190/07 RMK AO2
14837KMSN MSN20011101193009311/01/01 19:30:31  5-MIN KMSN 020130Z 20008KT 10SM CLR 16/12 A2980 980 77 1300 190/08 RMK AO2
14837KMSN MSN20011101193509311/01/01 19:35:31  5-MIN KMSN 020135Z 20007KT 10SM CLR 16/12 A2980 980 75 1400 200/07 RMK AO2
14837KMSN MSN20011101194009311/01/01 19:40:31  5-MIN KMSN 020140Z 20007KT 10SM CLR 16/12 A2980 980 75 1400 200/07 RMK AO2
14837KMSN MSN20011101194509311/01/01 19:45:31  5-MIN KMSN 020145Z 20005KT 10SM CLR 16/12 A2980 980 77 1300 200/05 RMK AO2
14837KMSN MSN20011101195011311/01/01 19:50:31  5-MIN KMSN 020150Z 20005KT 10SM FEW090 16/12 A2980 980 77 1300 200/05 RMK AO2 SLP090 T01560117
14837KMSN MSN20011101195509511/01/01 19:55:31  5-MIN KMSN 020155Z 20005KT 9SM FEW090 16/12 A2980 980 77 1300 200/05 RMK AO2
14837KMSN MSN20011101200009511/01/01 20:00:31  5-MIN KMSN 020200Z 20004KT 9SM FEW090 16/11 A2980 980 74 1300 200/04 RMK AO2
14837KMSN MSN20011101200509511/01/01 20:05:31  5-MIN KMSN 020205Z 19006KT 9SM FEW090 16/11 A2980 980 74 1300 190/06 RMK AO2
14837KMSN MSN20011101201009511/01/01 20:10:31  5-MIN KMSN 020210Z VRB04KT 9SM FEW090 15/11 A2980 970 77 1200 VRB/04 RMK AO2
14837KMSN MSN20011101201509511/01/01 20:15:31  5-MIN KMSN 020215Z VRB03KT 9SM FEW090 15/11 A2980 970 77 1200 VRB/03 RMK AO2
14837KMSN MSN20011101202009511/01/01 20:20:31  5-MIN KMSN 020220Z VRB03KT 9SM FEW090 16/11 A2980 970 74 1300 VRB/03 RMK AO2
14837KMSN MSN20011101202509611/01/01 20:25:31  5-MIN KMSN 020225Z 20004KT 10SM FEW090 15/11 A2980 970 77 1200 200/04 RMK AO2
14837KMSN MSN20011101203009611/01/01 20:30:31  5-MIN KMSN 020230Z 19006KT 10SM FEW090 15/11 A2980 970 77 1200 190/06 RMK AO2
14837KMSN MSN20011101203509311/01/01 20:35:31  5-MIN KMSN 020235Z 20004KT 10SM CLR 15/11 A2981 970 77 1200 200/04 RMK AO2
14837KMSN MSN20011101204009311/01/01 20:40:31  5-MIN KMSN 020240Z 19005KT 10SM CLR 15/11 A2981 970 77 1200 190/05 RMK AO2
14837KMSN MSN20011101204509311/01/01 20:45:31  5-MIN KMSN 020245Z 21004KT 10SM CLR 14/11 A2981 960 80 1200 210/04 RMK AO2
14837KMSN MSN20011101205011511/01/01 20:50:31  5-MIN KMSN 020250Z 21004KT 9SM CLR 14/11 A2981 960 80 1200 210/04 RMK AO2 SLP096 T01440111 53019
14837KMSN MSN20011101205509211/01/01 20:55:31  5-MIN KMSN 020255Z 21006KT 9SM CLR 14/11 A2982 960 80 1200 210/06 RMK AO2
14837KMSN MSN20011101210009311/01/01 21:00:31  5-MIN KMSN 020300Z 22005KT 10SM CLR 14/11 A2982 960 80 1200 220/05 RMK AO2
14837KMSN MSN20011101210509311/01/01 21:05:31  5-MIN KMSN 020305Z 22006KT 10SM CLR 14/11 A2983 950 80 1100 220/06 RMK AO2
14837KMSN MSN20011101211009311/01/01 21:10:31  5-MIN KMSN 020310Z 22005KT 10SM CLR 14/11 A2983 950 83 1100 220/05 RMK AO2
14837KMSN MSN20011101211509311/01/01 21:15:31  5-MIN KMSN 020315Z 22005KT 10SM CLR 13/11 A2983 950 83 1000 220/05 RMK AO2
14837KMSN MSN20011101212009311/01/01 21:20:31  5-MIN KMSN 020320Z 21005KT 10SM CLR 13/11 A2983 950 83 1000 210/05 RMK AO2
14837KMSN MSN20011101212509211/01/01 21:25:31  5-MIN KMSN 020325Z 23004KT 10SM CLR 13/11 A2983 940 86 900 230/04 RMK AO2
14837KMSN MSN20011101213009211/01/01 21:30:31  5-MIN KMSN 020330Z 22005KT 10SM CLR 13/11 A2984 940 86 900 220/05 RMK AO2
14837KMSN MSN20011101213509211/01/01 21:35:31  5-MIN KMSN 020335Z 22005KT 10SM CLR 13/11 A2984 940 86 900 220/05 RMK AO2
14837KMSN MSN20011101214009311/01/01 21:40:31  5-MIN KMSN 020340Z 21005KT 10SM CLR 13/11 A2984 940 83 1000 210/05 RMK AO2
14837KMSN MSN20011101214509311/01/01 21:45:31  5-MIN KMSN 020345Z 22004KT 10SM CLR 13/11 A2984 940 83 1000 210/04 RMK AO2
14837KMSN MSN20011101215011011/01/01 21:50:31  5-MIN KMSN 020350Z 21005KT 10SM CLR 14/11 A2983 940 80 1100 200/05 RMK AO2 SLP103 T01390106
14837KMSN MSN20011101215509311/01/01 21:55:31  5-MIN KMSN 020355Z 20004KT 10SM CLR 14/11 A2983 950 80 1100 190/04 RMK AO2
14837KMSN MSN20011101220009311/01/01 22:00:31  5-MIN KMSN 020400Z 21004KT 10SM CLR 14/11 A2983 940 80 1100 210/04 RMK AO2
14837KMSN MSN20011101220509111/01/01 22:05:31  5-MIN KMSN 020405Z 20003KT 9SM CLR 13/11 A2983 950 86 900 200/03 RMK AO2
14837KMSN MSN20011101221009211/01/01 22:10:31  5-MIN KMSN 020410Z 20005KT 9SM CLR 13/11 A2983 950 83 1000 200/05 RMK AO2
14837KMSN MSN20011101221509311/01/01 22:15:31  5-MIN KMSN 020415Z 21006KT 10SM CLR 14/11 A2983 950 80 1100 210/06 RMK AO2
14837KMSN MSN20011101222009311/01/01 22:20:31  5-MIN KMSN 020420Z 21005KT 10SM CLR 14/11 A2983 950 80 1100 200/05 RMK AO2
14837KMSN MSN20011101222509311/01/01 22:25:31  5-MIN KMSN 020425Z 20005KT 10SM CLR 14/11 A2983 950 80 1100 200/05 RMK AO2
14837KMSN MSN20011101223009311/01/01 22:30:31  5-MIN KMSN 020430Z 21005KT 10SM CLR 14/11 A2983 950 80 1100 210/05 RMK AO2
14837KMSN MSN20011101223509311/01/01 22:35:31  5-MIN KMSN 020435Z 21004KT 10SM CLR 13/10 A2983 950 80 1000 210/04 RMK AO2
14837KMSN MSN20011101224009211/01/01 22:40:31  5-MIN KMSN 020440Z 24004KT 10SM CLR 13/10 A2983 950 83 900 240/04 RMK AO2
14837KMSN MSN20011101224509211/01/01 22:45:31  5-MIN KMSN 020445Z VRB03KT 10SM CLR 13/10 A2983 940 83 900 VRB/03 RMK AO2
14837KMSN MSN20011101225010911/01/01 22:50:31  5-MIN KMSN 020450Z 00000KT 10SM CLR 12/09 A2984 940 86 800 000/00 RMK AO2 SLP104 T01170094
14837KMSN MSN20011101225509511/01/01 22:55:31  5-MIN KMSN 020455Z 00000KT 10SM FEW090 12/10 A2984 940 86 900 000/00 RMK AO2
14837KMSN MSN20011101230009511/01/01 23:00:31  5-MIN KMSN 020500Z 26003KT 10SM SCT090 13/10 A2984 940 83 900 260/03 RMK AO2
14837KMSN MSN20011101230509511/01/01 23:05:31  5-MIN KMSN 020505Z VRB04KT 10SM SCT090 13/10 A2984 940 83 900 VRB/04 RMK AO2
14837KMSN MSN20011101231009511/01/01 23:10:31  5-MIN KMSN 020510Z VRB03KT 10SM BKN095 13/10 A2984 940 83 900 VRB/03 RMK AO2
14837KMSN MSN20011101231509511/01/01 23:15:31  5-MIN KMSN 020515Z 00000KT 10SM BKN095 13/10 A2984 940 83 900 000/00 RMK AO2
14837KMSN MSN20011101232009511/01/01 23:20:31  5-MIN KMSN 020520Z 22003KT 10SM BKN095 13/10 A2984 940 83 900 220/03 RMK AO2
14837KMSN MSN20011101232509511/01/01 23:25:31  5-MIN KMSN 020525Z 21003KT 10SM SCT095 13/10 A2984 940 83 900 210/03 RMK AO2
14837KMSN MSN20011101233009511/01/01 23:30:31  5-MIN KMSN 020530Z 00000KT 10SM FEW095 12/10 A2984 940 86 900 000/00 RMK AO2
14837KMSN MSN20011101233509511/01/01 23:35:31  5-MIN KMSN 020535Z 00000KT 10SM FEW095 12/10 A2984 940 86 900 000/00 RMK AO2
14837KMSN MSN20011101234010211/01/01 23:40:31  5-MIN KMSN 020540Z VRB03KT 10SM FEW100 SCT120 12/09 A2984 940 83 900 VRB/03 RMK AO2
14837KMSN MSN20011101234510211/01/01 23:45:31  5-MIN KMSN 020545Z 23003KT 10SM SCT100 SCT120 12/09 A2984 940 83 900 230/03 RMK AO2
14837KMSN MSN20011101235014711/01/01 23:50:31  5-MIN KMSN 020550Z VRB03KT 10SM SCT100 BKN120 13/10 A2984 940 83 900 VRB/03 RMK AO2 SLP105 T01280100 10167 20117 401830117 53013
14837KMSN MSN20011101235509511/01/01 23:55:31  5-MIN KMSN 020555Z 00000KT 10SM BKN110 13/10 A2984 940 83 900 000/00 RMK AO2
14837KMSN MSN20011102000009511/02/01 00:00:31  5-MIN KMSN 020600Z 25003KT 10SM BKN110 12/10 A2984 940 86 900 240/03 RMK AO2
14837KMSN MSN20011102000509511/02/01 00:05:31  5-MIN KMSN 020605Z 00000KT 10SM BKN110 12/09 A2984 940 86 800 000/00 RMK AO2
14837KMSN MSN20011102001009511/02/01 00:10:31  5-MIN KMSN 020610Z VRB03KT 10SM BKN110 12/09 A2984 930 86 800 VRB/03 RMK AO2
14837KMSN MSN20011102001510211/02/01 00:15:31  5-MIN KMSN 020615Z VRB04KT 10SM FEW075 BKN110 12/09 A2985 930 86 800 VRB/04 RMK AO2
14837KMSN MSN20011102002010211/02/01 00:20:31  5-MIN KMSN 020620Z 28007KT 10SM SCT070 BKN120 13/09 A2985 930 80 900 280/07 RMK AO2
14837KMSN MSN20011102002510311/02/01 00:25:31  5-MIN KMSN 020625Z 28007KT 10SM BKN070 BKN120 13/08 A2985 930 71 1000 280/07 RMK AO2
14837KMSN MSN20011102003011011/02/01 00:30:31  5-MIN KMSN 020630Z 27006KT 10SM BKN070 BKN085 BKN120 13/08 A2985 930 71 1000 270/06 RMK AO2
14837KMSN MSN20011102003510311/02/01 00:35:31  5-MIN KMSN 020635Z 28006KT 10SM BKN075 OVC120 13/08 A2986 920 71 1000 280/06 RMK AO2
14837KMSN MSN20011102004009611/02/01 00:40:31  5-MIN KMSN 020640Z 28007KT 10SM OVC070 13/08 A2986 920 69 1000 280/07 RMK AO2
14837KMSN MSN20011102004509611/02/01 00:45:31  5-MIN KMSN 020645Z 28008KT 10SM OVC070 13/07 A2986 920 66 1000 280/08 RMK AO2
14837KMSN MSN20011102005012011/02/01 00:50:31  5-MIN KMSN 020650Z 29008KT 10SM BKN070 OVC090 13/07 A2986 920 64 1000 290/08 RMK AO2 SLP110 T01330067
14837KMSN MSN20011102005510311/02/01 00:55:31  5-MIN KMSN 020655Z 29008KT 10SM BKN070 OVC085 13/06 A2986 920 59 1000 290/08 RMK AO2
14837KMSN MSN20011102010010311/02/01 01:00:31  5-MIN KMSN 020700Z 29008KT 10SM BKN070 OVC090 13/06 A2987 920 59 1000 290/08 RMK AO2
14837KMSN MSN20011102010510311/02/01 01:05:31  5-MIN KMSN 020705Z 29007KT 10SM BKN070 OVC090 13/05 A2987 910 57 1000 290/07 RMK AO2
14837KMSN MSN20011102011010311/02/01 01:10:31  5-MIN KMSN 020710Z 28007KT 10SM BKN070 OVC090 13/05 A2987 910 57 1000 280/07 RMK AO2
14837KMSN MSN20011102011510211/02/01 01:15:31  5-MIN KMSN 020715Z 28007KT 10SM BKN070 OVC090 13/05 A2987 910 59 900 280/07 RMK AO2
14837KMSN MSN20011102012010211/02/01 01:20:31  5-MIN KMSN 020720Z 27008KT 10SM BKN075 OVC090 13/05 A2987 910 59 900 270/08 RMK AO2
14837KMSN MSN20011102012510211/02/01 01:25:31  5-MIN KMSN 020725Z 27007KT 10SM BKN075 OVC085 13/05 A2987 910 59 900 270/07 RMK AO2
14837KMSN MSN20011102013009511/02/01 01:30:31  5-MIN KMSN 020730Z 26005KT 10SM OVC075 12/05 A2988 900 61 800 260/05 RMK AO2
14837KMSN MSN20011102013510211/02/01 01:35:31  5-MIN KMSN 020735Z 26005KT 10SM BKN075 OVC085 12/05 A2988 900 61 800 260/05 RMK AO2
14837KMSN MSN20011102014009511/02/01 01:40:31  5-MIN KMSN 020740Z VRB03KT 10SM OVC080 12/05 A2988 900 61 800 VRB/03 RMK AO2
14837KMSN MSN20011102014509511/02/01 01:45:31  5-MIN KMSN 020745Z VRB03KT 10SM BKN080 12/05 A2988 900 63 800 VRB/03 RMK AO2
14837KMSN MSN20011102015011911/02/01 01:50:31  5-MIN KMSN 020750Z VRB04KT 10SM BKN080 BKN090 12/05 A2988 900 63 800 VRB/04 RMK AO2 SLP119 T01170050
14837KMSN MSN20011102015509511/02/01 01:55:31  5-MIN KMSN 020755Z VRB04KT 10SM SCT080 12/05 A2988 900 63 800 VRB/04 RMK AO2
14837KMSN MSN20011102020009511/02/01 02:00:31  5-MIN KMSN 020800Z 27004KT 10SM SCT085 12/05 A2988 900 63 800 270/04 RMK AO2
14837KMSN MSN20011102020509511/02/01 02:05:31  5-MIN KMSN 020805Z VRB04KT 10SM FEW090 11/05 A2988 900 66 700 VRB/04 RMK AO2
14837KMSN MSN20011102021009211/02/01 02:10:31  5-MIN KMSN 020810Z 28003KT 10SM CLR 11/04 A2988 900 63 700 280/03 RMK AO2
14837KMSN MSN20011102021509211/02/01 02:15:31  5-MIN KMSN 020815Z 28004KT 10SM CLR 11/04 A2988 900 66 600 280/04 RMK AO2
14837KMSN MSN20011102022009211/02/01 02:20:31  5-MIN KMSN 020820Z 28004KT 10SM CLR 11/04 A2988 900 66 600 280/04 RMK AO2
14837KMSN MSN20011102022509211/02/01 02:25:31  5-MIN KMSN 020825Z 28003KT 10SM CLR 11/04 A2988 900 66 600 280/03 RMK AO2
14837KMSN MSN20011102023009211/02/01 02:30:31  5-MIN KMSN 020830Z 28004KT 10SM CLR 11/04 A2988 900 66 600 270/04 RMK AO2
14837KMSN MSN20011102023509211/02/01 02:35:31  5-MIN KMSN 020835Z 00000KT 10SM CLR 10/04 A2988 900 68 600 000/00 RMK AO2
14837KMSN MSN20011102024009211/02/01 02:40:31  5-MIN KMSN 020840Z VRB03KT 10SM CLR 10/04 A2989 900 68 600 VRB/03 RMK AO2
14837KMSN MSN20011102024509211/02/01 02:45:31  5-MIN KMSN 020845Z 00000KT 10SM CLR 10/04 A2989 900 68 500 000/00 RMK AO2
14837KMSN MSN20011102025011511/02/01 02:50:31  5-MIN KMSN 020850Z VRB03KT 10SM CLR 10/04 A2989 890 65 500 VRB/03 RMK AO2 SLP121 T01000039 51007
14837KMSN MSN20011102025509211/02/01 02:55:31  5-MIN KMSN 020855Z VRB03KT 10SM CLR 10/04 A2989 890 65 500 VRB/03 RMK AO2
14837KMSN MSN20011102030009211/02/01 03:00:31  5-MIN KMSN 020900Z 00000KT 10SM CLR 10/04 A2989 890 65 500 000/00 RMK AO2
14837KMSN MSN20011102030509211/02/01 03:05:31  5-MIN KMSN 020905Z 00000KT 10SM CLR 09/04 A2989 890 68 500 000/00 RMK AO2
14837KMSN MSN20011102031009211/02/01 03:10:31  5-MIN KMSN 020910Z 00000KT 10SM CLR 09/04 A2989 890 68 500 000/00 RMK AO2
14837KMSN MSN20011102031509211/02/01 03:15:31  5-MIN KMSN 020915Z 00000KT 10SM CLR 09/04 A2989 890 71 400 000/00 RMK AO2
14837KMSN MSN20011102032009211/02/01 03:20:31  5-MIN KMSN 020920Z VRB03KT 10SM CLR 09/04 A2989 890 71 400 VRB/03 RMK AO2
14837KMSN MSN20011102032509211/02/01 03:25:31  5-MIN KMSN 020925Z 27003KT 10SM CLR 09/04 A2989 890 71 400 270/03 RMK AO2
14837KMSN MSN20011102033009211/02/01 03:30:31  5-MIN KMSN 020930Z 00000KT 10SM CLR 09/03 A2989 890 68 400 000/00 RMK AO2
14837KMSN MSN20011102033509211/02/01 03:35:31  5-MIN KMSN 020935Z 00000KT 10SM CLR 09/03 A2989 890 68 400 000/00 RMK AO2
14837KMSN MSN20011102034009211/02/01 03:40:31  5-MIN KMSN 020940Z 26004KT 10SM CLR 09/04 A2990 890 71 400 260/04 RMK AO2
14837KMSN MSN20011102034509211/02/01 03:45:31  5-MIN KMSN 020945Z VRB04KT 10SM CLR 09/03 A2990 890 68 400 VRB/04 RMK AO2
14837KMSN MSN20011102035010911/02/01 03:50:31  5-MIN KMSN 020950Z 26004KT 10SM CLR 09/03 A2990 880 68 400 250/04 RMK AO2 SLP126 T00890033
14837KMSN MSN20011102035509211/02/01 03:55:31  5-MIN KMSN 020955Z VRB04KT 10SM CLR 09/03 A2991 880 68 400 VRB/04 RMK AO2
14837KMSN MSN20011102040009211/02/01 04:00:31  5-MIN KMSN 021000Z 25005KT 10SM CLR 09/03 A2991 880 65 500 250/05 RMK AO2
14837KMSN MSN20011102040509211/02/01 04:05:31  5-MIN KMSN 021005Z 25005KT 10SM CLR 09/03 A2991 870 65 500 250/05 RMK AO2
14837KMSN MSN20011102041009211/02/01 04:10:31  5-MIN KMSN 021010Z 25004KT 10SM CLR 09/03 A2991 870 68 400 240/04 RMK AO2
14837KMSN MSN20011102041509211/02/01 04:15:31  5-MIN KMSN 021015Z VRB05KT 10SM CLR 09/03 A2992 870 68 400 VRB/05 RMK AO2
14837KMSN MSN20011102042009211/02/01 04:20:31  5-MIN KMSN 021020Z VRB04KT 10SM CLR 09/03 A2992 870 68 400 VRB/04 RMK AO2
14837KMSN MSN20011102042509211/02/01 04:25:31  5-MIN KMSN 021025Z VRB04KT 10SM CLR 09/03 A2992 860 68 400 VRB/04 RMK AO2
14837KMSN MSN20011102043009211/02/01 04:30:31  5-MIN KMSN 021030Z VRB04KT 10SM CLR 09/03 A2992 860 63 400 VRB/04 RMK AO2
14837KMSN MSN20011102043509211/02/01 04:35:31  5-MIN KMSN 021035Z VRB04KT 10SM CLR 09/03 A2992 860 63 400 VRB/04 RMK AO2
14837KMSN MSN20011102044009211/02/01 04:40:31  5-MIN KMSN 021040Z VRB04KT 10SM CLR 09/03 A2992 860 65 400 VRB/04 RMK AO2
14837KMSN MSN20011102044509211/02/01 04:45:31  5-MIN KMSN 021045Z VRB05KT 10SM CLR 09/03 A2993 860 65 400 VRB/05 RMK AO2
14837KMSN MSN20011102045010911/02/01 04:50:31  5-MIN KMSN 021050Z 24004KT 10SM CLR 08/03 A2993 860 68 300 240/04 RMK AO2 SLP137 T00830028
14837KMSN MSN20011102045509211/02/01 04:55:31  5-MIN KMSN 021055Z VRB04KT 10SM CLR 08/03 A2993 850 68 300 VRB/04 RMK AO2
14837KMSN MSN20011102050009211/02/01 05:00:31  5-MIN KMSN 021100Z 25004KT 10SM CLR 08/03 A2994 850 70 200 250/04 RMK AO2
14837KMSN MSN20011102050509211/02/01 05:05:31  5-MIN KMSN 021105Z VRB04KT 10SM CLR 08/02 A2994 850 68 200 VRB/04 RMK AO2
14837KMSN MSN20011102051009211/02/01 05:10:31  5-MIN KMSN 021110Z 26004KT 10SM CLR 08/02 A2994 850 68 200 260/04 RMK AO2
14837KMSN MSN20011102051509211/02/01 05:15:31  5-MIN KMSN 021115Z 27004KT 10SM CLR 08/02 A2994 840 68 200 270/04 RMK AO2
14837KMSN MSN20011102052009211/02/01 05:20:31  5-MIN KMSN 021120Z VRB05KT 10SM CLR 08/02 A2994 840 65 200 VRB/05 RMK AO2
14837KMSN MSN20011102052509211/02/01 05:25:31  5-MIN KMSN 021125Z 27005KT 10SM CLR 08/02 A2995 840 65 200 270/05 RMK AO2
14837KMSN MSN20011102053009211/02/01 05:30:31  5-MIN KMSN 021130Z 28005KT 10SM CLR 08/02 A2995 840 65 200 280/05 RMK AO2
14837KMSN MSN20011102053509211/02/01 05:35:31  5-MIN KMSN 021135Z VRB05KT 10SM CLR 08/02 A2995 840 65 200 VRB/05 RMK AO2
14837KMSN MSN20011102054009211/02/01 05:40:31  5-MIN KMSN 021140Z 26005KT 10SM CLR 08/01 A2995 840 60 300 260/05 RMK AO2
14837KMSN MSN20011102054509211/02/01 05:45:31  5-MIN KMSN 021145Z VRB06KT 10SM CLR 08/01 A2995 830 60 300 VRB/06 RMK AO2
14837KMSN MSN20011102055013311/02/01 05:50:31  5-MIN KMSN 021150Z 26006KT 10SM CLR 08/01 A2996 830 60 300 260/06 RMK AO2 SLP145 70001 T00830011 10139 20078 51017
14837KMSN MSN20011102055509211/02/01 05:55:31  5-MIN KMSN 021155Z 26005KT 10SM CLR 08/01 A2996 830 60 300 260/05 RMK AO2
14837KMSN MSN20011102060009211/02/01 06:00:31  5-MIN KMSN 021200Z 26005KT 10SM CLR 08/01 A2996 830 60 300 260/05 RMK AO2
14837KMSN MSN20011102060509211/02/01 06:05:31  5-MIN KMSN 021205Z VRB05KT 10SM CLR 08/01 A2996 830 60 300 VRB/05 RMK AO2
14837KMSN MSN20011102061009211/02/01 06:10:31  5-MIN KMSN 021210Z 26005KT 10SM CLR 09/01 A2996 830 58 300 260/05 RMK AO2
14837KMSN MSN20011102061509211/02/01 06:15:31  5-MIN KMSN 021215Z 26005KT 10SM CLR 08/01 A2996 830 60 300 260/05 RMK AO2
14837KMSN MSN20011102062009211/02/01 06:20:31  5-MIN KMSN 021220Z VRB05KT 10SM CLR 08/01 A2996 830 60 300 VRB/05 RMK AO2
14837KMSN MSN20011102062509211/02/01 06:25:31  5-MIN KMSN 021225Z 27006KT 10SM CLR 08/01 A2996 820 58 300 270/06 RMK AO2
14837KMSN MSN20011102063009211/02/01 06:30:31  5-MIN KMSN 021230Z VRB06KT 10SM CLR 08/01 A2996 820 58 300 VRB/06 RMK AO2
14837KMSN MSN20011102063509211/02/01 06:35:31  5-MIN KMSN 021235Z 27005KT 10SM CLR 08/01 A2996 820 58 300 270/05 RMK AO2
14837KMSN MSN20011102064009211/02/01 06:40:31  5-MIN KMSN 021240Z 26004KT 10SM CLR 08/01 A2997 820 58 300 260/04 RMK AO2
14837KMSN MSN20011102064509211/02/01 06:45:31  5-MIN KMSN 021245Z 26005KT 10SM CLR 08/01 A2997 820 58 300 260/05 RMK AO2
14837KMSN MSN20011102065010911/02/01 06:50:31  5-MIN KMSN 021250Z VRB05KT 10SM CLR 08/01 A2997 820 60 200 VRB/05 RMK AO2 SLP149 T00780006
14837KMSN MSN20011102065509211/02/01 06:55:31  5-MIN KMSN 021255Z 24005KT 10SM CLR 08/01 A2997 820 58 300 240/05 RMK AO2
14837KMSN MSN20011102070009211/02/01 07:00:31  5-MIN KMSN 021300Z VRB05KT 10SM CLR 08/01 A2997 820 60 200 VRB/05 RMK AO2
14837KMSN MSN20011102070509211/02/01 07:05:31  5-MIN KMSN 021305Z 25005KT 10SM CLR 08/01 A2997 820 58 300 250/05 RMK AO2
14837KMSN MSN20011102071009211/02/01 07:10:31  5-MIN KMSN 021310Z VRB04KT 10SM CLR 08/01 A2998 810 58 200 VRB/04 RMK AO2
14837KMSN MSN20011102071509211/02/01 07:15:31  5-MIN KMSN 021315Z VRB04KT 10SM CLR 08/01 A2998 810 58 200 VRB/04 RMK AO2
14837KMSN MSN20011102072009211/02/01 07:20:31  5-MIN KMSN 021320Z VRB04KT 10SM CLR 08/01 A2998 810 60 200 VRB/04 RMK AO2
14837KMSN MSN20011102072509211/02/01 07:25:31  5-MIN KMSN 021325Z 25005KT 10SM CLR 08/01 A2998 810 58 200 240/05 RMK AO2
14837KMSN MSN20011102073009211/02/01 07:30:31  5-MIN KMSN 021330Z 24004KT 10SM CLR 09/01 A2998 810 56 300 240/04 RMK AO2
14837KMSN MSN20011102073509211/02/01 07:35:31  5-MIN KMSN 021335Z VRB04KT 10SM CLR 09/01 A2999 800 58 300 VRB/04 RMK AO2
14837KMSN MSN20011102074009211/02/01 07:40:31  5-MIN KMSN 021340Z 23006KT 10SM CLR 09/01 A2999 800 56 300 230/06 RMK AO2
14837KMSN MSN20011102074509211/02/01 07:45:31  5-MIN KMSN 021345Z VRB05KT 10SM CLR 09/01 A2999 800 53 400 VRB/05 RMK AO2
14837KMSN MSN20011102075010911/02/01 07:50:31  5-MIN KMSN 021350Z VRB04KT 10SM CLR 09/01 A2999 800 56 400 VRB/04 RMK AO2 SLP157 T00940011
14837KMSN MSN20011102075509211/02/01 07:55:31  5-MIN KMSN 021355Z 24004KT 10SM CLR 09/01 A2999 800 56 400 240/04 RMK AO2
14837KMSN MSN20011102080009211/02/01 08:00:31  5-MIN KMSN 021400Z VRB05KT 10SM CLR 10/01 A2999 800 54 400 VRB/05 RMK AO2
14837KMSN MSN20011102080509211/02/01 08:05:31  5-MIN KMSN 021405Z 22005KT 10SM CLR 10/01 A2999 800 54 400 220/05 RMK AO2
14837KMSN MSN20011102081009211/02/01 08:10:31  5-MIN KMSN 021410Z VRB06KT 10SM CLR 11/01 A3000 790 52 500 VRB/06 RMK AO2
14837KMSN MSN20011102081509211/02/01 08:15:31  5-MIN KMSN 021415Z 24006KT 10SM CLR 11/01 A3000 790 50 500 240/06 RMK AO2
14837KMSN MSN20011102082009211/02/01 08:20:31  5-MIN KMSN 021420Z VRB06KT 10SM CLR 11/01 A3000 790 50 500 VRB/06 RMK AO2
14837KMSN MSN20011102082509211/02/01 08:25:31  5-MIN KMSN 021425Z 24007KT 10SM CLR 11/01 A3000 790 50 500 240/07 RMK AO2
14837KMSN MSN20011102083009211/02/01 08:30:31  5-MIN KMSN 021430Z 26007KT 10SM CLR 11/01 A3000 790 50 500 260/07 RMK AO2
14837KMSN MSN20011102083510811/02/01 08:35:31  5-MIN KMSN 021435Z 25008KT 210V290 10SM CLR 11/00 A3000 790 46 500 250/08 210V290 RMK AO2
14837KMSN MSN20011102084009211/02/01 08:40:31  5-MIN KMSN 021440Z VRB04KT 10SM CLR 11/01 A3001 790 48 500 VRB/04 RMK AO2
14837KMSN MSN20011102084509211/02/01 08:45:31  5-MIN KMSN 021445Z VRB04KT 10SM CLR 11/01 A3001 780 50 500 VRB/04 RMK AO2
14837KMSN MSN20011102085011511/02/01 08:50:31  5-MIN KMSN 021450Z VRB06KT 10SM CLR 12/01 A3001 780 46 600 VRB/06 RMK AO2 SLP162 T01170006 53023
14837KMSN MSN20011102085509211/02/01 08:55:31  5-MIN KMSN 021455Z VRB06KT 10SM CLR 12/01 A3001 780 46 600 VRB/06 RMK AO2
14837KMSN MSN20011102090009211/02/01 09:00:31  5-MIN KMSN 021500Z 26007KT 10SM CLR 12/01 A3001 780 48 600 260/07 RMK AO2
14837KMSN MSN20011102090509211/02/01 09:05:31  5-MIN KMSN 021505Z 26010KT 10SM CLR 12/00 A3002 780 44 600 260/10 RMK AO2
14837KMSN MSN20011102091009211/02/01 09:10:31  5-MIN KMSN 021510Z 26010KT 10SM CLR 12/01 A3001 780 44 700 260/10 RMK AO2
14837KMSN MSN20011102091509211/02/01 09:15:31  5-MIN KMSN 021515Z 26009KT 10SM CLR 12/00 A3002 780 43 700 260/09 RMK AO2
14837KMSN MSN20011102092009811/02/01 09:20:31  5-MIN KMSN 021520Z 27011G15KT 10SM CLR 12/00 A3002 780 43 700 260/11G15 RMK AO2
14837KMSN MSN20011102092509911/02/01 09:25:31  5-MIN KMSN 021525Z 27009G15KT 10SM CLR 12/M01 A3002 770 41 700 270/09G15 RMK AO2
14837KMSN MSN20011102093009911/02/01 09:30:31  5-MIN KMSN 021530Z 27011G17KT 10SM CLR 12/M01 A3002 770 41 700 270/11G17 RMK AO2
14837KMSN MSN20011102093509911/02/01 09:35:31  5-MIN KMSN 021535Z 27009G17KT 10SM CLR 13/M01 A3002 770 39 700 270/09G17 RMK AO2
14837KMSN MSN20011102094009911/02/01 09:40:31  5-MIN KMSN 021540Z 27010G16KT 10SM CLR 13/M01 A3003 770 39 700 270/10G16 RMK AO2
14837KMSN MSN20011102094509911/02/01 09:45:31  5-MIN KMSN 021545Z 27009G16KT 10SM CLR 13/M01 A3003 770 39 700 270/09G16 RMK AO2
14837KMSN MSN20011102095011611/02/01 09:50:31  5-MIN KMSN 021550Z 27011G16KT 10SM CLR 13/M01 A3003 770 39 700 270/11G16 RMK AO2 SLP168 T01281006
14837KMSN MSN20011102095509911/02/01 09:55:31  5-MIN KMSN 021555Z 28009G16KT 10SM CLR 13/M01 A3003 770 38 800 270/09G16 RMK AO2
14837KMSN MSN20011102100009911/02/01 10:00:31  5-MIN KMSN 021600Z 27011G16KT 10SM CLR 13/M01 A3003 770 38 800 270/11G16 RMK AO2
14837KMSN MSN20011102100509911/02/01 10:05:31  5-MIN KMSN 021605Z 28011G16KT 10SM CLR 13/M01 A3003 760 38 800 280/11G16 RMK AO2
14837KMSN MSN20011102101009811/02/01 10:10:31  5-MIN KMSN 021610Z 27010G16KT 10SM CLR 13/00 A3003 760 40 800 270/10G16 RMK AO2
14837KMSN MSN20011102101509211/02/01 10:15:31  5-MIN KMSN 021615Z 26010KT 10SM CLR 13/00 A3003 760 40 800 260/10 RMK AO2
14837KMSN MSN20011102102009811/02/01 10:20:31  5-MIN KMSN 021620Z 27007G15KT 10SM CLR 13/00 A3003 760 40 800 270/07G15 RMK AO2
14837KMSN MSN20011102102510811/02/01 10:25:31  5-MIN KMSN 021625Z 28008KT 230V290 10SM CLR 14/01 A3003 760 40 800 270/08 230V290 RMK AO2
14837KMSN MSN20011102103010811/02/01 10:30:31  5-MIN KMSN 021630Z 26008KT 230V300 10SM CLR 14/01 A3003 760 40 800 260/08 230V300 RMK AO2
14837KMSN MSN20011102103509811/02/01 10:35:31  5-MIN KMSN 021635Z 29010G18KT 10SM CLR 14/00 A3003 760 38 800 280/10G18 RMK AO2
14837KMSN MSN20011102104009811/02/01 10:40:31  5-MIN KMSN 021640Z 26008G18KT 10SM CLR 14/00 A3003 760 37 900 260/08G18 RMK AO2
14837KMSN MSN20011102104511411/02/01 10:45:31  5-MIN KMSN 021645Z 26010G15KT 220V290 10SM CLR 14/00 A3004 760 37 900 260/10G15 220V290 RMK AO2
14837KMSN MSN20011102105011511/02/01 10:50:31  5-MIN KMSN 021650Z 28010G15KT 10SM CLR 14/00 A3004 760 37 900 280/10G15 RMK AO2 SLP172 T01440000
14837KMSN MSN20011102105509811/02/01 10:55:31  5-MIN KMSN 021655Z 26010G17KT 10SM CLR 14/00 A3004 750 37 900 260/10G17 RMK AO2
14837KMSN MSN20011102110011411/02/01 11:00:31  5-MIN KMSN 021700Z 27009G17KT 240V300 10SM CLR 14/00 A3004 750 37 900 270/09G17 240V300 RMK AO2
14837KMSN MSN20011102110509811/02/01 11:05:31  5-MIN KMSN 021705Z 27013G18KT 10SM CLR 14/00 A3004 750 37 900 270/13G18 RMK AO2
14837KMSN MSN20011102111011511/02/01 11:10:31  5-MIN KMSN 021710Z 26010G19KT 220V300 10SM CLR 14/M01 A3004 760 35 900 260/10G19 220V300 RMK AO2
14837KMSN MSN20011102204509411/02/01 20:45:31  5-MIN KMSN 030245Z 23003KT 10SM CLR 07/M02 A3021 600 51 -100 230/03 RMK AO2
14837KMSN MSN20011102205011411/02/01 20:50:31  5-MIN KMSN 030250Z 23003KT 10SM CLR 08/M02 A3021 600 49 0 220/03 RMK AO2 SLP233 T00781022 53028
14837KMSN MSN20011102205509411/02/01 20:55:31  5-MIN KMSN 030255Z 22004KT 10SM CLR 07/M02 A3021 590 53 -100 220/04 RMK AO2
14837KMSN MSN20011102210009411/02/01 21:00:31  5-MIN KMSN 030300Z 23004KT 10SM CLR 07/M01 A3022 590 55 -100 230/04 RMK AO2
14837KMSN MSN20011102210509411/02/01 21:05:31  5-MIN KMSN 030305Z 23003KT 10SM CLR 07/M01 A3022 590 55 -100 230/03 RMK AO2
14837KMSN MSN20011102211009411/02/01 21:10:31  5-MIN KMSN 030310Z 23004KT 10SM CLR 07/M01 A3022 590 55 -100 230/04 RMK AO2
14837KMSN MSN20011102211509411/02/01 21:15:31  5-MIN KMSN 030315Z 24004KT 10SM CLR 07/M01 A3022 590 55 -100 240/04 RMK AO2
14837KMSN MSN20011102212009411/02/01 21:20:31  5-MIN KMSN 030320Z 24003KT 10SM CLR 07/M01 A3022 590 55 -100 240/03 RMK AO2
14837KMSN MSN20011102212509411/02/01 21:25:31  5-MIN KMSN 030325Z VRB03KT 10SM CLR 07/M02 A3022 590 53 -100 VRB/03 RMK AO2
14837KMSN MSN20011102213009411/02/01 21:30:31  5-MIN KMSN 030330Z 23004KT 10SM CLR 08/M02 A3022 590 51 -100 230/04 RMK AO2
14837KMSN MSN20011102213509411/02/01 21:35:31  5-MIN KMSN 030335Z 23004KT 10SM CLR 08/M01 A3022 590 53 -100 230/04 RMK AO2
14837KMSN MSN20011102214009411/02/01 21:40:31  5-MIN KMSN 030340Z 24004KT 10SM CLR 08/M01 A3022 580 53 -100 240/04 RMK AO2
14837KMSN MSN20011102214509411/02/01 21:45:31  5-MIN KMSN 030345Z VRB03KT 10SM CLR 08/M02 A3023 580 51 -100 VRB/03 RMK AO2
14837KMSN MSN20011102215011111/02/01 21:50:31  5-MIN KMSN 030350Z 00000KT 10SM CLR 07/M02 A3023 580 51 -100 000/00 RMK AO2 SLP239 T00721022
14837KMSN MSN20011102215509411/02/01 21:55:31  5-MIN KMSN 030355Z 25003KT 10SM CLR 07/M02 A3023 580 51 -100 250/03 RMK AO2
14837KMSN MSN20011102220009411/02/01 22:00:31  5-MIN KMSN 030400Z 24003KT 10SM CLR 08/M02 A3023 580 49 -100 240/03 RMK AO2
14837KMSN MSN20011102220509411/02/01 22:05:31  5-MIN KMSN 030405Z VRB03KT 10SM CLR 07/M02 A3023 580 51 -100 VRB/03 RMK AO2
14837KMSN MSN20011102221009411/02/01 22:10:31  5-MIN KMSN 030410Z VRB03KT 10SM CLR 07/M02 A3023 580 51 -100 VRB/03 RMK AO2
14837KMSN MSN20011102221509411/02/01 22:15:31  5-MIN KMSN 030415Z 25004KT 10SM CLR 08/M02 A3024 570 49 -100 250/04 RMK AO2
14837KMSN MSN20011102222009411/02/01 22:20:31  5-MIN KMSN 030420Z 25004KT 10SM CLR 08/M03 A3024 570 47 -100 250/04 RMK AO2
14837KMSN MSN20011102222509111/02/01 22:25:31  5-MIN KMSN 030425Z 26005KT 10SM CLR 08/M03 A3024 570 45 0 260/05 RMK AO2
14837KMSN MSN20011102223009411/02/01 22:30:31  5-MIN KMSN 030430Z VRB05KT 10SM CLR 08/M03 A3024 570 47 -100 VRB/05 RMK AO2
14837KMSN MSN20011102223509111/02/01 22:35:31  5-MIN KMSN 030435Z VRB04KT 10SM CLR 08/M03 A3024 570 43 0 VRB/04 RMK AO2
14837KMSN MSN20011102224009111/02/01 22:40:31  5-MIN KMSN 030440Z VRB05KT 10SM CLR 08/M03 A3024 570 43 0 VRB/05 RMK AO2
14837KMSN MSN20011102224509411/02/01 22:45:31  5-MIN KMSN 030445Z VRB04KT 10SM CLR 08/M03 A3024 570 45 -100 VRB/04 RMK AO2
14837KMSN MSN20011102225011111/02/01 22:50:31  5-MIN KMSN 030450Z VRB03KT 10SM CLR 08/M04 A3024 570 43 -100 VRB/03 RMK AO2 SLP244 T00781039
14837KMSN MSN20011102225509411/02/01 22:55:31  5-MIN KMSN 030455Z VRB04KT 10SM CLR 07/M03 A3025 560 47 -100 VRB/04 RMK AO2
14837KMSN MSN20011102230009411/02/01 23:00:31  5-MIN KMSN 030500Z VRB04KT 10SM CLR 08/M03 A3025 560 45 -100 VRB/04 RMK AO2
14837KMSN MSN20011102230509411/02/01 23:05:31  5-MIN KMSN 030505Z VRB03KT 10SM CLR 08/M03 A3025 560 45 -100 VRB/03 RMK AO2
14837KMSN MSN20011102231009411/02/01 23:10:31  5-MIN KMSN 030510Z VRB03KT 10SM CLR 07/M03 A3025 560 47 -100 VRB/03 RMK AO2
14837KMSN MSN20011102231509411/02/01 23:15:31  5-MIN KMSN 030515Z VRB04KT 10SM CLR 07/M03 A3025 560 47 -100 VRB/04 RMK AO2
14837KMSN MSN20011102232009411/02/01 23:20:31  5-MIN KMSN 030520Z VRB04KT 10SM CLR 07/M03 A3025 560 47 -100 VRB/04 RMK AO2
14837KMSN MSN20011102232509411/02/01 23:25:31  5-MIN KMSN 030525Z VRB04KT 10SM CLR 08/M04 A3025 560 43 -100 VRB/04 RMK AO2
14837KMSN MSN20011102233009411/02/01 23:30:31  5-MIN KMSN 030530Z 27006KT 10SM CLR 07/M04 A3025 560 45 -200 270/06 RMK AO2
14837KMSN MSN20011102233509411/02/01 23:35:31  5-MIN KMSN 030535Z 27004KT 10SM CLR 08/M04 A3025 560 43 -100 270/04 RMK AO2
14837KMSN MSN20011102234009411/02/01 23:40:31  5-MIN KMSN 030540Z 26005KT 10SM CLR 08/M03 A3025 560 45 -100 260/05 RMK AO2
14837KMSN MSN20011102234509411/02/01 23:45:31  5-MIN KMSN 030545Z VRB04KT 10SM CLR 08/M03 A3025 560 45 -100 VRB/04 RMK AO2
14837KMSN MSN20011102235013911/02/01 23:50:31  5-MIN KMSN 030550Z VRB04KT 10SM CLR 07/M04 A3026 560 45 -200 VRB/04 RMK AO2 SLP249 T00721039 10117 20067 401610067 53023
14837KMSN MSN20011102235509411/02/01 23:55:31  5-MIN KMSN 030555Z 26004KT 10SM CLR 07/M04 A3026 550 45 -200 260/04 RMK AO2
14837KMSN MSN20011103000009411/03/01 00:00:31  5-MIN KMSN 030600Z 27004KT 10SM CLR 07/M04 A3026 550 47 -200 270/04 RMK AO2
14837KMSN MSN20011103000509411/03/01 00:05:31  5-MIN KMSN 030605Z 27003KT 10SM CLR 07/M04 A3026 550 45 -200 270/03 RMK AO2
14837KMSN MSN20011103001009411/03/01 00:10:31  5-MIN KMSN 030610Z VRB03KT 10SM CLR 07/M04 A3026 550 47 -200 VRB/03 RMK AO2
14837KMSN MSN20011103001509411/03/01 00:15:31  5-MIN KMSN 030615Z 27003KT 10SM CLR 07/M04 A3026 550 47 -200 270/03 RMK AO2
14837KMSN MSN20011103002009411/03/01 00:20:31  5-MIN KMSN 030620Z VRB03KT 10SM CLR 06/M04 A3027 550 48 -300 VRB/03 RMK AO2
14837KMSN MSN20011103002509411/03/01 00:25:31  5-MIN KMSN 030625Z VRB04KT 10SM CLR 07/M03 A3027 550 49 -200 VRB/04 RMK AO2
14837KMSN MSN20011103003009411/03/01 00:30:31  5-MIN KMSN 030630Z VRB04KT 10SM CLR 06/M04 A3027 550 48 -300 VRB/04 RMK AO2
14837KMSN MSN20011103003509411/03/01 00:35:31  5-MIN KMSN 030635Z VRB03KT 10SM CLR 06/M03 A3027 550 51 -300 VRB/03 RMK AO2
14837KMSN MSN20011103004009411/03/01 00:40:31  5-MIN KMSN 030640Z 29003KT 10SM CLR 07/M03 A3027 540 49 -200 290/03 RMK AO2
14837KMSN MSN20011103004509411/03/01 00:45:31  5-MIN KMSN 030645Z 29004KT 10SM CLR 06/M04 A3027 540 48 -300 290/04 RMK AO2
14837KMSN MSN20011103005011111/03/01 00:50:31  5-MIN KMSN 030650Z 29004KT 10SM CLR 07/M04 A3027 540 45 -200 290/04 RMK AO2 SLP254 T00721039
14837KMSN MSN20011103005509411/03/01 00:55:31  5-MIN KMSN 030655Z VRB04KT 10SM CLR 07/M03 A3027 540 49 -200 VRB/04 RMK AO2
14837KMSN MSN20011103010009411/03/01 01:00:31  5-MIN KMSN 030700Z 28004KT 10SM CLR 07/M04 A3027 540 47 -200 280/04 RMK AO2
14837KMSN MSN20011103010509411/03/01 01:05:31  5-MIN KMSN 030705Z 29005KT 10SM CLR 07/M04 A3027 540 47 -200 290/05 RMK AO2
14837KMSN MSN20011103011009411/03/01 01:10:31  5-MIN KMSN 030710Z 29005KT 10SM CLR 07/M04 A3028 540 45 -200 290/05 RMK AO2
14837KMSN MSN20011103011509411/03/01 01:15:31  5-MIN KMSN 030715Z 29005KT 10SM CLR 08/M04 A3028 540 43 -100 290/05 RMK AO2
14837KMSN MSN20011103012009411/03/01 01:20:31  5-MIN KMSN 030720Z 29005KT 10SM CLR 07/M04 A3028 530 45 -200 290/05 RMK AO2
14837KMSN MSN20011103012509411/03/01 01:25:31  5-MIN KMSN 030725Z 29004KT 10SM CLR 07/M04 A3028 530 45 -200 290/04 RMK AO2
14837KMSN MSN20011103013009411/03/01 01:30:31  5-MIN KMSN 030730Z 28004KT 10SM CLR 07/M04 A3028 530 45 -200 280/04 RMK AO2
14837KMSN MSN20011103013509411/03/01 01:35:31  5-MIN KMSN 030735Z 30003KT 10SM CLR 06/M04 A3028 530 48 -300 300/03 RMK AO2
14837KMSN MSN20011103014009411/03/01 01:40:31  5-MIN KMSN 030740Z VRB03KT 10SM CLR 06/M03 A3028 530 51 -300 VRB/03 RMK AO2
14837KMSN MSN20011103014509411/03/01 01:45:31  5-MIN KMSN 030745Z 00000KT 10SM CLR 06/M03 A3029 530 51 -300 000/00 RMK AO2
14837KMSN MSN20011103015011111/03/01 01:50:31  5-MIN KMSN 030750Z 00000KT 10SM CLR 06/M03 A3029 530 51 -300 000/00 RMK AO2 SLP260 T00611033
14837KMSN MSN20011103015509411/03/01 01:55:31  5-MIN KMSN 030755Z 00000KT 10SM CLR 06/M03 A3029 530 53 -400 000/00 RMK AO2
14837KMSN MSN20011103020009411/03/01 02:00:31  5-MIN KMSN 030800Z 00000KT 10SM CLR 04/M03 A3029 530 57 -500 000/00 RMK AO2
14837KMSN MSN20011103020509411/03/01 02:05:31  5-MIN KMSN 030805Z 00000KT 10SM CLR 03/M03 A3029 520 61 -700 000/00 RMK AO2
14837KMSN MSN20011103021009411/03/01 02:10:31  5-MIN KMSN 030810Z 00000KT 10SM CLR 03/M03 A3029 520 64 -700 000/00 RMK AO2
14837KMSN MSN20011103021509411/03/01 02:15:31  5-MIN KMSN 030815Z 00000KT 10SM CLR 02/M03 A3029 520 67 -800 000/00 RMK AO2
14837KMSN MSN20011103022009411/03/01 02:20:31  5-MIN KMSN 030820Z 00000KT 10SM CLR 03/M03 A3029 520 64 -700 000/00 RMK AO2
14837KMSN MSN20011103022509411/03/01 02:25:31  5-MIN KMSN 030825Z 00000KT 10SM CLR 03/M03 A3030 520 61 -700 000/00 RMK AO2
14837KMSN MSN20011103023009411/03/01 02:30:31  5-MIN KMSN 030830Z 00000KT 10SM CLR 03/M03 A3030 520 64 -800 000/00 RMK AO2
14837KMSN MSN20011103023509411/03/01 02:35:31  5-MIN KMSN 030835Z 00000KT 10SM CLR 02/M03 A3030 520 67 -800 000/00 RMK AO2
14837KMSN MSN20011103024009411/03/01 02:40:31  5-MIN KMSN 030840Z 00000KT 10SM CLR 02/M03 A3030 520 69 -900 000/00 RMK AO2
14837KMSN MSN20011103024509511/03/01 02:45:31  5-MIN KMSN 030845Z 00000KT 10SM CLR 01/M03 A3030 520 72 -1000 000/00 RMK AO2
14837KMSN MSN20011103025011811/03/01 02:50:31  5-MIN KMSN 030850Z 00000KT 10SM CLR 01/M03 A3030 510 72 -1000 000/00 RMK AO2 SLP265 T00111033 51015
14837KMSN MSN20011103025509411/03/01 02:55:31  5-MIN KMSN 030855Z 00000KT 10SM CLR 02/M03 A3030 510 69 -900 000/00 RMK AO2
14837KMSN MSN20011103030009411/03/01 03:00:31  5-MIN KMSN 030900Z 00000KT 10SM CLR 02/M03 A3030 510 69 -900 000/00 RMK AO2
14837KMSN MSN20011103030509411/03/01 03:05:31  5-MIN KMSN 030905Z 00000KT 10SM CLR 02/M03 A3031 510 69 -900 000/00 RMK AO2
14837KMSN MSN20011103031009511/03/01 03:10:31  5-MIN KMSN 030910Z 00000KT 10SM CLR 01/M03 A3031 510 72 -1000 000/00 RMK AO2
14837KMSN MSN20011103031509511/03/01 03:15:31  5-MIN KMSN 030915Z 09003KT 10SM CLR 01/M04 A3031 510 69 -1000 080/03 RMK AO2
14837KMSN MSN20011103032009511/03/01 03:20:31  5-MIN KMSN 030920Z 00000KT 10SM CLR 01/M04 A3031 510 69 -1000 000/00 RMK AO2
14837KMSN MSN20011103032509511/03/01 03:25:31  5-MIN KMSN 030925Z 00000KT 10SM CLR 01/M03 A3031 510 72 -1000 000/00 RMK AO2
14837KMSN MSN20011103033009411/03/01 03:30:31  5-MIN KMSN 030930Z 00000KT 10SM CLR 02/M03 A3031 500 69 -900 000/00 RMK AO2
14837KMSN MSN20011103033509411/03/01 03:35:31  5-MIN KMSN 030935Z 00000KT 10SM CLR 02/M03 A3031 500 69 -900 000/00 RMK AO2
14837KMSN MSN20011103034009411/03/01 03:40:31  5-MIN KMSN 030940Z 00000KT 10SM CLR 02/M03 A3032 500 69 -900 000/00 RMK AO2
14837KMSN MSN20011103034509411/03/01 03:45:31  5-MIN KMSN 030945Z 00000KT 10SM CLR 02/M03 A3032 500 69 -900 000/00 RMK AO2
14837KMSN MSN20011103035011211/03/01 03:50:31  5-MIN KMSN 030950Z 00000KT 10SM CLR 01/M03 A3032 500 72 -1000 000/00 RMK AO2 SLP272 T00111033
14837KMSN MSN20011103035509511/03/01 03:55:31  5-MIN KMSN 030955Z 00000KT 10SM CLR 01/M03 A3032 500 72 -1000 000/00 RMK AO2
14837KMSN MSN20011103040009511/03/01 04:00:31  5-MIN KMSN 031000Z 00000KT 10SM CLR 01/M03 A3032 500 72 -1000 000/00 RMK AO2
14837KMSN MSN20011103040509511/03/01 04:05:31  5-MIN KMSN 031005Z 00000KT 10SM CLR 01/M03 A3032 500 72 -1000 000/00 RMK AO2
14837KMSN MSN20011103041009511/03/01 04:10:31  5-MIN KMSN 031010Z 00000KT 10SM CLR 01/M03 A3032 500 75 -1000 000/00 RMK AO2
14837KMSN MSN20011103041509511/03/01 04:15:31  5-MIN KMSN 031015Z 00000KT 10SM CLR 01/M03 A3032 500 75 -1000 000/00 RMK AO2
14837KMSN MSN20011103042009411/03/01 04:20:31  5-MIN KMSN 031020Z 00000KT 10SM CLR 02/M03 A3032 500 69 -900 000/00 RMK AO2
14837KMSN MSN20011103042509511/03/01 04:25:31  5-MIN KMSN 031025Z 00000KT 10SM CLR 01/M03 A3032 500 75 -1100 000/00 RMK AO2
14837KMSN MSN20011103043009511/03/01 04:30:31  5-MIN KMSN 031030Z 00000KT 10SM CLR 01/M03 A3032 490 72 -1000 000/00 RMK AO2
14837KMSN MSN20011103043509511/03/01 04:35:31  5-MIN KMSN 031035Z 00000KT 10SM CLR 01/M03 A3033 490 75 -1000 000/00 RMK AO2
14837KMSN MSN20011103044009511/03/01 04:40:31  5-MIN KMSN 031040Z 00000KT 10SM CLR 01/M02 A3032 490 78 -1000 000/00 RMK AO2
14837KMSN MSN20011103044509511/03/01 04:45:31  5-MIN KMSN 031045Z 00000KT 10SM CLR 01/M03 A3032 490 72 -1000 000/00 RMK AO2
14837KMSN MSN20011103045011211/03/01 04:50:31  5-MIN KMSN 031050Z 00000KT 10SM CLR 01/M03 A3032 490 72 -1000 000/00 RMK AO2 SLP273 T00111033
14837KMSN MSN20011103045509511/03/01 04:55:31  5-MIN KMSN 031055Z 00000KT 10SM CLR 01/M03 A3032 490 72 -1000 000/00 RMK AO2
14837KMSN MSN20011103050009511/03/01 05:00:31  5-MIN KMSN 031100Z 00000KT 10SM CLR 01/M03 A3032 490 72 -1000 000/00 RMK AO2
14837KMSN MSN20011103050509511/03/01 05:05:31  5-MIN KMSN 031105Z 00000KT 10SM CLR 01/M03 A3032 490 72 -1000 000/00 RMK AO2
14837KMSN MSN20011103051009511/03/01 05:10:31  5-MIN KMSN 031110Z 00000KT 10SM CLR 01/M03 A3032 500 72 -1000 000/00 RMK AO2
14837KMSN MSN20011103051509511/03/01 05:15:31  5-MIN KMSN 031115Z 00000KT 10SM CLR 01/M03 A3032 490 72 -1000 000/00 RMK AO2
14837KMSN MSN20011103052009511/03/01 05:20:31  5-MIN KMSN 031120Z 00000KT 10SM CLR 01/M03 A3032 500 72 -1000 000/00 RMK AO2
14837KMSN MSN20011103052509511/03/01 05:25:31  5-MIN KMSN 031125Z 00000KT 10SM CLR 01/M03 A3032 500 72 -1000 000/00 RMK AO2
14837KMSN MSN20011103053009511/03/01 05:30:31  5-MIN KMSN 031130Z 00000KT 10SM CLR 01/M03 A3032 490 72 -1000 000/00 RMK AO2
14837KMSN MSN20011103053509511/03/01 05:35:31  5-MIN KMSN 031135Z 00000KT 10SM CLR 01/M03 A3032 490 75 -1100 000/00 RMK AO2
14837KMSN MSN20011103054009511/03/01 05:40:31  5-MIN KMSN 031140Z 00000KT 10SM CLR 01/M03 A3032 490 75 -1100 000/00 RMK AO2
14837KMSN MSN20011103054509511/03/01 05:45:31  5-MIN KMSN 031145Z 00000KT 10SM CLR 01/M03 A3032 490 75 -1100 000/00 RMK AO2
14837KMSN MSN20011103055013011/03/01 05:50:31  5-MIN KMSN 031150Z 00000KT 10SM CLR 01/M03 A3033 490 75 -1100 000/00 RMK AO2 SLP276 T00061033 10078 20006 51015
14837KMSN MSN20011103055509511/03/01 05:55:31  5-MIN KMSN 031155Z 00000KT 10SM CLR 01/M03 A3033 490 72 -1000 000/00 RMK AO2
14837KMSN MSN20011103060009511/03/01 06:00:31  5-MIN KMSN 031200Z 00000KT 10SM CLR 01/M03 A3033 490 75 -1000 000/00 RMK AO2
14837KMSN MSN20011103060509511/03/01 06:05:31  5-MIN KMSN 031205Z 00000KT 10SM CLR 01/M03 A3033 490 75 -1000 000/00 RMK AO2
14837KMSN MSN20011103061009511/03/01 06:10:31  5-MIN KMSN 031210Z 00000KT 10SM CLR 01/M03 A3033 490 75 -1000 000/00 RMK AO2
14837KMSN MSN20011103061509511/03/01 06:15:31  5-MIN KMSN 031215Z 00000KT 10SM CLR 01/M02 A3033 490 78 -1000 000/00 RMK AO2
14837KMSN MSN20011103062009511/03/01 06:20:31  5-MIN KMSN 031220Z 00000KT 10SM CLR 01/M02 A3033 490 78 -1000 000/00 RMK AO2
14837KMSN MSN20011103062509511/03/01 06:25:31  5-MIN KMSN 031225Z 00000KT 10SM CLR 01/M02 A3033 480 78 -1000 000/00 RMK AO2
14837KMSN MSN20011103063009511/03/01 06:30:31  5-MIN KMSN 031230Z 00000KT 10SM CLR 01/M03 A3033 480 75 -1000 000/00 RMK AO2
14837KMSN MSN20011103063509511/03/01 06:35:31  5-MIN KMSN 031235Z 00000KT 10SM CLR 01/M03 A3033 480 75 -1000 000/00 RMK AO2
14837KMSN MSN20011103064009511/03/01 06:40:31  5-MIN KMSN 031240Z 00000KT 10SM CLR 01/M02 A3033 480 78 -1000 000/00 RMK AO2
14837KMSN MSN20011103064509511/03/01 06:45:31  5-MIN KMSN 031245Z 00000KT 10SM CLR 01/M02 A3033 480 82 -1100 000/00 RMK AO2
14837KMSN MSN20011103065011211/03/01 06:50:31  5-MIN KMSN 031250Z 00000KT 10SM CLR 01/M03 A3034 480 78 -1100 000/00 RMK AO2 SLP279 T00061028
14837KMSN MSN20011103065509511/03/01 06:55:31  5-MIN KMSN 031255Z 00000KT 10SM CLR 01/M02 A3034 480 78 -1000 000/00 RMK AO2
14837KMSN MSN20011103070009511/03/01 07:00:31  5-MIN KMSN 031300Z 00000KT 10SM CLR 01/M03 A3034 480 75 -1000 000/00 RMK AO2
14837KMSN MSN20011103070509511/03/01 07:05:31  5-MIN KMSN 031305Z 00000KT 10SM CLR 01/M02 A3034 480 78 -1000 000/00 RMK AO2
14837KMSN MSN20011103071009411/03/01 07:10:31  5-MIN KMSN 031310Z 16003KT 10SM CLR 02/M02 A3034 480 72 -900 160/03 RMK AO2
14837KMSN MSN20011103071509411/03/01 07:15:31  5-MIN KMSN 031315Z 00000KT 10SM CLR 02/M02 A3034 480 72 -900 000/00 RMK AO2
14837KMSN MSN20011103072009411/03/01 07:20:31  5-MIN KMSN 031320Z 00000KT 10SM CLR 02/M02 A3035 470 78 -900 000/00 RMK AO2
14837KMSN MSN20011103072509411/03/01 07:25:31  5-MIN KMSN 031325Z 18003KT 10SM CLR 02/M02 A3035 470 78 -900 180/03 RMK AO2
14837KMSN MSN20011103073009411/03/01 07:30:31  5-MIN KMSN 031330Z 00000KT 10SM CLR 03/M01 A3035 470 79 -800 000/00 RMK AO2
14837KMSN MSN20011103073509311/03/01 07:35:31  5-MIN KMSN 031335Z 17003KT 10SM CLR 03/00 A3035 470 79 -700 170/03 RMK AO2
14837KMSN MSN20011103074009311/03/01 07:40:31  5-MIN KMSN 031340Z 00000KT 10SM CLR 04/01 A3035 470 82 -700 000/00 RMK AO2
14837KMSN MSN20011103074509311/03/01 07:45:31  5-MIN KMSN 031345Z 15003KT 10SM CLR 04/02 A3035 470 82 -600 150/03 RMK AO2
14837KMSN MSN20011103075011011/03/01 07:50:31  5-MIN KMSN 031350Z 16004KT 10SM CLR 05/02 A3035 470 79 -500 160/04 RMK AO2 SLP283 T00500017
14837KMSN MSN20011103075509311/03/01 07:55:31  5-MIN KMSN 031355Z 15003KT 10SM CLR 06/02 A3035 470 76 -500 150/03 RMK AO2
14837KMSN MSN20011103080009311/03/01 08:00:31  5-MIN KMSN 031400Z 15003KT 10SM CLR 06/02 A3035 470 79 -500 150/03 RMK AO2
14837KMSN MSN20011103080509311/03/01 08:05:31  5-MIN KMSN 031405Z 16004KT 10SM CLR 06/02 A3035 470 73 -400 160/04 RMK AO2
14837KMSN MSN20011103081009311/03/01 08:10:31  5-MIN KMSN 031410Z 16004KT 10SM CLR 06/02 A3035 470 73 -400 160/04 RMK AO2
14837KMSN MSN20011103081509311/03/01 08:15:31  5-MIN KMSN 031415Z 16005KT 10SM CLR 07/02 A3035 470 70 -300 160/05 RMK AO2
14837KMSN MSN20011103082009311/03/01 08:20:31  5-MIN KMSN 031420Z 17005KT 10SM CLR 07/02 A3035 470 68 -300 160/05 RMK AO2
14837KMSN MSN20011103082509311/03/01 08:25:31  5-MIN KMSN 031425Z 16005KT 10SM CLR 07/02 A3035 470 68 -300 160/05 RMK AO2
14837KMSN MSN20011103083009311/03/01 08:30:31  5-MIN KMSN 031430Z 16004KT 10SM CLR 08/02 A3035 470 65 -200 160/04 RMK AO2
14837KMSN MSN20011103083509311/03/01 08:35:31  5-MIN KMSN 031435Z 16004KT 10SM CLR 08/02 A3035 470 65 -200 160/04 RMK AO2
14837KMSN MSN20011103084009311/03/01 08:40:31  5-MIN KMSN 031440Z 15004KT 10SM CLR 08/02 A3035 470 63 -100 150/04 RMK AO2
14837KMSN MSN20011103084509311/03/01 08:45:31  5-MIN KMSN 031445Z 16004KT 10SM CLR 08/02 A3035 470 63 -100 160/04 RMK AO2
14837KMSN MSN20011103085011311/03/01 08:50:31  5-MIN KMSN 031450Z 16004KT 10SM CLR 09/02 A3035 470 58 0 160/04 RMK AO2 SLP283 T00940017 51009
14837KMSN MSN20011103085509011/03/01 08:55:31  5-MIN KMSN 031455Z 16004KT 10SM CLR 09/01 A3035 470 56 0 160/04 RMK AO2
14837KMSN MSN20011103090009011/03/01 09:00:31  5-MIN KMSN 031500Z 16005KT 10SM CLR 10/02 A3035 470 56 0 160/05 RMK AO2
14837KMSN MSN20011103090509011/03/01 09:05:31  5-MIN KMSN 031505Z 17004KT 10SM CLR 10/01 A3035 470 54 0 170/04 RMK AO2
14837KMSN MSN20011103091009011/03/01 09:10:31  5-MIN KMSN 031510Z 18004KT 10SM CLR 10/01 A3035 470 54 0 180/04 RMK AO2
14837KMSN MSN20011103091509211/03/01 09:15:31  5-MIN KMSN 031515Z 17006KT 10SM CLR 11/01 A3035 470 50 100 170/06 RMK AO2
14837KMSN MSN20011103092009211/03/01 09:20:31  5-MIN KMSN 031520Z 16005KT 10SM CLR 11/01 A3035 470 52 100 160/05 RMK AO2
14837KMSN MSN20011103092509211/03/01 09:25:31  5-MIN KMSN 031525Z 16006KT 10SM CLR 11/01 A3035 470 48 200 160/06 RMK AO2
14837KMSN MSN20011103093009211/03/01 09:30:31  5-MIN KMSN 031530Z 16006KT 10SM CLR 11/01 A3035 470 50 200 160/06 RMK AO2
14837KMSN MSN20011103093509211/03/01 09:35:31  5-MIN KMSN 031535Z 16006KT 10SM CLR 11/01 A3035 470 48 200 160/06 RMK AO2
14837KMSN MSN20011103094009211/03/01 09:40:31  5-MIN KMSN 031540Z 17007KT 10SM CLR 12/01 A3035 470 48 200 160/07 RMK AO2
14837KMSN MSN20011103094509211/03/01 09:45:31  5-MIN KMSN 031545Z 17007KT 10SM CLR 12/00 A3034 470 44 200 170/07 RMK AO2
14837KMSN MSN20011103095010911/03/01 09:50:31  5-MIN KMSN 031550Z 18006KT 10SM CLR 13/01 A3034 480 43 400 180/06 RMK AO2 SLP279 T01280006
14837KMSN MSN20011103095509211/03/01 09:55:31  5-MIN KMSN 031555Z 17006KT 10SM CLR 12/01 A3034 480 44 300 170/06 RMK AO2
14837KMSN MSN20011103100009211/03/01 10:00:31  5-MIN KMSN 031600Z 17007KT 10SM CLR 13/01 A3034 480 43 400 170/07 RMK AO2
14837KMSN MSN20011103100509211/03/01 10:05:31  5-MIN KMSN 031605Z 17006KT 10SM CLR 13/01 A3034 480 43 400 170/06 RMK AO2
14837KMSN MSN20011103101009211/03/01 10:10:31  5-MIN KMSN 031610Z 17006KT 10SM CLR 13/00 A3034 480 41 400 170/06 RMK AO2
14837KMSN MSN20011103101509211/03/01 10:15:31  5-MIN KMSN 031615Z 18006KT 10SM CLR 13/01 A3034 480 41 400 180/06 RMK AO2
14837KMSN MSN20011103102009211/03/01 10:20:31  5-MIN KMSN 031620Z 19005KT 10SM CLR 14/00 A3034 480 38 500 190/05 RMK AO2
14837KMSN MSN20011103102509211/03/01 10:25:31  5-MIN KMSN 031625Z 20006KT 10SM CLR 14/00 A3033 480 37 600 200/06 RMK AO2
14837KMSN MSN20011103103009311/03/01 10:30:31  5-MIN KMSN 031630Z 21008KT 10SM CLR 14/M01 A3033 480 35 600 210/08 RMK AO2
14837KMSN MSN20011103103509311/03/01 10:35:31  5-MIN KMSN 031635Z 19007KT 10SM CLR 15/M01 A3033 490 33 600 190/07 RMK AO2
14837KMSN MSN20011103104009311/03/01 10:40:31  5-MIN KMSN 031640Z 20007KT 10SM CLR 15/M01 A3033 490 34 600 200/07 RMK AO2
14837KMSN MSN20011103104509311/03/01 10:45:31  5-MIN KMSN 031645Z 21007KT 10SM CLR 15/M01 A3033 480 34 600 210/07 RMK AO2
14837KMSN MSN20011103105011011/03/01 10:50:31  5-MIN KMSN 031650Z 20007KT 10SM CLR 16/M00 A3033 480 32 800 190/07 RMK AO2 SLP274 T01611005
14837KMSN MSN20011103105509211/03/01 10:55:31  5-MIN KMSN 031655Z 24007KT 10SM CLR 16/00 A3033 480 34 700 240/07 RMK AO2
14837KMSN MSN20011103110009211/03/01 11:00:31  5-MIN KMSN 031700Z 23007KT 10SM CLR 16/00 A3033 490 34 700 230/07 RMK AO2
14837KMSN MSN20011103110509211/03/01 11:05:31  5-MIN KMSN 031705Z VRB06KT 10SM CLR 16/00 A3033 490 34 700 VRB/06 RMK AO2
14837KMSN MSN20011103111009211/03/01 11:10:31  5-MIN KMSN 031710Z 22008KT 10SM CLR 16/01 A3033 490 36 700 220/08 RMK AO2
14837KMSN MSN20011103111509211/03/01 11:15:31  5-MIN KMSN 031715Z 23007KT 10SM CLR 16/01 A3033 490 36 700 230/07 RMK AO2
14837KMSN MSN20011103112009211/03/01 11:20:31  5-MIN KMSN 031720Z 23007KT 10SM CLR 16/01 A3033 490 34 800 230/07 RMK AO2
14837KMSN MSN20011103112509211/03/01 11:25:31  5-MIN KMSN 031725Z 23006KT 10SM CLR 17/01 A3032 490 33 800 230/06 RMK AO2
14837KMSN MSN20011103113009211/03/01 11:30:31  5-MIN KMSN 031730Z 22009KT 10SM CLR 17/01 A3032 500 33 800 220/09 RMK AO2
14837KMSN MSN20011103113509211/03/01 11:35:31  5-MIN KMSN 031735Z 23008KT 10SM CLR 17/01 A3032 500 34 800 230/08 RMK AO2
14837KMSN MSN20011103114011111/03/01 11:40:31  5-MIN KMSN 031740Z 23007KT 210V270 10SM FEW110 16/01 A3032 500 36 800 230/07 210V270 RMK AO2
14837KMSN MSN20011103114509511/03/01 11:45:31  5-MIN KMSN 031745Z 23007KT 10SM FEW110 16/01 A3032 500 36 800 230/07 RMK AO2
14837KMSN MSN20011103115014311/03/01 11:50:31  5-MIN KMSN 031750Z 23008KT 200V270 10SM CLR 16/01 A3031 500 36 800 230/08 200V270 RMK AO2 SLP268 T01610011 10167 20006 51008
14837KMSN MSN20011103115509211/03/01 11:55:31  5-MIN KMSN 031755Z 22006KT 10SM CLR 16/02 A3031 510 37 800 220/06 RMK AO2
14837KMSN MSN20011103120009211/03/01 12:00:31  5-MIN KMSN 031800Z 23006KT 10SM CLR 16/02 A3031 510 37 800 230/06 RMK AO2
14837KMSN MSN20011103120509211/03/01 12:05:31  5-MIN KMSN 031805Z 24006KT 10SM CLR 16/02 A3030 510 39 800 240/06 RMK AO2
14837KMSN MSN20011103121010811/03/01 12:10:31  5-MIN KMSN 031810Z 24007KT 210V270 10SM CLR 16/02 A3030 510 37 800 240/07 210V270 RMK AO2
14837KMSN MSN20011103121509211/03/01 12:15:31  5-MIN KMSN 031815Z 23007KT 10SM CLR 16/02 A3030 510 37 800 230/07 RMK AO2
14837KMSN MSN20011103122009211/03/01 12:20:31  5-MIN KMSN 031820Z 23007KT 10SM CLR 17/02 A3030 520 37 900 230/07 RMK AO2
14837KMSN MSN20011103122509211/03/01 12:25:31  5-MIN KMSN 031825Z 24005KT 10SM CLR 17/02 A3029 520 37 900 240/05 RMK AO2
14837KMSN MSN20011103123009211/03/01 12:30:31  5-MIN KMSN 031830Z 24007KT 10SM CLR 17/02 A3029 520 36 900 240/07 RMK AO2
14837KMSN MSN20011103123509211/03/01 12:35:31  5-MIN KMSN 031835Z 24006KT 10SM CLR 17/02 A3029 520 36 900 240/06 RMK AO2
14837KMSN MSN20011103124009311/03/01 12:40:31  5-MIN KMSN 031840Z 21007KT 10SM CLR 17/02 A3029 530 36 1000 210/07 RMK AO2
14837KMSN MSN20011103124509311/03/01 12:45:31  5-MIN KMSN 031845Z 24006KT 10SM CLR 17/02 A3029 530 36 1000 240/06 RMK AO2
14837KMSN MSN20011103125011011/03/01 12:50:31  5-MIN KMSN 031850Z 23006KT 10SM CLR 17/03 A3028 530 37 1000 230/06 RMK AO2 SLP257 T01720028
14837KMSN MSN20011103125509311/03/01 12:55:31  5-MIN KMSN 031855Z VRB05KT 10SM CLR 17/02 A3028 530 35 1000 VRB/05 RMK AO2
14837KMSN MSN20011103130009211/03/01 13:00:31  5-MIN KMSN 031900Z VRB06KT 10SM CLR 17/02 A3028 530 37 900 VRB/06 RMK AO2
14837KMSN MSN20011103130509211/03/01 13:05:31  5-MIN KMSN 031905Z 22006KT 10SM CLR 17/02 A3028 530 37 900 220/06 RMK AO2
14837KMSN MSN20011103131009311/03/01 13:10:31  5-MIN KMSN 031910Z 23007KT 10SM CLR 17/02 A3028 530 36 1000 230/07 RMK AO2
14837KMSN MSN20011103131509311/03/01 13:15:31  5-MIN KMSN 031915Z 23007KT 10SM CLR 17/03 A3028 530 37 1000 230/07 RMK AO2
14837KMSN MSN20011103132009311/03/01 13:20:31  5-MIN KMSN 031920Z 23007KT 10SM CLR 17/03 A3028 530 37 1000 230/07 RMK AO2
14837KMSN MSN20011103132509311/03/01 13:25:31  5-MIN KMSN 031925Z 24008KT 10SM CLR 17/03 A3028 530 37 1000 240/08 RMK AO2
14837KMSN MSN20011103133009311/03/01 13:30:31  5-MIN KMSN 031930Z 24005KT 10SM CLR 17/03 A3028 530 37 1000 240/05 RMK AO2
14837KMSN MSN20011103133509311/03/01 13:35:31  5-MIN KMSN 031935Z 23006KT 10SM CLR 18/03 A3028 540 36 1000 230/06 RMK AO2
14837KMSN MSN20011103134009311/03/01 13:40:31  5-MIN KMSN 031940Z 22007KT 10SM CLR 18/03 A3027 540 36 1000 220/07 RMK AO2
14837KMSN MSN20011103134509311/03/01 13:45:31  5-MIN KMSN 031945Z 22007KT 10SM CLR 18/02 A3027 540 35 1000 220/07 RMK AO2
14837KMSN MSN20011103135011011/03/01 13:50:31  5-MIN KMSN 031950Z 23008KT 10SM CLR 18/02 A3027 540 35 1000 220/08 RMK AO2 SLP253 T01780022
14837KMSN MSN20011103135509311/03/01 13:55:31  5-MIN KMSN 031955Z 23005KT 10SM CLR 18/02 A3027 540 35 1000 230/05 RMK AO2
14837KMSN MSN20011103140009311/03/01 14:00:31  5-MIN KMSN 032000Z 23008KT 10SM CLR 18/02 A3027 540 35 1000 230/08 RMK AO2
14837KMSN MSN20011103140510911/03/01 14:05:31  5-MIN KMSN 032005Z 22007KT 190V260 10SM CLR 18/02 A3027 540 35 1000 220/07 190V260 RMK AO2
14837KMSN MSN20011103141009311/03/01 14:10:31  5-MIN KMSN 032010Z 23006KT 10SM CLR 18/02 A3027 540 35 1000 230/06 RMK AO2
14837KMSN MSN20011103141509311/03/01 14:15:31  5-MIN KMSN 032015Z 22008KT 10SM CLR 18/02 A3027 540 35 1000 220/08 RMK AO2
14837KMSN MSN20011103142009311/03/01 14:20:31  5-MIN KMSN 032020Z 24006KT 10SM CLR 18/03 A3027 540 36 1000 240/06 RMK AO2
14837KMSN MSN20011103142509311/03/01 14:25:31  5-MIN KMSN 032025Z 23007KT 10SM CLR 18/03 A3027 540 36 1000 230/07 RMK AO2
14837KMSN MSN20011103143009311/03/01 14:30:31  5-MIN KMSN 032030Z 24006KT 10SM CLR 18/03 A3027 540 36 1000 240/06 RMK AO2
14837KMSN MSN20011103143509311/03/01 14:35:31  5-MIN KMSN 032035Z VRB04KT 10SM CLR 18/03 A3027 540 36 1000 VRB/04 RMK AO2
14837KMSN MSN20011103144009311/03/01 14:40:31  5-MIN KMSN 032040Z 22006KT 10SM CLR 18/03 A3027 540 36 1000 220/06 RMK AO2
14837KMSN MSN20011103144509311/03/01 14:45:31  5-MIN KMSN 032045Z 23005KT 10SM CLR 18/03 A3027 540 36 1000 230/05 RMK AO2
14837KMSN MSN20011103145011611/03/01 14:50:31  5-MIN KMSN 032050Z 21005KT 10SM CLR 18/02 A3027 540 35 1000 210/05 RMK AO2 SLP254 T01780022 58013
14837KMSN MSN20011103145509311/03/01 14:55:31  5-MIN KMSN 032055Z VRB05KT 10SM CLR 18/02 A3027 540 35 1000 VRB/05 RMK AO2
14837KMSN MSN20011103150009311/03/01 15:00:31  5-MIN KMSN 032100Z VRB05KT 10SM CLR 18/03 A3027 540 36 1000 VRB/05 RMK AO2
14837KMSN MSN20011103150509311/03/01 15:05:31  5-MIN KMSN 032105Z VRB06KT 10SM CLR 18/03 A3027 540 36 1000 VRB/06 RMK AO2
14837KMSN MSN20011103151009311/03/01 15:10:31  5-MIN KMSN 032110Z 29005KT 10SM CLR 18/03 A3027 540 36 1000 290/05 RMK AO2
14837KMSN MSN20011103151509311/03/01 15:15:31  5-MIN KMSN 032115Z VRB04KT 10SM CLR 18/03 A3027 540 36 1000 VRB/04 RMK AO2
14837KMSN MSN20011103152009311/03/01 15:20:31  5-MIN KMSN 032120Z VRB04KT 10SM CLR 18/03 A3027 540 36 1000 VRB/04 RMK AO2
14837KMSN MSN20011103152509311/03/01 15:25:31  5-MIN KMSN 032125Z 22003KT 10SM CLR 18/03 A3027 540 38 1000 220/03 RMK AO2
14837KMSN MSN20011103153009311/03/01 15:30:31  5-MIN KMSN 032130Z 23004KT 10SM CLR 18/03 A3027 540 36 1000 230/04 RMK AO2
14837KMSN MSN20011103153509311/03/01 15:35:31  5-MIN KMSN 032135Z 21004KT 10SM CLR 18/03 A3027 550 36 1000 210/04 RMK AO2
14837KMSN MSN20011103154009311/03/01 15:40:31  5-MIN KMSN 032140Z 22005KT 10SM CLR 18/03 A3026 550 36 1000 210/05 RMK AO2
14837KMSN MSN20011103154509311/03/01 15:45:31  5-MIN KMSN 032145Z 20003KT 10SM CLR 18/03 A3026 550 36 1000 200/03 RMK AO2
14837KMSN MSN20011103155011011/03/01 15:50:31  5-MIN KMSN 032150Z 20004KT 10SM CLR 17/03 A3026 550 37 1000 200/04 RMK AO2 SLP251 T01720028
14837KMSN MSN20011103155509311/03/01 15:55:31  5-MIN KMSN 032155Z 21003KT 10SM CLR 17/03 A3026 560 37 1000 200/03 RMK AO2
14837KMSN MSN20011103160009311/03/01 16:00:31  5-MIN KMSN 032200Z 20004KT 10SM CLR 17/03 A3025 560 37 1000 200/04 RMK AO2
14837KMSN MSN20011103160509311/03/01 16:05:31  5-MIN KMSN 032205Z 20003KT 10SM CLR 17/03 A3025 560 37 1000 200/03 RMK AO2
14837KMSN MSN20011103161009311/03/01 16:10:31  5-MIN KMSN 032210Z 20003KT 10SM CLR 17/03 A3025 560 37 1000 200/03 RMK AO2
14837KMSN MSN20011103161509211/03/01 16:15:31  5-MIN KMSN 032215Z 21003KT 10SM CLR 17/03 A3025 560 39 900 210/03 RMK AO2
14837KMSN MSN20011103162009211/03/01 16:20:31  5-MIN KMSN 032220Z 00000KT 10SM CLR 17/03 A3025 560 39 900 000/00 RMK AO2
14837KMSN MSN20011103162509211/03/01 16:25:31  5-MIN KMSN 032225Z 00000KT 10SM CLR 16/03 A3025 560 40 900 000/00 RMK AO2
14837KMSN MSN20011103163009111/03/01 16:30:31  5-MIN KMSN 032230Z 00000KT 9SM CLR 15/03 A3025 560 43 700 000/00 RMK AO2
14837KMSN MSN20011103163509111/03/01 16:35:31  5-MIN KMSN 032235Z 00000KT 9SM CLR 16/03 A3025 560 42 800 000/00 RMK AO2
14837KMSN MSN20011103164009211/03/01 16:40:31  5-MIN KMSN 032240Z 00000KT 10SM CLR 14/03 A3025 560 47 700 000/00 RMK AO2
14837KMSN MSN20011103164509211/03/01 16:45:31  5-MIN KMSN 032245Z 25003KT 10SM CLR 14/03 A3025 560 47 700 250/03 RMK AO2
14837KMSN MSN20011103165010911/03/01 16:50:31  5-MIN KMSN 032250Z 00000KT 10SM CLR 14/03 A3025 560 48 600 000/00 RMK AO2 SLP249 T01390033
14837KMSN MSN20011103165509211/03/01 16:55:31  5-MIN KMSN 032255Z 00000KT 10SM CLR 13/03 A3025 560 48 500 000/00 RMK AO2
14837KMSN MSN20011103170009211/03/01 17:00:31  5-MIN KMSN 032300Z 00000KT 10SM CLR 13/03 A3025 560 48 500 000/00 RMK AO2
14837KMSN MSN20011103170509211/03/01 17:05:31  5-MIN KMSN 032305Z 00000KT 10SM CLR 12/03 A3025 560 54 400 000/00 RMK AO2
14837KMSN MSN20011103171009211/03/01 17:10:31  5-MIN KMSN 032310Z 24003KT 10SM CLR 12/04 A3025 560 58 300 230/03 RMK AO2
14837KMSN MSN20011103171509211/03/01 17:15:31  5-MIN KMSN 032315Z 22003KT 10SM CLR 11/04 A3025 560 61 300 220/03 RMK AO2
14837KMSN MSN20011103172009211/03/01 17:20:31  5-MIN KMSN 032320Z 22003KT 10SM CLR 12/03 A3025 560 54 400 210/03 RMK AO2
14837KMSN MSN20011103172509211/03/01 17:25:31  5-MIN KMSN 032325Z 22003KT 10SM CLR 12/03 A3025 560 56 300 220/03 RMK AO2
14837KMSN MSN20011103173009211/03/01 17:30:31  5-MIN KMSN 032330Z 21003KT 10SM CLR 11/03 A3025 560 58 300 210/03 RMK AO2
14837KMSN MSN20011103173509211/03/01 17:35:31  5-MIN KMSN 032335Z 22004KT 10SM CLR 12/03 A3025 560 56 300 220/04 RMK AO2
14837KMSN MSN20011103174009211/03/01 17:40:31  5-MIN KMSN 032340Z 22004KT 10SM CLR 12/03 A3025 560 56 300 220/04 RMK AO2
14837KMSN MSN20011103174509211/03/01 17:45:31  5-MIN KMSN 032345Z 22005KT 10SM CLR 11/03 A3025 560 58 300 220/05 RMK AO2
14837KMSN MSN20011103175012711/03/01 17:50:31  5-MIN KMSN 032350Z 22004KT 10SM CLR 11/03 A3025 560 61 200 220/04 RMK AO2 SLP251 T01060033 10183 20106 56014
14837KMSN MSN20011103175509211/03/01 17:55:31  5-MIN KMSN 032355Z 21004KT 10SM CLR 11/03 A3025 560 58 300 210/04 RMK AO2
14837KMSN MSN20011103180009211/03/01 18:00:31  5-MIN KMSN 040000Z 22005KT 10SM CLR 12/04 A3025 560 58 300 220/05 RMK AO2
14837KMSN MSN20011103180509211/03/01 18:05:31  5-MIN KMSN 040005Z 22005KT 10SM CLR 12/03 A3025 560 56 300 210/05 RMK AO2
14837KMSN MSN20011103181009211/03/01 18:10:31  5-MIN KMSN 040010Z 22005KT 10SM CLR 12/03 A3025 560 56 300 220/05 RMK AO2
14837KMSN MSN20011103181509211/03/01 18:15:31  5-MIN KMSN 040015Z 22004KT 10SM CLR 12/03 A3025 560 56 300 220/04 RMK AO2
14837KMSN MSN20011103182009211/03/01 18:20:31  5-MIN KMSN 040020Z 23004KT 10SM CLR 12/03 A3025 560 56 300 220/04 RMK AO2
14837KMSN MSN20011103182509211/03/01 18:25:31  5-MIN KMSN 040025Z 23004KT 10SM CLR 12/03 A3025 560 56 300 230/04 RMK AO2
14837KMSN MSN20011103183009211/03/01 18:30:31  5-MIN KMSN 040030Z 23003KT 10SM CLR 12/03 A3025 560 56 300 230/03 RMK AO2
14837KMSN MSN20011103183509211/03/01 18:35:31  5-MIN KMSN 040035Z 23003KT 10SM CLR 12/04 A3025 560 58 300 230/03 RMK AO2
14837KMSN MSN20011103184009211/03/01 18:40:31  5-MIN KMSN 040040Z 22004KT 10SM CLR 11/04 A3025 560 61 300 220/04 RMK AO2
14837KMSN MSN20011103184509211/03/01 18:45:31  5-MIN KMSN 040045Z 22003KT 10SM CLR 11/04 A3025 560 66 200 220/03 RMK AO2
14837KMSN MSN20011103185010911/03/01 18:50:31  5-MIN KMSN 040050Z 21003KT 10SM CLR 11/04 A3025 560 66 200 210/03 RMK AO2 SLP251 T01060044
14837KMSN MSN20011103185509211/03/01 18:55:31  5-MIN KMSN 040055Z VRB03KT 10SM CLR 10/04 A3025 560 68 100 VRB/03 RMK AO2
14837KMSN MSN20011103190009211/03/01 19:00:31  5-MIN KMSN 040100Z 22004KT 10SM CLR 10/04 A3025 560 68 100 220/04 RMK AO2
14837KMSN MSN20011103190509211/03/01 19:05:31  5-MIN KMSN 040105Z 22004KT 10SM CLR 10/04 A3026 560 65 100 220/04 RMK AO2
14837KMSN MSN20011103191009211/03/01 19:10:31  5-MIN KMSN 040110Z 22004KT 10SM CLR 10/04 A3025 560 65 100 220/04 RMK AO2
14837KMSN MSN20011103191509211/03/01 19:15:31  5-MIN KMSN 040115Z 22004KT 10SM CLR 10/04 A3025 560 68 100 220/04 RMK AO2
14837KMSN MSN20011103192009211/03/01 19:20:31  5-MIN KMSN 040120Z 22004KT 10SM CLR 09/04 A3025 560 71 100 220/04 RMK AO2
14837KMSN MSN20011103192509211/03/01 19:25:31  5-MIN KMSN 040125Z 22004KT 10SM CLR 10/04 A3025 560 65 100 220/04 RMK AO2
14837KMSN MSN20011103193009211/03/01 19:30:31  5-MIN KMSN 040130Z 23003KT 10SM CLR 10/04 A3025 560 65 100 230/03 RMK AO2
14837KMSN MSN20011103193509211/03/01 19:35:31  5-MIN KMSN 040135Z 00000KT 10SM CLR 09/04 A3025 560 68 100 000/00 RMK AO2
14837KMSN MSN20011103194009211/03/01 19:40:31  5-MIN KMSN 040140Z 00000KT 10SM CLR 11/04 A3025 560 63 200 000/00 RMK AO2
14837KMSN MSN20011104174509411/04/01 17:45:31  5-MIN KMSN 042345Z 00000KT 10SM CLR 07/M04 A3034 470 47 -300 000/00 RMK AO2
14837KMSN MSN20011104175012911/04/01 17:50:31  5-MIN KMSN 042350Z 36003KT 10SM CLR 07/M04 A3035 470 47 -300 360/03 RMK AO2 SLP283 T00671039 10156 20067 55006
14837KMSN MSN20011104175509411/04/01 17:55:31  5-MIN KMSN 042355Z 00000KT 10SM CLR 05/M03 A3035 470 55 -500 000/00 RMK AO2
14837KMSN MSN20011104180009411/04/01 18:00:31  5-MIN KMSN 050000Z 00000KT 10SM CLR 06/M03 A3035 470 51 -400 000/00 RMK AO2
14837KMSN MSN20011104180509411/04/01 18:05:31  5-MIN KMSN 050005Z 00000KT 10SM CLR 06/M04 A3035 470 48 -400 000/00 RMK AO2
14837KMSN MSN20011104181009411/04/01 18:10:31  5-MIN KMSN 050010Z 00000KT 10SM CLR 06/M04 A3035 470 50 -500 000/00 RMK AO2
14837KMSN MSN20011104181509411/04/01 18:15:31  5-MIN KMSN 050015Z 00000KT 10SM CLR 06/M04 A3035 470 50 -500 000/00 RMK AO2
14837KMSN MSN20011104182009411/04/01 18:20:31  5-MIN KMSN 050020Z 00000KT 10SM CLR 06/M04 A3035 470 50 -500 000/00 RMK AO2
14837KMSN MSN20011104182509411/04/01 18:25:31  5-MIN KMSN 050025Z 00000KT 10SM CLR 06/M04 A3035 470 50 -500 000/00 RMK AO2
14837KMSN MSN20011104183009411/04/01 18:30:31  5-MIN KMSN 050030Z 00000KT 10SM CLR 06/M03 A3035 470 53 -500 000/00 RMK AO2
14837KMSN MSN20011104183509411/04/01 18:35:31  5-MIN KMSN 050035Z 00000KT 10SM CLR 05/M04 A3035 470 52 -500 000/00 RMK AO2
14837KMSN MSN20011104184009411/04/01 18:40:31  5-MIN KMSN 050040Z 00000KT 10SM CLR 04/M03 A3035 470 59 -700 000/00 RMK AO2
14837KMSN MSN20011104184509411/04/01 18:45:31  5-MIN KMSN 050045Z 00000KT 10SM CLR 04/M03 A3035 470 62 -700 000/00 RMK AO2
14837KMSN MSN20011104185011111/04/01 18:50:31  5-MIN KMSN 050050Z 00000KT 10SM CLR 04/M02 A3035 470 64 -700 000/00 RMK AO2 SLP286 T00391022
14837KMSN MSN20011104185509411/04/01 18:55:31  5-MIN KMSN 050055Z 00000KT 10SM CLR 04/M04 A3035 470 57 -700 000/00 RMK AO2
14837KMSN MSN20011104190009411/04/01 19:00:31  5-MIN KMSN 050100Z 00000KT 10SM CLR 03/M04 A3035 470 59 -700 000/00 RMK AO2
14837KMSN MSN20011104190509411/04/01 19:05:31  5-MIN KMSN 050105Z 00000KT 10SM CLR 04/M04 A3035 470 54 -700 000/00 RMK AO2
14837KMSN MSN20011104191009411/04/01 19:10:31  5-MIN KMSN 050110Z 00000KT 10SM CLR 03/M04 A3035 470 59 -700 000/00 RMK AO2
14837KMSN MSN20011104191509411/04/01 19:15:31  5-MIN KMSN 050115Z 00000KT 10SM CLR 03/M03 A3035 470 61 -700 000/00 RMK AO2
14837KMSN MSN20011104192009411/04/01 19:20:31  5-MIN KMSN 050120Z 00000KT 10SM CLR 03/M04 A3035 470 59 -700 000/00 RMK AO2
14837KMSN MSN20011104192509411/04/01 19:25:31  5-MIN KMSN 050125Z 35003KT 10SM CLR 03/M03 A3035 470 61 -700 350/03 RMK AO2
14837KMSN MSN20011104193009411/04/01 19:30:31  5-MIN KMSN 050130Z 00000KT 10SM CLR 02/M03 A3035 470 69 -900 000/00 RMK AO2
14837KMSN MSN20011104193509411/04/01 19:35:31  5-MIN KMSN 050135Z 00000KT 10SM CLR 03/M03 A3035 470 67 -800 000/00 RMK AO2
14837KMSN MSN20011104194009411/04/01 19:40:31  5-MIN KMSN 050140Z 00000KT 10SM CLR 02/M03 A3035 470 67 -900 000/00 RMK AO2
14837KMSN MSN20011104194509411/04/01 19:45:31  5-MIN KMSN 050145Z 00000KT 10SM CLR 03/M03 A3035 470 64 -800 000/00 RMK AO2
14837KMSN MSN20011104195011111/04/01 19:50:31  5-MIN KMSN 050150Z 00000KT 10SM CLR 03/M03 A3035 470 64 -800 000/00 RMK AO2 SLP287 T00281033
14837KMSN MSN20011104195509811/04/01 19:55:31  5-MIN KMSN 050155Z 00000KT 10SM FEW090 02/M03 A3036 460 72 -1000 000/00 RMK AO2
14837KMSN MSN20011104200009811/04/01 20:00:31  5-MIN KMSN 050200Z 00000KT 10SM FEW090 01/M03 A3036 460 75 -1000 000/00 RMK AO2
14837KMSN MSN20011104200509811/04/01 20:05:31  5-MIN KMSN 050205Z 00000KT 10SM FEW090 02/M03 A3036 460 69 -1000 000/00 RMK AO2
14837KMSN MSN20011104201009411/04/01 20:10:31  5-MIN KMSN 050210Z 00000KT 10SM CLR 03/M04 A3036 460 61 -800 000/00 RMK AO2
14837KMSN MSN20011104201509411/04/01 20:15:31  5-MIN KMSN 050215Z 00000KT 10SM CLR 02/M03 A3036 460 67 -900 000/00 RMK AO2
14837KMSN MSN20011104202009511/04/01 20:20:31  5-MIN KMSN 050220Z 00000KT 10SM CLR 02/M03 A3036 460 72 -1000 000/00 RMK AO2
14837KMSN MSN20011104202509511/04/01 20:25:31  5-MIN KMSN 050225Z 00000KT 10SM CLR 02/M03 A3036 460 69 -1000 000/00 RMK AO2
14837KMSN MSN20011104203009511/04/01 20:30:31  5-MIN KMSN 050230Z 00000KT 10SM CLR 02/M04 A3036 460 66 -1000 000/00 RMK AO2
14837KMSN MSN20011104203509511/04/01 20:35:31  5-MIN KMSN 050235Z 00000KT 10SM CLR 02/M03 A3036 460 69 -1000 000/00 RMK AO2
14837KMSN MSN20011104204009411/04/01 20:40:31  5-MIN KMSN 050240Z 00000KT 10SM CLR 02/M03 A3036 460 67 -900 000/00 RMK AO2
14837KMSN MSN20011104204509411/04/01 20:45:31  5-MIN KMSN 050245Z 00000KT 10SM CLR 02/M03 A3036 460 67 -900 000/00 RMK AO2
14837KMSN MSN20011104205011811/04/01 20:50:31  5-MIN KMSN 050250Z 00000KT 10SM CLR 02/M03 A3036 460 69 -1000 000/00 RMK AO2 SLP287 T00171033 53013
14837KMSN MSN20011104205509511/04/01 20:55:31  5-MIN KMSN 050255Z 00000KT 10SM CLR 02/M03 A3036 460 69 -1000 000/00 RMK AO2
14837KMSN MSN20011104210009411/04/01 21:00:31  5-MIN KMSN 050300Z 00000KT 10SM CLR 02/M03 A3036 460 69 -900 000/00 RMK AO2
14837KMSN MSN20011104210509411/04/01 21:05:31  5-MIN KMSN 050305Z 00000KT 10SM CLR 02/M03 A3036 460 67 -900 000/00 RMK AO2
14837KMSN MSN20011104211009411/04/01 21:10:31  5-MIN KMSN 050310Z 00000KT 10SM CLR 02/M03 A3036 460 67 -900 000/00 RMK AO2
14837KMSN MSN20011104211509511/04/01 21:15:31  5-MIN KMSN 050315Z 00000KT 10SM CLR 01/M03 A3036 460 75 -1000 000/00 RMK AO2
14837KMSN MSN20011104212009511/04/01 21:20:31  5-MIN KMSN 050320Z 00000KT 10SM CLR 01/M03 A3036 460 78 -1100 000/00 RMK AO2
14837KMSN MSN20011104212509511/04/01 21:25:31  5-MIN KMSN 050325Z 00000KT 10SM CLR 00/M03 A3036 460 78 -1200 000/00 RMK AO2
14837KMSN MSN20011104213009511/04/01 21:30:31  5-MIN KMSN 050330Z 00000KT 10SM CLR 01/M03 A3036 460 78 -1100 000/00 RMK AO2
14837KMSN MSN20011104213509511/04/01 21:35:31  5-MIN KMSN 050335Z 00000KT 10SM CLR 02/M03 A3036 460 69 -1000 000/00 RMK AO2
14837KMSN MSN20011104214009511/04/01 21:40:31  5-MIN KMSN 050340Z 00000KT 10SM CLR 01/M03 A3036 460 75 -1000 000/00 RMK AO2
14837KMSN MSN20011104214509511/04/01 21:45:31  5-MIN KMSN 050345Z 00000KT 10SM CLR 01/M03 A3036 460 78 -1100 000/00 RMK AO2
14837KMSN MSN20011104215011211/04/01 21:50:31  5-MIN KMSN 050350Z 00000KT 10SM CLR 01/M03 A3036 460 75 -1000 000/00 RMK AO2 SLP287 T00111028
14837KMSN MSN20011104215509511/04/01 21:55:31  5-MIN KMSN 050355Z 00000KT 10SM CLR 01/M03 A3036 460 72 -1000 000/00 RMK AO2
14837KMSN MSN20011104220009511/04/01 22:00:31  5-MIN KMSN 050400Z 00000KT 10SM CLR 01/M03 A3036 460 75 -1100 000/00 RMK AO2
14837KMSN MSN20011104220509511/04/01 22:05:31  5-MIN KMSN 050405Z 00000KT 10SM CLR 00/M03 A3036 460 81 -1200 000/00 RMK AO2
14837KMSN MSN20011104221009511/04/01 22:10:31  5-MIN KMSN 050410Z 00000KT 10SM CLR 01/M03 A3036 460 78 -1100 000/00 RMK AO2
14837KMSN MSN20011104221509511/04/01 22:15:31  5-MIN KMSN 050415Z 00000KT 10SM CLR 01/M02 A3036 460 82 -1100 000/00 RMK AO2
14837KMSN MSN20011104222009511/04/01 22:20:31  5-MIN KMSN 050420Z 00000KT 10SM CLR 01/M02 A3036 460 78 -1000 000/00 RMK AO2
14837KMSN MSN20011104222509511/04/01 22:25:31  5-MIN KMSN 050425Z 00000KT 10SM CLR 02/M03 A3036 460 72 -1000 000/00 RMK AO2
14837KMSN MSN20011104223009511/04/01 22:30:31  5-MIN KMSN 050430Z 00000KT 10SM CLR 01/M03 A3036 460 75 -1000 000/00 RMK AO2
14837KMSN MSN20011104223509511/04/01 22:35:31  5-MIN KMSN 050435Z 00000KT 10SM CLR 00/M03 A3036 460 81 -1200 000/00 RMK AO2
14837KMSN MSN20011104224009511/04/01 22:40:31  5-MIN KMSN 050440Z 00000KT 10SM CLR 00/M03 A3036 460 81 -1200 000/00 RMK AO2
14837KMSN MSN20011104224509511/04/01 22:45:31  5-MIN KMSN 050445Z 00000KT 10SM CLR 01/M03 A3036 460 75 -1000 000/00 RMK AO2
14837KMSN MSN20011104225011211/04/01 22:50:31  5-MIN KMSN 050450Z 00000KT 10SM CLR 01/M03 A3036 460 78 -1100 000/00 RMK AO2 SLP285 T00061028
14837KMSN MSN20011104225509511/04/01 22:55:31  5-MIN KMSN 050455Z 00000KT 10SM CLR 01/M02 A3035 460 82 -1100 000/00 RMK AO2
14837KMSN MSN20011104230009511/04/01 23:00:31  5-MIN KMSN 050500Z 00000KT 10SM CLR 01/M03 A3035 460 75 -1000 000/00 RMK AO2
14837KMSN MSN20011104230509511/04/01 23:05:31  5-MIN KMSN 050505Z 00000KT 10SM CLR 01/M03 A3036 460 78 -1100 000/00 RMK AO2
14837KMSN MSN20011104231009511/04/01 23:10:31  5-MIN KMSN 050510Z 00000KT 10SM CLR 01/M02 A3036 460 82 -1100 000/00 RMK AO2
14837KMSN MSN20011104231509511/04/01 23:15:31  5-MIN KMSN 050515Z 00000KT 10SM CLR 00/M02 A3036 460 85 -1200 000/00 RMK AO2
14837KMSN MSN20011104232009511/04/01 23:20:31  5-MIN KMSN 050520Z 00000KT 10SM CLR 00/M03 A3036 460 81 -1200 000/00 RMK AO2
14837KMSN MSN20011104232509511/04/01 23:25:31  5-MIN KMSN 050525Z 00000KT 10SM CLR 00/M03 A3036 460 78 -1200 000/00 RMK AO2
14837KMSN MSN20011104233009511/04/01 23:30:31  5-MIN KMSN 050530Z 00000KT 10SM CLR 00/M03 A3036 460 81 -1200 000/00 RMK AO2
14837KMSN MSN20011104233509511/04/01 23:35:31  5-MIN KMSN 050535Z 00000KT 10SM CLR 00/M03 A3036 460 78 -1200 000/00 RMK AO2
14837KMSN MSN20011104234009511/04/01 23:40:31  5-MIN KMSN 050540Z 00000KT 10SM CLR 00/M03 A3036 460 78 -1200 000/00 RMK AO2
14837KMSN MSN20011104234509611/04/01 23:45:31  5-MIN KMSN 050545Z 00000KT 10SM CLR M01/M04 A3036 460 78 -1200 000/00 RMK AO2
14837KMSN MSN20011104235014111/04/01 23:50:31  5-MIN KMSN 050550Z 00000KT 10SM CLR M01/M04 A3035 460 78 -1200 000/00 RMK AO2 SLP285 T10061039 10067 21006 401561006 52003
14837KMSN MSN20011104235509611/04/01 23:55:31  5-MIN KMSN 050555Z 00000KT 10SM CLR M01/M04 A3035 460 78 -1200 000/00 RMK AO2
14837KMSN MSN20011105000009611/05/01 00:00:31  5-MIN KMSN 050600Z 00000KT 10SM CLR M01/M03 A3036 460 81 -1200 000/00 RMK AO2
14837KMSN MSN20011105000509611/05/01 00:05:31  5-MIN KMSN 050605Z 00000KT 10SM CLR M01/M03 A3036 460 85 -1300 000/00 RMK AO2
14837KMSN MSN20011105001009611/05/01 00:10:31  5-MIN KMSN 050610Z 00000KT 10SM CLR M01/M04 A3035 460 78 -1200 000/00 RMK AO2
14837KMSN MSN20011105001509611/05/01 00:15:31  5-MIN KMSN 050615Z 00000KT 10SM CLR M01/M04 A3035 470 81 -1300 000/00 RMK AO2
14837KMSN MSN20011105002009611/05/01 00:20:31  5-MIN KMSN 050620Z 00000KT 10SM CLR M01/M03 A3035 470 85 -1300 000/00 RMK AO2
14837KMSN MSN20011105002509611/05/01 00:25:31  5-MIN KMSN 050625Z 00000KT 10SM CLR M01/M04 A3035 470 81 -1300 000/00 RMK AO2
14837KMSN MSN20011105003009611/05/01 00:30:31  5-MIN KMSN 050630Z 00000KT 10SM CLR M01/M03 A3035 470 85 -1300 000/00 RMK AO2
14837KMSN MSN20011105003509611/05/01 00:35:31  5-MIN KMSN 050635Z 00000KT 10SM CLR M01/M03 A3035 470 85 -1300 000/00 RMK AO2
14837KMSN MSN20011105004009611/05/01 00:40:31  5-MIN KMSN 050640Z 00000KT 10SM CLR M01/M03 A3035 470 85 -1300 000/00 RMK AO2
14837KMSN MSN20011105004509611/05/01 00:45:31  5-MIN KMSN 050645Z 00000KT 10SM CLR M01/M03 A3035 470 85 -1300 000/00 RMK AO2
14837KMSN MSN20011105005011311/05/01 00:50:31  5-MIN KMSN 050650Z 00000KT 10SM CLR M01/M03 A3035 470 85 -1300 000/00 RMK AO2 SLP283 T10111033
14837KMSN MSN20011105005509611/05/01 00:55:31  5-MIN KMSN 050655Z 00000KT 10SM CLR M01/M03 A3035 470 88 -1300 000/00 RMK AO2
14837KMSN MSN20011105010009611/05/01 01:00:31  5-MIN KMSN 050700Z 00000KT 10SM CLR M01/M03 A3035 470 88 -1300 000/00 RMK AO2
14837KMSN MSN20011105010509611/05/01 01:05:31  5-MIN KMSN 050705Z 00000KT 10SM CLR M01/M03 A3035 470 88 -1300 000/00 RMK AO2
14837KMSN MSN20011105011009611/05/01 01:10:31  5-MIN KMSN 050710Z 00000KT 10SM CLR M01/M03 A3035 470 88 -1300 000/00 RMK AO2
14837KMSN MSN20011105011509611/05/01 01:15:31  5-MIN KMSN 050715Z 00000KT 10SM CLR M01/M03 A3035 470 85 -1300 000/00 RMK AO2
14837KMSN MSN20011105012009611/05/01 01:20:31  5-MIN KMSN 050720Z 00000KT 10SM CLR M02/M04 A3035 470 81 -1400 000/00 RMK AO2
14837KMSN MSN20011105012509611/05/01 01:25:31  5-MIN KMSN 050725Z 00000KT 10SM CLR M02/M04 A3035 470 85 -1400 000/00 RMK AO2
14837KMSN MSN20011105013009611/05/01 01:30:31  5-MIN KMSN 050730Z 00000KT 10SM CLR M02/M04 A3035 470 85 -1400 000/00 RMK AO2
14837KMSN MSN20011105013509611/05/01 01:35:31  5-MIN KMSN 050735Z 00000KT 10SM CLR M01/M04 A3035 470 81 -1300 000/00 RMK AO2
14837KMSN MSN20011105014009611/05/01 01:40:31  5-MIN KMSN 050740Z 00000KT 10SM CLR M01/M04 A3035 470 81 -1300 000/00 RMK AO2
14837KMSN MSN20011105014509611/05/01 01:45:31  5-MIN KMSN 050745Z 00000KT 10SM CLR M01/M04 A3035 470 81 -1300 000/00 RMK AO2
14837KMSN MSN20011105015011311/05/01 01:50:31  5-MIN KMSN 050750Z 00000KT 10SM CLR M02/M03 A3035 470 88 -1400 000/00 RMK AO2 SLP284 T10171033
14837KMSN MSN20011105015509611/05/01 01:55:31  5-MIN KMSN 050755Z 00000KT 10SM CLR M02/M03 A3035 470 88 -1400 000/00 RMK AO2
14837KMSN MSN20011105020009611/05/01 02:00:31  5-MIN KMSN 050800Z 00000KT 10SM CLR M02/M03 A3035 470 92 -1400 000/00 RMK AO2
14837KMSN MSN20011105020509611/05/01 02:05:31  5-MIN KMSN 050805Z 00000KT 10SM CLR M02/M03 A3035 470 88 -1400 000/00 RMK AO2
14837KMSN MSN20011105021009611/05/01 02:10:31  5-MIN KMSN 050810Z 00000KT 10SM CLR M02/M03 A3035 470 92 -1400 000/00 RMK AO2
14837KMSN MSN20011105021509611/05/01 02:15:31  5-MIN KMSN 050815Z 00000KT 10SM CLR M02/M03 A3035 470 92 -1400 000/00 RMK AO2
14837KMSN MSN20011105022009611/05/01 02:20:31  5-MIN KMSN 050820Z 00000KT 10SM CLR M02/M03 A3035 470 92 -1400 000/00 RMK AO2
14837KMSN MSN20011105022509611/05/01 02:25:31  5-MIN KMSN 050825Z 00000KT 10SM CLR M02/M03 A3035 470 92 -1400 000/00 RMK AO2
14837KMSN MSN20011105023009611/05/01 02:30:31  5-MIN KMSN 050830Z 00000KT 10SM CLR M02/M03 A3035 470 92 -1400 000/00 RMK AO2
14837KMSN MSN20011105023509611/05/01 02:35:31  5-MIN KMSN 050835Z 00000KT 10SM CLR M02/M03 A3035 470 92 -1400 000/00 RMK AO2
14837KMSN MSN20011105024009611/05/01 02:40:31  5-MIN KMSN 050840Z 00000KT 10SM CLR M02/M03 A3035 470 92 -1400 000/00 RMK AO2
14837KMSN MSN20011105024509611/05/01 02:45:31  5-MIN KMSN 050845Z 00000KT 10SM CLR M02/M03 A3035 470 92 -1400 000/00 RMK AO2
14837KMSN MSN20011105025011911/05/01 02:50:31  5-MIN KMSN 050850Z 00000KT 10SM CLR M02/M03 A3035 470 92 -1400 000/00 RMK AO2 SLP284 T10171028 58001
14837KMSN MSN20011105025509611/05/01 02:55:31  5-MIN KMSN 050855Z 00000KT 10SM CLR M02/M03 A3035 470 92 -1400 000/00 RMK AO2
14837KMSN MSN20011105030009611/05/01 03:00:31  5-MIN KMSN 050900Z 00000KT 10SM CLR M02/M03 A3035 460 92 -1400 000/00 RMK AO2
14837KMSN MSN20011105030509611/05/01 03:05:31  5-MIN KMSN 050905Z 00000KT 10SM CLR M02/M03 A3036 460 96 -1500 000/00 RMK AO2
14837KMSN MSN20011105031009611/05/01 03:10:31  5-MIN KMSN 050910Z 00000KT 10SM CLR M02/M03 A3036 460 96 -1500 000/00 RMK AO2
14837KMSN MSN20011105031509611/05/01 03:15:31  5-MIN KMSN 050915Z 00000KT 10SM CLR M02/M03 A3036 460 92 -1400 000/00 RMK AO2
14837KMSN MSN20011105032009611/05/01 03:20:31  5-MIN KMSN 050920Z 00000KT 10SM CLR M02/M03 A3036 460 92 -1400 000/00 RMK AO2
14837KMSN MSN20011105032509611/05/01 03:25:31  5-MIN KMSN 050925Z 00000KT 10SM CLR M02/M03 A3036 460 92 -1400 000/00 RMK AO2
14837KMSN MSN20011105033009611/05/01 03:30:31  5-MIN KMSN 050930Z 00000KT 10SM CLR M02/M03 A3036 460 96 -1500 000/00 RMK AO2
14837KMSN MSN20011105033509611/05/01 03:35:31  5-MIN KMSN 050935Z 00000KT 10SM CLR M02/M03 A3036 460 92 -1400 000/00 RMK AO2
14837KMSN MSN20011105034009611/05/01 03:40:31  5-MIN KMSN 050940Z 00000KT 10SM CLR M02/M03 A3036 460 96 -1400 000/00 RMK AO2
14837KMSN MSN20011105034509611/05/01 03:45:31  5-MIN KMSN 050945Z 00000KT 10SM CLR M02/M03 A3036 460 92 -1400 000/00 RMK AO2
14837KMSN MSN20011105035011311/05/01 03:50:31  5-MIN KMSN 050950Z 00000KT 10SM CLR M02/M03 A3036 460 96 -1500 000/00 RMK AO2 SLP286 T10221028
14837KMSN MSN20011105035509611/05/01 03:55:31  5-MIN KMSN 050955Z 00000KT 10SM CLR M02/M03 A3036 460 92 -1400 000/00 RMK AO2
14837KMSN MSN20011105040009611/05/01 04:00:31  5-MIN KMSN 051000Z 00000KT 10SM CLR M02/M03 A3036 460 96 -1400 000/00 RMK AO2
14837KMSN MSN20011105040509611/05/01 04:05:31  5-MIN KMSN 051005Z 00000KT 10SM CLR M02/M03 A3036 460 92 -1500 000/00 RMK AO2
14837KMSN MSN20011105041009611/05/01 04:10:31  5-MIN KMSN 051010Z 00000KT 10SM CLR M02/M03 A3036 460 96 -1400 000/00 RMK AO2
14837KMSN MSN20011105041509611/05/01 04:15:31  5-MIN KMSN 051015Z 03003KT 10SM CLR M02/M03 A3036 460 92 -1500 020/03 RMK AO2
14837KMSN MSN20011105042009611/05/01 04:20:31  5-MIN KMSN 051020Z 00000KT 10SM CLR M03/M04 A3036 460 88 -1500 000/00 RMK AO2
14837KMSN MSN20011105042509611/05/01 04:25:31  5-MIN KMSN 051025Z 00000KT 10SM CLR M03/M04 A3036 460 88 -1500 000/00 RMK AO2
14837KMSN MSN20011105043009611/05/01 04:30:31  5-MIN KMSN 051030Z 00000KT 10SM CLR M02/M04 A3036 460 85 -1500 000/00 RMK AO2
14837KMSN MSN20011105043509611/05/01 04:35:31  5-MIN KMSN 051035Z 00000KT 10SM CLR M02/M04 A3036 460 85 -1500 000/00 RMK AO2
14837KMSN MSN20011105044009611/05/01 04:40:31  5-MIN KMSN 051040Z 00000KT 10SM CLR M02/M04 A3036 460 85 -1400 000/00 RMK AO2
14837KMSN MSN20011105044509611/05/01 04:45:31  5-MIN KMSN 051045Z 00000KT 10SM CLR M02/M04 A3036 460 85 -1400 000/00 RMK AO2
14837KMSN MSN20011105045011311/05/01 04:50:31  5-MIN KMSN 051050Z 00000KT 10SM CLR M02/M04 A3036 460 88 -1400 000/00 RMK AO2 SLP288 T10221039
14837KMSN MSN20011105045509611/05/01 04:55:31  5-MIN KMSN 051055Z 00000KT 10SM CLR M03/M04 A3036 460 92 -1500 000/00 RMK AO2
14837KMSN MSN20011105050009611/05/01 05:00:31  5-MIN KMSN 051100Z 00000KT 10SM CLR M03/M04 A3036 460 92 -1500 000/00 RMK AO2
14837KMSN MSN20011105050509611/05/01 05:05:31  5-MIN KMSN 051105Z 00000KT 10SM CLR M03/M04 A3036 460 92 -1500 000/00 RMK AO2
14837KMSN MSN20011105051009611/05/01 05:10:31  5-MIN KMSN 051110Z 00000KT 10SM CLR M03/M04 A3036 460 96 -1600 000/00 RMK AO2
14837KMSN MSN20011105051509611/05/01 05:15:31  5-MIN KMSN 051115Z 00000KT 10SM CLR M03/M04 A3036 460 92 -1500 000/00 RMK AO2
14837KMSN MSN20011105052009611/05/01 05:20:31  5-MIN KMSN 051120Z 00000KT 10SM CLR M03/M04 A3036 460 92 -1500 000/00 RMK AO2
14837KMSN MSN20011105052509611/05/01 05:25:31  5-MIN KMSN 051125Z 00000KT 10SM CLR M03/M04 A3036 460 92 -1500 000/00 RMK AO2
14837KMSN MSN20011105053009611/05/01 05:30:31  5-MIN KMSN 051130Z 00000KT 10SM CLR M02/M04 A3036 460 88 -1500 000/00 RMK AO2
14837KMSN MSN20011105053509611/05/01 05:35:31  5-MIN KMSN 051135Z 00000KT 10SM CLR M02/M03 A3036 460 92 -1500 000/00 RMK AO2
14837KMSN MSN20011105054009611/05/01 05:40:31  5-MIN KMSN 051140Z 00000KT 10SM CLR M03/M04 A3036 460 92 -1500 000/00 RMK AO2
14837KMSN MSN20011105064509611/05/01 06:45:31  5-MIN KMSN 051245Z 00000KT 10SM CLR M03/M04 A3036 460 92 -1500 000/00 RMK AO2
14837KMSN MSN20011105065011311/05/01 06:50:31  5-MIN KMSN 051250Z 00000KT 10SM CLR M02/M04 A3036 460 88 -1400 000/00 RMK AO2 SLP289 T10221039
14837KMSN MSN20011105065509611/05/01 06:55:31  5-MIN KMSN 051255Z 00000KT 10SM CLR M03/M04 A3036 460 92 -1600 000/00 RMK AO2
14837KMSN MSN20011105070009611/05/01 07:00:31  5-MIN KMSN 051300Z 00000KT 10SM CLR M03/M04 A3036 460 92 -1500 000/00 RMK AO2
14837KMSN MSN20011105070509611/05/01 07:05:31  5-MIN KMSN 051305Z 00000KT 10SM CLR M02/M03 A3036 460 92 -1500 000/00 RMK AO2
14837KMSN MSN20011105071009611/05/01 07:10:31  5-MIN KMSN 051310Z 00000KT 10SM CLR M02/M03 A3036 460 88 -1400 000/00 RMK AO2
14837KMSN MSN20011105071509611/05/01 07:15:31  5-MIN KMSN 051315Z 00000KT 10SM CLR M02/M03 A3036 460 96 -1500 000/00 RMK AO2
14837KMSN MSN20011105072009611/05/01 07:20:31  5-MIN KMSN 051320Z 00000KT 10SM CLR M02/M03 A3036 460 92 -1400 000/00 RMK AO2
14837KMSN MSN20011105072509611/05/01 07:25:31  5-MIN KMSN 051325Z 00000KT 10SM CLR M01/M03 A3036 460 88 -1300 000/00 RMK AO2
14837KMSN MSN20011105073009611/05/01 07:30:31  5-MIN KMSN 051330Z 00000KT 10SM CLR M01/M03 A3036 460 88 -1300 000/00 RMK AO2
14837KMSN MSN20011105073509511/05/01 07:35:31  5-MIN KMSN 051335Z 00000KT 10SM CLR 00/M03 A3036 460 81 -1200 000/00 RMK AO2
14837KMSN MSN20011105074009511/05/01 07:40:31  5-MIN KMSN 051340Z 00000KT 10SM CLR 00/M03 A3036 460 81 -1200 000/00 RMK AO2
14837KMSN MSN20011105074509511/05/01 07:45:31  5-MIN KMSN 051345Z 15003KT 10SM CLR 01/M02 A3036 460 82 -1100 150/03 RMK AO2
14837KMSN MSN20011105075011211/05/01 07:50:31  5-MIN KMSN 051350Z 16003KT 10SM CLR 01/M02 A3036 460 82 -1100 160/03 RMK AO2 SLP291 T00061022
14837KMSN MSN20011105075509511/05/01 07:55:31  5-MIN KMSN 051355Z 00000KT 10SM CLR 01/M02 A3036 460 78 -1000 000/00 RMK AO2
14837KMSN MSN20011105080009511/05/01 08:00:31  5-MIN KMSN 051400Z 16003KT 10SM CLR 02/M02 A3036 460 78 -1000 160/03 RMK AO2
14837KMSN MSN20011105080509411/05/01 08:05:31  5-MIN KMSN 051405Z 16003KT 10SM CLR 02/M01 A3036 460 78 -900 160/03 RMK AO2
14837KMSN MSN20011105081009411/05/01 08:10:31  5-MIN KMSN 051410Z 17003KT 10SM CLR 03/M01 A3036 460 76 -800 170/03 RMK AO2
14837KMSN MSN20011105081509311/05/01 08:15:31  5-MIN KMSN 051415Z 17003KT 10SM CLR 04/00 A3036 460 76 -700 170/03 RMK AO2
14837KMSN MSN20011105082009311/05/01 08:20:31  5-MIN KMSN 051420Z 16003KT 10SM CLR 04/01 A3036 460 76 -600 160/03 RMK AO2
14837KMSN MSN20011105082509311/05/01 08:25:31  5-MIN KMSN 051425Z 16004KT 10SM CLR 05/01 A3036 460 76 -600 160/04 RMK AO2
14837KMSN MSN20011105083009311/05/01 08:30:31  5-MIN KMSN 051430Z 18004KT 10SM CLR 06/02 A3036 460 73 -400 180/04 RMK AO2
14837KMSN MSN20011105083509311/05/01 08:35:31  5-MIN KMSN 051435Z VRB05KT 10SM CLR 07/00 A3036 460 62 -300 VRB/05 RMK AO2
14837KMSN MSN20011105084009311/05/01 08:40:31  5-MIN KMSN 051440Z 21006KT 10SM CLR 07/00 A3036 460 60 -300 210/06 RMK AO2
14837KMSN MSN20011105084509311/05/01 08:45:31  5-MIN KMSN 051445Z 20006KT 10SM CLR 08/00 A3036 460 58 -200 200/06 RMK AO2
14837KMSN MSN20011105085011711/05/01 08:50:31  5-MIN KMSN 051450Z 21006KT 10SM CLR 08/M01 A3036 460 55 -200 210/06 RMK AO2 SLP288 T00781006 51001
14837KMSN MSN20011105085509311/05/01 08:55:31  5-MIN KMSN 051455Z 20006KT 10SM CLR 08/00 A3036 460 58 -200 200/06 RMK AO2
14837KMSN MSN20011105090009311/05/01 09:00:31  5-MIN KMSN 051500Z 21007KT 10SM CLR 08/00 A3036 460 55 -100 210/07 RMK AO2
14837KMSN MSN20011105090509311/05/01 09:05:31  5-MIN KMSN 051505Z 20006KT 10SM CLR 08/00 A3036 460 55 -100 200/06 RMK AO2
14837KMSN MSN20011105091009311/05/01 09:10:31  5-MIN KMSN 051510Z 20006KT 10SM CLR 09/00 A3036 460 53 -100 200/06 RMK AO2
14837KMSN MSN20011105091509311/05/01 09:15:31  5-MIN KMSN 051515Z 21005KT 10SM CLR 09/01 A3036 460 56 -100 210/05 RMK AO2
14837KMSN MSN20011105092009411/05/01 09:20:31  5-MIN KMSN 051520Z 22007KT 10SM CLR 09/M01 A3036 460 51 -100 220/07 RMK AO2
14837KMSN MSN20011105092509111/05/01 09:25:31  5-MIN KMSN 051525Z 21007KT 10SM CLR 09/M01 A3036 460 49 0 210/07 RMK AO2
14837KMSN MSN20011105093009111/05/01 09:30:31  5-MIN KMSN 051530Z 22006KT 10SM CLR 09/M01 A3036 460 49 0 220/06 RMK AO2
14837KMSN MSN20011105093509011/05/01 09:35:31  5-MIN KMSN 051535Z 21007KT 10SM CLR 09/00 A3036 460 51 0 210/07 RMK AO2
14837KMSN MSN20011105094009111/05/01 09:40:31  5-MIN KMSN 051540Z 21005KT 10SM CLR 10/M01 A3036 460 47 0 210/05 RMK AO2
14837KMSN MSN20011105094509111/05/01 09:45:31  5-MIN KMSN 051545Z 21006KT 10SM CLR 10/M01 A3036 460 46 0 210/06 RMK AO2
14837KMSN MSN20011105095010811/05/01 09:50:31  5-MIN KMSN 051550Z 20008KT 10SM CLR 10/M01 A3036 460 46 0 190/08 RMK AO2 SLP287 T01001011
14837KMSN MSN20011105095509111/05/01 09:55:31  5-MIN KMSN 051555Z VRB06KT 10SM CLR 10/M02 A3036 460 44 0 VRB/06 RMK AO2
14837KMSN MSN20011105100009111/05/01 10:00:31  5-MIN KMSN 051600Z 19008KT 10SM CLR 10/M02 A3036 460 44 0 190/08 RMK AO2
14837KMSN MSN20011105100509111/05/01 10:05:31  5-MIN KMSN 051605Z 19009KT 10SM CLR 10/M02 A3036 460 44 0 180/09 RMK AO2
14837KMSN MSN20011105101009311/05/01 10:10:31  5-MIN KMSN 051610Z 19008KT 10SM CLR 11/M01 A3036 460 44 100 190/08 RMK AO2
14837KMSN MSN20011105101510911/05/01 10:15:31  5-MIN KMSN 051615Z 21007KT 180V260 10SM CLR 11/M02 A3036 460 42 100 210/07 180V260 RMK AO2
14837KMSN MSN20011105102009311/05/01 10:20:31  5-MIN KMSN 051620Z 22009KT 10SM CLR 11/M02 A3035 470 42 100 210/09 RMK AO2
14837KMSN MSN20011105102509311/05/01 10:25:31  5-MIN KMSN 051625Z 21009KT 10SM CLR 11/M02 A3035 470 42 100 210/09 RMK AO2
14837KMSN MSN20011105103009311/05/01 10:30:31  5-MIN KMSN 051630Z 21008KT 10SM CLR 11/M02 A3035 470 41 200 210/08 RMK AO2
14837KMSN MSN20011105103509311/05/01 10:35:31  5-MIN KMSN 051635Z 20009KT 10SM CLR 11/M02 A3035 470 41 200 200/09 RMK AO2
14837KMSN MSN20011105104009311/05/01 10:40:31  5-MIN KMSN 051640Z 19008KT 10SM CLR 11/M01 A3035 470 42 200 190/08 RMK AO2
14837KMSN MSN20011105104509311/05/01 10:45:31  5-MIN KMSN 051645Z 20009KT 10SM CLR 11/M01 A3034 470 42 200 200/09 RMK AO2
14837KMSN MSN20011105105011011/05/01 10:50:31  5-MIN KMSN 051650Z 22008KT 10SM CLR 11/M01 A3034 480 42 200 220/08 RMK AO2 SLP281 T01111011
14837KMSN MSN20011105105509311/05/01 10:55:31  5-MIN KMSN 051655Z 20007KT 10SM CLR 11/M01 A3034 480 42 200 200/07 RMK AO2
14837KMSN MSN20011105110009311/05/01 11:00:31  5-MIN KMSN 051700Z 20008KT 10SM CLR 12/M01 A3034 480 41 200 200/08 RMK AO2
14837KMSN MSN20011105110509311/05/01 11:05:31  5-MIN KMSN 051705Z 21008KT 10SM CLR 11/M02 A3033 480 41 200 210/08 RMK AO2
14837KMSN MSN20011105111009311/05/01 11:10:31  5-MIN KMSN 051710Z 21007KT 10SM CLR 12/M01 A3033 490 41 200 200/07 RMK AO2
14837KMSN MSN20011105111509311/05/01 11:15:31  5-MIN KMSN 051715Z 19006KT 10SM CLR 12/M01 A3033 490 41 300 190/06 RMK AO2
14837KMSN MSN20011105112009311/05/01 11:20:31  5-MIN KMSN 051720Z 19009KT 10SM CLR 13/M01 A3032 490 38 400 190/09 RMK AO2
14837KMSN MSN20011105112509311/05/01 11:25:31  5-MIN KMSN 051725Z 19007KT 10SM CLR 12/M02 A3032 500 36 300 190/07 RMK AO2
14837KMSN MSN20011105113009311/05/01 11:30:31  5-MIN KMSN 051730Z 19010KT 10SM CLR 12/M02 A3032 500 36 300 190/10 RMK AO2
14837KMSN MSN20011105113509311/05/01 11:35:31  5-MIN KMSN 051735Z 20008KT 10SM CLR 13/M02 A3031 500 36 400 200/08 RMK AO2
14837KMSN MSN20011105114009311/05/01 11:40:31  5-MIN KMSN 051740Z 19009KT 10SM CLR 13/M02 A3031 500 35 400 190/09 RMK AO2
14837KMSN MSN20011105114509311/05/01 11:45:31  5-MIN KMSN 051745Z 21009KT 10SM CLR 13/M03 A3031 500 33 400 210/09 RMK AO2
14837KMSN MSN20011105115012811/05/01 11:50:31  5-MIN KMSN 051750Z 19011KT 10SM CLR 13/M03 A3031 510 33 400 190/11 RMK AO2 SLP270 T01281028 10128 21033 50001
14837KMSN MSN20011105115510911/05/01 11:55:31  5-MIN KMSN 051755Z 21008KT 190V260 10SM CLR 13/M02 A3031 510 35 400 210/08 190V260 RMK AO2
14837KMSN MSN20011105120009311/05/01 12:00:31  5-MIN KMSN 051800Z 21009KT 10SM CLR 13/M02 A3031 510 35 400 210/09 RMK AO2
14837KMSN MSN20011105120509311/05/01 12:05:31  5-MIN KMSN 051805Z 19010KT 10SM CLR 13/M03 A3030 510 33 400 190/10 RMK AO2
14837KMSN MSN20011105121009311/05/01 12:10:31  5-MIN KMSN 051810Z 22011KT 10SM CLR 13/M03 A3030 510 33 400 220/11 RMK AO2
14837KMSN MSN20011105121509911/05/01 12:15:31  5-MIN KMSN 051815Z 21007G15KT 10SM CLR 13/M03 A3030 520 33 400 210/07G15 RMK AO2
14837KMSN MSN20011105122009311/05/01 12:20:31  5-MIN KMSN 051820Z 20009KT 10SM CLR 13/M02 A3030 520 34 500 200/09 RMK AO2
14837KMSN MSN20011105122509311/05/01 12:25:31  5-MIN KMSN 051825Z 19011KT 10SM CLR 13/M03 A3030 520 32 500 190/11 RMK AO2
14837KMSN MSN20011105123009311/05/01 12:30:31  5-MIN KMSN 051830Z 21008KT 10SM CLR 13/M03 A3029 520 32 500 210/08 RMK AO2
14837KMSN MSN20011105123510911/05/01 12:35:31  5-MIN KMSN 051835Z 20007KT 180V240 10SM CLR 13/M03 A3029 520 32 500 200/07 180V240 RMK AO2
14837KMSN MSN20011105124009311/05/01 12:40:31  5-MIN KMSN 051840Z 20009KT 10SM CLR 14/M02 A3029 530 32 600 200/09 RMK AO2
14837KMSN MSN20011105124509311/05/01 12:45:31  5-MIN KMSN 051845Z 18008KT 10SM CLR 14/M03 A3029 530 31 600 180/08 RMK AO2
14837KMSN MSN20011105125011011/05/01 12:50:31  5-MIN KMSN 051850Z 22010KT 10SM CLR 13/M03 A3028 530 32 500 220/10 RMK AO2 SLP262 T01331028
14837KMSN MSN20011105125509311/05/01 12:55:31  5-MIN KMSN 051855Z 21008KT 10SM CLR 14/M03 A3028 530 31 600 210/08 RMK AO2
14837KMSN MSN20011105130009311/05/01 13:00:31  5-MIN KMSN 051900Z 21009KT 10SM CLR 14/M02 A3028 530 32 600 210/09 RMK AO2
14837KMSN MSN20011105130509311/05/01 13:05:31  5-MIN KMSN 051905Z 20007KT 10SM CLR 14/M02 A3028 530 32 600 200/07 RMK AO2
14837KMSN MSN20011105131009311/05/01 13:10:31  5-MIN KMSN 051910Z 21006KT 10SM CLR 14/M02 A3028 530 34 600 210/06 RMK AO2
14837KMSN MSN20011105131509311/05/01 13:15:31  5-MIN KMSN 051915Z 22008KT 10SM CLR 14/M02 A3028 530 32 600 220/08 RMK AO2
14837KMSN MSN20011105132010911/05/01 13:20:31  5-MIN KMSN 051920Z 22007KT 180V250 10SM CLR 14/M02 A3028 540 32 600 210/07 180V250 RMK AO2
14837KMSN MSN20011105132509311/05/01 13:25:31  5-MIN KMSN 051925Z 19008KT 10SM CLR 14/M02 A3027 540 33 600 190/08 RMK AO2
14837KMSN MSN20011105133009311/05/01 13:30:31  5-MIN KMSN 051930Z 21008KT 10SM CLR 14/M02 A3027 540 32 600 210/08 RMK AO2
14837KMSN MSN20011105133509311/05/01 13:35:31  5-MIN KMSN 051935Z 22005KT 10SM CLR 14/M02 A3027 540 31 600 220/05 RMK AO2
14837KMSN MSN20011105134009311/05/01 13:40:31  5-MIN KMSN 051940Z 20008KT 10SM CLR 14/M02 A3027 540 32 600 200/08 RMK AO2
14837KMSN MSN20011105134509311/05/01 13:45:31  5-MIN KMSN 051945Z 20007KT 10SM CLR 14/M02 A3027 550 31 600 200/07 RMK AO2
14837KMSN MSN20011105135011011/05/01 13:50:31  5-MIN KMSN 051950Z 21008KT 10SM CLR 14/M03 A3026 550 31 600 210/08 RMK AO2 SLP255 T01391028
14837KMSN MSN20011105135509311/05/01 13:55:31  5-MIN KMSN 051955Z 19009KT 10SM CLR 14/M03 A3026 550 30 700 190/09 RMK AO2
14837KMSN MSN20011105140009311/05/01 14:00:31  5-MIN KMSN 052000Z 19008KT 10SM CLR 14/M03 A3026 550 31 600 190/08 RMK AO2
14837KMSN MSN20011105140509311/05/01 14:05:31  5-MIN KMSN 052005Z 19007KT 10SM CLR 14/M03 A3026 560 30 700 190/07 RMK AO2
14837KMSN MSN20011105141009311/05/01 14:10:31  5-MIN KMSN 052010Z 19009KT 10SM CLR 14/M03 A3025 560 30 700 190/09 RMK AO2
14837KMSN MSN20011105141509311/05/01 14:15:31  5-MIN KMSN 052015Z 19008KT 10SM CLR 14/M03 A3025 560 30 700 190/08 RMK AO2
14837KMSN MSN20011105142009311/05/01 14:20:31  5-MIN KMSN 052020Z 20007KT 10SM CLR 14/M03 A3025 560 30 700 190/07 RMK AO2
14837KMSN MSN20011105142509311/05/01 14:25:31  5-MIN KMSN 052025Z 20007KT 10SM CLR 14/M02 A3025 560 31 700 200/07 RMK AO2
14837KMSN MSN20011105143009311/05/01 14:30:31  5-MIN KMSN 052030Z 19010KT 10SM CLR 14/M03 A3025 560 30 700 190/10 RMK AO2
14837KMSN MSN20011105143509311/05/01 14:35:31  5-MIN KMSN 052035Z 18009KT 10SM CLR 14/M03 A3025 560 30 700 180/09 RMK AO2
14837KMSN MSN20011105144009311/05/01 14:40:31  5-MIN KMSN 052040Z 19010KT 10SM CLR 14/M03 A3025 560 30 700 180/10 RMK AO2
14837KMSN MSN20011105144509311/05/01 14:45:31  5-MIN KMSN 052045Z 18008KT 10SM CLR 14/M03 A3025 560 30 700 180/08 RMK AO2
14837KMSN MSN20011105145011611/05/01 14:50:31  5-MIN KMSN 052050Z 18008KT 10SM CLR 14/M02 A3025 560 31 700 180/08 RMK AO2 SLP249 T01441022 58017
14837KMSN MSN20011105145509311/05/01 14:55:31  5-MIN KMSN 052055Z 17009KT 10SM CLR 14/M03 A3025 560 30 700 170/09 RMK AO2
14837KMSN MSN20011105150009311/05/01 15:00:31  5-MIN KMSN 052100Z 19008KT 10SM CLR 14/M02 A3025 560 31 700 190/08 RMK AO2
14837KMSN MSN20011105150509311/05/01 15:05:31  5-MIN KMSN 052105Z 18012KT 10SM CLR 14/M03 A3024 570 31 600 180/12 RMK AO2
14837KMSN MSN20011105151009311/05/01 15:10:31  5-MIN KMSN 052110Z 18010KT 10SM CLR 14/M03 A3024 570 31 600 180/10 RMK AO2
14837KMSN MSN20011105151509311/05/01 15:15:31  5-MIN KMSN 052115Z 18010KT 10SM CLR 14/M03 A3024 570 31 600 180/10 RMK AO2
14837KMSN MSN20011105152009311/05/01 15:20:31  5-MIN KMSN 052120Z 18010KT 10SM CLR 14/M03 A3024 570 31 600 180/10 RMK AO2
14837KMSN MSN20011105152509311/05/01 15:25:31  5-MIN KMSN 052125Z 19011KT 10SM CLR 14/M03 A3024 570 31 600 180/11 RMK AO2
14837KMSN MSN20011105153009311/05/01 15:30:31  5-MIN KMSN 052130Z 18010KT 10SM CLR 14/M02 A3024 570 32 600 180/10 RMK AO2
14837KMSN MSN20011105153509311/05/01 15:35:31  5-MIN KMSN 052135Z 19008KT 10SM CLR 14/M02 A3024 570 32 600 180/08 RMK AO2
14837KMSN MSN20011105154009311/05/01 15:40:31  5-MIN KMSN 052140Z 18012KT 10SM CLR 14/M03 A3024 570 31 600 180/12 RMK AO2
14837KMSN MSN20011105154509311/05/01 15:45:31  5-MIN KMSN 052145Z 18009KT 10SM CLR 14/M03 A3024 570 31 600 180/09 RMK AO2
14837KMSN MSN20011105155011011/05/01 15:50:31  5-MIN KMSN 052150Z 19009KT 10SM CLR 14/M03 A3024 570 31 600 190/09 RMK AO2 SLP245 T01391028
14837KMSN MSN20011105155509311/05/01 15:55:31  5-MIN KMSN 052155Z 18007KT 10SM CLR 13/M03 A3024 570 32 500 180/07 RMK AO2
14837KMSN MSN20011105160009311/05/01 16:00:31  5-MIN KMSN 052200Z 18009KT 10SM CLR 13/M03 A3024 570 32 500 180/09 RMK AO2
14837KMSN MSN20011105160509311/05/01 16:05:31  5-MIN KMSN 052205Z 18008KT 10SM CLR 13/M02 A3024 570 34 500 180/08 RMK AO2
14837KMSN MSN20011105161009311/05/01 16:10:31  5-MIN KMSN 052210Z 19008KT 10SM CLR 13/M02 A3024 570 35 500 180/08 RMK AO2
14837KMSN MSN20011105161509311/05/01 16:15:31  5-MIN KMSN 052215Z 18008KT 10SM CLR 13/M02 A3024 570 35 500 180/08 RMK AO2
14837KMSN MSN20011105162009311/05/01 16:20:31  5-MIN KMSN 052220Z 19008KT 10SM CLR 13/M02 A3024 570 35 500 190/08 RMK AO2
14837KMSN MSN20011105162509311/05/01 16:25:31  5-MIN KMSN 052225Z 19008KT 10SM CLR 13/M02 A3023 580 35 500 190/08 RMK AO2
14837KMSN MSN20011105163009311/05/01 16:30:31  5-MIN KMSN 052230Z 19008KT 10SM CLR 13/M02 A3023 580 35 500 190/08 RMK AO2
14837KMSN MSN20011105163509311/05/01 16:35:31  5-MIN KMSN 052235Z 19007KT 10SM CLR 13/M02 A3023 580 35 500 190/07 RMK AO2
14837KMSN MSN20011105164009311/05/01 16:40:31  5-MIN KMSN 052240Z 19007KT 10SM CLR 12/M02 A3023 580 36 400 190/07 RMK AO2
14837KMSN MSN20011105164509311/05/01 16:45:31  5-MIN KMSN 052245Z 19006KT 10SM CLR 12/M02 A3023 580 36 400 190/06 RMK AO2
14837KMSN MSN20011105165011011/05/01 16:50:31  5-MIN KMSN 052250Z 18007KT 10SM CLR 12/M02 A3023 580 38 400 180/07 RMK AO2 SLP245 T01171022
14837KMSN MSN20011105165509311/05/01 16:55:31  5-MIN KMSN 052255Z 19007KT 10SM CLR 12/M02 A3023 580 38 400 190/07 RMK AO2
14837KMSN MSN20011105170009311/05/01 17:00:31  5-MIN KMSN 052300Z 19007KT 10SM CLR 12/M02 A3023 580 38 400 190/07 RMK AO2
14837KMSN MSN20011105170509311/05/01 17:05:31  5-MIN KMSN 052305Z 19007KT 10SM CLR 12/M02 A3023 580 38 400 190/07 RMK AO2
14837KMSN MSN20011105171009311/05/01 17:10:31  5-MIN KMSN 052310Z 19007KT 10SM CLR 12/M02 A3023 580 38 400 190/07 RMK AO2
14837KMSN MSN20011105171509311/05/01 17:15:31  5-MIN KMSN 052315Z 19007KT 10SM CLR 12/M02 A3023 580 38 400 190/07 RMK AO2
14837KMSN MSN20011105172009311/05/01 17:20:31  5-MIN KMSN 052320Z 19007KT 10SM CLR 12/M02 A3023 580 38 400 190/07 RMK AO2
14837KMSN MSN20011105172509311/05/01 17:25:31  5-MIN KMSN 052325Z 19007KT 10SM CLR 12/M02 A3023 580 38 400 190/07 RMK AO2
14837KMSN MSN20011105173009311/05/01 17:30:31  5-MIN KMSN 052330Z 18008KT 10SM CLR 12/M02 A3023 580 38 400 180/08 RMK AO2
14837KMSN MSN20011105173509311/05/01 17:35:31  5-MIN KMSN 052335Z 18007KT 10SM CLR 11/M02 A3023 580 39 300 180/07 RMK AO2
14837KMSN MSN20011105174009311/05/01 17:40:31  5-MIN KMSN 052340Z 18006KT 10SM CLR 10/M02 A3023 580 42 200 180/06 RMK AO2
14837KMSN MSN20011105174509311/05/01 17:45:31  5-MIN KMSN 052345Z 18005KT 10SM CLR 11/M02 A3023 580 42 200 180/05 RMK AO2
14837KMSN MSN20011105175012811/05/01 17:50:31  5-MIN KMSN 052350Z 18006KT 10SM CLR 10/M02 A3023 580 44 200 180/06 RMK AO2 SLP244 T01001017 10144 20100 56021
14837KMSN MSN20011105175509311/05/01 17:55:31  5-MIN KMSN 052355Z 19007KT 10SM CLR 11/M02 A3023 580 42 200 180/07 RMK AO2
14837KMSN MSN20011105180009311/05/01 18:00:31  5-MIN KMSN 060000Z 18007KT 10SM CLR 11/M02 A3023 580 42 200 180/07 RMK AO2
14837KMSN MSN20011105180509311/05/01 18:05:31  5-MIN KMSN 060005Z 18007KT 10SM CLR 11/M02 A3022 590 42 200 180/07 RMK AO2
14837KMSN MSN20011105181009311/05/01 18:10:31  5-MIN KMSN 060010Z 18008KT 10SM CLR 11/M02 A3022 590 42 200 180/08 RMK AO2
14837KMSN MSN20011105181509311/05/01 18:15:31  5-MIN KMSN 060015Z 18007KT 10SM CLR 11/M02 A3022 590 42 200 180/07 RMK AO2
14837KMSN MSN20011105182009311/05/01 18:20:31  5-MIN KMSN 060020Z 18007KT 10SM CLR 10/M02 A3022 590 42 200 180/07 RMK AO2
14837KMSN MSN20011105182509311/05/01 18:25:31  5-MIN KMSN 060025Z 18007KT 10SM CLR 10/M02 A3022 590 42 200 180/07 RMK AO2
14837KMSN MSN20011105183009311/05/01 18:30:31  5-MIN KMSN 060030Z 18008KT 10SM CLR 10/M02 A3022 590 42 200 180/08 RMK AO2
14837KMSN MSN20011105183509311/05/01 18:35:31  5-MIN KMSN 060035Z 19008KT 10SM CLR 10/M02 A3021 590 42 200 180/08 RMK AO2
14837KMSN MSN20011105184009311/05/01 18:40:31  5-MIN KMSN 060040Z 19009KT 10SM CLR 10/M02 A3021 590 42 200 190/09 RMK AO2
14837KMSN MSN20011105184509311/05/01 18:45:31  5-MIN KMSN 060045Z 19009KT 10SM CLR 11/M02 A3021 590 40 200 180/09 RMK AO2
14837KMSN MSN20011105185011011/05/01 18:50:31  5-MIN KMSN 060050Z 19009KT 10SM CLR 11/M02 A3021 590 40 200 190/09 RMK AO2 SLP238 T01061022
14837KMSN MSN20011105185509311/05/01 18:55:31  5-MIN KMSN 060055Z 19008KT 10SM CLR 10/M02 A3021 590 42 200 190/08 RMK AO2
14837KMSN MSN20011105190009311/05/01 19:00:31  5-MIN KMSN 060100Z 19007KT 10SM CLR 10/M02 A3021 600 42 200 190/07 RMK AO2
14837KMSN MSN20011105190509311/05/01 19:05:31  5-MIN KMSN 060105Z 19008KT 10SM CLR 10/M02 A3021 600 42 200 190/08 RMK AO2
14837KMSN MSN20011105191009311/05/01 19:10:31  5-MIN KMSN 060110Z 19008KT 10SM CLR 10/M02 A3021 600 42 200 190/08 RMK AO2
14837KMSN MSN20011105191509311/05/01 19:15:31  5-MIN KMSN 060115Z 19007KT 10SM CLR 09/M02 A3021 600 44 100 180/07 RMK AO2
14837KMSN MSN20011105192009311/05/01 19:20:31  5-MIN KMSN 060120Z 19007KT 10SM CLR 09/M02 A3021 600 44 100 190/07 RMK AO2
14837KMSN MSN20011105192509311/05/01 19:25:31  5-MIN KMSN 060125Z 19007KT 10SM CLR 09/M02 A3021 600 44 100 190/07 RMK AO2
14837KMSN MSN20011105193009311/05/01 19:30:31  5-MIN KMSN 060130Z 18007KT 10SM CLR 09/M02 A3021 600 44 100 180/07 RMK AO2
14837KMSN MSN20011105193509311/05/01 19:35:31  5-MIN KMSN 060135Z 18006KT 10SM CLR 09/M02 A3021 600 44 100 180/06 RMK AO2
14837KMSN MSN20011105194009111/05/01 19:40:31  5-MIN KMSN 060140Z 18005KT 10SM CLR 09/M02 A3021 600 47 0 180/05 RMK AO2
14837KMSN MSN20011105194509111/05/01 19:45:31  5-MIN KMSN 060145Z 18004KT 10SM CLR 09/M02 A3021 600 47 0 180/04 RMK AO2
14837KMSN MSN20011105195010811/05/01 19:50:31  5-MIN KMSN 060150Z 18004KT 10SM CLR 08/M02 A3021 600 49 0 180/04 RMK AO2 SLP237 T00831017
14837KMSN MSN20011105195509111/05/01 19:55:31  5-MIN KMSN 060155Z 19004KT 10SM CLR 08/M02 A3021 600 49 0 190/04 RMK AO2
14837KMSN MSN20011105200009111/05/01 20:00:31  5-MIN KMSN 060200Z 19004KT 10SM CLR 09/M02 A3021 600 47 0 180/04 RMK AO2
14837KMSN MSN20011105200509111/05/01 20:05:31  5-MIN KMSN 060205Z VRB04KT 10SM CLR 08/M02 A3021 600 49 0 VRB/04 RMK AO2
14837KMSN MSN20011105201009111/05/01 20:10:31  5-MIN KMSN 060210Z 18003KT 10SM CLR 08/M02 A3021 600 51 0 180/03 RMK AO2
14837KMSN MSN20011105201509111/05/01 20:15:31  5-MIN KMSN 060215Z 18004KT 10SM CLR 08/M02 A3021 600 51 0 180/04 RMK AO2
14837KMSN MSN20011105202009111/05/01 20:20:31  5-MIN KMSN 060220Z 19003KT 10SM CLR 08/M02 A3021 590 49 0 190/03 RMK AO2
14837KMSN MSN20011105202509111/05/01 20:25:31  5-MIN KMSN 060225Z VRB03KT 10SM CLR 08/M02 A3021 590 51 0 VRB/03 RMK AO2
14837KMSN MSN20011105203009411/05/01 20:30:31  5-MIN KMSN 060230Z 00000KT 10SM CLR 07/M02 A3021 590 53 -100 000/00 RMK AO2
14837KMSN MSN20011105203509411/05/01 20:35:31  5-MIN KMSN 060235Z 00000KT 10SM CLR 07/M02 A3021 590 53 -100 000/00 RMK AO2
14837KMSN MSN20011105204009111/05/01 20:40:31  5-MIN KMSN 060240Z 00000KT 10SM CLR 08/M02 A3021 590 51 0 000/00 RMK AO2
14837KMSN MSN20011105204509411/05/01 20:45:31  5-MIN KMSN 060245Z 00000KT 10SM CLR 07/M02 A3022 590 53 -100 000/00 RMK AO2
14837KMSN MSN20011105205011411/05/01 20:50:31  5-MIN KMSN 060250Z 00000KT 10SM CLR 08/M02 A3022 590 51 0 000/00 RMK AO2 SLP237 T00781017 56007
14837KMSN MSN20011105205509411/05/01 20:55:31  5-MIN KMSN 060255Z 00000KT 10SM CLR 07/M02 A3022 590 55 -200 000/00 RMK AO2
14837KMSN MSN20011105210009411/05/01 21:00:31  5-MIN KMSN 060300Z 00000KT 10SM CLR 07/M02 A3022 590 55 -200 000/00 RMK AO2
14837KMSN MSN20011105210509411/05/01 21:05:31  5-MIN KMSN 060305Z 00000KT 10SM CLR 07/M02 A3022 590 53 -100 000/00 RMK AO2
14837KMSN MSN20011105211009411/05/01 21:10:31  5-MIN KMSN 060310Z 00000KT 10SM CLR 06/M02 A3022 590 59 -300 000/00 RMK AO2
14837KMSN MSN20011105211509411/05/01 21:15:31  5-MIN KMSN 060315Z 00000KT 10SM CLR 06/M02 A3022 590 59 -300 000/00 RMK AO2
14837KMSN MSN20011105212009411/05/01 21:20:31  5-MIN KMSN 060320Z 00000KT 10SM CLR 06/M02 A3022 590 57 -300 000/00 RMK AO2
14837KMSN MSN20011105212509411/05/01 21:25:31  5-MIN KMSN 060325Z 00000KT 10SM CLR 07/M02 A3022 590 55 -200 000/00 RMK AO2
14837KMSN MSN20011105213009411/05/01 21:30:31  5-MIN KMSN 060330Z 00000KT 10SM CLR 06/M02 A3022 590 57 -300 000/00 RMK AO2
14837KMSN MSN20011105213509411/05/01 21:35:31  5-MIN KMSN 060335Z 00000KT 10SM CLR 07/M02 A3022 590 55 -200 000/00 RMK AO2
14837KMSN MSN20011105214009411/05/01 21:40:31  5-MIN KMSN 060340Z 12003KT 10SM CLR 06/M02 A3022 590 57 -300 120/03 RMK AO2
14837KMSN MSN20011105214509411/05/01 21:45:31  5-MIN KMSN 060345Z 12004KT 10SM CLR 04/M03 A3022 590 59 -500 120/04 RMK AO2
14837KMSN MSN20011105215011111/05/01 21:50:31  5-MIN KMSN 060350Z 13004KT 10SM CLR 03/M03 A3022 590 67 -700 130/04 RMK AO2 SLP240 T00281028
14837KMSN MSN20011105215509411/05/01 21:55:31  5-MIN KMSN 060355Z 14003KT 10SM CLR 04/M02 A3022 590 64 -500 140/03 RMK AO2
14837KMSN MSN20011105220009411/05/01 22:00:31  5-MIN KMSN 060400Z 00000KT 10SM CLR 04/M03 A3022 590 62 -500 000/00 RMK AO2
14837KMSN MSN20011105220509411/05/01 22:05:31  5-MIN KMSN 060405Z 16003KT 10SM CLR 04/M02 A3022 590 64 -500 160/03 RMK AO2
14837KMSN MSN20011105221009411/05/01 22:10:31  5-MIN KMSN 060410Z 17003KT 10SM CLR 05/M02 A3022 590 59 -400 170/03 RMK AO2
14837KMSN MSN20011105221509411/05/01 22:15:31  5-MIN KMSN 060415Z 17003KT 10SM CLR 04/M02 A3022 590 64 -500 170/03 RMK AO2
14837KMSN MSN20011105222009411/05/01 22:20:31  5-MIN KMSN 060420Z 16003KT 10SM CLR 04/M02 A3022 590 62 -500 160/03 RMK AO2
14837KMSN MSN20011105222509411/05/01 22:25:31  5-MIN KMSN 060425Z 17003KT 10SM CLR 05/M02 A3022 590 59 -400 170/03 RMK AO2
14837KMSN MSN20011105223009411/05/01 22:30:31  5-MIN KMSN 060430Z 00000KT 10SM CLR 06/M02 A3022 590 57 -300 000/00 RMK AO2
14837KMSN MSN20011105223509411/05/01 22:35:31  5-MIN KMSN 060435Z 00000KT 10SM CLR 04/M02 A3022 590 62 -500 000/00 RMK AO2
14837KMSN MSN20011105224009411/05/01 22:40:31  5-MIN KMSN 060440Z 00000KT 10SM CLR 05/M02 A3022 590 59 -400 000/00 RMK AO2
14837KMSN MSN20011105224509411/05/01 22:45:31  5-MIN KMSN 060445Z 16003KT 10SM CLR 06/M02 A3021 590 57 -300 160/03 RMK AO2
14837KMSN MSN20011105225011111/05/01 22:50:31  5-MIN KMSN 060450Z 16003KT 10SM CLR 06/M02 A3021 590 57 -300 160/03 RMK AO2 SLP236 T00561022
14837KMSN MSN20011105225509411/05/01 22:55:31  5-MIN KMSN 060455Z 00000KT 10SM CLR 05/M02 A3021 590 59 -400 000/00 RMK AO2
14837KMSN MSN20011105230009411/05/01 23:00:31  5-MIN KMSN 060500Z 00000KT 10SM CLR 06/M02 A3021 600 57 -300 000/00 RMK AO2
14837KMSN MSN20011105230509411/05/01 23:05:31  5-MIN KMSN 060505Z 15003KT 10SM CLR 05/M02 A3021 600 59 -400 150/03 RMK AO2
14837KMSN MSN20011105231009411/05/01 23:10:31  5-MIN KMSN 060510Z 16003KT 10SM CLR 05/M02 A3021 600 59 -400 160/03 RMK AO2
14837KMSN MSN20011105231509411/05/01 23:15:31  5-MIN KMSN 060515Z 15003KT 10SM CLR 05/M02 A3021 600 59 -400 150/03 RMK AO2
14837KMSN MSN20011105232009411/05/01 23:20:31  5-MIN KMSN 060520Z 16003KT 10SM CLR 05/M02 A3021 600 59 -400 150/03 RMK AO2
14837KMSN MSN20011105232509411/05/01 23:25:31  5-MIN KMSN 060525Z 17004KT 10SM CLR 03/M03 A3021 600 64 -600 160/04 RMK AO2
14837KMSN MSN20011105233009411/05/01 23:30:31  5-MIN KMSN 060530Z 16004KT 10SM CLR 04/M02 A3021 600 64 -500 160/04 RMK AO2
14837KMSN MSN20011105233509411/05/01 23:35:31  5-MIN KMSN 060535Z 16004KT 10SM CLR 04/M02 A3021 600 62 -400 150/04 RMK AO2
14837KMSN MSN20011105234009411/05/01 23:40:31  5-MIN KMSN 060540Z 17003KT 10SM CLR 04/M02 A3021 600 64 -400 170/03 RMK AO2
14837KMSN MSN20011105234509411/05/01 23:45:31  5-MIN KMSN 060545Z 17003KT 10SM CLR 04/M02 A3021 600 64 -500 170/03 RMK AO2
14837KMSN MSN20011105235013911/05/01 23:50:31  5-MIN KMSN 060550Z 16004KT 10SM CLR 04/M02 A3021 600 62 -400 160/04 RMK AO2 SLP234 T00441022 10106 20028 401441033 55003
14837KMSN MSN20011105235509411/05/01 23:55:31  5-MIN KMSN 060555Z 16005KT 10SM CLR 04/M02 A3021 600 64 -500 160/05 RMK AO2
14837KMSN MSN20011106000009411/06/01 00:00:31  5-MIN KMSN 060600Z 16004KT 10SM CLR 04/M02 A3021 600 62 -400 160/04 RMK AO2
14837KMSN MSN20011106000509411/06/01 00:05:31  5-MIN KMSN 060605Z 17004KT 10SM CLR 03/M03 A3021 600 64 -600 170/04 RMK AO2
14837KMSN MSN20011106001009411/06/01 00:10:31  5-MIN KMSN 060610Z 17005KT 10SM CLR 03/M02 A3021 600 67 -600 170/05 RMK AO2
14837KMSN MSN20011106001509411/06/01 00:15:31  5-MIN KMSN 060615Z 18005KT 10SM CLR 04/M02 A3021 600 67 -500 180/05 RMK AO2
14837KMSN MSN20011106002009411/06/01 00:20:31  5-MIN KMSN 060620Z 17006KT 10SM CLR 04/M02 A3020 600 64 -400 170/06 RMK AO2
14837KMSN MSN20011106002509411/06/01 00:25:31  5-MIN KMSN 060625Z 18005KT 10SM CLR 04/M02 A3020 600 64 -400 170/05 RMK AO2
14837KMSN MSN20011106003009411/06/01 00:30:31  5-MIN KMSN 060630Z 17005KT 10SM CLR 05/M02 A3020 600 62 -400 170/05 RMK AO2
14837KMSN MSN20011106003509411/06/01 00:35:31  5-MIN KMSN 060635Z 17006KT 10SM CLR 04/M02 A3020 600 64 -400 170/06 RMK AO2
14837KMSN MSN20011106004009411/06/01 00:40:31  5-MIN KMSN 060640Z 17006KT 10SM CLR 04/M02 A3020 600 64 -400 170/06 RMK AO2
14837KMSN MSN20011106004509411/06/01 00:45:31  5-MIN KMSN 060645Z 18006KT 10SM CLR 05/M02 A3020 600 62 -400 180/06 RMK AO2
14837KMSN MSN20011106005011111/06/01 00:50:31  5-MIN KMSN 060650Z 18005KT 10SM CLR 05/M02 A3021 600 62 -400 180/05 RMK AO2 SLP232 T00501017
14837KMSN MSN20011106005509411/06/01 00:55:31  5-MIN KMSN 060655Z 18006KT 10SM CLR 04/M02 A3020 600 64 -400 170/06 RMK AO2
14837KMSN MSN20011106010009411/06/01 01:00:31  5-MIN KMSN 060700Z 17006KT 10SM CLR 05/M02 A3020 610 62 -400 170/06 RMK AO2
14837KMSN MSN20011106010509411/06/01 01:05:31  5-MIN KMSN 060705Z 17006KT 10SM CLR 04/M02 A3020 610 62 -400 170/06 RMK AO2
14837KMSN MSN20011106011009411/06/01 01:10:31  5-MIN KMSN 060710Z 18006KT 10SM CLR 04/M02 A3020 610 62 -400 180/06 RMK AO2
14837KMSN MSN20011106011509411/06/01 01:15:31  5-MIN KMSN 060715Z 19006KT 10SM CLR 04/M02 A3020 610 64 -400 180/06 RMK AO2
14837KMSN MSN20011106012009411/06/01 01:20:31  5-MIN KMSN 060720Z 19005KT 10SM CLR 04/M02 A3020 600 64 -400 190/05 RMK AO2
14837KMSN MSN20011106012509411/06/01 01:25:31  5-MIN KMSN 060725Z 19006KT 10SM CLR 05/M02 A3020 600 59 -400 190/06 RMK AO2
14837KMSN MSN20011106013009411/06/01 01:30:31  5-MIN KMSN 060730Z 20005KT 10SM CLR 06/M02 A3020 600 55 -200 190/05 RMK AO2
14837KMSN MSN20011106013509411/06/01 01:35:31  5-MIN KMSN 060735Z 19006KT 10SM CLR 06/M02 A3020 600 55 -200 190/06 RMK AO2
14837KMSN MSN20011106014009411/06/01 01:40:31  5-MIN KMSN 060740Z 19008KT 10SM CLR 06/M02 A3020 600 55 -200 190/08 RMK AO2
14837KMSN MSN20011106014509411/06/01 01:45:31  5-MIN KMSN 060745Z 18007KT 10SM CLR 07/M02 A3021 600 53 -200 180/07 RMK AO2
14837KMSN MSN20011106015011111/06/01 01:50:31  5-MIN KMSN 060750Z 18007KT 10SM CLR 06/M02 A3021 600 55 -200 180/07 RMK AO2 SLP232 T00611022
14837KMSN MSN20011106015509411/06/01 01:55:31  5-MIN KMSN 060755Z 19007KT 10SM CLR 06/M02 A3021 600 55 -200 180/07 RMK AO2
14837KMSN MSN20011106020009411/06/01 02:00:31  5-MIN KMSN 060800Z 19006KT 10SM CLR 06/M02 A3021 600 57 -300 190/06 RMK AO2
14837KMSN MSN20011106020509411/06/01 02:05:31  5-MIN KMSN 060805Z 19005KT 10SM CLR 06/M03 A3021 600 55 -300 190/05 RMK AO2
14837KMSN MSN20011106021009411/06/01 02:10:31  5-MIN KMSN 060810Z 19005KT 10SM CLR 06/M03 A3021 600 53 -200 190/05 RMK AO2
14837KMSN MSN20011106021509411/06/01 02:15:31  5-MIN KMSN 060815Z 19008KT 10SM CLR 06/M03 A3021 600 53 -200 190/08 RMK AO2
14837KMSN MSN20011106022009411/06/01 02:20:31  5-MIN KMSN 060820Z 19007KT 10SM CLR 06/M03 A3021 600 53 -200 190/07 RMK AO2
14837KMSN MSN20011106022509411/06/01 02:25:31  5-MIN KMSN 060825Z 19007KT 10SM CLR 06/M03 A3021 600 53 -200 190/07 RMK AO2
14837KMSN MSN20011106023009411/06/01 02:30:31  5-MIN KMSN 060830Z 20006KT 10SM CLR 06/M03 A3021 600 53 -200 200/06 RMK AO2
14837KMSN MSN20011106023509411/06/01 02:35:31  5-MIN KMSN 060835Z 19007KT 10SM CLR 06/M03 A3020 600 53 -200 190/07 RMK AO2
14837KMSN MSN20011106024009411/06/01 02:40:31  5-MIN KMSN 060840Z 19007KT 10SM CLR 06/M03 A3020 600 53 -200 190/07 RMK AO2
14837KMSN MSN20011106024509411/06/01 02:45:31  5-MIN KMSN 060845Z 20006KT 10SM CLR 06/M03 A3021 600 53 -200 200/06 RMK AO2
14837KMSN MSN20011106025011711/06/01 02:50:31  5-MIN KMSN 060850Z 19006KT 10SM CLR 06/M03 A3021 600 53 -200 190/06 RMK AO2 SLP232 T00611028 58003
14837KMSN MSN20011106025509411/06/01 02:55:31  5-MIN KMSN 060855Z 20003KT 10SM CLR 06/M03 A3021 600 55 -300 200/03 RMK AO2
14837KMSN MSN20011106030009411/06/01 03:00:31  5-MIN KMSN 060900Z 19004KT 10SM CLR 06/M03 A3021 600 55 -300 190/04 RMK AO2
14837KMSN MSN20011106030509411/06/01 03:05:31  5-MIN KMSN 060905Z 18004KT 10SM CLR 04/M02 A3020 600 62 -400 180/04 RMK AO2
14837KMSN MSN20011106031009411/06/01 03:10:31  5-MIN KMSN 060910Z 18006KT 10SM CLR 04/M02 A3020 600 62 -400 170/06 RMK AO2
14837KMSN MSN20011106031509411/06/01 03:15:31  5-MIN KMSN 060915Z 18006KT 10SM CLR 04/M02 A3020 600 62 -400 180/06 RMK AO2
14837KMSN MSN20011106032009411/06/01 03:20:31  5-MIN KMSN 060920Z 18004KT 10SM CLR 04/M02 A3020 610 62 -400 180/04 RMK AO2
14837KMSN MSN20011106032509411/06/01 03:25:31  5-MIN KMSN 060925Z 18005KT 10SM CLR 04/M02 A3020 610 62 -400 180/05 RMK AO2
14837KMSN MSN20011106033009411/06/01 03:30:31  5-MIN KMSN 060930Z 18005KT 10SM CLR 04/M02 A3020 610 62 -400 180/05 RMK AO2
14837KMSN MSN20011106033509411/06/01 03:35:31  5-MIN KMSN 060935Z 19005KT 10SM CLR 04/M02 A3020 610 62 -400 190/05 RMK AO2
14837KMSN MSN20011106034009411/06/01 03:40:31  5-MIN KMSN 060940Z 19005KT 10SM CLR 05/M03 A3020 610 57 -400 190/05 RMK AO2
14837KMSN MSN20011106034509411/06/01 03:45:31  5-MIN KMSN 060945Z 19005KT 10SM CLR 06/M03 A3020 610 55 -300 190/05 RMK AO2
14837KMSN MSN20011106035011111/06/01 03:50:31  5-MIN KMSN 060950Z 20005KT 10SM CLR 06/M03 A3020 610 55 -300 200/05 RMK AO2 SLP229 T00561028
14837KMSN MSN20011106035509411/06/01 03:55:31  5-MIN KMSN 060955Z 20006KT 10SM CLR 06/M03 A3019 610 53 -300 190/06 RMK AO2
14837KMSN MSN20011106040009411/06/01 04:00:31  5-MIN KMSN 061000Z 20005KT 10SM CLR 06/M03 A3020 610 53 -300 200/05 RMK AO2
14837KMSN MSN20011106040509411/06/01 04:05:31  5-MIN KMSN 061005Z 19006KT 10SM CLR 06/M03 A3019 610 51 -200 190/06 RMK AO2
14837KMSN MSN20011106041009411/06/01 04:10:31  5-MIN KMSN 061010Z 19007KT 10SM CLR 06/M03 A3019 610 51 -200 190/07 RMK AO2
14837KMSN MSN20011106041509411/06/01 04:15:31  5-MIN KMSN 061015Z 19005KT 10SM CLR 06/M03 A3020 610 51 -200 190/05 RMK AO2
14837KMSN MSN20011106042009411/06/01 04:20:31  5-MIN KMSN 061020Z 18006KT 10SM CLR 06/M03 A3020 610 53 -300 180/06 RMK AO2
14837KMSN MSN20011106042509411/06/01 04:25:31  5-MIN KMSN 061025Z 18006KT 10SM CLR 06/M03 A3019 610 53 -300 180/06 RMK AO2
14837KMSN MSN20011106043009411/06/01 04:30:31  5-MIN KMSN 061030Z 18007KT 10SM CLR 06/M03 A3019 610 53 -300 180/07 RMK AO2
14837KMSN MSN20011106043509411/06/01 04:35:31  5-MIN KMSN 061035Z 19007KT 10SM CLR 06/M03 A3019 610 53 -300 190/07 RMK AO2
14837KMSN MSN20011106044009411/06/01 04:40:31  5-MIN KMSN 061040Z 19007KT 10SM CLR 06/M03 A3019 610 51 -200 190/07 RMK AO2
14837KMSN MSN20011106044509411/06/01 04:45:31  5-MIN KMSN 061045Z 18008KT 10SM CLR 06/M03 A3019 620 51 -200 180/08 RMK AO2
14837KMSN MSN20011106045011111/06/01 04:50:31  5-MIN KMSN 061050Z 18006KT 10SM CLR 06/M03 A3019 620 53 -300 180/06 RMK AO2 SLP227 T00561033
14837KMSN MSN20011106045509411/06/01 04:55:31  5-MIN KMSN 061055Z 18007KT 10SM CLR 05/M03 A3019 620 57 -400 180/07 RMK AO2
14837KMSN MSN20011106050009411/06/01 05:00:31  5-MIN KMSN 061100Z 18007KT 10SM CLR 06/M03 A3018 620 53 -300 180/07 RMK AO2
14837KMSN MSN20011106050509411/06/01 05:05:31  5-MIN KMSN 061105Z 18008KT 10SM CLR 06/M03 A3018 620 51 -200 180/08 RMK AO2
14837KMSN MSN20011106051009411/06/01 05:10:31  5-MIN KMSN 061110Z 19007KT 10SM CLR 06/M03 A3019 620 51 -200 190/07 RMK AO2
14837KMSN MSN20011106051509411/06/01 05:15:31  5-MIN KMSN 061115Z 19007KT 10SM CLR 06/M03 A3019 620 51 -200 190/07 RMK AO2
14837KMSN MSN20011106052009411/06/01 05:20:31  5-MIN KMSN 061120Z 19007KT 10SM CLR 06/M04 A3019 620 48 -200 190/07 RMK AO2
14837KMSN MSN20011106052509711/06/01 05:25:31  5-MIN KMSN 061125Z 19008KT 10SM FEW060 06/M04 A3018 620 48 -200 190/08 RMK AO2
14837KMSN MSN20011106053009711/06/01 05:30:31  5-MIN KMSN 061130Z 19007KT 10SM FEW060 06/M04 A3018 620 48 -200 190/07 RMK AO2
14837KMSN MSN20011106053509711/06/01 05:35:31  5-MIN KMSN 061135Z 19007KT 10SM SCT060 06/M04 A3019 620 48 -200 190/07 RMK AO2
14837KMSN MSN20011106054009711/06/01 05:40:31  5-MIN KMSN 061140Z 19008KT 10SM SCT060 06/M04 A3019 620 48 -200 190/08 RMK AO2
14837KMSN MSN20011106054510411/06/01 05:45:31  5-MIN KMSN 061145Z 18008KT 10SM FEW050 SCT060 06/M03 A3018 620 51 -200 180/08 RMK AO2
14837KMSN MSN20011106055013911/06/01 05:50:31  5-MIN KMSN 061150Z 19008KT 10SM SCT050 BKN060 06/M03 A3018 620 51 -200 180/08 RMK AO2 SLP226 T00611033 10067 20033 56001
14837KMSN MSN20011106055509711/06/01 05:55:31  5-MIN KMSN 061155Z 19008KT 10SM BKN055 06/M03 A3018 620 51 -200 190/08 RMK AO2
14837KMSN MSN20011106060009711/06/01 06:00:31  5-MIN KMSN 061200Z 19008KT 10SM BKN060 06/M03 A3018 620 51 -200 190/08 RMK AO2
14837KMSN MSN20011106060510411/06/01 06:05:31  5-MIN KMSN 061205Z 19008KT 10SM FEW050 BKN060 06/M03 A3018 630 51 -200 190/08 RMK AO2
14837KMSN MSN20011106061009711/06/01 06:10:31  5-MIN KMSN 061210Z 19008KT 10SM BKN060 07/M04 A3018 630 47 -100 180/08 RMK AO2
14837KMSN MSN20011106061509711/06/01 06:15:31  5-MIN KMSN 061215Z 19009KT 10SM BKN060 07/M04 A3018 630 47 -100 190/09 RMK AO2
14837KMSN MSN20011106062009711/06/01 06:20:31  5-MIN KMSN 061220Z 19007KT 10SM BKN060 07/M04 A3018 630 47 -100 190/07 RMK AO2
14837KMSN MSN20011106062509711/06/01 06:25:31  5-MIN KMSN 061225Z 19008KT 10SM BKN060 07/M04 A3018 630 47 -100 190/08 RMK AO2
14837KMSN MSN20011106063009711/06/01 06:30:31  5-MIN KMSN 061230Z 19009KT 10SM BKN060 07/M04 A3017 630 47 -100 190/09 RMK AO2
14837KMSN MSN20011106063509711/06/01 06:35:31  5-MIN KMSN 061235Z 18009KT 10SM SCT060 06/M04 A3017 630 48 -200 180/09 RMK AO2
14837KMSN MSN20011106064009711/06/01 06:40:31  5-MIN KMSN 061240Z 18008KT 10SM SCT055 06/M04 A3017 630 48 -200 180/08 RMK AO2
14837KMSN MSN20011106064509711/06/01 06:45:31  5-MIN KMSN 061245Z 18009KT 10SM FEW060 06/M04 A3017 630 48 -200 180/09 RMK AO2
14837KMSN MSN20011106065011411/06/01 06:50:31  5-MIN KMSN 061250Z 19008KT 10SM SCT060 07/M03 A3017 630 49 -100 190/08 RMK AO2 SLP222 T00671033
14837KMSN MSN20011106065509711/06/01 06:55:31  5-MIN KMSN 061255Z 18009KT 10SM SCT055 07/M03 A3018 630 49 -100 180/09 RMK AO2
14837KMSN MSN20011106070009711/06/01 07:00:31  5-MIN KMSN 061300Z 19009KT 10SM SCT055 07/M04 A3018 630 47 -100 190/09 RMK AO2
14837KMSN MSN20011106070509711/06/01 07:05:31  5-MIN KMSN 061305Z 19008KT 10SM SCT050 07/M04 A3018 630 47 -100 180/08 RMK AO2
14837KMSN MSN20011106071009711/06/01 07:10:31  5-MIN KMSN 061310Z 19009KT 10SM FEW055 07/M03 A3018 630 49 -100 190/09 RMK AO2
14837KMSN MSN20011106071509711/06/01 07:15:31  5-MIN KMSN 061315Z 19008KT 10SM FEW055 07/M04 A3018 630 47 -100 190/08 RMK AO2
14837KMSN MSN20011106072009711/06/01 07:20:31  5-MIN KMSN 061320Z 19009KT 10SM FEW055 07/M03 A3018 630 49 -100 190/09 RMK AO2
14837KMSN MSN20011106072509711/06/01 07:25:31  5-MIN KMSN 061325Z 19009KT 10SM FEW050 07/M03 A3017 630 49 -100 190/09 RMK AO2
14837KMSN MSN20011106073009411/06/01 07:30:31  5-MIN KMSN 061330Z 19010KT 10SM CLR 07/M03 A3017 630 47 -100 190/10 RMK AO2
14837KMSN MSN20011106073509411/06/01 07:35:31  5-MIN KMSN 061335Z 19009KT 10SM CLR 07/M04 A3018 630 45 -100 190/09 RMK AO2
14837KMSN MSN20011106074009411/06/01 07:40:31  5-MIN KMSN 061340Z 19011KT 10SM CLR 07/M04 A3017 630 45 -100 190/11 RMK AO2
14837KMSN MSN20011106074509711/06/01 07:45:31  5-MIN KMSN 061345Z 19012KT 10SM FEW055 07/M03 A3018 630 47 -100 190/12 RMK AO2
14837KMSN MSN20011106075011411/06/01 07:50:31  5-MIN KMSN 061350Z 19010KT 10SM FEW055 07/M03 A3018 630 47 -100 190/10 RMK AO2 SLP223 T00721033
14837KMSN MSN20011106075509111/06/01 07:55:31  5-MIN KMSN 061355Z 19010KT 10SM CLR 08/M03 A3018 630 45 0 190/10 RMK AO2
14837KMSN MSN20011106080009111/06/01 08:00:31  5-MIN KMSN 061400Z 19010KT 10SM CLR 08/M03 A3018 630 45 0 190/10 RMK AO2
14837KMSN MSN20011106080509111/06/01 08:05:31  5-MIN KMSN 061405Z 19008KT 10SM CLR 08/M03 A3018 630 45 0 190/08 RMK AO2
14837KMSN MSN20011106081009111/06/01 08:10:31  5-MIN KMSN 061410Z 19008KT 10SM CLR 08/M03 A3017 630 43 0 190/08 RMK AO2
14837KMSN MSN20011106081509111/06/01 08:15:31  5-MIN KMSN 061415Z 18008KT 10SM CLR 08/M03 A3017 630 43 0 180/08 RMK AO2
14837KMSN MSN20011106082009311/06/01 08:20:31  5-MIN KMSN 061420Z 18009KT 10SM CLR 09/M03 A3017 630 43 100 180/09 RMK AO2
14837KMSN MSN20011106082509311/06/01 08:25:31  5-MIN KMSN 061425Z 17008KT 10SM CLR 09/M03 A3017 630 43 100 170/08 RMK AO2
14837KMSN MSN20011106083009311/06/01 08:30:31  5-MIN KMSN 061430Z 18009KT 10SM CLR 09/M03 A3017 630 42 100 170/09 RMK AO2
14837KMSN MSN20011106083509311/06/01 08:35:31  5-MIN KMSN 061435Z 18008KT 10SM CLR 09/M03 A3017 630 43 100 170/08 RMK AO2
14837KMSN MSN20011106084009311/06/01 08:40:31  5-MIN KMSN 061440Z 18009KT 10SM CLR 09/M03 A3017 630 42 200 170/09 RMK AO2
14837KMSN MSN20011106084509311/06/01 08:45:31  5-MIN KMSN 061445Z 18009KT 10SM CLR 09/M03 A3017 630 42 200 180/09 RMK AO2
14837KMSN MSN20011106085011611/06/01 08:50:31  5-MIN KMSN 061450Z 20009KT 10SM CLR 10/M03 A3017 640 40 200 200/09 RMK AO2 SLP219 T01001028 56007
14837KMSN MSN20011106085509311/06/01 08:55:31  5-MIN KMSN 061455Z 19008KT 10SM CLR 10/M02 A3016 640 42 200 190/08 RMK AO2
14837KMSN MSN20011106090010911/06/01 09:00:31  5-MIN KMSN 061500Z 20007KT 170V260 10SM CLR 11/M03 A3016 640 39 300 200/07 170V260 RMK AO2
14837KMSN MSN20011106090509311/06/01 09:05:31  5-MIN KMSN 061505Z 19007KT 10SM CLR 11/M02 A3016 640 40 300 190/07 RMK AO2
14837KMSN MSN20011106091009311/06/01 09:10:31  5-MIN KMSN 061510Z 20008KT 10SM CLR 11/M02 A3016 640 39 400 200/08 RMK AO2
14837KMSN MSN20011106091509311/06/01 09:15:31  5-MIN KMSN 061515Z 21009KT 10SM CLR 11/M02 A3016 640 39 400 210/09 RMK AO2
14837KMSN MSN20011106092009311/06/01 09:20:31  5-MIN KMSN 061520Z 21007KT 10SM CLR 12/M02 A3016 640 38 400 210/07 RMK AO2
14837KMSN MSN20011106092509311/06/01 09:25:31  5-MIN KMSN 061525Z 19010KT 10SM CLR 12/M02 A3016 640 39 400 190/10 RMK AO2
14837KMSN MSN20011106093009311/06/01 09:30:31  5-MIN KMSN 061530Z 20008KT 10SM CLR 12/M02 A3016 640 39 400 200/08 RMK AO2
14837KMSN MSN20011106093509311/06/01 09:35:31  5-MIN KMSN 061535Z 19008KT 10SM CLR 12/M02 A3016 640 38 500 190/08 RMK AO2
14837KMSN MSN20011106094009311/06/01 09:40:31  5-MIN KMSN 061540Z 19007KT 10SM CLR 12/M02 A3016 640 38 500 190/07 RMK AO2
14837KMSN MSN20011106094509311/06/01 09:45:31  5-MIN KMSN 061545Z 19009KT 10SM CLR 12/M01 A3016 640 39 500 190/09 RMK AO2
14837KMSN MSN20011106095011011/06/01 09:50:31  5-MIN KMSN 061550Z 20006KT 10SM CLR 12/M01 A3016 650 39 500 200/06 RMK AO2 SLP217 T01221011
14837KMSN MSN20011106095509311/06/01 09:55:31  5-MIN KMSN 061555Z 19008KT 10SM CLR 13/M01 A3016 650 38 600 180/08 RMK AO2
14837KMSN MSN20011106100009311/06/01 10:00:31  5-MIN KMSN 061600Z 19011KT 10SM CLR 13/M01 A3016 650 38 600 190/11 RMK AO2
14837KMSN MSN20011106100509311/06/01 10:05:31  5-MIN KMSN 061605Z 20010KT 10SM CLR 13/M01 A3016 650 38 600 200/10 RMK AO2
14837KMSN MSN20011106101009311/06/01 10:10:31  5-MIN KMSN 061610Z 19009KT 10SM CLR 13/M01 A3016 650 38 600 190/09 RMK AO2
14837KMSN MSN20011106101509311/06/01 10:15:31  5-MIN KMSN 061615Z 18010KT 10SM CLR 14/M01 A3015 650 37 700 180/10 RMK AO2
14837KMSN MSN20011106102009311/06/01 10:20:31  5-MIN KMSN 061620Z 19009KT 10SM CLR 14/M01 A3015 650 37 700 180/09 RMK AO2
14837KMSN MSN20011106102509211/06/01 10:25:31  5-MIN KMSN 061625Z 18009KT 10SM CLR 14/00 A3015 650 38 700 180/09 RMK AO2
14837KMSN MSN20011106103009211/06/01 10:30:31  5-MIN KMSN 061630Z 19010KT 10SM CLR 14/01 A3015 650 38 800 190/10 RMK AO2
14837KMSN MSN20011106103509211/06/01 10:35:31  5-MIN KMSN 061635Z 19011KT 10SM CLR 14/01 A3015 650 38 800 190/11 RMK AO2
14837KMSN MSN20011106104009211/06/01 10:40:31  5-MIN KMSN 061640Z 20012KT 10SM CLR 14/01 A3015 660 40 800 200/12 RMK AO2
14837KMSN MSN20011106104509211/06/01 10:45:31  5-MIN KMSN 061645Z 21010KT 10SM CLR 14/01 A3015 660 40 800 210/10 RMK AO2
14837KMSN MSN20011106105010911/06/01 10:50:31  5-MIN KMSN 061650Z 20011KT 10SM CLR 15/02 A3014 660 40 900 200/11 RMK AO2 SLP211 T01500017
14837KMSN MSN20011106105509811/06/01 10:55:31  5-MIN KMSN 061655Z 19012G16KT 10SM CLR 15/02 A3014 660 40 900 190/12G16 RMK AO2
14837KMSN MSN20011106110009811/06/01 11:00:31  5-MIN KMSN 061700Z 20009G16KT 10SM CLR 15/02 A3014 660 40 900 200/09G16 RMK AO2
14837KMSN MSN20011106110509211/06/01 11:05:31  5-MIN KMSN 061705Z 20010KT 10SM CLR 15/02 A3014 660 40 900 200/10 RMK AO2
14837KMSN MSN20011106111009811/06/01 11:10:31  5-MIN KMSN 061710Z 21010G16KT 10SM CLR 15/02 A3014 670 42 900 210/10G16 RMK AO2
14837KMSN MSN20011106111509811/06/01 11:15:31  5-MIN KMSN 061715Z 21008G16KT 10SM CLR 16/02 A3013 670 40 900 210/08G16 RMK AO2
14837KMSN MSN20011106112009311/06/01 11:20:31  5-MIN KMSN 061720Z 20009KT 10SM CLR 16/03 A3013 670 40 1000 200/09 RMK AO2
14837KMSN MSN20011106112509311/06/01 11:25:31  5-MIN KMSN 061725Z 20011KT 10SM CLR 16/03 A3013 670 42 1000 200/11 RMK AO2
14837KMSN MSN20011106113009211/06/01 11:30:31  5-MIN KMSN 061730Z 21011KT 10SM CLR 16/03 A3013 670 42 900 210/11 RMK AO2
14837KMSN MSN20011106113509311/06/01 11:35:31  5-MIN KMSN 061735Z 22011KT 10SM CLR 16/03 A3013 670 42 1000 220/11 RMK AO2
14837KMSN MSN20011106114009311/06/01 11:40:31  5-MIN KMSN 061740Z 20011KT 10SM CLR 16/03 A3012 680 42 1000 190/11 RMK AO2
14837KMSN MSN20011106114509911/06/01 11:45:31  5-MIN KMSN 061745Z 19010G16KT 10SM CLR 16/04 A3012 680 44 1000 190/10G16 RMK AO2
14837KMSN MSN20011106115013411/06/01 11:50:31  5-MIN KMSN 061750Z 19013G16KT 10SM CLR 17/04 A3012 680 42 1100 190/13G16 RMK AO2 SLP203 T01670039 10167 20061 58006
14837KMSN MSN20011106115509311/06/01 11:55:31  5-MIN KMSN 061755Z 20010KT 10SM CLR 17/04 A3012 680 44 1100 190/10 RMK AO2
14837KMSN MSN20011106120009311/06/01 12:00:31  5-MIN KMSN 061800Z 21010KT 10SM CLR 17/04 A3012 680 42 1100 210/10 RMK AO2
14837KMSN MSN20011106120509311/06/01 12:05:31  5-MIN KMSN 061805Z 19011KT 10SM CLR 17/04 A3011 690 42 1100 190/11 RMK AO2
14837KMSN MSN20011106121009911/06/01 12:10:31  5-MIN KMSN 061810Z 20012G16KT 10SM CLR 17/05 A3011 690 44 1100 200/12G16 RMK AO2
14837KMSN MSN20011106121509911/06/01 12:15:31  5-MIN KMSN 061815Z 20009G16KT 10SM CLR 17/05 A3011 690 44 1100 200/09G16 RMK AO2
14837KMSN MSN20011106122009311/06/01 12:20:31  5-MIN KMSN 061820Z 19010KT 10SM CLR 18/06 A3011 690 44 1200 190/10 RMK AO2
14837KMSN MSN20011106122509311/06/01 12:25:31  5-MIN KMSN 061825Z 20012KT 10SM CLR 18/06 A3011 690 44 1200 200/12 RMK AO2
14837KMSN MSN20011106123009311/06/01 12:30:31  5-MIN KMSN 061830Z 20010KT 10SM CLR 18/06 A3010 700 46 1200 200/10 RMK AO2
14837KMSN MSN20011106123509311/06/01 12:35:31  5-MIN KMSN 061835Z 20012KT 10SM CLR 18/06 A3010 700 46 1200 200/12 RMK AO2
14837KMSN MSN20011106124009311/06/01 12:40:31  5-MIN KMSN 061840Z 19011KT 10SM CLR 18/07 A3010 700 46 1300 190/11 RMK AO2
14837KMSN MSN20011106124509311/06/01 12:45:31  5-MIN KMSN 061845Z 21010KT 10SM CLR 18/07 A3010 700 46 1300 210/10 RMK AO2
14837KMSN MSN20011106125011011/06/01 12:50:31  5-MIN KMSN 061850Z 20011KT 10SM CLR 18/07 A3010 700 46 1300 200/11 RMK AO2 SLP194 T01830067
14837KMSN MSN20011106125509311/06/01 12:55:31  5-MIN KMSN 061855Z 20011KT 10SM CLR 18/07 A3010 700 46 1300 200/11 RMK AO2
14837KMSN MSN20011106130009311/06/01 13:00:31  5-MIN KMSN 061900Z 20011KT 10SM CLR 18/07 A3009 700 48 1300 200/11 RMK AO2
14837KMSN MSN20011106130509311/06/01 13:05:31  5-MIN KMSN 061905Z 20013KT 10SM CLR 18/07 A3009 710 48 1300 200/13 RMK AO2
14837KMSN MSN20011106131009311/06/01 13:10:31  5-MIN KMSN 061910Z 20011KT 10SM CLR 18/07 A3009 710 48 1300 200/11 RMK AO2
14837KMSN MSN20011106131509311/06/01 13:15:31  5-MIN KMSN 061915Z 20013KT 10SM CLR 19/07 A3008 710 46 1400 200/13 RMK AO2
14837KMSN MSN20011106132009311/06/01 13:20:31  5-MIN KMSN 061920Z 19012KT 10SM CLR 19/08 A3008 710 48 1400 190/12 RMK AO2
14837KMSN MSN20011106132509311/06/01 13:25:31  5-MIN KMSN 061925Z 20012KT 10SM CLR 19/08 A3008 720 48 1400 190/12 RMK AO2
14837KMSN MSN20011106133009311/06/01 13:30:31  5-MIN KMSN 061930Z 20010KT 10SM CLR 19/08 A3008 720 48 1400 200/10 RMK AO2
14837KMSN MSN20011106133509311/06/01 13:35:31  5-MIN KMSN 061935Z 20012KT 10SM CLR 19/08 A3008 720 48 1400 200/12 RMK AO2
14837KMSN MSN20011106134009311/06/01 13:40:31  5-MIN KMSN 061940Z 21009KT 10SM CLR 19/08 A3008 720 48 1400 200/09 RMK AO2
14837KMSN MSN20011106134509311/06/01 13:45:31  5-MIN KMSN 061945Z 20010KT 10SM CLR 19/08 A3008 720 48 1400 200/10 RMK AO2
14837KMSN MSN20011106135011011/06/01 13:50:31  5-MIN KMSN 061950Z 21010KT 10SM CLR 19/08 A3007 720 48 1400 200/10 RMK AO2 SLP186 T01890078
14837KMSN MSN20011106135510911/06/01 13:55:31  5-MIN KMSN 061955Z 21009KT 180V240 10SM CLR 19/08 A3007 720 50 1400 210/09 180V240 RMK AO2
14837KMSN MSN20011106140009311/06/01 14:00:31  5-MIN KMSN 062000Z 21008KT 10SM CLR 19/08 A3008 720 50 1400 200/08 RMK AO2
14837KMSN MSN20011106140509311/06/01 14:05:31  5-MIN KMSN 062005Z 21011KT 10SM CLR 19/08 A3008 720 50 1400 210/11 RMK AO2
14837KMSN MSN20011106141009311/06/01 14:10:31  5-MIN KMSN 062010Z 21009KT 10SM CLR 19/08 A3008 720 50 1400 210/09 RMK AO2
14837KMSN MSN20011106141509311/06/01 14:15:31  5-MIN KMSN 062015Z 21009KT 10SM CLR 19/08 A3008 720 50 1400 200/09 RMK AO2
14837KMSN MSN20011106142009311/06/01 14:20:31  5-MIN KMSN 062020Z 20010KT 10SM CLR 19/08 A3008 720 50 1400 200/10 RMK AO2
14837KMSN MSN20011106142509311/06/01 14:25:31  5-MIN KMSN 062025Z 21008KT 10SM CLR 19/08 A3008 720 50 1400 210/08 RMK AO2
14837KMSN MSN20011106143009311/06/01 14:30:31  5-MIN KMSN 062030Z 21010KT 10SM CLR 19/08 A3008 720 50 1400 210/10 RMK AO2
14837KMSN MSN20011106143509311/06/01 14:35:31  5-MIN KMSN 062035Z 21009KT 10SM CLR 19/08 A3008 720 50 1400 210/09 RMK AO2
14837KMSN MSN20011106144009311/06/01 14:40:31  5-MIN KMSN 062040Z 22009KT 10SM CLR 19/08 A3008 720 50 1400 220/09 RMK AO2
14837KMSN MSN20011106144509311/06/01 14:45:31  5-MIN KMSN 062045Z 20008KT 10SM CLR 19/08 A3008 710 50 1400 200/08 RMK AO2
14837KMSN MSN20011106145013211/06/01 14:50:31  5-MIN KMSN 062050Z 21007KT 180V260 10SM CLR 19/08 A3008 710 50 1400 210/07 180V260 RMK AO2 SLP189 T01890083 58015
14837KMSN MSN20011106145509311/06/01 14:55:31  5-MIN KMSN 062055Z 20008KT 10SM CLR 19/08 A3008 710 50 1400 200/08 RMK AO2
14837KMSN MSN20011106150009311/06/01 15:00:31  5-MIN KMSN 062100Z 22009KT 10SM CLR 19/08 A3009 710 50 1400 220/09 RMK AO2
14837KMSN MSN20011106150509311/06/01 15:05:31  5-MIN KMSN 062105Z 21009KT 10SM CLR 19/08 A3009 710 50 1400 210/09 RMK AO2
14837KMSN MSN20011106185010911/06/01 18:50:31  5-MIN KMSN 070050Z 22005KT 10SM CLR 15/08 A3011 690 64 900 210/05 RMK AO2 SLP200 T01500083
14837KMSN MSN20011106185509211/06/01 18:55:31  5-MIN KMSN 070055Z 21005KT 10SM CLR 15/08 A3011 690 64 900 210/05 RMK AO2
14837KMSN MSN20011106190009211/06/01 19:00:31  5-MIN KMSN 070100Z 22004KT 10SM CLR 15/08 A3011 690 64 900 220/04 RMK AO2
14837KMSN MSN20011106190509211/06/01 19:05:31  5-MIN KMSN 070105Z 23004KT 10SM CLR 15/08 A3012 680 64 900 230/04 RMK AO2
14837KMSN MSN20011106191009211/06/01 19:10:31  5-MIN KMSN 070110Z 23005KT 10SM CLR 15/08 A3012 680 64 900 230/05 RMK AO2
14837KMSN MSN20011106191509211/06/01 19:15:31  5-MIN KMSN 070115Z 23003KT 10SM CLR 15/08 A3012 680 64 900 220/03 RMK AO2
14837KMSN MSN20011106192009211/06/01 19:20:31  5-MIN KMSN 070120Z 22004KT 10SM CLR 15/08 A3012 680 64 900 220/04 RMK AO2
14837KMSN MSN20011106192509211/06/01 19:25:31  5-MIN KMSN 070125Z 22004KT 10SM CLR 14/08 A3012 680 66 800 220/04 RMK AO2
14837KMSN MSN20011106193009211/06/01 19:30:31  5-MIN KMSN 070130Z 22003KT 10SM CLR 14/08 A3012 680 69 700 220/03 RMK AO2
14837KMSN MSN20011106193509211/06/01 19:35:31  5-MIN KMSN 070135Z 21003KT 10SM CLR 14/08 A3012 680 69 700 210/03 RMK AO2
14837KMSN MSN20011106194009211/06/01 19:40:31  5-MIN KMSN 070140Z 21003KT 10SM CLR 13/08 A3012 680 69 700 210/03 RMK AO2
14837KMSN MSN20011106194509211/06/01 19:45:31  5-MIN KMSN 070145Z 21003KT 10SM CLR 13/08 A3012 680 71 700 210/03 RMK AO2
14837KMSN MSN20011106195010911/06/01 19:50:31  5-MIN KMSN 070150Z 20003KT 10SM CLR 13/08 A3012 680 71 700 200/03 RMK AO2 SLP204 T01330083
14837KMSN MSN20011106195509211/06/01 19:55:31  5-MIN KMSN 070155Z 20004KT 10SM CLR 13/08 A3012 680 69 700 200/04 RMK AO2
14837KMSN MSN20011106200009211/06/01 20:00:31  5-MIN KMSN 070200Z 20003KT 10SM CLR 13/08 A3012 680 71 700 200/03 RMK AO2
14837KMSN MSN20011106200509211/06/01 20:05:31  5-MIN KMSN 070205Z 20003KT 10SM CLR 13/08 A3013 670 69 700 200/03 RMK AO2
14837KMSN MSN20011106201009211/06/01 20:10:31  5-MIN KMSN 070210Z 20004KT 10SM CLR 13/08 A3013 670 71 600 200/04 RMK AO2
14837KMSN MSN20011106201509511/06/01 20:15:31  5-MIN KMSN 070215Z 21004KT 10SM FEW050 13/08 A3013 670 71 600 210/04 RMK AO2
14837KMSN MSN20011106202009511/06/01 20:20:31  5-MIN KMSN 070220Z 20004KT 10SM SCT050 13/08 A3013 670 69 700 200/04 RMK AO2
14837KMSN MSN20011106202509511/06/01 20:25:31  5-MIN KMSN 070225Z 20004KT 10SM BKN050 14/08 A3013 670 69 700 200/04 RMK AO2
14837KMSN MSN20011106203009511/06/01 20:30:31  5-MIN KMSN 070230Z 20005KT 10SM BKN050 14/08 A3013 670 69 700 200/05 RMK AO2
14837KMSN MSN20011106203509511/06/01 20:35:31  5-MIN KMSN 070235Z 20005KT 10SM BKN050 15/08 A3013 670 64 900 200/05 RMK AO2
14837KMSN MSN20011106204009511/06/01 20:40:31  5-MIN KMSN 070240Z 20005KT 10SM OVC050 14/09 A3013 670 69 800 200/05 RMK AO2
14837KMSN MSN20011106204509511/06/01 20:45:31  5-MIN KMSN 070245Z 19005KT 10SM OVC050 14/09 A3013 670 69 800 190/05 RMK AO2
14837KMSN MSN20011106205011811/06/01 20:50:31  5-MIN KMSN 070250Z 20005KT 10SM OVC050 14/09 A3013 670 69 800 190/05 RMK AO2 SLP205 T01440089 52006
14837KMSN MSN20011106205509511/06/01 20:55:31  5-MIN KMSN 070255Z 19006KT 10SM OVC050 14/08 A3013 670 66 800 190/06 RMK AO2
14837KMSN MSN20011106210009511/06/01 21:00:31  5-MIN KMSN 070300Z 19006KT 10SM OVC050 14/09 A3013 670 69 800 190/06 RMK AO2
14837KMSN MSN20011106210509511/06/01 21:05:31  5-MIN KMSN 070305Z 20007KT 10SM OVC050 15/09 A3013 670 66 900 200/07 RMK AO2
14837KMSN MSN20011106211009511/06/01 21:10:31  5-MIN KMSN 070310Z 20006KT 10SM OVC050 14/09 A3013 670 69 800 190/06 RMK AO2
14837KMSN MSN20011106211509511/06/01 21:15:31  5-MIN KMSN 070315Z 19006KT 10SM OVC050 15/09 A3013 670 66 900 190/06 RMK AO2
14837KMSN MSN20011106212009511/06/01 21:20:31  5-MIN KMSN 070320Z 20005KT 10SM OVC050 15/09 A3013 670 66 900 200/05 RMK AO2
14837KMSN MSN20011106212509511/06/01 21:25:31  5-MIN KMSN 070325Z 20005KT 10SM OVC050 15/09 A3013 670 66 900 200/05 RMK AO2
14837KMSN MSN20011106213009511/06/01 21:30:31  5-MIN KMSN 070330Z 20006KT 10SM OVC050 15/09 A3013 670 66 900 200/06 RMK AO2
14837KMSN MSN20011106213509511/06/01 21:35:31  5-MIN KMSN 070335Z 20006KT 10SM OVC050 15/09 A3013 670 66 900 200/06 RMK AO2
14837KMSN MSN20011106214009511/06/01 21:40:31  5-MIN KMSN 070340Z 20005KT 10SM OVC050 15/09 A3013 670 66 900 200/05 RMK AO2
14837KMSN MSN20011106214509511/06/01 21:45:31  5-MIN KMSN 070345Z 20006KT 10SM OVC050 15/09 A3013 670 66 900 200/06 RMK AO2
14837KMSN MSN20011106215011211/06/01 21:50:31  5-MIN KMSN 070350Z 20005KT 10SM OVC050 15/09 A3013 670 66 900 200/05 RMK AO2 SLP205 T01500089
14837KMSN MSN20011106215509511/06/01 21:55:31  5-MIN KMSN 070355Z 20005KT 10SM OVC050 15/09 A3013 670 66 900 200/05 RMK AO2
14837KMSN MSN20011106220009511/06/01 22:00:31  5-MIN KMSN 070400Z 21004KT 10SM OVC050 15/09 A3013 670 66 900 210/04 RMK AO2
14837KMSN MSN20011106220509511/06/01 22:05:31  5-MIN KMSN 070405Z 21005KT 10SM OVC050 15/09 A3013 670 66 900 210/05 RMK AO2
14837KMSN MSN20011106221009511/06/01 22:10:31  5-MIN KMSN 070410Z VRB05KT 10SM OVC050 15/09 A3013 670 66 900 VRB/05 RMK AO2
14837KMSN MSN20011106221509511/06/01 22:15:31  5-MIN KMSN 070415Z 23006KT 10SM OVC050 16/09 A3013 670 64 900 230/06 RMK AO2
14837KMSN MSN20011106222009511/06/01 22:20:31  5-MIN KMSN 070420Z 22005KT 10SM OVC050 16/09 A3013 670 64 900 220/05 RMK AO2
14837KMSN MSN20011106222509511/06/01 22:25:31  5-MIN KMSN 070425Z 23005KT 10SM OVC050 15/09 A3013 670 66 900 230/05 RMK AO2
14837KMSN MSN20011106223009511/06/01 22:30:31  5-MIN KMSN 070430Z 23005KT 10SM OVC050 15/09 A3013 670 66 900 230/05 RMK AO2
14837KMSN MSN20011106223509511/06/01 22:35:31  5-MIN KMSN 070435Z 23005KT 10SM OVC050 15/09 A3013 670 66 900 220/05 RMK AO2
14837KMSN MSN20011106224009511/06/01 22:40:31  5-MIN KMSN 070440Z 22007KT 10SM OVC050 15/09 A3013 670 66 900 220/07 RMK AO2
14837KMSN MSN20011106224509511/06/01 22:45:31  5-MIN KMSN 070445Z 23006KT 10SM OVC050 15/09 A3013 670 66 900 230/06 RMK AO2
14837KMSN MSN20011106225011211/06/01 22:50:31  5-MIN KMSN 070450Z 22007KT 10SM OVC050 15/09 A3013 670 66 900 220/07 RMK AO2 SLP204 T01500089
14837KMSN MSN20011106225509511/06/01 22:55:31  5-MIN KMSN 070455Z 22006KT 10SM OVC050 15/09 A3013 670 66 900 220/06 RMK AO2
14837KMSN MSN20011106230009511/06/01 23:00:31  5-MIN KMSN 070500Z 22005KT 10SM OVC050 15/09 A3013 670 66 900 220/05 RMK AO2
14837KMSN MSN20011106230509511/06/01 23:05:31  5-MIN KMSN 070505Z 22006KT 10SM OVC050 15/09 A3013 670 66 900 220/06 RMK AO2
14837KMSN MSN20011106231009511/06/01 23:10:31  5-MIN KMSN 070510Z 23006KT 10SM OVC050 15/09 A3013 670 66 900 230/06 RMK AO2
14837KMSN MSN20011106231509511/06/01 23:15:31  5-MIN KMSN 070515Z 24004KT 10SM OVC050 15/09 A3013 670 66 900 230/04 RMK AO2
14837KMSN MSN20011106232009511/06/01 23:20:31  5-MIN KMSN 070520Z VRB04KT 10SM OVC050 15/09 A3013 670 66 900 VRB/04 RMK AO2
14837KMSN MSN20011106232509511/06/01 23:25:31  5-MIN KMSN 070525Z 23004KT 10SM OVC055 15/09 A3014 670 66 900 230/04 RMK AO2
14837KMSN MSN20011106233009511/06/01 23:30:31  5-MIN KMSN 070530Z 23004KT 10SM OVC055 15/09 A3014 660 66 900 230/04 RMK AO2
14837KMSN MSN20011106233509511/06/01 23:35:31  5-MIN KMSN 070535Z VRB03KT 10SM OVC055 15/09 A3014 660 66 900 VRB/03 RMK AO2
14837KMSN MSN20011106234009511/06/01 23:40:31  5-MIN KMSN 070540Z 21004KT 10SM OVC055 15/09 A3014 660 66 900 210/04 RMK AO2
14837KMSN MSN20011106234509511/06/01 23:45:31  5-MIN KMSN 070545Z 22004KT 10SM OVC055 15/09 A3014 660 66 900 220/04 RMK AO2
14837KMSN MSN20011106235014011/06/01 23:50:31  5-MIN KMSN 070550Z 22003KT 10SM OVC055 15/09 A3014 660 66 900 220/03 RMK AO2 SLP205 T01500089 10156 20128 401940033 51009
14837KMSN MSN20011106235509511/06/01 23:55:31  5-MIN KMSN 070555Z 22003KT 10SM OVC055 15/09 A3014 660 66 900 220/03 RMK AO2
14837KMSN MSN20011107000009511/07/01 00:00:31  5-MIN KMSN 070600Z 00000KT 10SM OVC055 15/09 A3014 660 66 900 000/00 RMK AO2
14837KMSN MSN20011107000509511/07/01 00:05:31  5-MIN KMSN 070605Z 00000KT 10SM OVC055 15/09 A3014 660 66 900 000/00 RMK AO2
14837KMSN MSN20011107001010211/07/01 00:10:31  5-MIN KMSN 070610Z 00000KT 10SM FEW041 OVC055 15/09 A3014 660 66 900 000/00 RMK AO2
14837KMSN MSN20011107001509511/07/01 00:15:31  5-MIN KMSN 070615Z 00000KT 10SM OVC055 14/09 A3014 660 69 800 000/00 RMK AO2
14837KMSN MSN20011107002009511/07/01 00:20:31  5-MIN KMSN 070620Z 00000KT 10SM OVC055 14/09 A3014 660 69 800 000/00 RMK AO2
14837KMSN MSN20011107002509511/07/01 00:25:31  5-MIN KMSN 070625Z 21003KT 10SM OVC055 14/09 A3014 660 69 800 210/03 RMK AO2
14837KMSN MSN20011107003009511/07/01 00:30:31  5-MIN KMSN 070630Z 00000KT 10SM OVC055 14/09 A3014 660 69 800 000/00 RMK AO2
14837KMSN MSN20011107003510211/07/01 00:35:31  5-MIN KMSN 070635Z 00000KT 10SM FEW040 OVC055 14/09 A3014 660 69 800 000/00 RMK AO2
14837KMSN MSN20011107004010211/07/01 00:40:31  5-MIN KMSN 070640Z 00000KT 10SM FEW040 OVC055 14/09 A3014 660 69 800 000/00 RMK AO2
14837KMSN MSN20011107004510211/07/01 00:45:31  5-MIN KMSN 070645Z 00000KT 10SM FEW040 OVC055 14/09 A3014 660 69 800 000/00 RMK AO2
14837KMSN MSN20011107005011911/07/01 00:50:31  5-MIN KMSN 070650Z 00000KT 10SM FEW040 OVC055 14/09 A3014 660 71 700 000/00 RMK AO2 SLP205 T01390089
14837KMSN MSN20011107005510211/07/01 00:55:31  5-MIN KMSN 070655Z 00000KT 10SM FEW040 OVC055 13/09 A3014 660 77 700 000/00 RMK AO2
14837KMSN MSN20011107010010211/07/01 01:00:31  5-MIN KMSN 070700Z 00000KT 10SM FEW040 OVC055 13/09 A3014 660 80 600 000/00 RMK AO2
14837KMSN MSN20011107010509511/07/01 01:05:31  5-MIN KMSN 070705Z 00000KT 10SM OVC055 13/09 A3014 660 77 700 000/00 RMK AO2
14837KMSN MSN20011107011009511/07/01 01:10:31  5-MIN KMSN 070710Z 00000KT 10SM OVC055 13/09 A3014 660 77 700 000/00 RMK AO2
14837KMSN MSN20011107011509411/07/01 01:15:31  5-MIN KMSN 070715Z 00000KT 9SM OVC055 13/09 A3014 660 77 700 000/00 RMK AO2
14837KMSN MSN20011107012009411/07/01 01:20:31  5-MIN KMSN 070720Z 08003KT 9SM OVC055 13/09 A3014 660 80 600 080/03 RMK AO2
14837KMSN MSN20011107012509411/07/01 01:25:31  5-MIN KMSN 070725Z 08003KT 9SM OVC055 13/09 A3014 660 80 600 080/03 RMK AO2
14837KMSN MSN20011107013009411/07/01 01:30:31  5-MIN KMSN 070730Z 00000KT 9SM OVC055 13/09 A3014 660 80 600 000/00 RMK AO2
14837KMSN MSN20011107013509411/07/01 01:35:31  5-MIN KMSN 070735Z 00000KT 9SM OVC055 13/09 A3015 660 77 700 000/00 RMK AO2
14837KMSN MSN20011107014009411/07/01 01:40:31  5-MIN KMSN 070740Z 00000KT 9SM OVC055 13/09 A3015 660 77 700 000/00 RMK AO2
14837KMSN MSN20011107014509411/07/01 01:45:31  5-MIN KMSN 070745Z 00000KT 9SM OVC055 13/09 A3015 650 80 600 000/00 RMK AO2
14837KMSN MSN20011107015011111/07/01 01:50:31  5-MIN KMSN 070750Z 00000KT 9SM OVC055 13/09 A3015 650 80 600 000/00 RMK AO2 SLP208 T01280094
14837KMSN MSN20011107015509411/07/01 01:55:31  5-MIN KMSN 070755Z 00000KT 9SM OVC060 13/09 A3015 660 77 700 000/00 RMK AO2
14837KMSN MSN20011107020009411/07/01 02:00:31  5-MIN KMSN 070800Z 00000KT 9SM OVC060 13/09 A3015 660 80 600 000/00 RMK AO2
14837KMSN MSN20011107020509411/07/01 02:05:31  5-MIN KMSN 070805Z 00000KT 9SM OVC060 13/09 A3015 660 74 700 000/00 RMK AO2
14837KMSN MSN20011107021009411/07/01 02:10:31  5-MIN KMSN 070810Z 00000KT 9SM OVC060 13/09 A3015 650 74 700 000/00 RMK AO2
14837KMSN MSN20011107021509411/07/01 02:15:31  5-MIN KMSN 070815Z 18003KT 9SM OVC060 14/09 A3015 660 71 700 180/03 RMK AO2
14837KMSN MSN20011107022009411/07/01 02:20:31  5-MIN KMSN 070820Z 00000KT 9SM OVC060 14/09 A3015 660 71 700 000/00 RMK AO2
14837KMSN MSN20011107022509411/07/01 02:25:31  5-MIN KMSN 070825Z 00000KT 9SM OVC060 14/09 A3015 660 71 700 000/00 RMK AO2
14837KMSN MSN20011107023009411/07/01 02:30:31  5-MIN KMSN 070830Z 00000KT 9SM OVC060 13/09 A3015 650 74 600 000/00 RMK AO2
14837KMSN MSN20011107023509411/07/01 02:35:31  5-MIN KMSN 070835Z 17003KT 9SM OVC060 13/09 A3015 650 77 600 170/03 RMK AO2
14837KMSN MSN20011107024009411/07/01 02:40:31  5-MIN KMSN 070840Z 16003KT 9SM OVC060 13/09 A3015 660 77 700 160/03 RMK AO2
14837KMSN MSN20011107024509411/07/01 02:45:31  5-MIN KMSN 070845Z 16003KT 9SM OVC060 13/09 A3014 660 80 600 160/03 RMK AO2
14837KMSN MSN20011107025011811/07/01 02:50:31  5-MIN KMSN 070850Z 00000KT 10SM OVC060 13/09 A3015 660 80 600 000/00 RMK AO2 SLP207 T01280094 53004
14837KMSN MSN20011107025509411/07/01 02:55:31  5-MIN KMSN 070855Z 00000KT 9SM OVC060 13/09 A3014 660 80 600 000/00 RMK AO2
14837KMSN MSN20011107030009411/07/01 03:00:31  5-MIN KMSN 070900Z 18003KT 9SM OVC060 13/09 A3014 660 80 600 180/03 RMK AO2
14837KMSN MSN20011107030509411/07/01 03:05:31  5-MIN KMSN 070905Z 00000KT 9SM OVC060 13/09 A3014 660 80 600 000/00 RMK AO2
14837KMSN MSN20011107031009411/07/01 03:10:31  5-MIN KMSN 070910Z 00000KT 9SM OVC060 13/09 A3014 660 80 600 000/00 RMK AO2
14837KMSN MSN20011107031509411/07/01 03:15:31  5-MIN KMSN 070915Z 00000KT 9SM OVC060 13/09 A3015 660 80 600 000/00 RMK AO2
14837KMSN MSN20011107032009411/07/01 03:20:31  5-MIN KMSN 070920Z 18003KT 9SM OVC060 13/09 A3015 660 74 700 180/03 RMK AO2
14837KMSN MSN20011107032509411/07/01 03:25:31  5-MIN KMSN 070925Z 19003KT 9SM OVC060 13/09 A3015 660 77 600 190/03 RMK AO2
14837KMSN MSN20011107033009411/07/01 03:30:31  5-MIN KMSN 070930Z 19003KT 9SM OVC060 13/09 A3015 650 74 700 190/03 RMK AO2
14837KMSN MSN20011107033509411/07/01 03:35:31  5-MIN KMSN 070935Z 00000KT 9SM OVC060 13/09 A3015 660 77 600 000/00 RMK AO2
14837KMSN MSN20011107034009411/07/01 03:40:31  5-MIN KMSN 070940Z 00000KT 8SM OVC060 13/09 A3015 650 77 600 000/00 RMK AO2
14837KMSN MSN20011107034509411/07/01 03:45:31  5-MIN KMSN 070945Z 17003KT 8SM OVC060 12/09 A3015 650 80 500 170/03 RMK AO2
14837KMSN MSN20011107035011111/07/01 03:50:31  5-MIN KMSN 070950Z 00000KT 8SM OVC060 12/09 A3015 650 80 500 000/00 RMK AO2 SLP209 T01220089
14837KMSN MSN20011107035509411/07/01 03:55:31  5-MIN KMSN 070955Z 00000KT 8SM OVC060 12/09 A3015 650 80 500 000/00 RMK AO2
14837KMSN MSN20011107040009411/07/01 04:00:31  5-MIN KMSN 071000Z 00000KT 8SM OVC060 12/09 A3015 650 80 500 000/00 RMK AO2
14837KMSN MSN20011107040509411/07/01 04:05:31  5-MIN KMSN 071005Z 00000KT 8SM OVC060 12/09 A3015 650 80 500 000/00 RMK AO2
14837KMSN MSN20011107041009411/07/01 04:10:31  5-MIN KMSN 071010Z 00000KT 8SM OVC060 12/09 A3015 650 80 500 000/00 RMK AO2
14837KMSN MSN20011107041509411/07/01 04:15:31  5-MIN KMSN 071015Z 01006KT 8SM OVC060 12/09 A3015 650 86 400 010/06 RMK AO2
14837KMSN MSN20011107042009411/07/01 04:20:31  5-MIN KMSN 071020Z 03003KT 8SM OVC060 12/09 A3015 650 83 500 030/03 RMK AO2
14837KMSN MSN20011107042509411/07/01 04:25:31  5-MIN KMSN 071025Z 03003KT 8SM OVC060 12/09 A3015 650 80 500 030/03 RMK AO2
14837KMSN MSN20011107043009411/07/01 04:30:31  5-MIN KMSN 071030Z 03003KT 8SM OVC060 12/09 A3015 650 80 500 030/03 RMK AO2
14837KMSN MSN20011107043509411/07/01 04:35:31  5-MIN KMSN 071035Z 00000KT 8SM OVC060 12/09 A3015 650 80 500 000/00 RMK AO2
14837KMSN MSN20011107044009411/07/01 04:40:31  5-MIN KMSN 071040Z 00000KT 8SM OVC060 12/09 A3016 650 80 500 000/00 RMK AO2
14837KMSN MSN20011107044509411/07/01 04:45:31  5-MIN KMSN 071045Z 00000KT 8SM OVC060 12/09 A3016 650 83 500 000/00 RMK AO2
14837KMSN MSN20011107045011111/07/01 04:50:31  5-MIN KMSN 071050Z 00000KT 8SM OVC060 12/09 A3016 650 83 500 000/00 RMK AO2 SLP212 T01220094
14837KMSN MSN20011107045509411/07/01 04:55:31  5-MIN KMSN 071055Z 00000KT 8SM OVC060 12/09 A3016 650 83 500 000/00 RMK AO2
14837KMSN MSN20011107050009411/07/01 05:00:31  5-MIN KMSN 071100Z 00000KT 8SM OVC060 12/09 A3016 650 83 500 000/00 RMK AO2
14837KMSN MSN20011107050509411/07/01 05:05:31  5-MIN KMSN 071105Z 00000KT 8SM OVC060 12/09 A3015 650 83 500 000/00 RMK AO2
14837KMSN MSN20011107051009411/07/01 05:10:31  5-MIN KMSN 071110Z 06003KT 8SM OVC060 12/09 A3015 650 80 500 060/03 RMK AO2
14837KMSN MSN20011107051509411/07/01 05:15:31  5-MIN KMSN 071115Z 04003KT 8SM OVC065 12/09 A3015 650 80 500 040/03 RMK AO2
14837KMSN MSN20011107052009411/07/01 05:20:31  5-MIN KMSN 071120Z 02003KT 8SM OVC060 12/09 A3016 650 83 500 020/03 RMK AO2
14837KMSN MSN20011107052509411/07/01 05:25:31  5-MIN KMSN 071125Z 02005KT 8SM OVC065 12/09 A3015 650 83 500 020/05 RMK AO2
14837KMSN MSN20011107053009411/07/01 05:30:31  5-MIN KMSN 071130Z 03004KT 8SM OVC065 12/09 A3015 650 83 400 030/04 RMK AO2
14837KMSN MSN20011107053509411/07/01 05:35:31  5-MIN KMSN 071135Z 04004KT 7SM OVC065 12/09 A3015 650 80 500 040/04 RMK AO2
14837KMSN MSN20011107054009411/07/01 05:40:31  5-MIN KMSN 071140Z 04005KT 7SM OVC065 12/09 A3015 650 83 400 040/05 RMK AO2
14837KMSN MSN20011107054509411/07/01 05:45:31  5-MIN KMSN 071145Z 04005KT 7SM OVC070 12/09 A3016 650 83 400 040/05 RMK AO2
14837KMSN MSN20011107055013211/07/01 05:50:31  5-MIN KMSN 071150Z 05003KT 6SM HZ OVC065 12/09 A3016 650 83 400 050/03 RMK AO2 SLP213 T01170089 10150 20117 52001
14837KMSN MSN20011107055509711/07/01 05:55:31  5-MIN KMSN 071155Z 08003KT 6SM HZ OVC065 12/09 A3016 650 83 400 070/03 RMK AO2
14837KMSN MSN20011107060009711/07/01 06:00:31  5-MIN KMSN 071200Z 00000KT 6SM HZ OVC065 12/09 A3016 640 83 400 000/00 RMK AO2
14837KMSN MSN20011107060509711/07/01 06:05:31  5-MIN KMSN 071205Z 09003KT 6SM HZ BKN065 12/09 A3016 640 83 400 090/03 RMK AO2
14837KMSN MSN20011107061009711/07/01 06:10:31  5-MIN KMSN 071210Z 09003KT 6SM BR SCT065 11/09 A3016 640 86 400 090/03 RMK AO2
14837KMSN MSN20011107061509711/07/01 06:15:31  5-MIN KMSN 071215Z 08004KT 6SM HZ SCT065 11/08 A3016 640 83 400 080/04 RMK AO2
14837KMSN MSN20011107062009711/07/01 06:20:31  5-MIN KMSN 071220Z 09007KT 6SM BR FEW065 11/08 A3016 640 86 300 080/07 RMK AO2
14837KMSN MSN20011107062509711/07/01 06:25:31  5-MIN KMSN 071225Z 08008KT 6SM BR FEW065 11/08 A3016 640 86 300 080/08 RMK AO2
14837KMSN MSN20011107063009711/07/01 06:30:31  5-MIN KMSN 071230Z 08007KT 6SM BR SCT065 10/08 A3016 640 89 200 080/07 RMK AO2
14837KMSN MSN20011107063509711/07/01 06:35:31  5-MIN KMSN 071235Z 07006KT 5SM BR SCT065 10/08 A3016 640 86 200 070/06 RMK AO2
14837KMSN MSN20011107064009711/07/01 06:40:31  5-MIN KMSN 071240Z 07007KT 5SM BR SCT065 09/08 A3016 640 89 200 070/07 RMK AO2
14837KMSN MSN20011107064509711/07/01 06:45:31  5-MIN KMSN 071245Z 07006KT 4SM BR FEW065 09/08 A3016 640 93 100 060/06 RMK AO2
14837KMSN MSN20011107065011411/07/01 06:50:31  5-MIN KMSN 071250Z 07006KT 3SM BR FEW065 09/07 A3016 640 89 100 070/06 RMK AO2 SLP215 T00890072
14837KMSN MSN20011107065509411/07/01 06:55:31  5-MIN KMSN 071255Z 08006KT 3SM BR CLR 09/07 A3016 640 89 100 070/06 RMK AO2
14837KMSN MSN20011107070009411/07/01 07:00:31  5-MIN KMSN 071300Z 07003KT 3SM BR CLR 09/07 A3016 640 89 100 070/03 RMK AO2
14837KMSN MSN20011107070509411/07/01 07:05:31  5-MIN KMSN 071305Z 00000KT 3SM BR CLR 09/08 A3017 640 93 100 000/00 RMK AO2
14837KMSN MSN20011107071009411/07/01 07:10:31  5-MIN KMSN 071310Z 08004KT 3SM BR CLR 09/08 A3017 640 89 200 080/04 RMK AO2
14837KMSN MSN20011107071509411/07/01 07:15:31  5-MIN KMSN 071315Z 07004KT 3SM BR CLR 09/08 A3017 630 89 200 070/04 RMK AO2
14837KMSN MSN20011107072009411/07/01 07:20:31  5-MIN KMSN 071320Z 07006KT 3SM BR CLR 09/08 A3017 630 89 200 070/06 RMK AO2
14837KMSN MSN20011107072509411/07/01 07:25:31  5-MIN KMSN 071325Z 07006KT 3SM BR CLR 09/08 A3017 630 89 200 070/06 RMK AO2
14837KMSN MSN20011107073009411/07/01 07:30:31  5-MIN KMSN 071330Z 07006KT 3SM BR CLR 10/08 A3017 630 89 200 070/06 RMK AO2
14837KMSN MSN20011107073509411/07/01 07:35:31  5-MIN KMSN 071335Z 08006KT 3SM BR CLR 10/08 A3017 630 89 200 080/06 RMK AO2
14837KMSN MSN20011107074009711/07/01 07:40:31  5-MIN KMSN 071340Z 05005KT 3SM BR FEW060 11/08 A3018 630 86 300 040/05 RMK AO2
14837KMSN MSN20011107074509711/07/01 07:45:31  5-MIN KMSN 071345Z 06006KT 4SM BR SCT060 11/09 A3018 630 86 400 060/06 RMK AO2
14837KMSN MSN20011107075011411/07/01 07:50:31  5-MIN KMSN 071350Z 06006KT 5SM HZ SCT060 11/08 A3018 630 83 400 060/06 RMK AO2 SLP221 T01110083
14837KMSN MSN20011107075511311/07/01 07:55:31  5-MIN KMSN 071355Z 08007KT 010V120 6SM BR FEW060 11/08 A3018 620 86 300 080/07 010V120 RMK AO2
14837KMSN MSN20011107080009711/07/01 08:00:31  5-MIN KMSN 071400Z 10008KT 6SM HZ FEW060 11/08 A3018 620 83 300 100/08 RMK AO2
14837KMSN MSN20011107080509711/07/01 08:05:31  5-MIN KMSN 071405Z 10008KT 6SM HZ FEW060 11/08 A3018 620 83 300 100/08 RMK AO2
14837KMSN MSN20011107081009711/07/01 08:10:31  5-MIN KMSN 071410Z 11007KT 6SM HZ FEW060 11/08 A3018 620 83 300 110/07 RMK AO2
14837KMSN MSN20011107081509411/07/01 08:15:31  5-MIN KMSN 071415Z 10007KT 6SM HZ CLR 11/08 A3019 620 83 300 100/07 RMK AO2
14837KMSN MSN20011107082009411/07/01 08:20:31  5-MIN KMSN 071420Z 10007KT 6SM HZ CLR 12/08 A3018 620 80 400 100/07 RMK AO2
14837KMSN MSN20011107082509111/07/01 08:25:31  5-MIN KMSN 071425Z 10008KT 7SM CLR 12/08 A3018 620 80 400 100/08 RMK AO2
14837KMSN MSN20011107083009111/07/01 08:30:31  5-MIN KMSN 071430Z 10008KT 7SM CLR 12/08 A3018 620 77 400 100/08 RMK AO2
14837KMSN MSN20011107083509111/07/01 08:35:31  5-MIN KMSN 071435Z 11009KT 7SM CLR 12/08 A3018 620 77 400 110/09 RMK AO2
14837KMSN MSN20011107084009111/07/01 08:40:31  5-MIN KMSN 071440Z 11009KT 7SM CLR 12/08 A3018 620 74 500 110/09 RMK AO2
14837KMSN MSN20011107084509111/07/01 08:45:31  5-MIN KMSN 071445Z 11010KT 7SM CLR 12/08 A3018 620 74 500 110/10 RMK AO2
14837KMSN MSN20011107085011711/07/01 08:50:31  5-MIN KMSN 071450Z 12011KT 7SM FEW060 12/08 A3018 620 74 500 120/11 RMK AO2 SLP221 T01220078 51004
14837KMSN MSN20011107085509711/07/01 08:55:31  5-MIN KMSN 071455Z 11012KT 6SM HZ SCT060 12/08 A3018 620 74 500 110/12 RMK AO2
14837KMSN MSN20011107090009411/07/01 09:00:31  5-MIN KMSN 071500Z 12013KT 7SM BKN065 12/08 A3018 630 77 400 120/13 RMK AO2
14837KMSN MSN20011107090509411/07/01 09:05:31  5-MIN KMSN 071505Z 12011KT 7SM BKN065 12/08 A3018 630 77 400 120/11 RMK AO2
14837KMSN MSN20011107091009411/07/01 09:10:31  5-MIN KMSN 071510Z 12012KT 7SM SCT060 12/08 A3018 630 77 500 110/12 RMK AO2
14837KMSN MSN20011107091509411/07/01 09:15:31  5-MIN KMSN 071515Z 11010KT 7SM SCT060 12/08 A3018 630 77 500 110/10 RMK AO2
14837KMSN MSN20011107092009411/07/01 09:20:31  5-MIN KMSN 071520Z 11009KT 7SM SCT060 13/08 A3018 630 74 500 110/09 RMK AO2
14837KMSN MSN20011107092509411/07/01 09:25:31  5-MIN KMSN 071525Z 13009KT 7SM SCT060 13/08 A3018 630 74 500 130/09 RMK AO2
14837KMSN MSN20011107093009411/07/01 09:30:31  5-MIN KMSN 071530Z 13009KT 8SM BKN060 13/08 A3018 630 74 600 120/09 RMK AO2
14837KMSN MSN20011107093509411/07/01 09:35:31  5-MIN KMSN 071535Z 12010KT 8SM BKN060 13/08 A3018 630 74 600 120/10 RMK AO2
14837KMSN MSN20011107094009411/07/01 09:40:31  5-MIN KMSN 071540Z 12009KT 8SM SCT060 12/08 A3018 630 77 500 120/09 RMK AO2
14837KMSN MSN20011107094509411/07/01 09:45:31  5-MIN KMSN 071545Z 12009KT 8SM SCT060 13/08 A3018 630 74 500 120/09 RMK AO2
14837KMSN MSN20011107095011111/07/01 09:50:31  5-MIN KMSN 071550Z 12008KT 8SM SCT060 13/08 A3018 630 71 600 120/08 RMK AO2 SLP220 T01330083
14837KMSN MSN20011107095509711/07/01 09:55:31  5-MIN KMSN 071555Z 12008KT 6SM HZ FEW060 13/08 A3018 630 71 600 120/08 RMK AO2
14837KMSN MSN20011107100009711/07/01 10:00:31  5-MIN KMSN 071600Z 12009KT 6SM HZ FEW060 13/08 A3018 630 71 600 120/09 RMK AO2
14837KMSN MSN20011107100509411/07/01 10:05:31  5-MIN KMSN 071605Z 11008KT 8SM FEW075 13/08 A3018 630 71 600 110/08 RMK AO2
14837KMSN MSN20011107101009411/07/01 10:10:31  5-MIN KMSN 071610Z 12007KT 8SM FEW060 13/08 A3018 630 74 600 110/07 RMK AO2
14837KMSN MSN20011107101509411/07/01 10:15:31  5-MIN KMSN 071615Z 10007KT 8SM SCT055 13/08 A3018 630 71 600 100/07 RMK AO2
14837KMSN MSN20011107102009411/07/01 10:20:31  5-MIN KMSN 071620Z 12009KT 8SM BKN055 13/08 A3018 630 71 600 120/09 RMK AO2
14837KMSN MSN20011107102509411/07/01 10:25:31  5-MIN KMSN 071625Z 10008KT 8SM BKN055 13/08 A3018 630 71 600 100/08 RMK AO2
14837KMSN MSN20011107103009411/07/01 10:30:31  5-MIN KMSN 071630Z 12008KT 8SM BKN055 13/08 A3018 630 71 600 120/08 RMK AO2
14837KMSN MSN20011107103509411/07/01 10:35:31  5-MIN KMSN 071635Z 12008KT 8SM BKN055 13/08 A3017 630 71 600 120/08 RMK AO2
14837KMSN MSN20011107104009411/07/01 10:40:31  5-MIN KMSN 071640Z 12008KT 8SM BKN055 13/08 A3017 630 71 600 120/08 RMK AO2
14837KMSN MSN20011107104509411/07/01 10:45:31  5-MIN KMSN 071645Z 12008KT 8SM BKN055 13/08 A3017 630 71 600 120/08 RMK AO2
14837KMSN MSN20011107105011111/07/01 10:50:31  5-MIN KMSN 071650Z 12009KT 8SM SCT060 14/08 A3017 630 69 700 120/09 RMK AO2 SLP217 T01390083
14837KMSN MSN20011107105509411/07/01 10:55:31  5-MIN KMSN 071655Z 11008KT 7SM BKN060 14/09 A3017 640 71 700 110/08 RMK AO2
14837KMSN MSN20011107110009411/07/01 11:00:31  5-MIN KMSN 071700Z 13008KT 7SM SCT060 13/08 A3016 640 71 600 130/08 RMK AO2
14837KMSN MSN20011107110509411/07/01 11:05:31  5-MIN KMSN 071705Z 11008KT 7SM SCT055 14/08 A3016 640 69 700 110/08 RMK AO2
14837KMSN MSN20011107111009411/07/01 11:10:31  5-MIN KMSN 071710Z 11008KT 7SM SCT055 14/08 A3016 640 69 700 110/08 RMK AO2
14837KMSN MSN20011107111509411/07/01 11:15:31  5-MIN KMSN 071715Z 11008KT 7SM SCT055 14/09 A3016 640 69 800 110/08 RMK AO2
14837KMSN MSN20011107112009411/07/01 11:20:31  5-MIN KMSN 071720Z 11008KT 7SM SCT060 14/09 A3016 650 69 800 110/08 RMK AO2
14837KMSN MSN20011107112509411/07/01 11:25:31  5-MIN KMSN 071725Z 11008KT 7SM SCT055 14/09 A3015 650 69 800 110/08 RMK AO2
14837KMSN MSN20011107113009411/07/01 11:30:31  5-MIN KMSN 071730Z 11007KT 8SM SCT055 14/09 A3015 650 69 800 110/07 RMK AO2
14837KMSN MSN20011107113509411/07/01 11:35:31  5-MIN KMSN 071735Z 13006KT 8SM SCT055 15/09 A3015 650 66 800 130/06 RMK AO2
14837KMSN MSN20011107114009411/07/01 11:40:31  5-MIN KMSN 071740Z 13007KT 8SM BKN065 16/09 A3015 650 64 900 130/07 RMK AO2
14837KMSN MSN20011107114509411/07/01 11:45:31  5-MIN KMSN 071745Z 12008KT 8SM BKN065 16/09 A3014 660 64 900 120/08 RMK AO2
14837KMSN MSN20011107115012911/07/01 11:50:31  5-MIN KMSN 071750Z 13008KT 7SM SCT065 16/09 A3014 660 64 900 130/08 RMK AO2 SLP207 T01560089 10156 20089 51008
14837KMSN MSN20011107115509811/07/01 11:55:31  5-MIN KMSN 071755Z 13007KT 6SM HZ SCT065 16/09 A3014 660 62 1000 130/07 RMK AO2
14837KMSN MSN20011107120009411/07/01 12:00:31  5-MIN KMSN 071800Z 13008KT 7SM FEW065 16/09 A3013 670 64 900 130/08 RMK AO2
14837KMSN MSN20011107120509411/07/01 12:05:31  5-MIN KMSN 071805Z 12007KT 7SM FEW065 16/09 A3013 670 64 900 120/07 RMK AO2
14837KMSN MSN20011107121009411/07/01 12:10:31  5-MIN KMSN 071810Z 12008KT 8SM FEW065 16/09 A3013 670 64 900 120/08 RMK AO2
14837KMSN MSN20011107121509111/07/01 12:15:31  5-MIN KMSN 071815Z 14007KT 8SM CLR 16/09 A3013 670 64 900 140/07 RMK AO2
14837KMSN MSN20011107122009111/07/01 12:20:31  5-MIN KMSN 071820Z 13007KT 8SM CLR 16/09 A3013 670 64 900 130/07 RMK AO2
14837KMSN MSN20011107122509211/07/01 12:25:31  5-MIN KMSN 071825Z 14007KT 8SM CLR 16/09 A3012 680 62 1000 140/07 RMK AO2
14837KMSN MSN20011107123009211/07/01 12:30:31  5-MIN KMSN 071830Z 14007KT 8SM CLR 16/09 A3012 680 62 1000 140/07 RMK AO2
14837KMSN MSN20011107123509211/07/01 12:35:31  5-MIN KMSN 071835Z 16008KT 8SM CLR 17/09 A3012 680 60 1100 150/08 RMK AO2
14837KMSN MSN20011107124009211/07/01 12:40:31  5-MIN KMSN 071840Z 15006KT 8SM CLR 17/09 A3012 680 60 1100 150/06 RMK AO2
14837KMSN MSN20011107124509211/07/01 12:45:31  5-MIN KMSN 071845Z 14010KT 8SM CLR 17/09 A3011 690 60 1100 140/10 RMK AO2
14837KMSN MSN20011107125010911/07/01 12:50:31  5-MIN KMSN 071850Z 15007KT 8SM CLR 16/09 A3011 690 62 1000 150/07 RMK AO2 SLP196 T01610089
14837KMSN MSN20011107125509511/07/01 12:55:31  5-MIN KMSN 071855Z 15008KT 6SM HZ CLR 17/09 A3011 690 60 1100 150/08 RMK AO2
14837KMSN MSN20011107130009511/07/01 13:00:31  5-MIN KMSN 071900Z 16009KT 8SM SCT065 16/09 A3011 690 62 1000 160/09 RMK AO2
14837KMSN MSN20011107130509511/07/01 13:05:31  5-MIN KMSN 071905Z 18007KT 8SM SCT065 16/09 A3010 700 62 1000 180/07 RMK AO2
14837KMSN MSN20011107131009511/07/01 13:10:31  5-MIN KMSN 071910Z 15007KT 8SM BKN075 17/09 A3010 700 60 1100 150/07 RMK AO2
14837KMSN MSN20011107131509511/07/01 13:15:31  5-MIN KMSN 071915Z 15007KT 8SM BKN075 17/09 A3010 700 60 1200 150/07 RMK AO2
14837KMSN MSN20011107132009511/07/01 13:20:31  5-MIN KMSN 071920Z 15006KT 8SM BKN075 17/09 A3010 700 57 1200 150/06 RMK AO2
14837KMSN MSN20011107132509511/07/01 13:25:31  5-MIN KMSN 071925Z 14007KT 8SM BKN075 17/09 A3009 700 60 1200 140/07 RMK AO2
14837KMSN MSN20011107133009511/07/01 13:30:31  5-MIN KMSN 071930Z 14006KT 8SM BKN075 17/09 A3009 710 60 1100 140/06 RMK AO2
14837KMSN MSN20011107133509511/07/01 13:35:31  5-MIN KMSN 071935Z 15007KT 8SM BKN075 17/09 A3009 710 60 1200 150/07 RMK AO2
14837KMSN MSN20011107134009511/07/01 13:40:31  5-MIN KMSN 071940Z 14007KT 8SM BKN075 17/09 A3008 710 60 1200 140/07 RMK AO2
14837KMSN MSN20011107134509511/07/01 13:45:31  5-MIN KMSN 071945Z 14006KT 8SM BKN080 18/09 A3008 720 58 1200 140/06 RMK AO2
14837KMSN MSN20011107135011211/07/01 13:50:31  5-MIN KMSN 071950Z 14008KT 8SM BKN080 17/09 A3008 720 60 1200 140/08 RMK AO2 SLP186 T01720094
14837KMSN MSN20011107135509511/07/01 13:55:31  5-MIN KMSN 071955Z 14008KT 9SM BKN080 17/09 A3008 720 60 1200 140/08 RMK AO2
14837KMSN MSN20011107140009511/07/01 14:00:31  5-MIN KMSN 072000Z 16006KT 9SM BKN080 17/09 A3008 720 60 1200 160/06 RMK AO2
14837KMSN MSN20011107140509511/07/01 14:05:31  5-MIN KMSN 072005Z 16006KT 9SM BKN080 18/10 A3008 720 58 1300 150/06 RMK AO2
14837KMSN MSN20011107141009511/07/01 14:10:31  5-MIN KMSN 072010Z 17008KT 9SM BKN080 18/10 A3008 720 58 1300 170/08 RMK AO2
14837KMSN MSN20011107141509511/07/01 14:15:31  5-MIN KMSN 072015Z 15007KT 9SM BKN075 18/10 A3007 720 58 1300 150/07 RMK AO2
14837KMSN MSN20011107142009511/07/01 14:20:31  5-MIN KMSN 072020Z 16008KT 9SM OVC075 18/11 A3007 720 60 1300 160/08 RMK AO2
14837KMSN MSN20011107142509611/07/01 14:25:31  5-MIN KMSN 072025Z 16008KT 10SM OVC075 18/11 A3007 720 60 1300 160/08 RMK AO2
14837KMSN MSN20011107143009611/07/01 14:30:31  5-MIN KMSN 072030Z 16008KT 10SM OVC080 18/11 A3007 730 60 1300 160/08 RMK AO2
14837KMSN MSN20011107143509611/07/01 14:35:31  5-MIN KMSN 072035Z 16007KT 10SM BKN080 18/11 A3007 730 60 1300 160/07 RMK AO2
14837KMSN MSN20011107144009611/07/01 14:40:31  5-MIN KMSN 072040Z 16009KT 10SM BKN075 19/11 A3007 730 58 1400 160/09 RMK AO2
14837KMSN MSN20011107144509611/07/01 14:45:31  5-MIN KMSN 072045Z 16008KT 10SM BKN075 19/11 A3007 730 58 1400 160/08 RMK AO2
14837KMSN MSN20011107145011911/07/01 14:50:31  5-MIN KMSN 072050Z 16008KT 10SM BKN075 18/11 A3007 730 60 1300 160/08 RMK AO2 SLP181 T01830106 58014
14837KMSN MSN20011107145509511/07/01 14:55:31  5-MIN KMSN 072055Z 16009KT 9SM SCT075 18/11 A3007 730 60 1300 160/09 RMK AO2
14837KMSN MSN20011107150009611/07/01 15:00:31  5-MIN KMSN 072100Z 17007KT 10SM SCT075 18/11 A3007 730 60 1300 170/07 RMK AO2
14837KMSN MSN20011107150509611/07/01 15:05:31  5-MIN KMSN 072105Z 17007KT 10SM FEW070 18/11 A3006 730 62 1300 170/07 RMK AO2
14837KMSN MSN20011107151009611/07/01 15:10:31  5-MIN KMSN 072110Z 16007KT 10SM SCT070 19/11 A3006 730 60 1400 160/07 RMK AO2
14837KMSN MSN20011107151509611/07/01 15:15:31  5-MIN KMSN 072115Z 17008KT 10SM SCT070 19/11 A3006 730 60 1400 160/08 RMK AO2
14837KMSN MSN20011107152009611/07/01 15:20:31  5-MIN KMSN 072120Z 17007KT 10SM SCT070 19/11 A3006 730 60 1400 170/07 RMK AO2
14837KMSN MSN20011107152509611/07/01 15:25:31  5-MIN KMSN 072125Z 17007KT 10SM SCT070 19/11 A3006 730 60 1400 170/07 RMK AO2
14837KMSN MSN20011107153009611/07/01 15:30:31  5-MIN KMSN 072130Z 18009KT 10SM SCT070 19/12 A3006 740 62 1400 180/09 RMK AO2
14837KMSN MSN20011107153509611/07/01 15:35:31  5-MIN KMSN 072135Z 18008KT 10SM FEW075 19/12 A3006 740 62 1400 180/08 RMK AO2
14837KMSN MSN20011107154009311/07/01 15:40:31  5-MIN KMSN 072140Z 18008KT 10SM CLR 19/12 A3006 740 62 1400 180/08 RMK AO2
14837KMSN MSN20011107154509611/07/01 15:45:31  5-MIN KMSN 072145Z 19007KT 10SM FEW075 19/12 A3006 740 62 1400 180/07 RMK AO2
14837KMSN MSN20011107155011311/07/01 15:50:31  5-MIN KMSN 072150Z 18007KT 10SM FEW075 18/12 A3006 740 65 1300 180/07 RMK AO2 SLP177 T01830117
14837KMSN MSN20011107155509611/07/01 15:55:31  5-MIN KMSN 072155Z 18007KT 10SM FEW075 18/12 A3005 740 65 1300 180/07 RMK AO2
14837KMSN MSN20011107160009611/07/01 16:00:31  5-MIN KMSN 072200Z 18007KT 10SM SCT070 18/11 A3005 740 62 1300 180/07 RMK AO2
14837KMSN MSN20011107160509611/07/01 16:05:31  5-MIN KMSN 072205Z 18008KT 10SM SCT070 19/11 A3005 740 60 1400 180/08 RMK AO2
14837KMSN MSN20011107161009611/07/01 16:10:31  5-MIN KMSN 072210Z 18006KT 10SM SCT075 18/11 A3005 740 62 1300 180/06 RMK AO2
14837KMSN MSN20011107161509611/07/01 16:15:31  5-MIN KMSN 072215Z 18007KT 10SM SCT075 18/11 A3005 740 62 1300 180/07 RMK AO2
14837KMSN MSN20011107162009611/07/01 16:20:31  5-MIN KMSN 072220Z 18006KT 10SM BKN075 18/11 A3005 740 62 1300 180/06 RMK AO2
14837KMSN MSN20011107162509611/07/01 16:25:31  5-MIN KMSN 072225Z 18005KT 10SM BKN075 18/11 A3005 740 64 1300 180/05 RMK AO2
14837KMSN MSN20011107163009611/07/01 16:30:31  5-MIN KMSN 072230Z 18005KT 10SM BKN075 18/11 A3005 740 64 1300 180/05 RMK AO2
14837KMSN MSN20011107163509611/07/01 16:35:31  5-MIN KMSN 072235Z 18003KT 10SM FEW075 17/11 A3005 740 69 1200 180/03 RMK AO2
14837KMSN MSN20011107164009611/07/01 16:40:31  5-MIN KMSN 072240Z 17004KT 10SM FEW075 17/11 A3005 740 69 1200 170/04 RMK AO2
14837KMSN MSN20011107164509611/07/01 16:45:31  5-MIN KMSN 072245Z 18005KT 10SM FEW075 17/11 A3005 740 67 1200 180/05 RMK AO2
14837KMSN MSN20011107165011311/07/01 16:50:31  5-MIN KMSN 072250Z 18005KT 10SM FEW075 16/11 A3005 750 69 1100 180/05 RMK AO2 SLP176 T01610106
14837KMSN MSN20011107165509611/07/01 16:55:31  5-MIN KMSN 072255Z 18005KT 10SM FEW075 16/11 A3005 750 69 1100 170/05 RMK AO2
14837KMSN MSN20011107170009611/07/01 17:00:31  5-MIN KMSN 072300Z 18006KT 10SM FEW075 16/11 A3005 750 69 1100 180/06 RMK AO2
14837KMSN MSN20011107170509611/07/01 17:05:31  5-MIN KMSN 072305Z 18007KT 10SM FEW075 17/11 A3004 750 69 1200 180/07 RMK AO2
14837KMSN MSN20011107171009611/07/01 17:10:31  5-MIN KMSN 072310Z 17005KT 10SM FEW075 16/11 A3004 750 72 1100 170/05 RMK AO2
14837KMSN MSN20011107171509611/07/01 17:15:31  5-MIN KMSN 072315Z 17006KT 10SM FEW075 16/11 A3004 750 72 1100 170/06 RMK AO2
14837KMSN MSN20011107172009611/07/01 17:20:31  5-MIN KMSN 072320Z 17005KT 10SM FEW075 17/11 A3004 750 69 1200 170/05 RMK AO2
14837KMSN MSN20011107172509311/07/01 17:25:31  5-MIN KMSN 072325Z 18006KT 10SM CLR 17/11 A3004 750 69 1200 180/06 RMK AO2
14837KMSN MSN20011107173009311/07/01 17:30:31  5-MIN KMSN 072330Z 18007KT 10SM CLR 16/11 A3004 750 72 1100 180/07 RMK AO2
14837KMSN MSN20011107173509311/07/01 17:35:31  5-MIN KMSN 072335Z 18007KT 10SM CLR 17/11 A3004 760 69 1200 180/07 RMK AO2
14837KMSN MSN20011107174009311/07/01 17:40:31  5-MIN KMSN 072340Z 18007KT 10SM CLR 17/11 A3004 760 69 1200 180/07 RMK AO2
14837KMSN MSN20011107174509311/07/01 17:45:31  5-MIN KMSN 072345Z 17006KT 10SM CLR 16/11 A3004 760 72 1100 170/06 RMK AO2
14837KMSN MSN20011107175012811/07/01 17:50:31  5-MIN KMSN 072350Z 17006KT 10SM CLR 16/11 A3004 760 72 1100 170/06 RMK AO2 SLP172 T01610111 10189 20156 56024
14837KMSN MSN20011107175509311/07/01 17:55:31  5-MIN KMSN 072355Z 18005KT 10SM CLR 16/11 A3003 760 72 1100 170/05 RMK AO2
14837KMSN MSN20011107180009311/07/01 18:00:31  5-MIN KMSN 080000Z 17005KT 10SM CLR 16/11 A3003 760 72 1100 170/05 RMK AO2
14837KMSN MSN20011107180509311/07/01 18:05:31  5-MIN KMSN 080005Z 17005KT 10SM CLR 16/11 A3003 760 72 1100 170/05 RMK AO2
14837KMSN MSN20011107181009311/07/01 18:10:31  5-MIN KMSN 080010Z 17006KT 10SM CLR 16/11 A3003 760 74 1000 170/06 RMK AO2
14837KMSN MSN20011107181509311/07/01 18:15:31  5-MIN KMSN 080015Z 17006KT 10SM CLR 16/11 A3003 760 74 1000 170/06 RMK AO2
14837KMSN MSN20011107220509611/07/01 22:05:31  5-MIN KMSN 080405Z 19010KT 10SM OVC110 17/09 A2999 800 62 1200 190/10 RMK AO2
14837KMSN MSN20011107221010211/07/01 22:10:31  5-MIN KMSN 080410Z 20009G16KT 10SM OVC100 17/09 A2999 800 60 1300 190/09G16 RMK AO2
14837KMSN MSN20011107221510211/07/01 22:15:31  5-MIN KMSN 080415Z 19009G16KT 10SM BKN100 17/09 A2999 800 62 1200 190/09G16 RMK AO2
14837KMSN MSN20011107222009611/07/01 22:20:31  5-MIN KMSN 080420Z 20008KT 10SM BKN100 17/09 A2999 800 62 1200 190/08 RMK AO2
14837KMSN MSN20011107222509611/07/01 22:25:31  5-MIN KMSN 080425Z 20007KT 10SM BKN100 17/09 A2998 810 62 1200 200/07 RMK AO2
14837KMSN MSN20011107223009611/07/01 22:30:31  5-MIN KMSN 080430Z 20008KT 10SM BKN100 17/09 A2998 810 62 1200 200/08 RMK AO2
14837KMSN MSN20011107223509611/07/01 22:35:31  5-MIN KMSN 080435Z 19008KT 10SM BKN100 17/09 A2998 810 62 1200 190/08 RMK AO2
14837KMSN MSN20011107224009611/07/01 22:40:31  5-MIN KMSN 080440Z 20006KT 10SM BKN100 17/09 A2998 810 62 1200 200/06 RMK AO2
14837KMSN MSN20011107224509611/07/01 22:45:31  5-MIN KMSN 080445Z 19007KT 10SM BKN100 17/09 A2998 810 60 1200 190/07 RMK AO2
14837KMSN MSN20011107225012911/07/01 22:50:31  5-MIN KMSN 080450Z 20007KT 180V260 10SM SCT100 16/09 A2997 810 62 1200 200/07 180V260 RMK AO2 SLP150 T01610089
14837KMSN MSN20011107225509611/07/01 22:55:31  5-MIN KMSN 080455Z VRB06KT 10SM SCT100 17/09 A2997 820 60 1200 VRB/06 RMK AO2
14837KMSN MSN20011107230009611/07/01 23:00:31  5-MIN KMSN 080500Z 19006KT 10SM FEW100 16/09 A2997 820 62 1200 190/06 RMK AO2
14837KMSN MSN20011107230509311/07/01 23:05:31  5-MIN KMSN 080505Z 20006KT 10SM CLR 16/09 A2997 820 62 1200 200/06 RMK AO2
14837KMSN MSN20011107231009311/07/01 23:10:31  5-MIN KMSN 080510Z VRB06KT 10SM CLR 16/09 A2996 820 62 1200 VRB/06 RMK AO2
14837KMSN MSN20011107231509311/07/01 23:15:31  5-MIN KMSN 080515Z VRB06KT 10SM CLR 16/09 A2996 830 62 1200 VRB/06 RMK AO2
14837KMSN MSN20011107232009311/07/01 23:20:31  5-MIN KMSN 080520Z 20006KT 10SM CLR 16/09 A2996 830 62 1200 200/06 RMK AO2
14837KMSN MSN20011107232509311/07/01 23:25:31  5-MIN KMSN 080525Z 20006KT 10SM CLR 16/09 A2996 830 62 1200 200/06 RMK AO2
14837KMSN MSN20011107233009311/07/01 23:30:31  5-MIN KMSN 080530Z 21006KT 10SM CLR 16/09 A2996 830 62 1200 210/06 RMK AO2
14837KMSN MSN20011107233509311/07/01 23:35:31  5-MIN KMSN 080535Z 20009KT 10SM CLR 16/09 A2996 830 62 1200 200/09 RMK AO2
14837KMSN MSN20011107234009311/07/01 23:40:31  5-MIN KMSN 080540Z 21006KT 10SM CLR 16/09 A2995 830 64 1100 210/06 RMK AO2
14837KMSN MSN20011107234509311/07/01 23:45:31  5-MIN KMSN 080545Z 21007KT 10SM CLR 16/09 A2995 840 62 1200 210/07 RMK AO2
14837KMSN MSN20011107235013811/07/01 23:50:31  5-MIN KMSN 080550Z 21007KT 10SM CLR 16/09 A2995 840 62 1200 210/07 RMK AO2 SLP141 T01610089 10172 20144 401890089 58013
14837KMSN MSN20011107235509311/07/01 23:55:31  5-MIN KMSN 080555Z 21006KT 10SM CLR 16/09 A2995 840 64 1100 210/06 RMK AO2
14837KMSN MSN20011108000009311/08/01 00:00:31  5-MIN KMSN 080600Z 20007KT 10SM CLR 16/09 A2995 840 64 1100 200/07 RMK AO2
14837KMSN MSN20011108000509311/08/01 00:05:31  5-MIN KMSN 080605Z 20008KT 10SM CLR 16/09 A2994 840 64 1100 200/08 RMK AO2
14837KMSN MSN20011108001009311/08/01 00:10:31  5-MIN KMSN 080610Z 20008KT 10SM CLR 16/09 A2994 850 64 1100 200/08 RMK AO2
14837KMSN MSN20011108001509311/08/01 00:15:31  5-MIN KMSN 080615Z 20007KT 10SM CLR 16/09 A2994 850 64 1200 200/07 RMK AO2
14837KMSN MSN20011108002009911/08/01 00:20:31  5-MIN KMSN 080620Z 21008G15KT 10SM CLR 16/09 A2994 850 64 1200 210/08G15 RMK AO2
14837KMSN MSN20011108002509911/08/01 00:25:31  5-MIN KMSN 080625Z 20007G15KT 10SM CLR 16/09 A2993 850 64 1200 200/07G15 RMK AO2
14837KMSN MSN20011108003009311/08/01 00:30:31  5-MIN KMSN 080630Z 21010KT 10SM CLR 16/09 A2993 850 64 1200 210/10 RMK AO2
14837KMSN MSN20011108003510911/08/01 00:35:31  5-MIN KMSN 080635Z 20008KT 160V240 10SM CLR 16/09 A2993 850 64 1200 200/08 160V240 RMK AO2
14837KMSN MSN20011108004009311/08/01 00:40:31  5-MIN KMSN 080640Z 22008KT 10SM CLR 16/09 A2993 850 64 1200 220/08 RMK AO2
14837KMSN MSN20011108004509311/08/01 00:45:31  5-MIN KMSN 080645Z 22008KT 10SM CLR 15/09 A2993 850 66 1100 220/08 RMK AO2
14837KMSN MSN20011108005011611/08/01 00:50:31  5-MIN KMSN 080650Z 21009G14KT 10SM CLR 15/09 A2994 850 66 1100 210/09G14 RMK AO2 SLP137 T01500089
14837KMSN MSN20011108005509911/08/01 00:55:31  5-MIN KMSN 080655Z 20011G14KT 10SM CLR 16/09 A2993 850 64 1200 200/11G14 RMK AO2
14837KMSN MSN20011108010009311/08/01 01:00:31  5-MIN KMSN 080700Z 22008KT 10SM CLR 15/09 A2993 850 66 1100 220/08 RMK AO2
14837KMSN MSN20011108010509311/08/01 01:05:31  5-MIN KMSN 080705Z 22006KT 10SM CLR 15/09 A2993 850 66 1100 220/06 RMK AO2
14837KMSN MSN20011108011009311/08/01 01:10:31  5-MIN KMSN 080710Z 21008KT 10SM CLR 16/09 A2993 850 64 1200 210/08 RMK AO2
14837KMSN MSN20011108011509311/08/01 01:15:31  5-MIN KMSN 080715Z 21008KT 10SM CLR 15/09 A2993 860 66 1100 210/08 RMK AO2
14837KMSN MSN20011108012009311/08/01 01:20:31  5-MIN KMSN 080720Z 20009KT 10SM CLR 15/08 A2993 860 64 1100 200/09 RMK AO2
14837KMSN MSN20011108012509311/08/01 01:25:31  5-MIN KMSN 080725Z 20007KT 10SM CLR 15/08 A2993 860 64 1100 200/07 RMK AO2
14837KMSN MSN20011108013009311/08/01 01:30:31  5-MIN KMSN 080730Z 20007KT 10SM CLR 15/08 A2992 860 64 1100 200/07 RMK AO2
14837KMSN MSN20011108013509311/08/01 01:35:31  5-MIN KMSN 080735Z 20007KT 10SM CLR 15/08 A2992 860 64 1100 200/07 RMK AO2
14837KMSN MSN20011108014009311/08/01 01:40:31  5-MIN KMSN 080740Z 21007KT 10SM CLR 15/08 A2992 860 64 1100 210/07 RMK AO2
14837KMSN MSN20011108014509311/08/01 01:45:31  5-MIN KMSN 080745Z 21006KT 10SM CLR 15/08 A2992 860 64 1100 210/06 RMK AO2
14837KMSN MSN20011108015011011/08/01 01:50:31  5-MIN KMSN 080750Z 22006KT 10SM CLR 15/08 A2992 860 64 1100 210/06 RMK AO2 SLP131 T01500083
14837KMSN MSN20011108015509311/08/01 01:55:31  5-MIN KMSN 080755Z 21007KT 10SM CLR 15/09 A2992 860 66 1100 210/07 RMK AO2
14837KMSN MSN20011108020009311/08/01 02:00:31  5-MIN KMSN 080800Z 22007KT 10SM CLR 16/09 A2992 860 64 1200 210/07 RMK AO2
14837KMSN MSN20011108020509311/08/01 02:05:31  5-MIN KMSN 080805Z 23006KT 10SM CLR 16/08 A2993 860 62 1200 220/06 RMK AO2
14837KMSN MSN20011108021010911/08/01 02:10:31  5-MIN KMSN 080810Z 22007KT 190V260 10SM CLR 16/08 A2992 860 62 1200 220/07 190V260 RMK AO2
14837KMSN MSN20011108021509311/08/01 02:15:31  5-MIN KMSN 080815Z VRB05KT 10SM CLR 15/08 A2992 860 64 1100 VRB/05 RMK AO2
14837KMSN MSN20011108022009611/08/01 02:20:31  5-MIN KMSN 080820Z 22007KT 10SM FEW120 15/08 A2992 860 64 1100 220/07 RMK AO2
14837KMSN MSN20011108022509611/08/01 02:25:31  5-MIN KMSN 080825Z 23006KT 10SM FEW120 15/08 A2992 860 64 1100 230/06 RMK AO2
14837KMSN MSN20011108023011211/08/01 02:30:31  5-MIN KMSN 080830Z 22008KT 190V250 10SM FEW120 15/08 A2992 860 64 1100 220/08 190V250 RMK AO2
14837KMSN MSN20011108023509611/08/01 02:35:31  5-MIN KMSN 080835Z 22007KT 10SM FEW120 15/08 A2992 870 64 1100 220/07 RMK AO2
14837KMSN MSN20011108024009611/08/01 02:40:31  5-MIN KMSN 080840Z 22007KT 10SM FEW120 15/08 A2992 870 64 1100 220/07 RMK AO2
14837KMSN MSN20011108024509611/08/01 02:45:31  5-MIN KMSN 080845Z 23006KT 10SM FEW120 15/08 A2992 870 64 1100 220/06 RMK AO2
14837KMSN MSN20011108025011911/08/01 02:50:31  5-MIN KMSN 080850Z 22006KT 10SM FEW120 14/08 A2992 870 66 1000 220/06 RMK AO2 SLP129 T01440083 58015
14837KMSN MSN20011108025509611/08/01 02:55:31  5-MIN KMSN 080855Z 22008KT 10SM FEW120 14/08 A2992 870 66 1000 220/08 RMK AO2
14837KMSN MSN20011108030009611/08/01 03:00:31  5-MIN KMSN 080900Z 24006KT 10SM SCT120 14/08 A2992 870 66 1000 240/06 RMK AO2
14837KMSN MSN20011108030509611/08/01 03:05:31  5-MIN KMSN 080905Z VRB06KT 10SM FEW120 14/08 A2992 860 66 1000 VRB/06 RMK AO2
14837KMSN MSN20011108031009611/08/01 03:10:31  5-MIN KMSN 080910Z 23005KT 10SM FEW120 14/08 A2992 860 66 1000 230/05 RMK AO2
14837KMSN MSN20011108031509611/08/01 03:15:31  5-MIN KMSN 080915Z 23006KT 10SM FEW120 14/08 A2992 860 66 1000 230/06 RMK AO2
14837KMSN MSN20011108032009611/08/01 03:20:31  5-MIN KMSN 080920Z VRB05KT 10SM FEW120 14/08 A2992 860 66 1000 VRB/05 RMK AO2
14837KMSN MSN20011108032509611/08/01 03:25:31  5-MIN KMSN 080925Z VRB05KT 10SM FEW120 14/08 A2992 860 66 1000 VRB/05 RMK AO2
14837KMSN MSN20011108033009311/08/01 03:30:31  5-MIN KMSN 080930Z 23004KT 10SM CLR 14/08 A2992 860 66 1000 230/04 RMK AO2
14837KMSN MSN20011108033509311/08/01 03:35:31  5-MIN KMSN 080935Z VRB04KT 10SM CLR 14/08 A2992 860 66 1000 VRB/04 RMK AO2
14837KMSN MSN20011108034009611/08/01 03:40:31  5-MIN KMSN 080940Z 24004KT 10SM FEW090 14/08 A2993 860 66 1000 240/04 RMK AO2
14837KMSN MSN20011108034509611/08/01 03:45:31  5-MIN KMSN 080945Z VRB03KT 10SM FEW090 14/08 A2993 860 69 1000 VRB/03 RMK AO2
14837KMSN MSN20011108035011011/08/01 03:50:31  5-MIN KMSN 080950Z VRB04KT 10SM CLR 14/08 A2993 860 66 1000 VRB/04 RMK AO2 SLP133 T01440083
14837KMSN MSN20011108035509311/08/01 03:55:31  5-MIN KMSN 080955Z 27007KT 10SM CLR 14/08 A2993 850 66 1000 270/07 RMK AO2
14837KMSN MSN20011108040009611/08/01 04:00:31  5-MIN KMSN 081000Z 28005KT 10SM SCT033 14/08 A2993 850 66 1000 280/05 RMK AO2
14837KMSN MSN20011108040509611/08/01 04:05:31  5-MIN KMSN 081005Z 28008KT 10SM BKN033 15/08 A2994 850 64 1100 280/08 RMK AO2
14837KMSN MSN20011108041009611/08/01 04:10:31  5-MIN KMSN 081010Z 29007KT 10SM BKN033 15/08 A2994 850 64 1100 290/07 RMK AO2
14837KMSN MSN20011108041510911/08/01 04:15:31  5-MIN KMSN 081015Z 31012G17KT 10SM FEW026 BKN033 15/09 A2994 840 66 1100 310/12G17 RMK AO2
14837KMSN MSN20011108042010111/08/01 04:20:31  5-MIN KMSN 081020Z 31014G19KT 8SM OVC031 14/09 A2995 840 72 1000 310/14G19 RMK AO2
14837KMSN MSN20011108042511011/08/01 04:25:31  5-MIN KMSN 081025Z 31013G19KT 6SM HZ BKN025 OVC033 14/09 A2996 830 74 900 310/13G19 RMK AO2
14837KMSN MSN20011108043011711/08/01 04:30:31  5-MIN KMSN 081030Z 31017G25KT 6SM HZ BKN023 OVC031 14/09 A2996 820 74 900 300/17G25 RMK AO2 PRESRR
14837KMSN MSN20011108043511011/08/01 04:35:31  5-MIN KMSN 081035Z 31013G25KT 6SM HZ BKN023 OVC031 13/09 A2997 820 74 900 310/13G25 RMK AO2
14837KMSN MSN20011108044010711/08/01 04:40:31  5-MIN KMSN 081040Z 31011G20KT 7SM BKN023 OVC031 13/08 A2997 820 71 800 310/11G20 RMK AO2
14837KMSN MSN20011108044509411/08/01 04:45:31  5-MIN KMSN 081045Z 30013KT 7SM OVC023 13/08 A2997 810 74 800 300/13 RMK AO2
14837KMSN MSN20011108045011711/08/01 04:50:31  5-MIN KMSN 081050Z 30012G19KT 7SM OVC023 13/08 A2998 810 74 800 300/12G19 RMK AO2 SLP152 T01280083
14837KMSN MSN20011108045510011/08/01 04:55:31  5-MIN KMSN 081055Z 29013G19KT 8SM OVC023 12/08 A2998 810 77 700 290/13G19 RMK AO2
14837KMSN MSN20011108050010011/08/01 05:00:31  5-MIN KMSN 081100Z 29010G19KT 8SM OVC023 12/08 A2999 800 77 700 290/10G19 RMK AO2
14837KMSN MSN20011108050510011/08/01 05:05:31  5-MIN KMSN 081105Z 30010G17KT 8SM OVC023 12/08 A2999 800 74 700 300/10G17 RMK AO2
14837KMSN MSN20011108051009411/08/01 05:10:31  5-MIN KMSN 081110Z 31011KT 8SM OVC023 12/08 A2999 800 74 700 310/11 RMK AO2
14837KMSN MSN20011108051510011/08/01 05:15:31  5-MIN KMSN 081115Z 30011G16KT 8SM OVC021 12/08 A2999 800 77 600 300/11G16 RMK AO2
14837KMSN MSN20011108052010011/08/01 05:20:31  5-MIN KMSN 081120Z 30012G16KT 8SM OVC021 12/08 A2999 800 77 600 300/12G16 RMK AO2
14837KMSN MSN20011108052510011/08/01 05:25:31  5-MIN KMSN 081125Z 29013G17KT 9SM OVC019 12/08 A3000 790 77 600 290/13G17 RMK AO2
14837KMSN MSN20011108053010011/08/01 05:30:31  5-MIN KMSN 081130Z 29014G18KT 9SM OVC019 12/07 A3000 790 74 600 290/14G18 RMK AO2
14837KMSN MSN20011108053510111/08/01 05:35:31  5-MIN KMSN 081135Z 30016G20KT 10SM OVC019 11/07 A3001 780 77 500 300/16G20 RMK AO2
14837KMSN MSN20011108054010811/08/01 05:40:31  5-MIN KMSN 081140Z 31015G21KT 10SM OVC019 11/07 A3001 780 77 500 300/15G21 RMK AO2 PRESRR
14837KMSN MSN20011108054510811/08/01 05:45:31  5-MIN KMSN 081145Z 31012G21KT 10SM OVC019 11/07 A3002 770 77 500 310/12G21 RMK AO2 PRESRR
14837KMSN MSN20011108055016511/08/01 05:50:31  5-MIN KMSN 081150Z 30013G20KT 10SM -RA OVC019 11/07 A3003 760 74 500 300/13G20 RMK AO2 RAB48 PRESRR SLP169 P0000 60000 T01110067 10156 20111 56012
14837KMSN MSN20011108055511111/08/01 05:55:31  5-MIN KMSN 081155Z 30013G23KT 10SM -RA OVC019 11/07 A3003 760 77 400 300/13G23 RMK AO2 P0000
14837KMSN MSN20011108060011811/08/01 06:00:31  5-MIN KMSN 081200Z 30013G23KT 10SM -RA OVC019 10/07 A3004 750 80 400 300/13G23 RMK AO2 PRESRR P0000
14837KMSN MSN20011108060511111/08/01 06:05:31  5-MIN KMSN 081205Z 31013G22KT 10SM -RA OVC017 10/07 A3004 760 80 400 300/13G22 RMK AO2 P0000
14837KMSN MSN20011108061011111/08/01 06:10:31  5-MIN KMSN 081210Z 32014G21KT 10SM -RA OVC017 09/06 A3004 760 79 300 320/14G21 RMK AO2 P0000
14837KMSN MSN20011108061511111/08/01 06:15:31  5-MIN KMSN 081215Z 31014G21KT 10SM -RA OVC017 09/06 A3003 760 83 200 310/14G21 RMK AO2 P0000
14837KMSN MSN20011108062011311/08/01 06:20:31  5-MIN KMSN 081220Z 31013G20KT 10SM OVC017 09/06 A3003 760 79 200 310/13G20 RMK AO2 RAE16 P0000
14837KMSN MSN20011108062511311/08/01 06:25:31  5-MIN KMSN 081225Z 31012G20KT 10SM OVC017 09/06 A3004 760 79 200 310/12G20 RMK AO2 RAE16 P0000
14837KMSN MSN20011108063011311/08/01 06:30:31  5-MIN KMSN 081230Z 33012G19KT 10SM OVC017 09/06 A3004 750 79 200 320/12G19 RMK AO2 RAE16 P0000
14837KMSN MSN20011108063511311/08/01 06:35:31  5-MIN KMSN 081235Z 33011G19KT 10SM OVC019 09/06 A3004 750 79 200 330/11G19 RMK AO2 RAE16 P0000
14837KMSN MSN20011108064010711/08/01 06:40:31  5-MIN KMSN 081240Z 32010KT 10SM OVC019 09/06 A3004 750 79 200 320/10 RMK AO2 RAE16 P0000
14837KMSN MSN20011108064512611/08/01 06:45:31  5-MIN KMSN 081245Z 31012G18KT 9SM -RA OVC019 09/06 A3006 740 79 200 310/12G18 RMK AO2 RAE16B43 PRESRR P0000
14837KMSN MSN20011108065013611/08/01 06:50:31  5-MIN KMSN 081250Z 31015G20KT 8SM -RA OVC019 08/06 A3006 730 82 100 310/15G20 RMK AO2 RAE16B43 SLP181 P0000 T00830056
14837KMSN MSN20011108065511711/08/01 06:55:31  5-MIN KMSN 081255Z 32012G20KT 9SM -RA BKN021 OVC090 08/06 A3006 730 82 100 320/12G20 RMK AO2 P0000
14837KMSN MSN20011108070011811/08/01 07:00:31  5-MIN KMSN 081300Z 32013G21KT 10SM -RA BKN021 OVC090 08/05 A3006 730 79 100 320/13G21 RMK AO2 P0000
14837KMSN MSN20011108070512011/08/01 07:05:31  5-MIN KMSN 081305Z 31010G21KT 10SM BKN021 OVC090 08/05 A3007 730 79 100 310/10G21 RMK AO2 RAE04 P0000
14837KMSN MSN20011108071012011/08/01 07:10:31  5-MIN KMSN 081310Z 32010G20KT 10SM BKN021 OVC090 08/06 A3008 720 82 100 320/10G20 RMK AO2 RAE04 P0000
14837KMSN MSN20011108071512011/08/01 07:15:31  5-MIN KMSN 081315Z 32011G20KT 10SM BKN021 OVC090 08/06 A3008 720 82 100 320/11G20 RMK AO2 RAE04 P0000
14837KMSN MSN20011108072012011/08/01 07:20:31  5-MIN KMSN 081320Z 31011G17KT 10SM BKN021 OVC090 08/05 A3008 720 79 100 310/11G17 RMK AO2 RAE04 P0000
14837KMSN MSN20011108072511311/08/01 07:25:31  5-MIN KMSN 081325Z 31017G22KT 10SM OVC021 08/05 A3008 710 79 100 310/17G22 RMK AO2 RAE04 P0000
14837KMSN MSN20011108073013111/08/01 07:30:31  5-MIN KMSN 081330Z 31018G28KT 10SM OVC019 08/05 A3009 710 79 100 310/18G28 RMK AO2 PK WND 31028/1329 RAE04 P0000
14837KMSN MSN20011108073513111/08/01 07:35:31  5-MIN KMSN 081335Z 32015G28KT 10SM OVC019 08/05 A3009 710 79 100 320/15G28 RMK AO2 PK WND 31028/1329 RAE04 P0000
14837KMSN MSN20011108074013111/08/01 07:40:31  5-MIN KMSN 081340Z 32014G22KT 10SM OVC021 08/04 A3010 700 76 100 320/14G22 RMK AO2 PK WND 31028/1329 RAE04 P0000
14837KMSN MSN20011108074513111/08/01 07:45:31  5-MIN KMSN 081345Z 32013G22KT 10SM OVC021 08/05 A3010 700 79 100 320/13G22 RMK AO2 PK WND 31028/1329 RAE04 P0000
14837KMSN MSN20011108075014811/08/01 07:50:31  5-MIN KMSN 081350Z 31013G20KT 10SM OVC021 08/05 A3010 700 79 100 310/13G20 RMK AO2 PK WND 31028/1329 RAE04 SLP195 P0000 T00830050
14837KMSN MSN20011108075510111/08/01 07:55:31  5-MIN KMSN 081355Z 32014G24KT 10SM OVC021 08/05 A3010 700 79 100 320/14G24 RMK AO2
14837KMSN MSN20011108080010611/08/01 08:00:31  5-MIN KMSN 081400Z 31015G24KT 10SM BKN019 OVC024 08/05 A3010 700 82 0 310/15G24 RMK AO2
14837KMSN MSN20011108080509911/08/01 08:05:31  5-MIN KMSN 081405Z 31012G24KT 10SM OVC019 08/05 A3011 690 82 0 310/12G24 RMK AO2
14837KMSN MSN20011108081009911/08/01 08:10:31  5-MIN KMSN 081410Z 31016G21KT 10SM OVC019 08/04 A3011 680 79 0 310/16G21 RMK AO2
14837KMSN MSN20011108081509911/08/01 08:15:31  5-MIN KMSN 081415Z 32013G21KT 10SM OVC019 08/04 A3012 680 79 0 310/13G21 RMK AO2
14837KMSN MSN20011108082009911/08/01 08:20:31  5-MIN KMSN 081420Z 31014G21KT 10SM OVC019 08/04 A3012 680 79 0 310/14G21 RMK AO2
14837KMSN MSN20011108082509911/08/01 08:25:31  5-MIN KMSN 081425Z 31015G21KT 10SM OVC019 08/05 A3012 680 82 0 310/15G21 RMK AO2
14837KMSN MSN20011108083010611/08/01 08:30:31  5-MIN KMSN 081430Z 31018G23KT 10SM BKN019 OVC026 08/04 A3013 670 79 0 310/18G23 RMK AO2
14837KMSN MSN20011108083510611/08/01 08:35:31  5-MIN KMSN 081435Z 32017G24KT 10SM BKN019 OVC026 08/04 A3013 670 76 0 320/17G24 RMK AO2
14837KMSN MSN20011108084012411/08/01 08:40:31  5-MIN KMSN 081440Z 31018G29KT 10SM BKN019 OVC026 08/03 A3014 670 73 0 310/18G29 RMK AO2 PK WND 31029/1438
14837KMSN MSN20011108084512411/08/01 08:45:31  5-MIN KMSN 081445Z 31019G29KT 10SM SCT019 OVC026 07/03 A3014 660 76 0 310/19G29 RMK AO2 PK WND 31029/1438
14837KMSN MSN20011108085016011/08/01 08:50:31  5-MIN KMSN 081450Z 31017G30KT 10SM FEW015 BKN022 OVC028 07/03 A3014 660 76 0 310/17G30 RMK AO2 PK WND 31030/1448 SLP210 60000 T00720033 53039
14837KMSN MSN20011108085512411/08/01 08:55:31  5-MIN KMSN 081455Z 32019G30KT 10SM BKN022 OVC028 07/03 A3015 660 73 0 310/19G30 RMK AO2 PK WND 31030/1454
14837KMSN MSN20011108090011711/08/01 09:00:31  5-MIN KMSN 081500Z 32014G30KT 10SM OVC022 07/03 A3015 650 73 0 320/14G30 RMK AO2 PK WND 31030/1454
14837KMSN MSN20011108090511711/08/01 09:05:31  5-MIN KMSN 081505Z 33013G22KT 10SM OVC022 07/03 A3015 650 73 0 330/13G22 RMK AO2 PK WND 31030/1454
14837KMSN MSN20011108091012011/08/01 09:10:31  5-MIN KMSN 081510Z 32016G26KT 10SM OVC022 07/03 A3016 650 76 -100 320/16G26 RMK AO2 PK WND 31030/1454
14837KMSN MSN20011108091512011/08/01 09:15:31  5-MIN KMSN 081515Z 33016G26KT 10SM OVC022 07/03 A3016 640 76 -100 330/16G26 RMK AO2 PK WND 31030/1454
14837KMSN MSN20011108092012011/08/01 09:20:31  5-MIN KMSN 081520Z 33015G22KT 10SM OVC022 07/03 A3016 640 76 -100 330/15G22 RMK AO2 PK WND 31030/1454
14837KMSN MSN20011108092512011/08/01 09:25:31  5-MIN KMSN 081525Z 32013G22KT 10SM OVC020 07/03 A3017 640 76 -100 310/13G22 RMK AO2 PK WND 31030/1454
14837KMSN MSN20011108093012011/08/01 09:30:31  5-MIN KMSN 081530Z 31014G22KT 10SM OVC020 07/02 A3017 640 73 -100 300/14G22 RMK AO2 PK WND 31030/1454
14837KMSN MSN20011108093512011/08/01 09:35:31  5-MIN KMSN 081535Z 31015G22KT 10SM OVC020 07/02 A3017 630 73 -100 310/15G22 RMK AO2 PK WND 31030/1454
14837KMSN MSN20011108094012011/08/01 09:40:31  5-MIN KMSN 081540Z 31013G23KT 10SM OVC020 06/02 A3018 630 76 -200 310/13G23 RMK AO2 PK WND 31030/1454
14837KMSN MSN20011108094512011/08/01 09:45:31  5-MIN KMSN 081545Z 32016G23KT 10SM OVC020 06/02 A3019 620 73 -200 310/16G23 RMK AO2 PK WND 31030/1454
14837KMSN MSN20011108095013711/08/01 09:50:31  5-MIN KMSN 081550Z 32014G24KT 10SM OVC022 06/01 A3019 620 70 -200 320/14G24 RMK AO2 PK WND 31030/1454 SLP225 T00610011
14837KMSN MSN20011108095510211/08/01 09:55:31  5-MIN KMSN 081555Z 31018G24KT 10SM OVC022 06/01 A3019 610 70 -200 310/18G24 RMK AO2
14837KMSN MSN20011108100010211/08/01 10:00:31  5-MIN KMSN 081600Z 32015G22KT 10SM OVC024 07/01 A3020 610 67 -200 320/15G22 RMK AO2
14837KMSN MSN20011108100510211/08/01 10:05:31  5-MIN KMSN 081605Z 32016G23KT 10SM OVC024 07/01 A3020 600 65 -200 320/16G23 RMK AO2
14837KMSN MSN20011108101012711/08/01 10:10:31  5-MIN KMSN 081610Z 32017G27KT 10SM OVC024 07/01 A3021 600 65 -200 320/17G27 RMK AO2 PK WND 32027/1607 PRESRR
14837KMSN MSN20011108101512711/08/01 10:15:31  5-MIN KMSN 081615Z 32018G27KT 10SM OVC024 06/01 A3022 590 67 -200 320/18G27 RMK AO2 PK WND 32027/1607 PRESRR
14837KMSN MSN20011108102012711/08/01 10:20:31  5-MIN KMSN 081620Z 31017G25KT 10SM OVC026 06/01 A3022 580 67 -300 310/17G25 RMK AO2 PK WND 32027/1607 PRESRR
14837KMSN MSN20011108102512711/08/01 10:25:31  5-MIN KMSN 081625Z 33015G24KT 10SM OVC026 06/01 A3023 580 67 -300 330/15G24 RMK AO2 PK WND 32027/1607 PRESRR
14837KMSN MSN20011108103012011/08/01 10:30:31  5-MIN KMSN 081630Z 34015G24KT 10SM OVC026 06/00 A3023 580 65 -300 330/15G24 RMK AO2 PK WND 32027/1607
14837KMSN MSN20011108103512011/08/01 10:35:31  5-MIN KMSN 081635Z 33016G24KT 10SM OVC026 06/00 A3024 570 65 -300 330/16G24 RMK AO2 PK WND 32027/1607
14837KMSN MSN20011108104012111/08/01 10:40:31  5-MIN KMSN 081640Z 32019G27KT 10SM OVC026 06/M01 A3024 570 65 -300 320/19G27 RMK AO2 PK WND 31027/1637
14837KMSN MSN20011108104512111/08/01 10:45:31  5-MIN KMSN 081645Z 33017G27KT 10SM OVC028 06/M01 A3025 560 65 -300 330/17G27 RMK AO2 PK WND 31027/1637
14837KMSN MSN20011108105013811/08/01 10:50:31  5-MIN KMSN 081650Z 32016G25KT 10SM OVC028 06/M01 A3025 560 62 -400 320/16G25 RMK AO2 PK WND 31027/1637 SLP246 T00561011
14837KMSN MSN20011108105510311/08/01 10:55:31  5-MIN KMSN 081655Z 33015G24KT 10SM OVC028 06/M01 A3025 560 62 -400 330/15G24 RMK AO2
14837KMSN MSN20011108110012111/08/01 11:00:31  5-MIN KMSN 081700Z 32015G26KT 10SM OVC030 06/M01 A3025 560 62 -400 320/15G26 RMK AO2 PK WND 32026/1658
14837KMSN MSN20011108110512111/08/01 11:05:31  5-MIN KMSN 081705Z 32016G26KT 10SM OVC030 06/M01 A3026 550 62 -400 320/16G26 RMK AO2 PK WND 32026/1658
14837KMSN MSN20011108111012111/08/01 11:10:31  5-MIN KMSN 081710Z 34014G24KT 10SM OVC030 06/M01 A3026 550 62 -400 340/14G24 RMK AO2 PK WND 32026/1658
14837KMSN MSN20011108111512111/08/01 11:15:31  5-MIN KMSN 081715Z 33014G24KT 10SM OVC030 06/M01 A3026 550 62 -400 330/14G24 RMK AO2 PK WND 32026/1658
14837KMSN MSN20011108112012111/08/01 11:20:31  5-MIN KMSN 081720Z 34014G23KT 10SM OVC030 06/M01 A3026 550 62 -400 340/14G23 RMK AO2 PK WND 32026/1658
14837KMSN MSN20011108112512111/08/01 11:25:31  5-MIN KMSN 081725Z 33012G21KT 10SM OVC030 06/M01 A3027 550 62 -400 330/12G21 RMK AO2 PK WND 32026/1658
14837KMSN MSN20011108113012111/08/01 11:30:31  5-MIN KMSN 081730Z 32018G28KT 10SM OVC030 06/M01 A3027 540 62 -400 320/18G28 RMK AO2 PK WND 32028/1727
14837KMSN MSN20011108113512111/08/01 11:35:31  5-MIN KMSN 081735Z 34018G28KT 10SM OVC030 06/M01 A3027 540 62 -400 340/18G28 RMK AO2 PK WND 32028/1727
14837KMSN MSN20011108114012111/08/01 11:40:31  5-MIN KMSN 081740Z 34016G23KT 10SM OVC030 06/M02 A3027 540 59 -400 340/16G23 RMK AO2 PK WND 32028/1727
14837KMSN MSN20011108114512111/08/01 11:45:31  5-MIN KMSN 081745Z 34015G23KT 10SM OVC030 06/M01 A3027 540 62 -400 340/15G23 RMK AO2 PK WND 32028/1727
14837KMSN MSN20011108115016211/08/01 11:50:31  5-MIN KMSN 081750Z 33014G21KT 10SM OVC030 06/M01 A3027 540 62 -400 330/14G21 RMK AO2 PK WND 32028/1727 SLP254 60000 T00561011 10106 20056 53037
14837KMSN MSN20011108115510311/08/01 11:55:31  5-MIN KMSN 081755Z 34013G21KT 10SM OVC030 06/M01 A3027 540 62 -400 340/13G21 RMK AO2
14837KMSN MSN20011108120009711/08/01 12:00:31  5-MIN KMSN 081800Z 33012KT 10SM OVC030 06/M01 A3027 540 62 -400 330/12 RMK AO2
14837KMSN MSN20011108120509711/08/01 12:05:31  5-MIN KMSN 081805Z 33013KT 10SM OVC030 06/M01 A3027 540 62 -400 330/13 RMK AO2
14837KMSN MSN20011108121009711/08/01 12:10:31  5-MIN KMSN 081810Z 32009KT 10SM OVC030 06/M01 A3027 540 62 -400 320/09 RMK AO2
14837KMSN MSN20011108121510311/08/01 12:15:31  5-MIN KMSN 081815Z 32010G17KT 10SM OVC030 06/M01 A3027 540 62 -400 320/10G17 RMK AO2
14837KMSN MSN20011108122010311/08/01 12:20:31  5-MIN KMSN 081820Z 33011G17KT 10SM OVC030 06/M01 A3027 540 62 -400 330/11G17 RMK AO2
14837KMSN MSN20011108122510311/08/01 12:25:31  5-MIN KMSN 081825Z 33011G17KT 10SM OVC030 06/M01 A3028 540 65 -400 320/11G17 RMK AO2
14837KMSN MSN20011108123012611/08/01 12:30:31  5-MIN KMSN 081830Z 35014G20KT 310V020 10SM BKN030 OVC034 06/M01 A3027 540 62 -400 340/14G20 310V020 RMK AO2
14837KMSN MSN20011108123511011/08/01 12:35:31  5-MIN KMSN 081835Z 34011G20KT 10SM BKN030 OVC035 06/M01 A3027 540 62 -400 340/11G20 RMK AO2
14837KMSN MSN20011108124011911/08/01 12:40:31  5-MIN KMSN 081840Z 32014G20KT 290V360 10SM OVC030 06/M01 A3027 540 62 -400 310/14G20 290V360 RMK AO2
14837KMSN MSN20011108124510311/08/01 12:45:31  5-MIN KMSN 081845Z 32008G20KT 10SM OVC030 06/M01 A3027 540 65 -400 320/08G20 RMK AO2
14837KMSN MSN20011108125012011/08/01 12:50:31  5-MIN KMSN 081850Z 33011G17KT 10SM OVC032 06/M01 A3027 540 65 -400 330/11G17 RMK AO2 SLP254 T00561006
14837KMSN MSN20011108125510311/08/01 12:55:31  5-MIN KMSN 081855Z 32009G19KT 10SM OVC032 06/M01 A3027 540 62 -300 320/09G19 RMK AO2
14837KMSN MSN20011108130010311/08/01 13:00:31  5-MIN KMSN 081900Z 35015G19KT 10SM OVC032 06/M01 A3027 540 60 -300 350/15G19 RMK AO2
14837KMSN MSN20011108130510311/08/01 13:05:31  5-MIN KMSN 081905Z 33013G21KT 10SM OVC034 06/M01 A3027 540 60 -300 330/13G21 RMK AO2
14837KMSN MSN20011108131010311/08/01 13:10:31  5-MIN KMSN 081910Z 34017G24KT 10SM BKN034 06/M02 A3027 540 59 -400 340/17G24 RMK AO2
14837KMSN MSN20011108131510311/08/01 13:15:31  5-MIN KMSN 081915Z 32016G24KT 10SM BKN034 06/M02 A3027 540 55 -300 320/16G24 RMK AO2
14837KMSN MSN20011108132011911/08/01 13:20:31  5-MIN KMSN 081920Z 34011G21KT 300V010 10SM BKN034 07/M02 A3027 540 55 -200 340/11G21 300V010 RMK AO2
14837KMSN MSN20011108132510311/08/01 13:25:31  5-MIN KMSN 081925Z 35013G21KT 10SM BKN034 06/M02 A3027 540 55 -300 340/13G21 RMK AO2
14837KMSN MSN20011108133010311/08/01 13:30:31  5-MIN KMSN 081930Z 33015G20KT 10SM BKN034 06/M02 A3027 540 55 -300 330/15G20 RMK AO2
14837KMSN MSN20011108133511911/08/01 13:35:31  5-MIN KMSN 081935Z 34013G20KT 310V010 10SM BKN034 06/M02 A3028 540 55 -300 340/13G20 310V010 RMK AO2
14837KMSN MSN20011108134010311/08/01 13:40:31  5-MIN KMSN 081940Z 34011G20KT 10SM BKN034 07/M02 A3028 530 53 -300 340/11G20 RMK AO2
14837KMSN MSN20011108134510311/08/01 13:45:31  5-MIN KMSN 081945Z 33013G17KT 10SM BKN034 07/M02 A3028 530 53 -300 330/13G17 RMK AO2
14837KMSN MSN20011108135012011/08/01 13:50:31  5-MIN KMSN 081950Z 32012G17KT 10SM SCT034 07/M02 A3028 530 53 -200 320/12G17 RMK AO2 SLP258 T00721017
14837KMSN MSN20011108135510311/08/01 13:55:31  5-MIN KMSN 081955Z 34009G17KT 10SM FEW034 07/M02 A3028 530 53 -200 340/09G17 RMK AO2
14837KMSN MSN20011108140010311/08/01 14:00:31  5-MIN KMSN 082000Z 34011G19KT 10SM FEW034 07/M02 A3028 530 51 -200 330/11G19 RMK AO2
14837KMSN MSN20011108140510311/08/01 14:05:31  5-MIN KMSN 082005Z 34014G19KT 10SM FEW034 07/M02 A3028 530 53 -300 340/14G19 RMK AO2
14837KMSN MSN20011108141010311/08/01 14:10:31  5-MIN KMSN 082010Z 34012G18KT 10SM SCT034 07/M02 A3029 530 53 -300 340/12G18 RMK AO2
14837KMSN MSN20011108141510311/08/01 14:15:31  5-MIN KMSN 082015Z 33012G18KT 10SM SCT034 07/M02 A3029 530 51 -200 330/12G18 RMK AO2
14837KMSN MSN20011108142010311/08/01 14:20:31  5-MIN KMSN 082020Z 33012G18KT 10SM SCT034 07/M02 A3029 520 51 -200 330/12G18 RMK AO2
14837KMSN MSN20011108142510311/08/01 14:25:31  5-MIN KMSN 082025Z 33013G17KT 10SM SCT034 07/M02 A3029 520 51 -200 330/13G17 RMK AO2
14837KMSN MSN20011108143010311/08/01 14:30:31  5-MIN KMSN 082030Z 34011G19KT 10SM SCT034 07/M02 A3030 520 51 -200 340/11G19 RMK AO2
14837KMSN MSN20011108143510311/08/01 14:35:31  5-MIN KMSN 082035Z 32008G19KT 10SM SCT034 07/M02 A3030 510 51 -200 320/08G19 RMK AO2
14837KMSN MSN20011108144009711/08/01 14:40:31  5-MIN KMSN 082040Z 32010KT 10SM SCT034 07/M02 A3030 510 51 -200 320/10 RMK AO2
14837KMSN MSN20011108144509711/08/01 14:45:31  5-MIN KMSN 082045Z 32013KT 10SM FEW034 07/M02 A3031 510 51 -200 320/13 RMK AO2
14837KMSN MSN20011108145012611/08/01 14:50:31  5-MIN KMSN 082050Z 35010G18KT 10SM FEW034 07/M03 A3031 510 49 -200 350/10G18 RMK AO2 SLP266 T00721028 51040
14837KMSN MSN20011108145510011/08/01 14:55:31  5-MIN KMSN 082055Z 34008G18KT 10SM CLR 08/M02 A3031 500 49 -200 340/08G18 RMK AO2
14837KMSN MSN20011108150011011/08/01 15:00:31  5-MIN KMSN 082100Z 31009KT 290V350 10SM CLR 07/M02 A3031 500 51 -200 310/09 290V350 RMK AO2
14837KMSN MSN20011108150509411/08/01 15:05:31  5-MIN KMSN 082105Z 32012KT 10SM CLR 07/M02 A3031 500 51 -200 320/12 RMK AO2
14837KMSN MSN20011108151010011/08/01 15:10:31  5-MIN KMSN 082110Z 34012G15KT 10SM CLR 07/M02 A3032 500 51 -200 340/12G15 RMK AO2
14837KMSN MSN20011108151510011/08/01 15:15:31  5-MIN KMSN 082115Z 34006G15KT 10SM CLR 07/M02 A3032 500 51 -200 340/06G15 RMK AO2
14837KMSN MSN20011108152010311/08/01 15:20:31  5-MIN KMSN 082120Z 34006G15KT 10SM FEW035 07/M02 A3032 490 51 -200 340/06G15 RMK AO2
14837KMSN MSN20011108152511911/08/01 15:25:31  5-MIN KMSN 082125Z 34011G15KT 310V010 10SM FEW035 07/M02 A3033 490 51 -200 340/11G15 310V010 RMK AO2
14837KMSN MSN20011108153010311/08/01 15:30:31  5-MIN KMSN 082130Z 34007G15KT 10SM FEW035 07/M03 A3033 490 49 -200 340/07G15 RMK AO2
14837KMSN MSN20011108153510011/08/01 15:35:31  5-MIN KMSN 082135Z 33007G15KT 10SM CLR 07/M03 A3033 490 49 -200 330/07G15 RMK AO2
14837KMSN MSN20011108154010011/08/01 15:40:31  5-MIN KMSN 082140Z 34008G15KT 10SM CLR 07/M03 A3033 480 49 -200 340/08G15 RMK AO2
14837KMSN MSN20011108154509411/08/01 15:45:31  5-MIN KMSN 082145Z 34008KT 10SM CLR 07/M03 A3034 480 49 -300 340/08 RMK AO2
14837KMSN MSN20011108155011111/08/01 15:50:31  5-MIN KMSN 082150Z 34007KT 10SM CLR 07/M03 A3034 480 49 -300 340/07 RMK AO2 SLP278 T00721028
14837KMSN MSN20011108155509411/08/01 15:55:31  5-MIN KMSN 082155Z 33007KT 10SM CLR 07/M02 A3034 470 53 -300 330/07 RMK AO2
14837KMSN MSN20011108160009411/08/01 16:00:31  5-MIN KMSN 082200Z 32005KT 10SM CLR 07/M02 A3035 470 53 -300 320/05 RMK AO2
14837KMSN MSN20011108160509411/08/01 16:05:31  5-MIN KMSN 082205Z 32007KT 10SM CLR 07/M03 A3035 470 51 -300 320/07 RMK AO2
14837KMSN MSN20011108161009411/08/01 16:10:31  5-MIN KMSN 082210Z 33007KT 10SM CLR 07/M03 A3035 470 51 -300 320/07 RMK AO2
14837KMSN MSN20011108161509411/08/01 16:15:31  5-MIN KMSN 082215Z 33008KT 10SM CLR 06/M03 A3035 470 53 -400 330/08 RMK AO2
14837KMSN MSN20011108162009411/08/01 16:20:31  5-MIN KMSN 082220Z 32008KT 10SM CLR 06/M03 A3035 470 53 -400 320/08 RMK AO2
14837KMSN MSN20011108162509411/08/01 16:25:31  5-MIN KMSN 082225Z 33007KT 10SM CLR 06/M03 A3035 470 53 -400 330/07 RMK AO2
14837KMSN MSN20011108163009411/08/01 16:30:31  5-MIN KMSN 082230Z 33004KT 10SM CLR 06/M03 A3035 470 55 -500 330/04 RMK AO2
14837KMSN MSN20011108163509411/08/01 16:35:31  5-MIN KMSN 082235Z 33006KT 10SM CLR 06/M03 A3035 470 55 -500 330/06 RMK AO2
14837KMSN MSN20011108164009411/08/01 16:40:31  5-MIN KMSN 082240Z 32006KT 10SM CLR 06/M03 A3036 460 55 -500 320/06 RMK AO2
14837KMSN MSN20011108164509411/08/01 16:45:31  5-MIN KMSN 082245Z 32006KT 10SM CLR 06/M03 A3036 460 55 -500 320/06 RMK AO2
14837KMSN MSN20011108165011111/08/01 16:50:31  5-MIN KMSN 082250Z 32005KT 10SM CLR 05/M03 A3037 450 57 -600 320/05 RMK AO2 SLP289 T00501028
14837KMSN MSN20011108165509411/08/01 16:55:31  5-MIN KMSN 082255Z 31005KT 10SM CLR 05/M03 A3037 450 57 -600 310/05 RMK AO2
14837KMSN MSN20011108170009411/08/01 17:00:31  5-MIN KMSN 082300Z 31004KT 10SM CLR 05/M03 A3037 450 57 -600 310/04 RMK AO2
14837KMSN MSN20011108170509411/08/01 17:05:31  5-MIN KMSN 082305Z 31005KT 10SM CLR 05/M03 A3037 450 57 -600 310/05 RMK AO2
14837KMSN MSN20011108171009411/08/01 17:10:31  5-MIN KMSN 082310Z 31004KT 10SM CLR 05/M03 A3037 450 57 -600 310/04 RMK AO2
14837KMSN MSN20011108171509411/08/01 17:15:31  5-MIN KMSN 082315Z 33004KT 10SM CLR 04/M03 A3038 450 59 -600 320/04 RMK AO2
14837KMSN MSN20011108172009411/08/01 17:20:31  5-MIN KMSN 082320Z 32004KT 10SM CLR 04/M03 A3038 440 59 -600 320/04 RMK AO2
14837KMSN MSN20011108172509411/08/01 17:25:31  5-MIN KMSN 082325Z 30003KT 10SM CLR 04/M03 A3038 440 59 -600 290/03 RMK AO2
14837KMSN MSN20011108173009411/08/01 17:30:31  5-MIN KMSN 082330Z 25003KT 10SM CLR 04/M03 A3038 440 62 -700 250/03 RMK AO2
14837KMSN MSN20011108173509411/08/01 17:35:31  5-MIN KMSN 082335Z 28004KT 10SM CLR 04/M03 A3038 440 62 -700 280/04 RMK AO2
14837KMSN MSN20011108174009411/08/01 17:40:31  5-MIN KMSN 082340Z 30005KT 10SM CLR 04/M03 A3039 430 62 -700 300/05 RMK AO2
14837KMSN MSN20011108174509411/08/01 17:45:31  5-MIN KMSN 082345Z 31004KT 10SM CLR 04/M03 A3039 430 62 -700 310/04 RMK AO2
14837KMSN MSN20011108175012911/08/01 17:50:31  5-MIN KMSN 082350Z 30004KT 10SM CLR 03/M03 A3039 440 64 -800 300/04 RMK AO2 SLP295 T00331028 10078 20033 53014
14837KMSN MSN20011108175509411/08/01 17:55:31  5-MIN KMSN 082355Z 30004KT 10SM CLR 03/M03 A3039 430 67 -900 300/04 RMK AO2
14837KMSN MSN20011108180009411/08/01 18:00:31  5-MIN KMSN 090000Z 31003KT 10SM CLR 03/M03 A3039 430 67 -900 310/03 RMK AO2
14837KMSN MSN20011108180509411/08/01 18:05:31  5-MIN KMSN 090005Z 31003KT 10SM CLR 03/M03 A3039 430 67 -900 310/03 RMK AO2
14837KMSN MSN20011108181009411/08/01 18:10:31  5-MIN KMSN 090010Z 30003KT 10SM CLR 03/M03 A3039 430 64 -800 300/03 RMK AO2
14837KMSN MSN20011108181509411/08/01 18:15:31  5-MIN KMSN 090015Z 00000KT 10SM CLR 03/M03 A3039 430 64 -800 000/00 RMK AO2
14837KMSN MSN20011108182009411/08/01 18:20:31  5-MIN KMSN 090020Z 27003KT 10SM CLR 02/M02 A3040 430 72 -900 270/03 RMK AO2
14837KMSN MSN20011108182509411/08/01 18:25:31  5-MIN KMSN 090025Z 00000KT 10SM CLR 02/M03 A3039 430 69 -900 000/00 RMK AO2
14837KMSN MSN20011108183009411/08/01 18:30:31  5-MIN KMSN 090030Z 00000KT 10SM CLR 03/M03 A3039 430 67 -900 000/00 RMK AO2
14837KMSN MSN20011108183509411/08/01 18:35:31  5-MIN KMSN 090035Z 00000KT 10SM CLR 03/M03 A3039 430 67 -900 000/00 RMK AO2
14837KMSN MSN20011108184009411/08/01 18:40:31  5-MIN KMSN 090040Z 00000KT 10SM CLR 02/M03 A3040 420 69 -900 000/00 RMK AO2
14837KMSN MSN20011108184509511/08/01 18:45:31  5-MIN KMSN 090045Z 00000KT 10SM CLR 01/M03 A3040 420 75 -1100 000/00 RMK AO2
14837KMSN MSN20011108185011211/08/01 18:50:31  5-MIN KMSN 090050Z 26003KT 10SM CLR 01/M03 A3040 430 78 -1100 260/03 RMK AO2 SLP301 T00061028
14837KMSN MSN20011108185509511/08/01 18:55:31  5-MIN KMSN 090055Z 27003KT 10SM CLR 01/M03 A3040 420 78 -1100 270/03 RMK AO2
14837KMSN MSN20011108190009511/08/01 19:00:31  5-MIN KMSN 090100Z 27003KT 10SM CLR 01/M03 A3040 430 75 -1100 270/03 RMK AO2
14837KMSN MSN20011108190509511/08/01 19:05:31  5-MIN KMSN 090105Z 00000KT 10SM CLR 01/M03 A3040 430 75 -1100 000/00 RMK AO2
14837KMSN MSN20011108191009511/08/01 19:10:31  5-MIN KMSN 090110Z 29004KT 10SM CLR 01/M03 A3040 420 75 -1100 290/04 RMK AO2
14837KMSN MSN20011108191509511/08/01 19:15:31  5-MIN KMSN 090115Z 27003KT 10SM CLR 01/M03 A3040 420 75 -1100 270/03 RMK AO2
14837KMSN MSN20011108192009511/08/01 19:20:31  5-MIN KMSN 090120Z 00000KT 10SM CLR 02/M03 A3040 420 72 -1000 000/00 RMK AO2
14837KMSN MSN20011108192509511/08/01 19:25:31  5-MIN KMSN 090125Z 29004KT 10SM CLR 02/M03 A3041 410 72 -1000 290/04 RMK AO2
14837KMSN MSN20011108193009511/08/01 19:30:31  5-MIN KMSN 090130Z 28003KT 10SM CLR 01/M03 A3041 410 72 -1100 280/03 RMK AO2
14837KMSN MSN20011108193509511/08/01 19:35:31  5-MIN KMSN 090135Z 00000KT 10SM CLR 01/M03 A3041 420 72 -1100 000/00 RMK AO2
14837KMSN MSN20011108194009511/08/01 19:40:31  5-MIN KMSN 090140Z 29003KT 10SM CLR 01/M03 A3041 410 72 -1100 290/03 RMK AO2
14837KMSN MSN20011108194509511/08/01 19:45:31  5-MIN KMSN 090145Z 28004KT 10SM CLR 01/M03 A3041 410 75 -1200 280/04 RMK AO2
14837KMSN MSN20011108195011211/08/01 19:50:31  5-MIN KMSN 090150Z 28004KT 10SM CLR 01/M03 A3041 410 75 -1200 280/04 RMK AO2 SLP306 T00061033
14837KMSN MSN20011108195509511/08/01 19:55:31  5-MIN KMSN 090155Z 28003KT 10SM CLR 01/M03 A3041 410 75 -1200 280/03 RMK AO2
14837KMSN MSN20011108200009511/08/01 20:00:31  5-MIN KMSN 090200Z 27003KT 10SM CLR 01/M03 A3041 410 75 -1100 270/03 RMK AO2
14837KMSN MSN20011108200509511/08/01 20:05:31  5-MIN KMSN 090205Z 28003KT 10SM CLR 02/M03 A3041 410 72 -1000 280/03 RMK AO2
14837KMSN MSN20011108201009511/08/01 20:10:31  5-MIN KMSN 090210Z 29003KT 10SM CLR 02/M03 A3042 400 69 -1000 290/03 RMK AO2
14837KMSN MSN20011108201509511/08/01 20:15:31  5-MIN KMSN 090215Z 28003KT 10SM CLR 01/M03 A3042 410 72 -1100 280/03 RMK AO2
14837KMSN MSN20011108202009511/08/01 20:20:31  5-MIN KMSN 090220Z 28004KT 10SM CLR 01/M03 A3042 400 72 -1100 280/04 RMK AO2
14837KMSN MSN20011108202509511/08/01 20:25:31  5-MIN KMSN 090225Z 28004KT 10SM CLR 02/M03 A3042 400 69 -1000 280/04 RMK AO2
14837KMSN MSN20011108203009511/08/01 20:30:31  5-MIN KMSN 090230Z 28004KT 10SM CLR 02/M03 A3043 400 69 -1000 280/04 RMK AO2
14837KMSN MSN20011108203509511/08/01 20:35:31  5-MIN KMSN 090235Z 28004KT 10SM CLR 02/M03 A3042 400 67 -1000 280/04 RMK AO2
14837KMSN MSN20011108204009511/08/01 20:40:31  5-MIN KMSN 090240Z 28004KT 10SM CLR 02/M03 A3043 400 69 -1000 280/04 RMK AO2
14837KMSN MSN20011108204509511/08/01 20:45:31  5-MIN KMSN 090245Z 28003KT 10SM CLR 02/M03 A3043 400 69 -1000 280/03 RMK AO2
14837KMSN MSN20011108205011811/08/01 20:50:31  5-MIN KMSN 090250Z 27004KT 10SM CLR 02/M03 A3043 400 69 -1000 270/04 RMK AO2 SLP312 T00171033 51026
14837KMSN MSN20011108205509411/08/01 20:55:31  5-MIN KMSN 090255Z 29003KT 10SM CLR 03/M03 A3043 400 64 -900 290/03 RMK AO2
14837KMSN MSN20011108210009511/08/01 21:00:31  5-MIN KMSN 090300Z 29003KT 10SM CLR 01/M03 A3043 400 72 -1100 290/03 RMK AO2
14837KMSN MSN20011108210509511/08/01 21:05:31  5-MIN KMSN 090305Z 28003KT 10SM CLR 02/M03 A3043 400 67 -1000 280/03 RMK AO2
14837KMSN MSN20011108211009511/08/01 21:10:31  5-MIN KMSN 090310Z 29004KT 10SM CLR 01/M04 A3043 400 69 -1100 290/04 RMK AO2
14837KMSN MSN20011108211509511/08/01 21:15:31  5-MIN KMSN 090315Z 28004KT 10SM CLR 02/M04 A3043 400 66 -1000 280/04 RMK AO2
14837KMSN MSN20011108212009511/08/01 21:20:31  5-MIN KMSN 090320Z 28005KT 10SM CLR 02/M04 A3043 400 66 -1000 280/05 RMK AO2
14837KMSN MSN20011108212509511/08/01 21:25:31  5-MIN KMSN 090325Z 29004KT 10SM CLR 02/M04 A3043 400 66 -1000 290/04 RMK AO2
14837KMSN MSN20011108213009511/08/01 21:30:31  5-MIN KMSN 090330Z 28004KT 10SM CLR 02/M03 A3043 400 69 -1000 280/04 RMK AO2
14837KMSN MSN20011108213509511/08/01 21:35:31  5-MIN KMSN 090335Z 28004KT 10SM CLR 02/M03 A3042 400 67 -1000 280/04 RMK AO2
14837KMSN MSN20011108214009511/08/01 21:40:31  5-MIN KMSN 090340Z 28005KT 10SM CLR 02/M03 A3042 400 69 -1000 280/05 RMK AO2
14837KMSN MSN20011108214509511/08/01 21:45:31  5-MIN KMSN 090345Z 28004KT 10SM CLR 02/M04 A3042 400 66 -1000 280/04 RMK AO2
14837KMSN MSN20011108215011211/08/01 21:50:31  5-MIN KMSN 090350Z 28004KT 10SM CLR 02/M03 A3043 400 69 -1000 280/04 RMK AO2 SLP312 T00171033
14837KMSN MSN20011108215509511/08/01 21:55:31  5-MIN KMSN 090355Z 28004KT 10SM CLR 01/M04 A3043 400 72 -1200 280/04 RMK AO2
14837KMSN MSN20011108220009511/08/01 22:00:31  5-MIN KMSN 090400Z 28003KT 10SM CLR 01/M03 A3042 400 72 -1100 280/03 RMK AO2
14837KMSN MSN20011108220509511/08/01 22:05:31  5-MIN KMSN 090405Z 28004KT 10SM CLR 01/M04 A3042 400 69 -1100 280/04 RMK AO2
14837KMSN MSN20011108221009511/08/01 22:10:31  5-MIN KMSN 090410Z 28004KT 10SM CLR 01/M03 A3042 400 72 -1100 280/04 RMK AO2
14837KMSN MSN20011108221509511/08/01 22:15:31  5-MIN KMSN 090415Z 29005KT 10SM CLR 02/M04 A3043 400 66 -1000 280/05 RMK AO2
14837KMSN MSN20011108222009511/08/01 22:20:31  5-MIN KMSN 090420Z 29005KT 10SM CLR 02/M04 A3042 400 66 -1000 290/05 RMK AO2
14837KMSN MSN20011108222509511/08/01 22:25:31  5-MIN KMSN 090425Z 28005KT 10SM CLR 02/M04 A3042 400 66 -1000 280/05 RMK AO2
14837KMSN MSN20011108223009511/08/01 22:30:31  5-MIN KMSN 090430Z 27004KT 10SM CLR 02/M04 A3042 410 66 -1000 270/04 RMK AO2
14837KMSN MSN20011108223509511/08/01 22:35:31  5-MIN KMSN 090435Z 29004KT 10SM CLR 01/M04 A3042 410 69 -1100 280/04 RMK AO2
14837KMSN MSN20011108224009511/08/01 22:40:31  5-MIN KMSN 090440Z 28004KT 10SM CLR 01/M04 A3042 410 69 -1100 280/04 RMK AO2
14837KMSN MSN20011108224509511/08/01 22:45:31  5-MIN KMSN 090445Z 28003KT 10SM CLR 01/M04 A3042 410 72 -1200 280/03 RMK AO2
14837KMSN MSN20011108225011211/08/01 22:50:31  5-MIN KMSN 090450Z 28003KT 10SM CLR 01/M04 A3042 410 69 -1100 280/03 RMK AO2 SLP309 T00111039
14837KMSN MSN20011108225509511/08/01 22:55:31  5-MIN KMSN 090455Z 00000KT 10SM CLR 01/M04 A3041 410 72 -1200 000/00 RMK AO2
14837KMSN MSN20011108230009511/08/01 23:00:31  5-MIN KMSN 090500Z 00000KT 10SM CLR 00/M04 A3042 410 72 -1200 000/00 RMK AO2
14837KMSN MSN20011108230509611/08/01 23:05:31  5-MIN KMSN 090505Z 00000KT 10SM CLR M01/M04 A3042 410 75 -1300 000/00 RMK AO2
14837KMSN MSN20011108231009611/08/01 23:10:31  5-MIN KMSN 090510Z 00000KT 10SM CLR M02/M05 A3042 410 81 -1500 000/00 RMK AO2
14837KMSN MSN20011108231509611/08/01 23:15:31  5-MIN KMSN 090515Z 00000KT 10SM CLR M01/M04 A3042 410 78 -1400 000/00 RMK AO2
14837KMSN MSN20011108232009611/08/01 23:20:31  5-MIN KMSN 090520Z 00000KT 10SM CLR M01/M04 A3041 410 75 -1300 000/00 RMK AO2
14837KMSN MSN20011108232509611/08/01 23:25:31  5-MIN KMSN 090525Z 00000KT 10SM CLR M01/M04 A3041 410 75 -1300 000/00 RMK AO2
14837KMSN MSN20011108233009611/08/01 23:30:31  5-MIN KMSN 090530Z 00000KT 10SM CLR M01/M04 A3041 410 75 -1300 000/00 RMK AO2
14837KMSN MSN20011108233509611/08/01 23:35:31  5-MIN KMSN 090535Z 00000KT 10SM CLR M01/M04 A3041 410 78 -1300 000/00 RMK AO2
14837KMSN MSN20011108234009511/08/01 23:40:31  5-MIN KMSN 090540Z 00000KT 10SM CLR 00/M04 A3041 410 72 -1200 000/00 RMK AO2
14837KMSN MSN20011108234509511/08/01 23:45:31  5-MIN KMSN 090545Z 00000KT 10SM CLR 00/M04 A3041 410 75 -1200 000/00 RMK AO2
14837KMSN MSN20011108235014111/08/01 23:50:31  5-MIN KMSN 090550Z 00000KT 10SM CLR M01/M04 A3041 410 78 -1400 000/00 RMK AO2 SLP308 T10111044 10033 21022 401561022 53013
14837KMSN MSN20011108235509511/08/01 23:55:31  5-MIN KMSN 090555Z 00000KT 10SM CLR 00/M04 A3041 420 75 -1200 000/00 RMK AO2
14837KMSN MSN20011109000009611/09/01 00:00:31  5-MIN KMSN 090600Z 00000KT 10SM CLR M01/M04 A3040 420 75 -1300 000/00 RMK AO2
14837KMSN MSN20011109000509511/09/01 00:05:31  5-MIN KMSN 090605Z 00000KT 10SM CLR 01/M04 A3040 420 72 -1200 000/00 RMK AO2
14837KMSN MSN20011109001009611/09/01 00:10:31  5-MIN KMSN 090610Z VRB03KT 10SM CLR M01/M04 A3040 420 75 -1300 VRB/03 RMK AO2
14837KMSN MSN20011109001509511/09/01 00:15:31  5-MIN KMSN 090615Z 00000KT 10SM CLR 01/M04 A3040 430 72 -1100 000/00 RMK AO2
14837KMSN MSN20011109002009611/09/01 00:20:31  5-MIN KMSN 090620Z 00000KT 10SM CLR M02/M06 A3039 430 78 -1500 000/00 RMK AO2
14837KMSN MSN20011109002509611/09/01 00:25:31  5-MIN KMSN 090625Z 00000KT 10SM CLR M02/M05 A3039 430 81 -1500 000/00 RMK AO2
14837KMSN MSN20011109003009611/09/01 00:30:31  5-MIN KMSN 090630Z 00000KT 10SM CLR M02/M05 A3039 430 81 -1500 000/00 RMK AO2
14837KMSN MSN20011109003509611/09/01 00:35:31  5-MIN KMSN 090635Z 16003KT 10SM CLR M02/M05 A3039 430 81 -1500 160/03 RMK AO2
14837KMSN MSN20011109004009611/09/01 00:40:31  5-MIN KMSN 090640Z 16003KT 10SM CLR M02/M05 A3039 440 81 -1500 160/03 RMK AO2
14837KMSN MSN20011109004509611/09/01 00:45:31  5-MIN KMSN 090645Z 16003KT 10SM CLR M02/M06 A3038 440 78 -1500 150/03 RMK AO2
14837KMSN MSN20011109005011311/09/01 00:50:31  5-MIN KMSN 090650Z 00000KT 10SM CLR M03/M06 A3038 440 81 -1500 000/00 RMK AO2 SLP298 T10281056
14837KMSN MSN20011109005509611/09/01 00:55:31  5-MIN KMSN 090655Z 00000KT 10SM CLR M03/M05 A3038 440 85 -1500 000/00 RMK AO2
14837KMSN MSN20011109010009611/09/01 01:00:31  5-MIN KMSN 090700Z 00000KT 10SM CLR M02/M04 A3038 440 85 -1500 000/00 RMK AO2
14837KMSN MSN20011109010509611/09/01 01:05:31  5-MIN KMSN 090705Z 00000KT 10SM CLR M02/M04 A3038 440 85 -1500 000/00 RMK AO2
14837KMSN MSN20011109011009611/09/01 01:10:31  5-MIN KMSN 090710Z 00000KT 10SM CLR M02/M05 A3037 450 81 -1500 000/00 RMK AO2
14837KMSN MSN20011109011509611/09/01 01:15:31  5-MIN KMSN 090715Z 19003KT 10SM CLR M02/M04 A3037 450 85 -1500 190/03 RMK AO2
14837KMSN MSN20011109012009611/09/01 01:20:31  5-MIN KMSN 090720Z 00000KT 10SM CLR M02/M04 A3037 450 81 -1400 000/00 RMK AO2
14837KMSN MSN20011109012509611/09/01 01:25:31  5-MIN KMSN 090725Z 00000KT 10SM CLR M02/M04 A3037 450 81 -1400 000/00 RMK AO2
14837KMSN MSN20011109013009611/09/01 01:30:31  5-MIN KMSN 090730Z 00000KT 10SM CLR M02/M04 A3037 450 81 -1400 000/00 RMK AO2
14837KMSN MSN20011109013509611/09/01 01:35:31  5-MIN KMSN 090735Z 15003KT 10SM CLR M02/M04 A3037 450 85 -1500 150/03 RMK AO2
14837KMSN MSN20011109014009611/09/01 01:40:31  5-MIN KMSN 090740Z 00000KT 10SM CLR M03/M05 A3037 450 85 -1500 000/00 RMK AO2
14837KMSN MSN20011109014509611/09/01 01:45:31  5-MIN KMSN 090745Z 00000KT 10SM CLR M03/M05 A3037 450 85 -1500 000/00 RMK AO2
14837KMSN MSN20011109015011311/09/01 01:50:31  5-MIN KMSN 090750Z 00000KT 10SM CLR M02/M05 A3037 450 81 -1500 000/00 RMK AO2 SLP294 T10221050
14837KMSN MSN20011109015509611/09/01 01:55:31  5-MIN KMSN 090755Z 00000KT 10SM CLR M03/M05 A3038 440 85 -1500 000/00 RMK AO2
14837KMSN MSN20011109020009611/09/01 02:00:31  5-MIN KMSN 090800Z 00000KT 10SM CLR M03/M05 A3038 450 88 -1600 000/00 RMK AO2
14837KMSN MSN20011109020509611/09/01 02:05:31  5-MIN KMSN 090805Z 00000KT 10SM CLR M03/M05 A3037 450 85 -1500 000/00 RMK AO2
14837KMSN MSN20011109021009611/09/01 02:10:31  5-MIN KMSN 090810Z 00000KT 10SM CLR M03/M05 A3037 450 85 -1500 000/00 RMK AO2
14837KMSN MSN20011109021509611/09/01 02:15:31  5-MIN KMSN 090815Z 00000KT 10SM CLR M02/M04 A3037 450 85 -1500 000/00 RMK AO2
14837KMSN MSN20011109022009611/09/01 02:20:31  5-MIN KMSN 090820Z 00000KT 10SM CLR M02/M04 A3037 450 85 -1500 000/00 RMK AO2
14837KMSN MSN20011109022509611/09/01 02:25:31  5-MIN KMSN 090825Z 00000KT 10SM CLR M02/M04 A3037 450 85 -1500 000/00 RMK AO2
14837KMSN MSN20011109023009611/09/01 02:30:31  5-MIN KMSN 090830Z 00000KT 10SM CLR M02/M04 A3037 450 85 -1500 000/00 RMK AO2
14837KMSN MSN20011109023509611/09/01 02:35:31  5-MIN KMSN 090835Z 17003KT 10SM CLR M02/M04 A3036 460 85 -1500 170/03 RMK AO2
14837KMSN MSN20011109024009611/09/01 02:40:31  5-MIN KMSN 090840Z 17003KT 10SM CLR M02/M04 A3036 460 85 -1500 170/03 RMK AO2
14837KMSN MSN20011109024509611/09/01 02:45:31  5-MIN KMSN 090845Z 17003KT 10SM CLR M02/M04 A3036 460 85 -1500 160/03 RMK AO2
14837KMSN MSN20011109025011911/09/01 02:50:31  5-MIN KMSN 090850Z 00000KT 10SM CLR M02/M04 A3036 460 85 -1500 000/00 RMK AO2 SLP289 T10221044 58006
14837KMSN MSN20011109025509611/09/01 02:55:31  5-MIN KMSN 090855Z 17003KT 10SM CLR M03/M04 A3036 460 88 -1500 170/03 RMK AO2
14837KMSN MSN20011109030009611/09/01 03:00:31  5-MIN KMSN 090900Z 18003KT 10SM CLR M02/M04 A3035 470 88 -1400 170/03 RMK AO2
14837KMSN MSN20011109030509611/09/01 03:05:31  5-MIN KMSN 090905Z 00000KT 10SM CLR M02/M03 A3035 470 88 -1400 000/00 RMK AO2
14837KMSN MSN20011109031009611/09/01 03:10:31  5-MIN KMSN 090910Z 00000KT 10SM CLR M01/M03 A3035 470 81 -1200 000/00 RMK AO2
14837KMSN MSN20011109031509611/09/01 03:15:31  5-MIN KMSN 090915Z 00000KT 10SM CLR M01/M03 A3035 470 81 -1200 000/00 RMK AO2
14837KMSN MSN20011109032009611/09/01 03:20:31  5-MIN KMSN 090920Z 20004KT 10SM CLR M01/M04 A3034 470 78 -1200 200/04 RMK AO2
14837KMSN MSN20011109032509611/09/01 03:25:31  5-MIN KMSN 090925Z 21004KT 10SM CLR M01/M04 A3034 480 81 -1300 210/04 RMK AO2
14837KMSN MSN20011109033009511/09/01 03:30:31  5-MIN KMSN 090930Z 21004KT 10SM CLR 00/M03 A3034 480 78 -1200 210/04 RMK AO2
14837KMSN MSN20011109033509511/09/01 03:35:31  5-MIN KMSN 090935Z 22006KT 10SM CLR 01/M03 A3034 480 75 -1000 220/06 RMK AO2
14837KMSN MSN20011109034009411/09/01 03:40:31  5-MIN KMSN 090940Z 21005KT 10SM CLR 02/M03 A3034 480 72 -900 210/05 RMK AO2
14837KMSN MSN20011109034509511/09/01 03:45:31  5-MIN KMSN 090945Z 21005KT 10SM CLR 01/M03 A3034 480 75 -1000 210/05 RMK AO2
14837KMSN MSN20011109035011111/09/01 03:50:31  5-MIN KMSN 090950Z 21005KT 10SM CLR 02/M03 A3034 480 72 -900 210/05 RMK AO2 SLP282 T00171028
14837KMSN MSN20011109035509411/09/01 03:55:31  5-MIN KMSN 090955Z 21005KT 10SM CLR 02/M03 A3034 480 72 -900 210/05 RMK AO2
14837KMSN MSN20011109040009411/09/01 04:00:31  5-MIN KMSN 091000Z 22005KT 10SM CLR 02/M03 A3034 480 72 -900 210/05 RMK AO2
14837KMSN MSN20011109040509411/09/01 04:05:31  5-MIN KMSN 091005Z 22005KT 10SM CLR 02/M03 A3034 480 72 -900 220/05 RMK AO2
14837KMSN MSN20011109041009411/09/01 04:10:31  5-MIN KMSN 091010Z 22006KT 10SM CLR 02/M03 A3034 480 72 -900 220/06 RMK AO2
14837KMSN MSN20011109041509411/09/01 04:15:31  5-MIN KMSN 091015Z 21006KT 10SM CLR 02/M03 A3034 480 72 -900 210/06 RMK AO2
14837KMSN MSN20011109042009411/09/01 04:20:31  5-MIN KMSN 091020Z 22004KT 10SM CLR 02/M03 A3034 480 72 -900 220/04 RMK AO2
14837KMSN MSN20011109042509411/09/01 04:25:31  5-MIN KMSN 091025Z 21004KT 10SM CLR 02/M03 A3035 470 72 -900 210/04 RMK AO2
14837KMSN MSN20011109043009511/09/01 04:30:31  5-MIN KMSN 091030Z 21004KT 10SM CLR 02/M03 A3035 470 72 -1000 210/04 RMK AO2
14837KMSN MSN20011109043509511/09/01 04:35:31  5-MIN KMSN 091035Z 21006KT 10SM CLR 02/M03 A3035 470 72 -1000 210/06 RMK AO2
14837KMSN MSN20011109044009511/09/01 04:40:31  5-MIN KMSN 091040Z 21005KT 10SM CLR 01/M02 A3035 470 78 -1000 210/05 RMK AO2
14837KMSN MSN20011109044509511/09/01 04:45:31  5-MIN KMSN 091045Z 21005KT 10SM CLR 01/M03 A3035 470 75 -1000 210/05 RMK AO2
14837KMSN MSN20011109045011211/09/01 04:50:31  5-MIN KMSN 091050Z 21006KT 10SM CLR 01/M03 A3035 470 75 -1000 210/06 RMK AO2 SLP287 T00111028
14837KMSN MSN20011109045509511/09/01 04:55:31  5-MIN KMSN 091055Z 21006KT 10SM CLR 01/M03 A3035 470 75 -1000 210/06 RMK AO2
14837KMSN MSN20011109050009511/09/01 05:00:31  5-MIN KMSN 091100Z 21005KT 10SM CLR 01/M03 A3035 470 75 -1000 210/05 RMK AO2
14837KMSN MSN20011109050509511/09/01 05:05:31  5-MIN KMSN 091105Z 20005KT 10SM CLR 01/M03 A3035 470 75 -1000 200/05 RMK AO2
14837KMSN MSN20011109051009511/09/01 05:10:31  5-MIN KMSN 091110Z 20005KT 10SM CLR 01/M03 A3035 470 75 -1000 200/05 RMK AO2
14837KMSN MSN20011109051509511/09/01 05:15:31  5-MIN KMSN 091115Z 21007KT 10SM CLR 01/M03 A3035 470 75 -1000 210/07 RMK AO2
14837KMSN MSN20011109052009511/09/01 05:20:31  5-MIN KMSN 091120Z 21006KT 10SM CLR 01/M03 A3034 470 75 -1000 210/06 RMK AO2
14837KMSN MSN20011109052509511/09/01 05:25:31  5-MIN KMSN 091125Z 21006KT 10SM CLR 01/M03 A3034 480 75 -1000 210/06 RMK AO2
14837KMSN MSN20011109053009511/09/01 05:30:31  5-MIN KMSN 091130Z 21007KT 10SM CLR 01/M03 A3034 480 75 -1000 210/07 RMK AO2
14837KMSN MSN20011109053509511/09/01 05:35:31  5-MIN KMSN 091135Z 21006KT 10SM CLR 01/M03 A3034 480 75 -1000 210/06 RMK AO2
14837KMSN MSN20011109054009511/09/01 05:40:31  5-MIN KMSN 091140Z 21007KT 10SM CLR 01/M03 A3034 480 75 -1000 210/07 RMK AO2
14837KMSN MSN20011109054509511/09/01 05:45:31  5-MIN KMSN 091145Z 21008KT 10SM CLR 01/M03 A3033 490 75 -1000 210/08 RMK AO2
14837KMSN MSN20011109055013011/09/01 05:50:31  5-MIN KMSN 091150Z 21008KT 10SM CLR 01/M03 A3033 490 75 -1000 210/08 RMK AO2 SLP279 T00111028 10017 21033 56018
14837KMSN MSN20011109055509411/09/01 05:55:31  5-MIN KMSN 091155Z 22007KT 10SM CLR 02/M03 A3033 490 72 -900 220/07 RMK AO2
14837KMSN MSN20011109060009411/09/01 06:00:31  5-MIN KMSN 091200Z 22007KT 10SM CLR 02/M02 A3033 490 75 -900 220/07 RMK AO2
14837KMSN MSN20011109060509411/09/01 06:05:31  5-MIN KMSN 091205Z 22007KT 10SM CLR 02/M02 A3033 490 75 -900 220/07 RMK AO2
14837KMSN MSN20011109061009411/09/01 06:10:31  5-MIN KMSN 091210Z 20006KT 10SM CLR 02/M02 A3032 490 75 -900 200/06 RMK AO2
14837KMSN MSN20011109061509411/09/01 06:15:31  5-MIN KMSN 091215Z 21007KT 10SM CLR 02/M02 A3032 490 75 -900 210/07 RMK AO2
14837KMSN MSN20011109062009411/09/01 06:20:31  5-MIN KMSN 091220Z 21009KT 10SM CLR 02/M02 A3032 500 75 -900 210/09 RMK AO2
14837KMSN MSN20011109062509411/09/01 06:25:31  5-MIN KMSN 091225Z 21007KT 10SM CLR 02/M02 A3032 500 75 -900 210/07 RMK AO2
14837KMSN MSN20011109063009411/09/01 06:30:31  5-MIN KMSN 091230Z 20007KT 10SM CLR 02/M02 A3032 500 75 -900 200/07 RMK AO2
14837KMSN MSN20011109063509511/09/01 06:35:31  5-MIN KMSN 091235Z 21006KT 10SM CLR 01/M03 A3031 500 75 -1000 200/06 RMK AO2
14837KMSN MSN20011109064009511/09/01 06:40:31  5-MIN KMSN 091240Z 21008KT 10SM CLR 01/M02 A3031 500 78 -1000 210/08 RMK AO2
14837KMSN MSN20011109064509511/09/01 06:45:31  5-MIN KMSN 091245Z 22007KT 10SM CLR 01/M02 A3031 510 78 -1000 220/07 RMK AO2
14837KMSN MSN20011109065011211/09/01 06:50:31  5-MIN KMSN 091250Z 21006KT 10SM CLR 01/M02 A3031 510 78 -1000 210/06 RMK AO2 SLP273 T00111022
14837KMSN MSN20011109065509511/09/01 06:55:31  5-MIN KMSN 091255Z 21006KT 10SM CLR 01/M02 A3031 510 78 -1000 210/06 RMK AO2
14837KMSN MSN20011109070009411/09/01 07:00:31  5-MIN KMSN 091300Z 22006KT 10SM CLR 02/M02 A3031 510 75 -900 220/06 RMK AO2
14837KMSN MSN20011109070509411/09/01 07:05:31  5-MIN KMSN 091305Z 21006KT 10SM CLR 02/M02 A3031 510 75 -900 210/06 RMK AO2
14837KMSN MSN20011109071009411/09/01 07:10:31  5-MIN KMSN 091310Z 21006KT 10SM CLR 02/M02 A3031 510 75 -900 210/06 RMK AO2
14837KMSN MSN20011109071509411/09/01 07:15:31  5-MIN KMSN 091315Z 21008KT 10SM CLR 02/M02 A3031 510 75 -900 210/08 RMK AO2
14837KMSN MSN20011109072009411/09/01 07:20:31  5-MIN KMSN 091320Z 21009KT 10SM CLR 02/M02 A3031 510 75 -900 210/09 RMK AO2
14837KMSN MSN20011109072509411/09/01 07:25:31  5-MIN KMSN 091325Z 21008KT 10SM CLR 02/M02 A3031 510 72 -800 210/08 RMK AO2
14837KMSN MSN20011109073009411/09/01 07:30:31  5-MIN KMSN 091330Z 21010KT 10SM CLR 02/M02 A3031 510 72 -800 210/10 RMK AO2
14837KMSN MSN20011109073509411/09/01 07:35:31  5-MIN KMSN 091335Z 22009KT 10SM CLR 02/M03 A3031 500 69 -800 210/09 RMK AO2
14837KMSN MSN20011109074009411/09/01 07:40:31  5-MIN KMSN 091340Z 21007KT 10SM CLR 02/M02 A3031 510 72 -800 210/07 RMK AO2
14837KMSN MSN20011109074509411/09/01 07:45:31  5-MIN KMSN 091345Z 20007KT 10SM CLR 02/M02 A3031 510 72 -800 200/07 RMK AO2
14837KMSN MSN20011109075011111/09/01 07:50:31  5-MIN KMSN 091350Z 22007KT 10SM CLR 02/M02 A3030 510 72 -800 210/07 RMK AO2 SLP271 T00221022
14837KMSN MSN20011109075509411/09/01 07:55:31  5-MIN KMSN 091355Z VRB06KT 10SM CLR 03/M02 A3031 510 69 -800 VRB/06 RMK AO2
14837KMSN MSN20011109080009411/09/01 08:00:31  5-MIN KMSN 091400Z 21007KT 10SM CLR 03/M02 A3030 510 69 -800 210/07 RMK AO2
14837KMSN MSN20011109080509411/09/01 08:05:31  5-MIN KMSN 091405Z 22005KT 10SM CLR 03/M02 A3031 510 69 -800 220/05 RMK AO2
14837KMSN MSN20011109081009411/09/01 08:10:31  5-MIN KMSN 091410Z 20009KT 10SM CLR 03/M02 A3030 510 69 -800 200/09 RMK AO2
14837KMSN MSN20011109081509411/09/01 08:15:31  5-MIN KMSN 091415Z 20008KT 10SM CLR 03/M02 A3030 520 69 -800 200/08 RMK AO2
14837KMSN MSN20011109082009411/09/01 08:20:31  5-MIN KMSN 091420Z 19007KT 10SM CLR 03/M02 A3030 520 69 -800 190/07 RMK AO2
14837KMSN MSN20011109082510011/09/01 08:25:31  5-MIN KMSN 091425Z 20008G15KT 10SM CLR 03/M02 A3030 520 67 -700 200/08G15 RMK AO2
14837KMSN MSN20011109083009411/09/01 08:30:31  5-MIN KMSN 091430Z 21007KT 10SM CLR 03/M02 A3029 520 67 -700 210/07 RMK AO2
14837KMSN MSN20011109083509411/09/01 08:35:31  5-MIN KMSN 091435Z 20008KT 10SM CLR 03/M02 A3029 520 67 -700 200/08 RMK AO2
14837KMSN MSN20011109084011011/09/01 08:40:31  5-MIN KMSN 091440Z 21008KT 170V240 10SM CLR 03/M02 A3029 520 67 -700 210/08 170V240 RMK AO2
14837KMSN MSN20011109084509411/09/01 08:45:31  5-MIN KMSN 091445Z 21009KT 10SM CLR 04/M02 A3029 520 64 -600 210/09 RMK AO2
14837KMSN MSN20011109085011711/09/01 08:50:31  5-MIN KMSN 091450Z 21007KT 10SM CLR 04/M02 A3029 520 64 -600 210/07 RMK AO2 SLP266 T00391022 58008
14837KMSN MSN20011109085509411/09/01 08:55:31  5-MIN KMSN 091455Z VRB06KT 10SM CLR 04/M02 A3029 520 62 -500 VRB/06 RMK AO2
14837KMSN MSN20011109090009411/09/01 09:00:31  5-MIN KMSN 091500Z 21006KT 10SM CLR 04/M02 A3029 530 64 -500 210/06 RMK AO2
14837KMSN MSN20011109090511011/09/01 09:05:31  5-MIN KMSN 091505Z 22008KT 180V270 10SM CLR 04/M02 A3028 530 64 -500 210/08 180V270 RMK AO2
14837KMSN MSN20011109091009411/09/01 09:10:31  5-MIN KMSN 091510Z 21009KT 10SM CLR 05/M02 A3028 530 59 -500 210/09 RMK AO2
14837KMSN MSN20011109091509411/09/01 09:15:31  5-MIN KMSN 091515Z 21008KT 10SM CLR 05/M02 A3028 530 59 -500 210/08 RMK AO2
14837KMSN MSN20011109092011011/09/01 09:20:31  5-MIN KMSN 091520Z 21007KT 170V240 10SM CLR 05/M02 A3028 540 62 -500 210/07 170V240 RMK AO2
14837KMSN MSN20011109092509411/09/01 09:25:31  5-MIN KMSN 091525Z 22010KT 10SM CLR 06/M02 A3028 540 57 -400 220/10 RMK AO2
14837KMSN MSN20011109093009411/09/01 09:30:31  5-MIN KMSN 091530Z 22008KT 10SM CLR 06/M02 A3028 540 57 -400 220/08 RMK AO2
14837KMSN MSN20011109093509411/09/01 09:35:31  5-MIN KMSN 091535Z 23009KT 10SM CLR 06/M02 A3027 540 59 -400 230/09 RMK AO2
14837KMSN MSN20011109094010011/09/01 09:40:31  5-MIN KMSN 091540Z 22009G14KT 10SM CLR 06/M02 A3027 540 57 -300 220/09G14 RMK AO2
14837KMSN MSN20011109094510011/09/01 09:45:31  5-MIN KMSN 091545Z 23010G14KT 10SM CLR 06/M02 A3027 540 57 -300 230/10G14 RMK AO2
14837KMSN MSN20011109095011711/09/01 09:50:31  5-MIN KMSN 091550Z 22009G14KT 10SM CLR 06/M02 A3027 540 57 -300 220/09G14 RMK AO2 SLP258 T00611017
14837KMSN MSN20011109095510011/09/01 09:55:31  5-MIN KMSN 091555Z 21008G15KT 10SM CLR 07/M01 A3026 550 57 -200 210/08G15 RMK AO2
14837KMSN MSN20011109100010011/09/01 10:00:31  5-MIN KMSN 091600Z 22012G16KT 10SM CLR 07/M02 A3026 550 55 -200 220/12G16 RMK AO2
14837KMSN MSN20011109100510011/09/01 10:05:31  5-MIN KMSN 091605Z 22015G20KT 10SM CLR 07/M02 A3026 550 55 -200 220/15G20 RMK AO2
14837KMSN MSN20011109101010011/09/01 10:10:31  5-MIN KMSN 091610Z 23011G20KT 10SM CLR 07/M02 A3025 560 53 -200 230/11G20 RMK AO2
14837KMSN MSN20011109101510011/09/01 10:15:31  5-MIN KMSN 091615Z 23011G20KT 10SM CLR 07/M02 A3025 560 53 -200 220/11G20 RMK AO2
14837KMSN MSN20011109102010011/09/01 10:20:31  5-MIN KMSN 091620Z 22014G20KT 10SM CLR 07/M02 A3026 560 55 -200 220/14G20 RMK AO2
14837KMSN MSN20011109102510011/09/01 10:25:31  5-MIN KMSN 091625Z 23012G19KT 10SM CLR 07/M02 A3025 560 53 -200 230/12G19 RMK AO2
14837KMSN MSN20011109103010011/09/01 10:30:31  5-MIN KMSN 091630Z 22014G18KT 10SM CLR 07/M02 A3025 560 53 -200 220/14G18 RMK AO2
14837KMSN MSN20011109103509411/09/01 10:35:31  5-MIN KMSN 091635Z 22012KT 10SM CLR 07/M02 A3025 560 53 -200 220/12 RMK AO2
14837KMSN MSN20011109104009411/09/01 10:40:31  5-MIN KMSN 091640Z 23012KT 10SM CLR 07/M02 A3025 560 53 -200 230/12 RMK AO2
14837KMSN MSN20011109104510011/09/01 10:45:31  5-MIN KMSN 091645Z 22011G19KT 10SM CLR 07/M02 A3025 560 53 -100 220/11G19 RMK AO2
14837KMSN MSN20011109105011711/09/01 10:50:31  5-MIN KMSN 091650Z 22014G19KT 10SM CLR 08/M01 A3025 570 53 -100 220/14G19 RMK AO2 SLP249 T00781011
14837KMSN MSN20011109105510011/09/01 10:55:31  5-MIN KMSN 091655Z 21015G20KT 10SM CLR 08/M01 A3024 570 53 -100 210/15G20 RMK AO2
14837KMSN MSN20011109110010011/09/01 11:00:31  5-MIN KMSN 091700Z 21013G20KT 10SM CLR 08/M02 A3023 570 51 -100 210/13G20 RMK AO2
14837KMSN MSN20011109110509711/09/01 11:05:31  5-MIN KMSN 091705Z 22011G18KT 10SM CLR 08/M01 A3024 570 51 0 210/11G18 RMK AO2
14837KMSN MSN20011109111009711/09/01 11:10:31  5-MIN KMSN 091710Z 22013G18KT 10SM CLR 08/M02 A3023 580 49 0 220/13G18 RMK AO2
14837KMSN MSN20011109111509711/09/01 11:15:31  5-MIN KMSN 091715Z 23012G18KT 10SM CLR 09/M02 A3023 580 45 0 230/12G18 RMK AO2
14837KMSN MSN20011109112009711/09/01 11:20:31  5-MIN KMSN 091720Z 23012G18KT 10SM CLR 09/M02 A3022 590 45 0 230/12G18 RMK AO2
14837KMSN MSN20011109112509711/09/01 11:25:31  5-MIN KMSN 091725Z 23012G20KT 10SM CLR 09/M02 A3022 590 45 0 230/12G20 RMK AO2
14837KMSN MSN20011109113009711/09/01 11:30:31  5-MIN KMSN 091730Z 23011G20KT 10SM CLR 09/M02 A3022 590 45 0 230/11G20 RMK AO2
14837KMSN MSN20011109113509111/09/01 11:35:31  5-MIN KMSN 091735Z 21009KT 10SM CLR 09/M02 A3021 600 45 0 210/09 RMK AO2
14837KMSN MSN20011109114009711/09/01 11:40:31  5-MIN KMSN 091740Z 22013G18KT 10SM CLR 09/M03 A3021 600 43 0 220/13G18 RMK AO2
14837KMSN MSN20011109114509911/09/01 11:45:31  5-MIN KMSN 091745Z 23011G19KT 10SM CLR 09/M03 A3020 600 43 100 230/11G19 RMK AO2
14837KMSN MSN20011109115013411/09/01 11:50:31  5-MIN KMSN 091750Z 22012G19KT 10SM CLR 09/M03 A3020 610 43 100 220/12G19 RMK AO2 SLP234 T00891028 10094 20011 56013
14837KMSN MSN20011109115509311/09/01 11:55:31  5-MIN KMSN 091755Z 23009KT 10SM CLR 09/M02 A3019 610 44 100 230/09 RMK AO2
14837KMSN MSN20011109120009911/09/01 12:00:31  5-MIN KMSN 091800Z 21008G17KT 10SM CLR 09/M02 A3019 620 44 100 210/08G17 RMK AO2
14837KMSN MSN20011109120509911/09/01 12:05:31  5-MIN KMSN 091805Z 23012G17KT 10SM CLR 09/M02 A3019 620 44 100 220/12G17 RMK AO2
14837KMSN MSN20011109121011511/09/01 12:10:31  5-MIN KMSN 091810Z 23009G17KT 200V260 10SM CLR 09/M03 A3018 620 42 100 230/09G17 200V260 RMK AO2
14837KMSN MSN20011109121509311/09/01 12:15:31  5-MIN KMSN 091815Z 21006KT 10SM CLR 10/M02 A3018 620 42 200 210/06 RMK AO2
14837KMSN MSN20011109122010911/09/01 12:20:31  5-MIN KMSN 091820Z 21010KT 180V250 10SM CLR 10/M02 A3018 630 44 200 210/10 180V250 RMK AO2
14837KMSN MSN20011109122509311/09/01 12:25:31  5-MIN KMSN 091825Z 21010KT 10SM CLR 10/M02 A3017 630 42 200 210/10 RMK AO2
14837KMSN MSN20011109123009911/09/01 12:30:31  5-MIN KMSN 091830Z 21010G19KT 10SM CLR 10/M02 A3017 630 42 200 210/10G19 RMK AO2
14837KMSN MSN20011109123509911/09/01 12:35:31  5-MIN KMSN 091835Z 22009G19KT 10SM CLR 10/M02 A3017 630 42 200 220/09G19 RMK AO2
14837KMSN MSN20011109124009311/09/01 12:40:31  5-MIN KMSN 091840Z 22011KT 10SM CLR 10/M02 A3017 640 42 200 220/11 RMK AO2
14837KMSN MSN20011109124509911/09/01 12:45:31  5-MIN KMSN 091845Z 21015G19KT 10SM CLR 10/M02 A3016 640 42 200 210/15G19 RMK AO2
14837KMSN MSN20011109125011611/09/01 12:50:31  5-MIN KMSN 091850Z VRB06G19KT 10SM CLR 10/M02 A3016 640 42 200 VRB/06G19 RMK AO2 SLP221 T01001022
14837KMSN MSN20011109125509911/09/01 12:55:31  5-MIN KMSN 091855Z 21008G15KT 10SM CLR 11/M02 A3016 650 40 300 210/08G15 RMK AO2
14837KMSN MSN20011109130009911/09/01 13:00:31  5-MIN KMSN 091900Z 21009G15KT 10SM CLR 11/M02 A3015 650 40 300 210/09G15 RMK AO2
14837KMSN MSN20011109130509911/09/01 13:05:31  5-MIN KMSN 091905Z 22013G19KT 10SM CLR 11/M03 A3016 650 39 300 210/13G19 RMK AO2
14837KMSN MSN20011109131009911/09/01 13:10:31  5-MIN KMSN 091910Z 23011G19KT 10SM CLR 11/M02 A3015 650 40 300 220/11G19 RMK AO2
14837KMSN MSN20011109131509911/09/01 13:15:31  5-MIN KMSN 091915Z 22011G17KT 10SM CLR 11/M02 A3015 650 40 300 220/11G17 RMK AO2
14837KMSN MSN20011109132009311/09/01 13:20:31  5-MIN KMSN 091920Z 22012KT 10SM CLR 11/M02 A3015 650 40 300 220/12 RMK AO2
14837KMSN MSN20011109132509311/09/01 13:25:31  5-MIN KMSN 091925Z 22011KT 10SM CLR 11/M02 A3015 650 40 300 220/11 RMK AO2
14837KMSN MSN20011109133009311/09/01 13:30:31  5-MIN KMSN 091930Z 23011KT 10SM CLR 11/M02 A3015 650 39 400 230/11 RMK AO2
14837KMSN MSN20011109133509311/09/01 13:35:31  5-MIN KMSN 091935Z 22010KT 10SM CLR 11/M02 A3015 660 39 400 220/10 RMK AO2
14837KMSN MSN20011109134009911/09/01 13:40:31  5-MIN KMSN 091940Z 22012G18KT 10SM CLR 11/M02 A3014 660 39 400 220/12G18 RMK AO2
14837KMSN MSN20011109134509911/09/01 13:45:31  5-MIN KMSN 091945Z 24014G19KT 10SM CLR 11/M03 A3014 660 37 400 240/14G19 RMK AO2
14837KMSN MSN20011109135013211/09/01 13:50:31  5-MIN KMSN 091950Z 25011G19KT 200V280 10SM CLR 11/M03 A3014 660 39 300 240/11G19 200V280 RMK AO2 SLP214 T01061028
14837KMSN MSN20011109135511511/09/01 13:55:31  5-MIN KMSN 091955Z 22008G16KT 190V260 10SM CLR 11/M02 A3014 660 39 400 220/08G16 190V260 RMK AO2
14837KMSN MSN20011109140010911/09/01 14:00:31  5-MIN KMSN 092000Z 24010KT 210V270 10SM CLR 11/M02 A3014 660 39 400 240/10 210V270 RMK AO2
14837KMSN MSN20011109140509311/09/01 14:05:31  5-MIN KMSN 092005Z 23010KT 10SM CLR 11/M03 A3014 670 37 400 230/10 RMK AO2
14837KMSN MSN20011109141010911/09/01 14:10:31  5-MIN KMSN 092010Z 24007KT 200V270 10SM CLR 12/M02 A3013 670 38 500 240/07 200V270 RMK AO2
14837KMSN MSN20011109141509911/09/01 14:15:31  5-MIN KMSN 092015Z 23011G15KT 10SM CLR 12/M01 A3013 670 41 500 230/11G15 RMK AO2
14837KMSN MSN20011109142011511/09/01 14:20:31  5-MIN KMSN 092020Z 23009G15KT 200V280 10SM CLR 12/M02 A3013 670 39 500 230/09G15 200V280 RMK AO2
14837KMSN MSN20011109142509911/09/01 14:25:31  5-MIN KMSN 092025Z 23010G15KT 10SM CLR 12/M02 A3013 670 39 500 230/10G15 RMK AO2
14837KMSN MSN20011109143010911/09/01 14:30:31  5-MIN KMSN 092030Z 23010KT 190V260 10SM CLR 12/M02 A3013 670 38 500 230/10 190V260 RMK AO2
14837KMSN MSN20011109143509311/09/01 14:35:31  5-MIN KMSN 092035Z 23010KT 10SM CLR 12/M02 A3013 670 38 500 230/10 RMK AO2
14837KMSN MSN20011109144009911/09/01 14:40:31  5-MIN KMSN 092040Z 23009G16KT 10SM CLR 12/M02 A3012 680 38 500 230/09G16 RMK AO2
14837KMSN MSN20011109144509911/09/01 14:45:31  5-MIN KMSN 092045Z 22009G16KT 10SM CLR 12/M02 A3012 680 39 500 220/09G16 RMK AO2
14837KMSN MSN20011109145011611/09/01 14:50:31  5-MIN KMSN 092050Z 23008KT 10SM CLR 11/M02 A3012 680 41 400 230/08 RMK AO2 SLP207 T01111017 58033
14837KMSN MSN20011109145509911/09/01 14:55:31  5-MIN KMSN 092055Z 22010G16KT 10SM CLR 11/M02 A3012 680 41 400 220/10G16 RMK AO2
14837KMSN MSN20011109150009911/09/01 15:00:31  5-MIN KMSN 092100Z 23010G16KT 10SM CLR 11/M02 A3012 680 39 400 230/10G16 RMK AO2
14837KMSN MSN20011109150510911/09/01 15:05:31  5-MIN KMSN 092105Z 24009KT 210V270 10SM CLR 12/M02 A3012 680 38 500 230/09 210V270 RMK AO2
14837KMSN MSN20011109151009311/09/01 15:10:31  5-MIN KMSN 092110Z 23009KT 10SM CLR 12/M02 A3012 680 38 500 230/09 RMK AO2
14837KMSN MSN20011109151509911/09/01 15:15:31  5-MIN KMSN 092115Z 22011G16KT 10SM CLR 12/M02 A3012 680 38 500 220/11G16 RMK AO2
14837KMSN MSN20011109152009911/09/01 15:20:31  5-MIN KMSN 092120Z 24010G16KT 10SM CLR 12/M02 A3012 680 38 500 240/10G16 RMK AO2
14837KMSN MSN20011109152509911/09/01 15:25:31  5-MIN KMSN 092125Z 23008G15KT 10SM CLR 12/M02 A3012 680 38 500 230/08G15 RMK AO2
14837KMSN MSN20011109153009911/09/01 15:30:31  5-MIN KMSN 092130Z 23007G15KT 10SM CLR 12/M02 A3012 680 38 500 220/07G15 RMK AO2
14837KMSN MSN20011109153509311/09/01 15:35:31  5-MIN KMSN 092135Z 22007KT 10SM CLR 12/M02 A3012 680 38 500 220/07 RMK AO2
14837KMSN MSN20011109154009311/09/01 15:40:31  5-MIN KMSN 092140Z 23008KT 10SM CLR 11/M02 A3012 680 41 400 220/08 RMK AO2
14837KMSN MSN20011109154509311/09/01 15:45:31  5-MIN KMSN 092145Z 22006KT 10SM CLR 11/M02 A3012 680 39 400 220/06 RMK AO2
14837KMSN MSN20011109155011611/09/01 15:50:31  5-MIN KMSN 092150Z 22011G15KT 10SM CLR 11/M02 A3012 680 39 400 220/11G15 RMK AO2 SLP204 T01111022
14837KMSN MSN20011109155509911/09/01 15:55:31  5-MIN KMSN 092155Z 23008G15KT 10SM CLR 11/M02 A3011 690 39 400 230/08G15 RMK AO2
14837KMSN MSN20011109160009311/09/01 16:00:31  5-MIN KMSN 092200Z 22007KT 10SM CLR 11/M02 A3011 690 41 400 220/07 RMK AO2
14837KMSN MSN20011109160509311/09/01 16:05:31  5-MIN KMSN 092205Z 23007KT 10SM CLR 11/M02 A3011 690 41 400 230/07 RMK AO2
14837KMSN MSN20011109161009311/09/01 16:10:31  5-MIN KMSN 092210Z 24009KT 10SM CLR 11/M02 A3011 690 41 400 240/09 RMK AO2
14837KMSN MSN20011109161509311/09/01 16:15:31  5-MIN KMSN 092215Z 23008KT 10SM CLR 11/M02 A3011 690 39 400 230/08 RMK AO2
14837KMSN MSN20011109162010911/09/01 16:20:31  5-MIN KMSN 092220Z 22007KT 180V250 10SM CLR 11/M02 A3011 690 40 400 220/07 180V250 RMK AO2
14837KMSN MSN20011109162509311/09/01 16:25:31  5-MIN KMSN 092225Z 22006KT 10SM CLR 11/M02 A3011 690 42 400 220/06 RMK AO2
14837KMSN MSN20011109163009311/09/01 16:30:31  5-MIN KMSN 092230Z 22006KT 10SM CLR 11/M02 A3011 690 42 400 220/06 RMK AO2
14837KMSN MSN20011109163509311/09/01 16:35:31  5-MIN KMSN 092235Z 22007KT 10SM CLR 11/M02 A3011 690 42 400 220/07 RMK AO2
14837KMSN MSN20011109164009311/09/01 16:40:31  5-MIN KMSN 092240Z 22007KT 10SM CLR 11/M02 A3011 690 42 400 220/07 RMK AO2
14837KMSN MSN20011109164509311/09/01 16:45:31  5-MIN KMSN 092245Z 23009KT 10SM CLR 11/M02 A3011 690 40 400 220/09 RMK AO2
14837KMSN MSN20011109165011011/09/01 16:50:31  5-MIN KMSN 092250Z 22006KT 10SM CLR 11/M02 A3010 690 40 400 220/06 RMK AO2 SLP200 T01061022
14837KMSN MSN20011109165509311/09/01 16:55:31  5-MIN KMSN 092255Z 22007KT 10SM CLR 11/M02 A3010 690 42 400 220/07 RMK AO2
14837KMSN MSN20011109170009311/09/01 17:00:31  5-MIN KMSN 092300Z 22007KT 10SM CLR 10/M01 A3011 690 46 300 220/07 RMK AO2
14837KMSN MSN20011109170509311/09/01 17:05:31  5-MIN KMSN 092305Z 22006KT 10SM CLR 11/M01 A3011 690 44 400 220/06 RMK AO2
14837KMSN MSN20011109171009311/09/01 17:10:31  5-MIN KMSN 092310Z 23005KT 10SM CLR 10/M01 A3010 690 46 300 230/05 RMK AO2
14837KMSN MSN20011109171509311/09/01 17:15:31  5-MIN KMSN 092315Z 22005KT 10SM CLR 10/M01 A3011 690 46 300 220/05 RMK AO2
14837KMSN MSN20011109172009311/09/01 17:20:31  5-MIN KMSN 092320Z 22006KT 10SM CLR 10/M01 A3011 690 46 300 220/06 RMK AO2
14837KMSN MSN20011109172509311/09/01 17:25:31  5-MIN KMSN 092325Z 22006KT 10SM CLR 10/M02 A3010 690 44 300 220/06 RMK AO2
14837KMSN MSN20011109173009311/09/01 17:30:31  5-MIN KMSN 092330Z VRB05KT 10SM CLR 10/M02 A3010 700 44 300 VRB/05 RMK AO2
14837KMSN MSN20011109173509311/09/01 17:35:31  5-MIN KMSN 092335Z 22006KT 10SM CLR 10/M02 A3010 700 44 300 220/06 RMK AO2
14837KMSN MSN20011109174009311/09/01 17:40:31  5-MIN KMSN 092340Z 22007KT 10SM CLR 10/M02 A3010 700 44 300 220/07 RMK AO2
14837KMSN MSN20011109174509311/09/01 17:45:31  5-MIN KMSN 092345Z 22006KT 10SM CLR 10/M02 A3010 700 44 300 220/06 RMK AO2
14837KMSN MSN20011109175012811/09/01 17:50:31  5-MIN KMSN 092350Z 22006KT 10SM CLR 10/M02 A3010 700 44 300 220/06 RMK AO2 SLP197 T01001017 10117 20094 56024
14837KMSN MSN20011109175509311/09/01 17:55:31  5-MIN KMSN 092355Z 22006KT 10SM CLR 10/M02 A3010 700 44 300 220/06 RMK AO2
14837KMSN MSN20011109180009311/09/01 18:00:31  5-MIN KMSN 100000Z 22006KT 10SM CLR 10/M02 A3010 700 44 300 220/06 RMK AO2
14837KMSN MSN20011109180509311/09/01 18:05:31  5-MIN KMSN 100005Z 22007KT 10SM CLR 10/M02 A3010 700 42 300 220/07 RMK AO2
14837KMSN MSN20011109181009311/09/01 18:10:31  5-MIN KMSN 100010Z 21006KT 10SM CLR 10/M02 A3010 700 42 300 210/06 RMK AO2
14837KMSN MSN20011109181509311/09/01 18:15:31  5-MIN KMSN 100015Z 22006KT 10SM CLR 09/M02 A3009 700 44 200 220/06 RMK AO2
14837KMSN MSN20011109182009311/09/01 18:20:31  5-MIN KMSN 100020Z 22006KT 10SM CLR 09/M02 A3010 700 44 200 210/06 RMK AO2
14837KMSN MSN20011109182509311/09/01 18:25:31  5-MIN KMSN 100025Z 21006KT 10SM CLR 09/M02 A3009 700 45 200 210/06 RMK AO2
14837KMSN MSN20011109183009311/09/01 18:30:31  5-MIN KMSN 100030Z VRB05KT 10SM CLR 09/M02 A3010 700 45 200 VRB/05 RMK AO2
14837KMSN MSN20011109183509311/09/01 18:35:31  5-MIN KMSN 100035Z 21005KT 10SM CLR 09/M02 A3009 700 45 200 200/05 RMK AO2
14837KMSN MSN20011109184009311/09/01 18:40:31  5-MIN KMSN 100040Z 21005KT 10SM CLR 09/M02 A3009 700 45 200 210/05 RMK AO2
14837KMSN MSN20011109184509311/09/01 18:45:31  5-MIN KMSN 100045Z 21007KT 10SM CLR 09/M02 A3009 700 45 200 200/07 RMK AO2
14837KMSN MSN20011109185011011/09/01 18:50:31  5-MIN KMSN 100050Z 21007KT 10SM CLR 09/M02 A3009 700 45 200 210/07 RMK AO2 SLP197 T00941017
14837KMSN MSN20011109185509311/09/01 18:55:31  5-MIN KMSN 100055Z 21006KT 10SM CLR 09/M02 A3009 710 47 200 200/06 RMK AO2
14837KMSN MSN20011109190009311/09/01 19:00:31  5-MIN KMSN 100100Z 21006KT 10SM CLR 09/M01 A3009 710 49 200 210/06 RMK AO2
14837KMSN MSN20011109190509311/09/01 19:05:31  5-MIN KMSN 100105Z 21007KT 10SM CLR 09/M01 A3009 710 49 200 210/07 RMK AO2
14837KMSN MSN20011109191009311/09/01 19:10:31  5-MIN KMSN 100110Z 21006KT 10SM CLR 09/M01 A3008 710 49 200 200/06 RMK AO2
14837KMSN MSN20011109191509311/09/01 19:15:31  5-MIN KMSN 100115Z 21007KT 10SM CLR 09/M01 A3008 720 49 200 210/07 RMK AO2
14837KMSN MSN20011109192009311/09/01 19:20:31  5-MIN KMSN 100120Z 20008KT 10SM CLR 09/M01 A3008 720 49 200 200/08 RMK AO2
14837KMSN MSN20011109192509311/09/01 19:25:31  5-MIN KMSN 100125Z 21007KT 10SM CLR 09/M01 A3008 720 49 200 210/07 RMK AO2
14837KMSN MSN20011109193009311/09/01 19:30:31  5-MIN KMSN 100130Z 21006KT 10SM CLR 09/M01 A3008 720 49 200 210/06 RMK AO2
14837KMSN MSN20011109193509311/09/01 19:35:31  5-MIN KMSN 100135Z 21006KT 10SM CLR 09/M01 A3008 720 49 200 210/06 RMK AO2
14837KMSN MSN20011109194009311/09/01 19:40:31  5-MIN KMSN 100140Z 21006KT 10SM CLR 09/M01 A3007 720 49 200 210/06 RMK AO2
14837KMSN MSN20011109194509311/09/01 19:45:31  5-MIN KMSN 100145Z 21006KT 10SM CLR 09/M01 A3007 720 49 200 210/06 RMK AO2
14837KMSN MSN20011109195011011/09/01 19:50:31  5-MIN KMSN 100150Z 21006KT 10SM CLR 09/M01 A3007 720 49 200 200/06 RMK AO2 SLP189 T00891011
14837KMSN MSN20011109195509311/09/01 19:55:31  5-MIN KMSN 100155Z 20006KT 10SM CLR 09/M01 A3007 730 49 200 200/06 RMK AO2
14837KMSN MSN20011109200009311/09/01 20:00:31  5-MIN KMSN 100200Z 21005KT 10SM CLR 08/M01 A3007 720 51 100 200/05 RMK AO2
14837KMSN MSN20011109200509311/09/01 20:05:31  5-MIN KMSN 100205Z 21005KT 10SM CLR 08/M01 A3007 730 51 100 210/05 RMK AO2
14837KMSN MSN20011109201009311/09/01 20:10:31  5-MIN KMSN 100210Z 20006KT 10SM CLR 08/M01 A3007 730 51 100 200/06 RMK AO2
14837KMSN MSN20011109201509311/09/01 20:15:31  5-MIN KMSN 100215Z 21006KT 10SM CLR 08/M01 A3007 730 51 100 210/06 RMK AO2
14837KMSN MSN20011109202009311/09/01 20:20:31  5-MIN KMSN 100220Z 20006KT 10SM CLR 08/M01 A3006 730 51 100 200/06 RMK AO2
14837KMSN MSN20011109202509311/09/01 20:25:31  5-MIN KMSN 100225Z 21006KT 10SM CLR 08/M01 A3006 730 51 100 200/06 RMK AO2
14837KMSN MSN20011109203009311/09/01 20:30:31  5-MIN KMSN 100230Z 20006KT 10SM CLR 08/M01 A3006 740 51 200 200/06 RMK AO2
14837KMSN MSN20011109203509311/09/01 20:35:31  5-MIN KMSN 100235Z 21007KT 10SM CLR 08/M01 A3006 740 51 200 210/07 RMK AO2
14837KMSN MSN20011109204009311/09/01 20:40:31  5-MIN KMSN 100240Z 20006KT 10SM CLR 08/M01 A3006 740 51 200 200/06 RMK AO2
14837KMSN MSN20011109204509311/09/01 20:45:31  5-MIN KMSN 100245Z 21007KT 10SM CLR 09/M01 A3005 740 49 200 210/07 RMK AO2
14837KMSN MSN20011109205011611/09/01 20:50:31  5-MIN KMSN 100250Z 21007KT 10SM CLR 09/M01 A3005 740 49 200 210/07 RMK AO2 SLP182 T00891011 58008
14837KMSN MSN20011109205509311/09/01 20:55:31  5-MIN KMSN 100255Z 22008KT 10SM CLR 09/M01 A3005 740 49 200 220/08 RMK AO2
14837KMSN MSN20011109210009311/09/01 21:00:31  5-MIN KMSN 100300Z 22008KT 10SM CLR 09/M02 A3005 740 47 200 220/08 RMK AO2
14837KMSN MSN20011109210509311/09/01 21:05:31  5-MIN KMSN 100305Z 22009KT 10SM CLR 09/M02 A3005 750 47 200 220/09 RMK AO2
14837KMSN MSN20011109211009311/09/01 21:10:31  5-MIN KMSN 100310Z 22009KT 10SM CLR 09/M02 A3005 750 47 200 220/09 RMK AO2
14837KMSN MSN20011109211509311/09/01 21:15:31  5-MIN KMSN 100315Z 23007KT 10SM CLR 09/M02 A3005 750 47 200 220/07 RMK AO2
14837KMSN MSN20011109212009311/09/01 21:20:31  5-MIN KMSN 100320Z 23008KT 10SM CLR 09/M02 A3004 750 47 200 220/08 RMK AO2
14837KMSN MSN20011109212509311/09/01 21:25:31  5-MIN KMSN 100325Z 23006KT 10SM CLR 08/M01 A3004 750 51 200 230/06 RMK AO2
14837KMSN MSN20011109213009311/09/01 21:30:31  5-MIN KMSN 100330Z 23007KT 10SM CLR 09/M01 A3004 750 49 200 230/07 RMK AO2
14837KMSN MSN20011109213509311/09/01 21:35:31  5-MIN KMSN 100335Z 23007KT 10SM CLR 08/M01 A3004 750 51 200 230/07 RMK AO2
14837KMSN MSN20011109214009311/09/01 21:40:31  5-MIN KMSN 100340Z 23007KT 10SM CLR 09/M01 A3004 750 51 200 230/07 RMK AO2
14837KMSN MSN20011109214510911/09/01 21:45:31  5-MIN KMSN 100345Z 23008KT 190V250 10SM CLR 09/M01 A3004 750 51 200 230/08 190V250 RMK AO2
14837KMSN MSN20011109215011011/09/01 21:50:31  5-MIN KMSN 100350Z 23009KT 10SM CLR 09/M01 A3004 760 51 200 230/09 RMK AO2 SLP176 T00891006
14837KMSN MSN20011109215509311/09/01 21:55:31  5-MIN KMSN 100355Z 23008KT 10SM CLR 09/M01 A3004 760 51 200 230/08 RMK AO2
14837KMSN MSN20011109220009311/09/01 22:00:31  5-MIN KMSN 100400Z 22010KT 10SM CLR 09/M01 A3003 760 51 300 220/10 RMK AO2
14837KMSN MSN20011109220509311/09/01 22:05:31  5-MIN KMSN 100405Z 22008KT 10SM CLR 09/M01 A3003 770 51 300 220/08 RMK AO2
14837KMSN MSN20011109221009311/09/01 22:10:31  5-MIN KMSN 100410Z 23007KT 10SM CLR 08/M01 A3003 770 53 200 230/07 RMK AO2
14837KMSN MSN20011109221509311/09/01 22:15:31  5-MIN KMSN 100415Z 23008KT 10SM CLR 08/M01 A3002 770 53 200 230/08 RMK AO2
14837KMSN MSN20011109222009311/09/01 22:20:31  5-MIN KMSN 100420Z 23009KT 10SM CLR 08/M01 A3002 770 53 200 230/09 RMK AO2
14837KMSN MSN20011109222509311/09/01 22:25:31  5-MIN KMSN 100425Z 22009KT 10SM CLR 08/M01 A3002 770 53 200 220/09 RMK AO2
14837KMSN MSN20011109223009311/09/01 22:30:31  5-MIN KMSN 100430Z 23009KT 10SM CLR 08/M01 A3002 770 53 200 230/09 RMK AO2
14837KMSN MSN20011109223509311/09/01 22:35:31  5-MIN KMSN 100435Z 24007KT 10SM CLR 08/M01 A3002 770 53 200 230/07 RMK AO2
14837KMSN MSN20011109224009311/09/01 22:40:31  5-MIN KMSN 100440Z 23007KT 10SM CLR 08/M01 A3002 780 53 200 230/07 RMK AO2
14837KMSN MSN20011109224509311/09/01 22:45:31  5-MIN KMSN 100445Z 23009KT 10SM CLR 08/M01 A3002 770 53 200 230/09 RMK AO2
14837KMSN MSN20011109225011011/09/01 22:50:31  5-MIN KMSN 100450Z 23009KT 10SM CLR 08/M01 A3002 780 53 200 220/09 RMK AO2 SLP169 T00831006
14837KMSN MSN20011109225509311/09/01 22:55:31  5-MIN KMSN 100455Z 23009KT 10SM CLR 08/M01 A3001 780 53 200 230/09 RMK AO2
14837KMSN MSN20011109230009311/09/01 23:00:31  5-MIN KMSN 100500Z 23010KT 10SM CLR 08/M01 A3001 780 53 200 230/10 RMK AO2
14837KMSN MSN20011109230509311/09/01 23:05:31  5-MIN KMSN 100505Z 23009KT 10SM CLR 08/M01 A3001 780 55 100 230/09 RMK AO2
14837KMSN MSN20011109231009311/09/01 23:10:31  5-MIN KMSN 100510Z 23009KT 10SM CLR 08/M01 A3001 780 53 200 230/09 RMK AO2
14837KMSN MSN20011109231509311/09/01 23:15:31  5-MIN KMSN 100515Z 23009KT 10SM CLR 08/M01 A3001 780 53 200 230/09 RMK AO2
14837KMSN MSN20011109232009311/09/01 23:20:31  5-MIN KMSN 100520Z 23008KT 10SM CLR 08/M01 A3000 790 55 100 220/08 RMK AO2
14837KMSN MSN20011109232509311/09/01 23:25:31  5-MIN KMSN 100525Z 23009KT 10SM CLR 08/M01 A3000 790 53 200 230/09 RMK AO2
14837KMSN MSN20011109233009311/09/01 23:30:31  5-MIN KMSN 100530Z 23009KT 10SM CLR 08/M01 A2999 800 53 200 230/09 RMK AO2
14837KMSN MSN20011109233509911/09/01 23:35:31  5-MIN KMSN 100535Z 23008G16KT 10SM CLR 08/M01 A2999 800 53 200 230/08G16 RMK AO2
14837KMSN MSN20011109234009911/09/01 23:40:31  5-MIN KMSN 100540Z 23010G16KT 10SM CLR 08/M01 A2998 810 53 200 230/10G16 RMK AO2
14837KMSN MSN20011109234509311/09/01 23:45:31  5-MIN KMSN 100545Z 22009KT 10SM CLR 08/M01 A2998 810 53 200 220/09 RMK AO2
14837KMSN MSN20011109235013811/09/01 23:50:31  5-MIN KMSN 100550Z 22008KT 10SM CLR 08/M01 A2998 810 53 200 220/08 RMK AO2 SLP155 T00831006 10100 20078 401171033 58014
14837KMSN MSN20011109235509311/09/01 23:55:31  5-MIN KMSN 100555Z 23007KT 10SM CLR 08/M01 A2997 810 53 200 220/07 RMK AO2
14837KMSN MSN20011110000009911/10/01 00:00:31  5-MIN KMSN 100600Z 23010G16KT 10SM CLR 08/M01 A2997 820 53 300 230/10G16 RMK AO2
14837KMSN MSN20011110000509911/10/01 00:05:31  5-MIN KMSN 100605Z 23007G16KT 10SM CLR 08/M01 A2997 820 53 300 230/07G16 RMK AO2
14837KMSN MSN20011110001009311/10/01 00:10:31  5-MIN KMSN 100610Z 23008KT 10SM CLR 08/M01 A2997 820 53 300 230/08 RMK AO2
14837KMSN MSN20011110001510911/10/01 00:15:31  5-MIN KMSN 100615Z 24008KT 190V270 10SM CLR 08/M01 A2997 820 53 300 240/08 190V270 RMK AO2
14837KMSN MSN20011110002009311/10/01 00:20:31  5-MIN KMSN 100620Z 23008KT 10SM CLR 08/M01 A2996 820 53 300 230/08 RMK AO2
14837KMSN MSN20011110002509911/10/01 00:25:31  5-MIN KMSN 100625Z 23009G14KT 10SM CLR 08/M01 A2996 830 53 300 230/09G14 RMK AO2
14837KMSN MSN20011110003009911/10/01 00:30:31  5-MIN KMSN 100630Z 23009G16KT 10SM CLR 08/M01 A2996 830 55 200 230/09G16 RMK AO2
14837KMSN MSN20011110003509911/10/01 00:35:31  5-MIN KMSN 100635Z 23009G16KT 10SM CLR 08/M01 A2995 830 55 200 230/09G16 RMK AO2
14837KMSN MSN20011110004009311/10/01 00:40:31  5-MIN KMSN 100640Z 23008KT 10SM CLR 08/M01 A2995 830 55 200 230/08 RMK AO2
14837KMSN MSN20011110004509911/10/01 00:45:31  5-MIN KMSN 100645Z 24009G16KT 10SM CLR 08/M01 A2995 830 55 200 240/09G16 RMK AO2
14837KMSN MSN20011110005011611/10/01 00:50:31  5-MIN KMSN 100650Z 23009G16KT 10SM CLR 08/M01 A2995 840 55 200 230/09G16 RMK AO2 SLP146 T00781006
14837KMSN MSN20011110005509911/10/01 00:55:31  5-MIN KMSN 100655Z 24010G17KT 10SM CLR 08/M01 A2995 830 55 200 240/10G17 RMK AO2
14837KMSN MSN20011110010009911/10/01 01:00:31  5-MIN KMSN 100700Z 24009G17KT 10SM CLR 08/M01 A2995 840 55 200 240/09G17 RMK AO2
14837KMSN MSN20011110010509311/10/01 01:05:31  5-MIN KMSN 100705Z 23009KT 10SM CLR 08/M01 A2995 840 55 200 230/09 RMK AO2
14837KMSN MSN20011110011009311/10/01 01:10:31  5-MIN KMSN 100710Z 23009KT 10SM CLR 08/M01 A2995 840 55 200 230/09 RMK AO2
14837KMSN MSN20011110011509311/10/01 01:15:31  5-MIN KMSN 100715Z 23008KT 10SM CLR 08/M01 A2995 840 55 200 230/08 RMK AO2
14837KMSN MSN20011110012009911/10/01 01:20:31  5-MIN KMSN 100720Z 23009G15KT 10SM CLR 08/M01 A2994 840 55 200 220/09G15 RMK AO2
14837KMSN MSN20011110012509311/10/01 01:25:31  5-MIN KMSN 100725Z 23008KT 10SM CLR 07/M01 A2994 840 57 100 230/08 RMK AO2
14837KMSN MSN20011110013009311/10/01 01:30:31  5-MIN KMSN 100730Z 23010KT 10SM CLR 08/M01 A2995 840 55 200 230/10 RMK AO2
14837KMSN MSN20011110013509311/10/01 01:35:31  5-MIN KMSN 100735Z 23009KT 10SM CLR 07/M01 A2995 840 57 100 230/09 RMK AO2
14837KMSN MSN20011110014009311/10/01 01:40:31  5-MIN KMSN 100740Z 23007KT 10SM CLR 07/M01 A2995 840 57 100 230/07 RMK AO2
14837KMSN MSN20011110014509311/10/01 01:45:31  5-MIN KMSN 100745Z 23009KT 10SM CLR 07/M01 A2995 840 57 100 230/09 RMK AO2
14837KMSN MSN20011110015012611/10/01 01:50:31  5-MIN KMSN 100750Z 23008KT 200V260 10SM CLR 07/M01 A2995 840 57 100 230/08 200V260 RMK AO2 SLP144 T00721006
14837KMSN MSN20011110015510911/10/01 01:55:31  5-MIN KMSN 100755Z 23009KT 200V260 10SM CLR 07/M01 A2995 840 57 100 230/09 200V260 RMK AO2
14837KMSN MSN20011110020009311/10/01 02:00:31  5-MIN KMSN 100800Z 23008KT 10SM CLR 07/M01 A2994 840 57 200 230/08 RMK AO2
14837KMSN MSN20011110020510911/10/01 02:05:31  5-MIN KMSN 100805Z 24007KT 170V270 10SM CLR 07/M01 A2994 840 57 200 240/07 170V270 RMK AO2
14837KMSN MSN20011110021009311/10/01 02:10:31  5-MIN KMSN 100810Z VRB05KT 10SM CLR 07/M01 A2994 840 57 200 VRB/05 RMK AO2
14837KMSN MSN20011110021509311/10/01 02:15:31  5-MIN KMSN 100815Z 24007KT 10SM CLR 07/M01 A2994 850 60 100 230/07 RMK AO2
14837KMSN MSN20011110022009311/10/01 02:20:31  5-MIN KMSN 100820Z VRB06KT 10SM CLR 07/M01 A2994 840 57 200 VRB/06 RMK AO2
14837KMSN MSN20011110022509311/10/01 02:25:31  5-MIN KMSN 100825Z VRB06KT 10SM CLR 07/M01 A2994 850 60 100 VRB/06 RMK AO2
14837KMSN MSN20011110023009311/10/01 02:30:31  5-MIN KMSN 100830Z 23007KT 10SM CLR 07/M01 A2994 850 60 100 230/07 RMK AO2
14837KMSN MSN20011110023509311/10/01 02:35:31  5-MIN KMSN 100835Z 23006KT 10SM CLR 07/M01 A2994 850 60 100 230/06 RMK AO2
14837KMSN MSN20011110024009211/10/01 02:40:31  5-MIN KMSN 100840Z VRB05KT 10SM CLR 07/00 A2994 850 62 100 VRB/05 RMK AO2
14837KMSN MSN20011110024509311/10/01 02:45:31  5-MIN KMSN 100845Z VRB05KT 10SM CLR 07/M01 A2994 850 60 100 VRB/05 RMK AO2
14837KMSN MSN20011110025011611/10/01 02:50:31  5-MIN KMSN 100850Z VRB04KT 10SM CLR 07/M01 A2994 850 60 100 VRB/04 RMK AO2 SLP141 T00671006 58025
14837KMSN MSN20011110025509111/10/01 02:55:31  5-MIN KMSN 100855Z 22004KT 10SM CLR 06/M01 A2993 850 62 0 220/04 RMK AO2
14837KMSN MSN20011110030009111/10/01 03:00:31  5-MIN KMSN 100900Z VRB04KT 10SM CLR 06/M01 A2994 850 62 0 VRB/04 RMK AO2
14837KMSN MSN20011110030509111/10/01 03:05:31  5-MIN KMSN 100905Z VRB03KT 10SM CLR 06/M01 A2993 850 62 0 VRB/03 RMK AO2
14837KMSN MSN20011110031009111/10/01 03:10:31  5-MIN KMSN 100910Z VRB03KT 10SM CLR 06/M01 A2993 850 62 0 VRB/03 RMK AO2
14837KMSN MSN20011110031509111/10/01 03:15:31  5-MIN KMSN 100915Z VRB03KT 10SM CLR 06/M01 A2993 850 62 0 VRB/03 RMK AO2
14837KMSN MSN20011110032009111/10/01 03:20:31  5-MIN KMSN 100920Z VRB03KT 10SM CLR 06/M01 A2993 860 62 0 VRB/03 RMK AO2
14837KMSN MSN20011110032509111/10/01 03:25:31  5-MIN KMSN 100925Z VRB03KT 10SM CLR 06/M01 A2993 860 62 0 VRB/03 RMK AO2
14837KMSN MSN20011110033009111/10/01 03:30:31  5-MIN KMSN 100930Z VRB04KT 10SM CLR 06/M01 A2993 860 60 0 VRB/04 RMK AO2
14837KMSN MSN20011110033509111/10/01 03:35:31  5-MIN KMSN 100935Z VRB05KT 10SM CLR 06/M01 A2993 860 60 0 VRB/05 RMK AO2
14837KMSN MSN20011110034009111/10/01 03:40:31  5-MIN KMSN 100940Z VRB04KT 10SM CLR 06/M01 A2992 860 60 0 VRB/04 RMK AO2
14837KMSN MSN20011110034509111/10/01 03:45:31  5-MIN KMSN 100945Z 23004KT 10SM CLR 06/M01 A2992 860 60 0 230/04 RMK AO2
14837KMSN MSN20011110035010811/10/01 03:50:31  5-MIN KMSN 100950Z VRB03KT 10SM CLR 06/M01 A2993 860 60 0 VRB/03 RMK AO2 SLP137 T00611011
14837KMSN MSN20011110035509111/10/01 03:55:31  5-MIN KMSN 100955Z VRB05KT 10SM CLR 06/M01 A2993 860 60 0 VRB/05 RMK AO2
14837KMSN MSN20011110040009111/10/01 04:00:31  5-MIN KMSN 101000Z VRB04KT 10SM CLR 06/M01 A2992 860 60 0 VRB/04 RMK AO2
14837KMSN MSN20011110040509111/10/01 04:05:31  5-MIN KMSN 101005Z VRB04KT 10SM CLR 06/M01 A2992 860 60 0 VRB/04 RMK AO2
14837KMSN MSN20011110041009111/10/01 04:10:31  5-MIN KMSN 101010Z VRB04KT 10SM CLR 06/M02 A2993 860 57 0 VRB/04 RMK AO2
14837KMSN MSN20011110041509111/10/01 04:15:31  5-MIN KMSN 101015Z VRB05KT 10SM CLR 06/M02 A2992 860 57 0 VRB/05 RMK AO2
14837KMSN MSN20011110042009111/10/01 04:20:31  5-MIN KMSN 101020Z VRB05KT 10SM CLR 06/M02 A2992 860 57 0 VRB/05 RMK AO2
14837KMSN MSN20011110042509111/10/01 04:25:31  5-MIN KMSN 101025Z VRB05KT 10SM CLR 06/M02 A2992 860 57 0 VRB/05 RMK AO2
14837KMSN MSN20011110043009111/10/01 04:30:31  5-MIN KMSN 101030Z VRB04KT 10SM CLR 06/M02 A2992 860 55 0 VRB/04 RMK AO2
14837KMSN MSN20011110043509111/10/01 04:35:31  5-MIN KMSN 101035Z 25006KT 10SM CLR 06/M02 A2992 860 55 0 250/06 RMK AO2
14837KMSN MSN20011110044009111/10/01 04:40:31  5-MIN KMSN 101040Z VRB06KT 10SM CLR 06/M02 A2992 860 57 0 VRB/06 RMK AO2
14837KMSN MSN20011110044509111/10/01 04:45:31  5-MIN KMSN 101045Z VRB05KT 10SM CLR 06/M02 A2992 860 55 0 VRB/05 RMK AO2
14837KMSN MSN20011110045010811/10/01 04:50:31  5-MIN KMSN 101050Z 26005KT 10SM CLR 06/M02 A2992 860 57 0 260/05 RMK AO2 SLP137 T00561022
14837KMSN MSN20011110045509111/10/01 04:55:31  5-MIN KMSN 101055Z VRB04KT 10SM CLR 06/M02 A2992 860 57 0 VRB/04 RMK AO2
14837KMSN MSN20011110050009111/10/01 05:00:31  5-MIN KMSN 101100Z VRB05KT 10SM CLR 06/M02 A2992 860 57 0 VRB/05 RMK AO2
14837KMSN MSN20011110050509111/10/01 05:05:31  5-MIN KMSN 101105Z 26006KT 10SM CLR 06/M02 A2993 860 57 0 260/06 RMK AO2
14837KMSN MSN20011110051009111/10/01 05:10:31  5-MIN KMSN 101110Z VRB05KT 10SM CLR 06/M02 A2993 860 57 0 VRB/05 RMK AO2
14837KMSN MSN20011110051509111/10/01 05:15:31  5-MIN KMSN 101115Z VRB05KT 10SM CLR 06/M02 A2993 860 57 0 VRB/05 RMK AO2
14837KMSN MSN20011110052009111/10/01 05:20:31  5-MIN KMSN 101120Z VRB05KT 10SM CLR 06/M02 A2993 860 57 0 VRB/05 RMK AO2
14837KMSN MSN20011110052509111/10/01 05:25:31  5-MIN KMSN 101125Z 27005KT 10SM CLR 06/M02 A2993 850 57 0 270/05 RMK AO2
14837KMSN MSN20011110053009111/10/01 05:30:31  5-MIN KMSN 101130Z VRB05KT 10SM CLR 06/M02 A2994 850 57 0 VRB/05 RMK AO2
14837KMSN MSN20011110053509111/10/01 05:35:31  5-MIN KMSN 101135Z 29006KT 10SM CLR 06/M02 A2994 850 57 0 290/06 RMK AO2
14837KMSN MSN20011110054009111/10/01 05:40:31  5-MIN KMSN 101140Z 27006KT 10SM CLR 06/M02 A2994 850 57 0 270/06 RMK AO2
14837KMSN MSN20011110054509411/10/01 05:45:31  5-MIN KMSN 101145Z 27007KT 10SM CLR 05/M02 A2994 840 59 -100 270/07 RMK AO2
14837KMSN MSN20011110055012911/10/01 05:50:31  5-MIN KMSN 101150Z 26006KT 10SM CLR 05/M02 A2994 840 59 -100 260/06 RMK AO2 SLP144 T00501022 10083 20050 56014
14837KMSN MSN20011110055509411/10/01 05:55:31  5-MIN KMSN 101155Z 26006KT 10SM CLR 05/M02 A2994 840 59 -100 260/06 RMK AO2
14837KMSN MSN20011110060009411/10/01 06:00:31  5-MIN KMSN 101200Z 26006KT 10SM CLR 05/M02 A2995 840 59 -100 260/06 RMK AO2
14837KMSN MSN20011110060509411/10/01 06:05:31  5-MIN KMSN 101205Z 26005KT 10SM CLR 04/M02 A2995 840 62 -100 260/05 RMK AO2
14837KMSN MSN20011110061009411/10/01 06:10:31  5-MIN KMSN 101210Z 26006KT 10SM CLR 04/M02 A2995 840 62 -100 260/06 RMK AO2
14837KMSN MSN20011110061509411/10/01 06:15:31  5-MIN KMSN 101215Z VRB06KT 10SM CLR 04/M02 A2995 840 62 -100 VRB/06 RMK AO2
14837KMSN MSN20011110062009411/10/01 06:20:31  5-MIN KMSN 101220Z VRB05KT 10SM CLR 04/M02 A2995 840 62 -100 VRB/05 RMK AO2
14837KMSN MSN20011110062509411/10/01 06:25:31  5-MIN KMSN 101225Z VRB05KT 10SM CLR 04/M02 A2995 840 62 -100 VRB/05 RMK AO2
14837KMSN MSN20011110063009411/10/01 06:30:31  5-MIN KMSN 101230Z 27005KT 10SM CLR 04/M02 A2995 840 62 -100 270/05 RMK AO2
14837KMSN MSN20011110063509411/10/01 06:35:31  5-MIN KMSN 101235Z VRB04KT 10SM CLR 04/M02 A2995 840 62 -100 VRB/04 RMK AO2
14837KMSN MSN20011110064009411/10/01 06:40:31  5-MIN KMSN 101240Z VRB06KT 10SM CLR 04/M02 A2995 840 62 -100 VRB/06 RMK AO2
14837KMSN MSN20011110064509411/10/01 06:45:31  5-MIN KMSN 101245Z VRB04KT 10SM CLR 04/M02 A2995 840 62 -100 VRB/04 RMK AO2
14837KMSN MSN20011110065011111/10/01 06:50:31  5-MIN KMSN 101250Z VRB05KT 10SM CLR 04/M02 A2995 830 62 -200 VRB/05 RMK AO2 SLP147 T00441022
14837KMSN MSN20011110065509411/10/01 06:55:31  5-MIN KMSN 101255Z VRB04KT 10SM CLR 04/M02 A2995 830 62 -200 VRB/04 RMK AO2
14837KMSN MSN20011110070009411/10/01 07:00:31  5-MIN KMSN 101300Z 25005KT 10SM CLR 04/M02 A2995 830 62 -200 250/05 RMK AO2
14837KMSN MSN20011110070509411/10/01 07:05:31  5-MIN KMSN 101305Z VRB05KT 10SM CLR 04/M02 A2996 830 62 -200 VRB/05 RMK AO2
14837KMSN MSN20011110071009411/10/01 07:10:31  5-MIN KMSN 101310Z VRB05KT 10SM CLR 04/M02 A2996 830 62 -200 VRB/05 RMK AO2
14837KMSN MSN20011110071509411/10/01 07:15:31  5-MIN KMSN 101315Z VRB04KT 10SM CLR 05/M02 A2996 830 59 -100 VRB/04 RMK AO2
14837KMSN MSN20011110072009411/10/01 07:20:31  5-MIN KMSN 101320Z 26005KT 10SM CLR 05/M02 A2996 830 59 -100 260/05 RMK AO2
14837KMSN MSN20011110072509411/10/01 07:25:31  5-MIN KMSN 101325Z 26005KT 10SM CLR 05/M02 A2996 830 59 -100 260/05 RMK AO2
14837KMSN MSN20011110073009411/10/01 07:30:31  5-MIN KMSN 101330Z 27005KT 10SM CLR 05/M02 A2996 830 59 -100 270/05 RMK AO2
14837KMSN MSN20011110073509111/10/01 07:35:31  5-MIN KMSN 101335Z 27005KT 10SM CLR 06/M02 A2996 830 57 0 270/05 RMK AO2
14837KMSN MSN20011110074009111/10/01 07:40:31  5-MIN KMSN 101340Z 27005KT 10SM CLR 06/M02 A2996 820 57 0 270/05 RMK AO2
14837KMSN MSN20011110074509111/10/01 07:45:31  5-MIN KMSN 101345Z 26006KT 10SM CLR 06/M02 A2997 820 57 0 260/06 RMK AO2
14837KMSN MSN20011110075010811/10/01 07:50:31  5-MIN KMSN 101350Z 27009KT 10SM CLR 06/M02 A2997 820 55 0 260/09 RMK AO2 SLP152 T00611022
14837KMSN MSN20011110075509111/10/01 07:55:31  5-MIN KMSN 101355Z 27008KT 10SM CLR 06/M02 A2997 820 55 0 270/08 RMK AO2
14837KMSN MSN20011110080009111/10/01 08:00:31  5-MIN KMSN 101400Z 27009KT 10SM CLR 06/M02 A2997 820 55 0 260/09 RMK AO2
14837KMSN MSN20011110080509111/10/01 08:05:31  5-MIN KMSN 101405Z 27008KT 10SM CLR 06/M02 A2997 820 55 0 270/08 RMK AO2
14837KMSN MSN20011110081009311/10/01 08:10:31  5-MIN KMSN 101410Z 27007KT 10SM CLR 07/M02 A2997 820 53 100 270/07 RMK AO2
14837KMSN MSN20011110081509311/10/01 08:15:31  5-MIN KMSN 101415Z 27008KT 10SM CLR 07/M02 A2997 820 53 100 270/08 RMK AO2
14837KMSN MSN20011110082009911/10/01 08:20:31  5-MIN KMSN 101420Z 28009G14KT 10SM CLR 07/M02 A2997 820 51 100 280/09G14 RMK AO2
14837KMSN MSN20011110082509911/10/01 08:25:31  5-MIN KMSN 101425Z 28010G14KT 10SM CLR 07/M02 A2997 820 51 100 280/10G14 RMK AO2
14837KMSN MSN20011110083009311/10/01 08:30:31  5-MIN KMSN 101430Z 27008KT 10SM CLR 07/M02 A2997 820 51 100 270/08 RMK AO2
14837KMSN MSN20011110083509311/10/01 08:35:31  5-MIN KMSN 101435Z 28008KT 10SM CLR 07/M02 A2997 810 51 100 280/08 RMK AO2
14837KMSN MSN20011110084009311/10/01 08:40:31  5-MIN KMSN 101440Z 29009KT 10SM CLR 08/M02 A2998 810 51 200 290/09 RMK AO2
14837KMSN MSN20011110084509311/10/01 08:45:31  5-MIN KMSN 101445Z 28008KT 10SM CLR 08/M02 A2998 810 51 200 280/08 RMK AO2
14837KMSN MSN20011110085011611/10/01 08:50:31  5-MIN KMSN 101450Z 29008KT 10SM CLR 08/M02 A2998 810 49 200 290/08 RMK AO2 SLP156 T00781022 53003
14837KMSN MSN20011110085509311/10/01 08:55:31  5-MIN KMSN 101455Z 29008KT 10SM CLR 08/M02 A2998 810 49 200 290/08 RMK AO2
14837KMSN MSN20011110090009311/10/01 09:00:31  5-MIN KMSN 101500Z 29007KT 10SM CLR 08/M02 A2998 810 49 200 290/07 RMK AO2
14837KMSN MSN20011110090509311/10/01 09:05:31  5-MIN KMSN 101505Z 29008KT 10SM CLR 08/M02 A2998 800 49 200 290/08 RMK AO2
14837KMSN MSN20011110091009311/10/01 09:10:31  5-MIN KMSN 101510Z 30008KT 10SM CLR 09/M02 A2999 800 47 300 300/08 RMK AO2
14837KMSN MSN20011110091509311/10/01 09:15:31  5-MIN KMSN 101515Z 30009KT 10SM CLR 09/M02 A2999 800 47 300 300/09 RMK AO2
14837KMSN MSN20011110092009311/10/01 09:20:31  5-MIN KMSN 101520Z 30008KT 10SM CLR 09/M02 A2999 800 47 300 300/08 RMK AO2
14837KMSN MSN20011110092509311/10/01 09:25:31  5-MIN KMSN 101525Z 30008KT 10SM CLR 09/M02 A2999 800 45 400 300/08 RMK AO2
14837KMSN MSN20011110093009311/10/01 09:30:31  5-MIN KMSN 101530Z 30010KT 10SM CLR 10/M02 A2999 800 44 400 300/10 RMK AO2
14837KMSN MSN20011110093509311/10/01 09:35:31  5-MIN KMSN 101535Z 30011KT 10SM CLR 10/M02 A3000 790 44 400 300/11 RMK AO2
14837KMSN MSN20011110094009311/10/01 09:40:31  5-MIN KMSN 101540Z 29009KT 10SM CLR 10/M02 A3000 790 44 400 290/09 RMK AO2
14837KMSN MSN20011110094509311/10/01 09:45:31  5-MIN KMSN 101545Z 32008KT 10SM CLR 10/M02 A3000 790 44 400 310/08 RMK AO2
14837KMSN MSN20011110095011011/10/01 09:50:31  5-MIN KMSN 101550Z 30008KT 10SM CLR 10/M02 A3000 790 44 400 300/08 RMK AO2 SLP162 T01001017
14837KMSN MSN20011110095509911/10/01 09:55:31  5-MIN KMSN 101555Z 30010G15KT 10SM CLR 10/M02 A3000 790 44 400 290/10G15 RMK AO2
14837KMSN MSN20011110100009311/10/01 10:00:31  5-MIN KMSN 101600Z 29009KT 10SM CLR 10/M02 A3000 790 44 400 290/09 RMK AO2
14837KMSN MSN20011110100509911/10/01 10:05:31  5-MIN KMSN 101605Z 29011G16KT 10SM CLR 11/M02 A3000 790 42 500 290/11G16 RMK AO2
14837KMSN MSN20011110101009911/10/01 10:10:31  5-MIN KMSN 101610Z 29010G16KT 10SM CLR 11/M02 A3000 790 42 500 290/10G16 RMK AO2
14837KMSN MSN20011110101509311/10/01 10:15:31  5-MIN KMSN 101615Z 31009KT 10SM CLR 11/M01 A3000 790 44 500 300/09 RMK AO2
14837KMSN MSN20011110102009311/10/01 10:20:31  5-MIN KMSN 101620Z 31011KT 10SM CLR 11/M01 A3000 790 42 600 310/11 RMK AO2
14837KMSN MSN20011110102509311/10/01 10:25:31  5-MIN KMSN 101625Z 31009KT 10SM CLR 11/M01 A3000 790 42 600 310/09 RMK AO2
14837KMSN MSN20011110103009911/10/01 10:30:31  5-MIN KMSN 101630Z 31012G16KT 10SM CLR 11/M01 A3000 790 42 500 310/12G16 RMK AO2
14837KMSN MSN20011110103509311/10/01 10:35:31  5-MIN KMSN 101635Z 31012KT 10SM CLR 12/M01 A3001 790 41 600 310/12 RMK AO2
14837KMSN MSN20011110104009911/10/01 10:40:31  5-MIN KMSN 101640Z 31014G19KT 10SM CLR 12/M02 A3001 780 39 600 310/14G19 RMK AO2
14837KMSN MSN20011110104509911/10/01 10:45:31  5-MIN KMSN 101645Z 32014G19KT 10SM CLR 12/M02 A3001 780 39 600 320/14G19 RMK AO2
14837KMSN MSN20011110105011611/10/01 10:50:31  5-MIN KMSN 101650Z 31009G19KT 10SM CLR 12/M02 A3001 780 38 700 310/09G19 RMK AO2 SLP164 T01221017
14837KMSN MSN20011110105509311/10/01 10:55:31  5-MIN KMSN 101655Z 30012KT 10SM CLR 12/M02 A3001 780 38 700 300/12 RMK AO2
14837KMSN MSN20011110110009911/10/01 11:00:31  5-MIN KMSN 101700Z 31012G19KT 10SM CLR 12/M02 A3001 780 38 700 300/12G19 RMK AO2
14837KMSN MSN20011110110509911/10/01 11:05:31  5-MIN KMSN 101705Z 32014G19KT 10SM CLR 12/M02 A3001 790 38 700 320/14G19 RMK AO2
14837KMSN MSN20011110111009911/10/01 11:10:31  5-MIN KMSN 101710Z 30010G17KT 10SM CLR 13/M01 A3001 780 38 700 300/10G17 RMK AO2
14837KMSN MSN20011110111509311/10/01 11:15:31  5-MIN KMSN 101715Z 32013KT 10SM CLR 13/M01 A3001 790 36 800 310/13 RMK AO2
14837KMSN MSN20011110112009311/10/01 11:20:31  5-MIN KMSN 101720Z 31011KT 10SM CLR 13/M02 A3001 780 35 700 310/11 RMK AO2
14837KMSN MSN20011110112509311/10/01 11:25:31  5-MIN KMSN 101725Z 32011KT 10SM CLR 13/M02 A3001 780 36 700 310/11 RMK AO2
14837KMSN MSN20011110113009911/10/01 11:30:31  5-MIN KMSN 101730Z 31014G20KT 10SM CLR 13/M02 A3002 780 35 700 310/14G20 RMK AO2
14837KMSN MSN20011110113509911/10/01 11:35:31  5-MIN KMSN 101735Z 31013G20KT 10SM CLR 13/M02 A3002 770 36 700 310/13G20 RMK AO2
14837KMSN MSN20011110114009911/10/01 11:40:31  5-MIN KMSN 101740Z 31014G19KT 10SM CLR 13/M02 A3002 770 36 700 310/14G19 RMK AO2
14837KMSN MSN20011110114509911/10/01 11:45:31  5-MIN KMSN 101745Z 32013G19KT 10SM CLR 13/M02 A3002 770 36 700 320/13G19 RMK AO2
14837KMSN MSN20011110115013411/10/01 11:50:31  5-MIN KMSN 101750Z 32013G17KT 10SM CLR 13/M02 A3002 770 36 700 320/13G17 RMK AO2 SLP168 T01281017 10133 20044 53012
14837KMSN MSN20011110115509911/10/01 11:55:31  5-MIN KMSN 101755Z 34011G17KT 10SM CLR 13/M02 A3002 770 36 700 340/11G17 RMK AO2
14837KMSN MSN20011110120009911/10/01 12:00:31  5-MIN KMSN 101800Z 33015G20KT 10SM CLR 13/M02 A3003 770 35 800 330/15G20 RMK AO2
14837KMSN MSN20011110120509911/10/01 12:05:31  5-MIN KMSN 101805Z 34012G20KT 10SM CLR 13/M02 A3003 760 36 700 340/12G20 RMK AO2
14837KMSN MSN20011110121009311/10/01 12:10:31  5-MIN KMSN 101810Z 34011KT 10SM CLR 13/M02 A3003 760 36 700 340/11 RMK AO2
14837KMSN MSN20011110121509911/10/01 12:15:31  5-MIN KMSN 101815Z 34012G18KT 10SM CLR 13/M02 A3004 760 36 700 340/12G18 RMK AO2
14837KMSN MSN20011110122009911/10/01 12:20:31  5-MIN KMSN 101820Z 32012G19KT 10SM CLR 13/M01 A3004 760 38 700 310/12G19 RMK AO2
14837KMSN MSN20011110122509911/10/01 12:25:31  5-MIN KMSN 101825Z 31011G19KT 10SM CLR 13/M01 A3004 750 38 700 310/11G19 RMK AO2
14837KMSN MSN20011110123009911/10/01 12:30:31  5-MIN KMSN 101830Z 31012G17KT 10SM CLR 13/M01 A3004 750 38 700 310/12G17 RMK AO2
14837KMSN MSN20011110123509311/10/01 12:35:31  5-MIN KMSN 101835Z 32011KT 10SM CLR 13/M01 A3004 750 38 700 320/11 RMK AO2
14837KMSN MSN20011110124009311/10/01 12:40:31  5-MIN KMSN 101840Z 30012KT 10SM CLR 13/M01 A3003 760 38 700 300/12 RMK AO2
14837KMSN MSN20011110124510911/10/01 12:45:31  5-MIN KMSN 101845Z 33010KT 280V340 10SM CLR 13/M01 A3004 760 36 800 330/10 280V340 RMK AO2
14837KMSN MSN20011110125011011/10/01 12:50:31  5-MIN KMSN 101850Z 30010KT 10SM CLR 13/M01 A3004 750 38 700 300/10 RMK AO2 SLP175 T01281011
14837KMSN MSN20011110125509311/10/01 12:55:31  5-MIN KMSN 101855Z 32009KT 10SM CLR 13/M01 A3004 750 38 700 320/09 RMK AO2
14837KMSN MSN20011110130009911/10/01 13:00:31  5-MIN KMSN 101900Z 35011G17KT 10SM CLR 13/M01 A3004 750 36 800 350/11G17 RMK AO2
14837KMSN MSN20011110130509911/10/01 13:05:31  5-MIN KMSN 101905Z 32010G17KT 10SM CLR 13/M01 A3004 750 38 800 320/10G17 RMK AO2
14837KMSN MSN20011110131009911/10/01 13:10:31  5-MIN KMSN 101910Z 32011G14KT 10SM CLR 13/M01 A3004 750 36 800 320/11G14 RMK AO2
14837KMSN MSN20011110131509911/10/01 13:15:31  5-MIN KMSN 101915Z 32010G17KT 10SM CLR 13/M01 A3005 750 38 700 320/10G17 RMK AO2
14837KMSN MSN20011110132009911/10/01 13:20:31  5-MIN KMSN 101920Z 31012G17KT 10SM CLR 13/M01 A3004 750 36 800 310/12G17 RMK AO2
14837KMSN MSN20011110132509911/10/01 13:25:31  5-MIN KMSN 101925Z 31010G16KT 10SM CLR 13/M01 A3004 750 36 800 310/10G16 RMK AO2
14837KMSN MSN20011110133009311/10/01 13:30:31  5-MIN KMSN 101930Z 34009KT 10SM CLR 13/M01 A3005 750 38 800 340/09 RMK AO2
14837KMSN MSN20011110133509311/10/01 13:35:31  5-MIN KMSN 101935Z 33011KT 10SM CLR 13/M01 A3005 750 36 800 330/11 RMK AO2
14837KMSN MSN20011110134009311/10/01 13:40:31  5-MIN KMSN 101940Z 33011KT 10SM CLR 13/M01 A3005 750 36 800 330/11 RMK AO2
14837KMSN MSN20011110134509311/10/01 13:45:31  5-MIN KMSN 101945Z 34012KT 10SM CLR 13/M02 A3005 740 35 800 340/12 RMK AO2
14837KMSN MSN20011110135011011/10/01 13:50:31  5-MIN KMSN 101950Z 32012KT 10SM CLR 13/M02 A3005 740 35 800 320/12 RMK AO2 SLP180 T01331017
14837KMSN MSN20011110135511511/10/01 13:55:31  5-MIN KMSN 101955Z 33008G17KT 300V010 10SM CLR 14/M02 A3006 740 34 800 330/08G17 300V010 RMK AO2
14837KMSN MSN20011110140009911/10/01 14:00:31  5-MIN KMSN 102000Z 33012G16KT 10SM CLR 13/M02 A3006 740 35 800 330/12G16 RMK AO2
14837KMSN MSN20011110140509311/10/01 14:05:31  5-MIN KMSN 102005Z 33012KT 10SM CLR 13/M02 A3006 740 35 800 330/12 RMK AO2
14837KMSN MSN20011110141009311/10/01 14:10:31  5-MIN KMSN 102010Z 34009KT 10SM CLR 13/M02 A3006 740 35 800 340/09 RMK AO2
14837KMSN MSN20011110141509911/10/01 14:15:31  5-MIN KMSN 102015Z 32009G17KT 10SM CLR 14/M02 A3006 730 34 800 320/09G17 RMK AO2
14837KMSN MSN20011110142009911/10/01 14:20:31  5-MIN KMSN 102020Z 33010G17KT 10SM CLR 13/M02 A3006 730 35 700 320/10G17 RMK AO2
14837KMSN MSN20011110142509911/10/01 14:25:31  5-MIN KMSN 102025Z 33011G17KT 10SM CLR 13/M02 A3006 730 35 700 330/11G17 RMK AO2
14837KMSN MSN20011110143009911/10/01 14:30:31  5-MIN KMSN 102030Z 34012G17KT 10SM CLR 13/M02 A3007 730 35 700 340/12G17 RMK AO2
14837KMSN MSN20011110143509911/10/01 14:35:31  5-MIN KMSN 102035Z 35009G17KT 10SM CLR 13/M02 A3007 730 35 700 350/09G17 RMK AO2
14837KMSN MSN20011110144009311/10/01 14:40:31  5-MIN KMSN 102040Z 33011KT 10SM CLR 13/M02 A3007 720 35 700 330/11 RMK AO2
14837KMSN MSN20011110144510911/10/01 14:45:31  5-MIN KMSN 102045Z 32010KT 290V350 10SM CLR 13/M02 A3008 720 35 700 320/10 290V350 RMK AO2
14837KMSN MSN20011110145011611/10/01 14:50:31  5-MIN KMSN 102050Z 34011KT 10SM CLR 13/M02 A3008 720 35 700 340/11 RMK AO2 SLP187 T01331017 51014
14837KMSN MSN20011110145509311/10/01 14:55:31  5-MIN KMSN 102055Z 35010KT 10SM CLR 13/M02 A3008 720 35 700 350/10 RMK AO2
14837KMSN MSN20011110150009311/10/01 15:00:31  5-MIN KMSN 102100Z 34011KT 10SM CLR 13/M02 A3008 720 35 700 340/11 RMK AO2
14837KMSN MSN20011110150509311/10/01 15:05:31  5-MIN KMSN 102105Z 35009KT 10SM CLR 13/M01 A3008 710 36 700 350/09 RMK AO2
14837KMSN MSN20011110151009311/10/01 15:10:31  5-MIN KMSN 102110Z 35011KT 10SM CLR 13/M01 A3009 710 36 700 350/11 RMK AO2
14837KMSN MSN20011110151509311/10/01 15:15:31  5-MIN KMSN 102115Z 36011KT 10SM CLR 13/M01 A3009 710 38 600 360/11 RMK AO2
14837KMSN MSN20011110152009911/10/01 15:20:31  5-MIN KMSN 102120Z 35010G16KT 10SM CLR 13/M01 A3010 700 38 600 350/10G16 RMK AO2
14837KMSN MSN20011110152509311/10/01 15:25:31  5-MIN KMSN 102125Z 36011KT 10SM CLR 13/M01 A3010 700 38 600 350/11 RMK AO2
14837KMSN MSN20011110153009911/10/01 15:30:31  5-MIN KMSN 102130Z 35008G15KT 10SM CLR 12/M01 A3010 700 39 600 350/08G15 RMK AO2
14837KMSN MSN20011110153509311/10/01 15:35:31  5-MIN KMSN 102135Z 35010KT 10SM CLR 12/M01 A3010 690 41 600 350/10 RMK AO2
14837KMSN MSN20011110154009311/10/01 15:40:31  5-MIN KMSN 102140Z 34010KT 10SM CLR 12/M01 A3011 690 41 600 340/10 RMK AO2
14837KMSN MSN20011110154509311/10/01 15:45:31  5-MIN KMSN 102145Z 34009KT 10SM CLR 12/M01 A3011 690 39 600 340/09 RMK AO2
14837KMSN MSN20011110155011011/10/01 15:50:31  5-MIN KMSN 102150Z 34009KT 10SM CLR 12/M01 A3011 690 41 600 340/09 RMK AO2 SLP201 T01221006
14837KMSN MSN20011110155509311/10/01 15:55:31  5-MIN KMSN 102155Z 34009KT 10SM CLR 12/M01 A3012 680 39 600 340/09 RMK AO2
14837KMSN MSN20011110160009311/10/01 16:00:31  5-MIN KMSN 102200Z 34007KT 10SM CLR 12/M01 A3012 680 42 500 340/07 RMK AO2
14837KMSN MSN20011110160509311/10/01 16:05:31  5-MIN KMSN 102205Z 34007KT 10SM CLR 12/M01 A3012 680 42 500 340/07 RMK AO2
14837KMSN MSN20011110161009311/10/01 16:10:31  5-MIN KMSN 102210Z 34006KT 10SM CLR 11/M01 A3012 680 44 400 340/06 RMK AO2
14837KMSN MSN20011110161509311/10/01 16:15:31  5-MIN KMSN 102215Z 34006KT 10SM CLR 11/M01 A3013 670 44 400 340/06 RMK AO2
14837KMSN MSN20011110162009311/10/01 16:20:31  5-MIN KMSN 102220Z 34005KT 10SM CLR 11/M01 A3013 670 46 300 340/05 RMK AO2
14837KMSN MSN20011110162509311/10/01 16:25:31  5-MIN KMSN 102225Z 34006KT 10SM CLR 11/M01 A3013 670 46 300 340/06 RMK AO2
14837KMSN MSN20011110163009311/10/01 16:30:31  5-MIN KMSN 102230Z 34005KT 10SM CLR 11/M01 A3014 660 46 300 340/05 RMK AO2
14837KMSN MSN20011110163509311/10/01 16:35:31  5-MIN KMSN 102235Z 33006KT 10SM CLR 11/M01 A3014 660 46 300 330/06 RMK AO2
14837KMSN MSN20011110164009311/10/01 16:40:31  5-MIN KMSN 102240Z 33005KT 10SM CLR 10/M01 A3015 660 47 300 330/05 RMK AO2
14837KMSN MSN20011110164509311/10/01 16:45:31  5-MIN KMSN 102245Z 34006KT 10SM CLR 10/M01 A3015 650 47 300 340/06 RMK AO2
14837KMSN MSN20011110165011311/10/01 16:50:31  5-MIN KMSN 102250Z 34006KT 10SM FEW095 10/M01 A3015 650 47 300 340/06 RMK AO2 SLP214 T01001006
14837KMSN MSN20011110165509311/10/01 16:55:31  5-MIN KMSN 102255Z 35006KT 10SM CLR 09/M01 A3015 650 49 200 350/06 RMK AO2
14837KMSN MSN20011110170009311/10/01 17:00:31  5-MIN KMSN 102300Z 35006KT 10SM CLR 09/M01 A3016 650 49 200 350/06 RMK AO2
14837KMSN MSN20011110170509111/10/01 17:05:31  5-MIN KMSN 102305Z 36006KT 10SM CLR 08/M01 A3016 640 53 0 350/06 RMK AO2
14837KMSN MSN20011110171009111/10/01 17:10:31  5-MIN KMSN 102310Z 34005KT 10SM CLR 08/M01 A3016 640 53 0 340/05 RMK AO2
14837KMSN MSN20011110171509311/10/01 17:15:31  5-MIN KMSN 102315Z 35005KT 10SM CLR 09/M01 A3017 640 49 200 350/05 RMK AO2
14837KMSN MSN20011110172009111/10/01 17:20:31  5-MIN KMSN 102320Z 36006KT 10SM CLR 08/M01 A3017 630 55 0 360/06 RMK AO2
14837KMSN MSN20011110172509411/10/01 17:25:31  5-MIN KMSN 102325Z 36006KT 10SM CLR 07/M01 A3018 630 57 -100 360/06 RMK AO2
14837KMSN MSN20011110173009411/10/01 17:30:31  5-MIN KMSN 102330Z 01008KT 10SM CLR 07/M01 A3018 630 57 -100 010/08 RMK AO2
14837KMSN MSN20011110173509311/10/01 17:35:31  5-MIN KMSN 102335Z 01009KT 10SM CLR 06/00 A3018 620 65 -200 010/09 RMK AO2
14837KMSN MSN20011110174009311/10/01 17:40:31  5-MIN KMSN 102340Z 01009KT 10SM CLR 06/00 A3019 620 65 -200 010/09 RMK AO2
14837KMSN MSN20011110174509311/10/01 17:45:31  5-MIN KMSN 102345Z 02007KT 10SM CLR 06/01 A3019 610 70 -300 020/07 RMK AO2
14837KMSN MSN20011110175012811/10/01 17:50:31  5-MIN KMSN 102350Z 01006KT 10SM CLR 06/01 A3019 610 70 -300 010/06 RMK AO2 SLP231 T00560006 10139 20056 53018
14837KMSN MSN20011110175509311/10/01 17:55:31  5-MIN KMSN 102355Z 02007KT 10SM CLR 06/01 A3020 610 70 -300 020/07 RMK AO2
14837KMSN MSN20011110180009311/10/01 18:00:31  5-MIN KMSN 110000Z 02009KT 10SM CLR 06/01 A3020 610 67 -200 020/09 RMK AO2
14837KMSN MSN20011110180509311/10/01 18:05:31  5-MIN KMSN 110005Z 02008KT 10SM CLR 07/01 A3020 600 67 -200 020/08 RMK AO2
14837KMSN MSN20011110181009311/10/01 18:10:31  5-MIN KMSN 110010Z 02008KT 10SM CLR 07/01 A3021 600 67 -200 020/08 RMK AO2
14837KMSN MSN20011110181509311/10/01 18:15:31  5-MIN KMSN 110015Z 03008KT 10SM CLR 06/01 A3021 600 70 -200 030/08 RMK AO2
14837KMSN MSN20011110182009311/10/01 18:20:31  5-MIN KMSN 110020Z 03006KT 10SM CLR 05/01 A3021 600 73 -400 020/06 RMK AO2
14837KMSN MSN20011110182509311/10/01 18:25:31  5-MIN KMSN 110025Z 01005KT 10SM CLR 05/01 A3021 590 73 -400 010/05 RMK AO2
14837KMSN MSN20011110183009311/10/01 18:30:31  5-MIN KMSN 110030Z 01005KT 10SM CLR 06/01 A3022 590 70 -300 010/05 RMK AO2
14837KMSN MSN20011110183509311/10/01 18:35:31  5-MIN KMSN 110035Z 01004KT 10SM CLR 06/01 A3022 590 70 -300 010/04 RMK AO2
14837KMSN MSN20011110184009311/10/01 18:40:31  5-MIN KMSN 110040Z 01004KT 10SM CLR 06/01 A3022 590 70 -300 010/04 RMK AO2
14837KMSN MSN20011110184509311/10/01 18:45:31  5-MIN KMSN 110045Z 02004KT 10SM CLR 06/01 A3022 590 67 -300 020/04 RMK AO2
14837KMSN MSN20011110185011011/10/01 18:50:31  5-MIN KMSN 110050Z 02004KT 10SM CLR 06/01 A3022 590 70 -300 020/04 RMK AO2 SLP241 T00560006
14837KMSN MSN20011110185509311/10/01 18:55:31  5-MIN KMSN 110055Z 02004KT 10SM CLR 05/01 A3023 580 73 -400 020/04 RMK AO2
14837KMSN MSN20011110190009311/10/01 19:00:31  5-MIN KMSN 110100Z 04005KT 10SM CLR 05/01 A3023 580 73 -400 030/05 RMK AO2
14837KMSN MSN20011110190509311/10/01 19:05:31  5-MIN KMSN 110105Z 02004KT 10SM CLR 04/01 A3023 580 76 -500 020/04 RMK AO2
14837KMSN MSN20011110191009311/10/01 19:10:31  5-MIN KMSN 110110Z 36004KT 10SM CLR 05/01 A3023 580 73 -400 360/04 RMK AO2
14837KMSN MSN20011110191509311/10/01 19:15:31  5-MIN KMSN 110115Z 36003KT 10SM CLR 05/01 A3023 580 73 -400 360/03 RMK AO2
14837KMSN MSN20011110192009311/10/01 19:20:31  5-MIN KMSN 110120Z 00000KT 10SM CLR 05/01 A3024 570 73 -400 000/00 RMK AO2
14837KMSN MSN20011110192509311/10/01 19:25:31  5-MIN KMSN 110125Z 35003KT 10SM CLR 04/00 A3024 570 73 -500 350/03 RMK AO2
14837KMSN MSN20011110193009311/10/01 19:30:31  5-MIN KMSN 110130Z 36003KT 10SM CLR 04/01 A3024 570 76 -500 350/03 RMK AO2
14837KMSN MSN20011110193509311/10/01 19:35:31  5-MIN KMSN 110135Z VRB04KT 10SM CLR 04/01 A3024 570 76 -500 VRB/04 RMK AO2
14837KMSN MSN20011110194009311/10/01 19:40:31  5-MIN KMSN 110140Z 33004KT 10SM CLR 04/00 A3025 560 76 -600 330/04 RMK AO2
14837KMSN MSN20011110194509311/10/01 19:45:31  5-MIN KMSN 110145Z 34004KT 10SM CLR 04/00 A3025 560 76 -600 340/04 RMK AO2
14837KMSN MSN20011110195011011/10/01 19:50:31  5-MIN KMSN 110150Z 33003KT 10SM CLR 04/00 A3025 560 76 -600 330/03 RMK AO2 SLP250 T00390000
14837KMSN MSN20011110195509311/10/01 19:55:31  5-MIN KMSN 110155Z 33004KT 10SM CLR 04/00 A3025 560 76 -600 330/04 RMK AO2
14837KMSN MSN20011110200009311/10/01 20:00:31  5-MIN KMSN 110200Z 33004KT 10SM CLR 04/00 A3025 560 76 -600 330/04 RMK AO2
14837KMSN MSN20011110200509311/10/01 20:05:31  5-MIN KMSN 110205Z 33004KT 10SM CLR 03/00 A3026 550 82 -700 330/04 RMK AO2
14837KMSN MSN20011110201009311/10/01 20:10:31  5-MIN KMSN 110210Z 34004KT 10SM CLR 04/00 A3026 550 76 -600 340/04 RMK AO2
14837KMSN MSN20011110201509311/10/01 20:15:31  5-MIN KMSN 110215Z 34004KT 10SM CLR 04/00 A3026 550 76 -600 340/04 RMK AO2
14837KMSN MSN20011110202009311/10/01 20:20:31  5-MIN KMSN 110220Z 34005KT 10SM CLR 03/00 A3026 550 79 -600 340/05 RMK AO2
14837KMSN MSN20011110202509311/10/01 20:25:31  5-MIN KMSN 110225Z 33004KT 10SM CLR 04/00 A3026 550 76 -600 330/04 RMK AO2
14837KMSN MSN20011110203009311/10/01 20:30:31  5-MIN KMSN 110230Z 33004KT 10SM CLR 04/00 A3026 550 76 -600 330/04 RMK AO2
14837KMSN MSN20011110203509311/10/01 20:35:31  5-MIN KMSN 110235Z 34004KT 10SM CLR 04/00 A3026 550 76 -600 340/04 RMK AO2
14837KMSN MSN20011110204009411/10/01 20:40:31  5-MIN KMSN 110240Z 33004KT 10SM CLR 03/M01 A3027 550 76 -600 330/04 RMK AO2
14837KMSN MSN20011110204509411/10/01 20:45:31  5-MIN KMSN 110245Z 34004KT 10SM CLR 03/M01 A3027 540 76 -700 340/04 RMK AO2
14837KMSN MSN20011110205011711/10/01 20:50:31  5-MIN KMSN 110250Z 34004KT 10SM CLR 03/M01 A3027 540 76 -700 340/04 RMK AO2 SLP257 T00331006 53040
14837KMSN MSN20011110205509411/10/01 20:55:31  5-MIN KMSN 110255Z 35004KT 10SM CLR 04/M01 A3027 540 73 -600 350/04 RMK AO2
14837KMSN MSN20011110210009411/10/01 21:00:31  5-MIN KMSN 110300Z 34004KT 10SM CLR 03/M01 A3027 540 76 -700 340/04 RMK AO2
14837KMSN MSN20011110210509411/10/01 21:05:31  5-MIN KMSN 110305Z 34004KT 10SM CLR 03/M01 A3028 540 76 -700 330/04 RMK AO2
14837KMSN MSN20011110211009411/10/01 21:10:31  5-MIN KMSN 110310Z 34004KT 10SM CLR 03/M01 A3028 530 72 -700 340/04 RMK AO2
14837KMSN MSN20011110211509411/10/01 21:15:31  5-MIN KMSN 110315Z 34004KT 10SM CLR 03/M01 A3028 530 72 -700 340/04 RMK AO2
14837KMSN MSN20011110212009411/10/01 21:20:31  5-MIN KMSN 110320Z 35003KT 10SM CLR 03/M01 A3028 530 72 -700 350/03 RMK AO2
14837KMSN MSN20011110212509411/10/01 21:25:31  5-MIN KMSN 110325Z 34004KT 10SM CLR 03/M01 A3028 530 75 -700 340/04 RMK AO2
14837KMSN MSN20011110213009411/10/01 21:30:31  5-MIN KMSN 110330Z 33004KT 10SM CLR 02/M01 A3028 530 78 -800 330/04 RMK AO2
14837KMSN MSN20011110213509411/10/01 21:35:31  5-MIN KMSN 110335Z 33004KT 10SM CLR 02/M01 A3028 530 78 -800 330/04 RMK AO2
14837KMSN MSN20011110214009411/10/01 21:40:31  5-MIN KMSN 110340Z 34004KT 10SM CLR 03/M01 A3028 530 75 -700 340/04 RMK AO2
14837KMSN MSN20011110214509411/10/01 21:45:31  5-MIN KMSN 110345Z 35004KT 10SM CLR 03/M01 A3028 530 72 -700 350/04 RMK AO2
14837KMSN MSN20011110215011111/10/01 21:50:31  5-MIN KMSN 110350Z 36003KT 10SM CLR 03/M01 A3028 530 72 -700 360/03 RMK AO2 SLP261 T00331011
14837KMSN MSN20011110215509411/10/01 21:55:31  5-MIN KMSN 110355Z 36003KT 10SM CLR 03/M01 A3028 530 75 -700 360/03 RMK AO2
14837KMSN MSN20011110220009411/10/01 22:00:31  5-MIN KMSN 110400Z 00000KT 10SM CLR 02/M02 A3029 530 78 -900 000/00 RMK AO2
14837KMSN MSN20011110220509411/10/01 22:05:31  5-MIN KMSN 110405Z 36003KT 10SM CLR 02/M02 A3029 530 78 -900 350/03 RMK AO2
14837KMSN MSN20011110221009411/10/01 22:10:31  5-MIN KMSN 110410Z 35003KT 10SM CLR 02/M01 A3029 520 82 -900 350/03 RMK AO2
14837KMSN MSN20011110221509511/10/01 22:15:31  5-MIN KMSN 110415Z 32003KT 10SM CLR 01/M02 A3029 520 85 -1000 320/03 RMK AO2
14837KMSN MSN20011110222009511/10/01 22:20:31  5-MIN KMSN 110420Z 31003KT 10SM CLR 01/M02 A3030 520 85 -1000 310/03 RMK AO2
14837KMSN MSN20011110222509511/10/01 22:25:31  5-MIN KMSN 110425Z 00000KT 10SM CLR 00/M02 A3030 520 85 -1100 000/00 RMK AO2
14837KMSN MSN20011110223009511/10/01 22:30:31  5-MIN KMSN 110430Z 00000KT 10SM CLR 01/M02 A3030 520 85 -1000 000/00 RMK AO2
14837KMSN MSN20011110223509511/10/01 22:35:31  5-MIN KMSN 110435Z 00000KT 10SM CLR 01/M02 A3030 520 85 -1000 000/00 RMK AO2
14837KMSN MSN20011110224009511/10/01 22:40:31  5-MIN KMSN 110440Z 33003KT 10SM CLR 00/M02 A3030 520 88 -1100 330/03 RMK AO2
14837KMSN MSN20011110224509511/10/01 22:45:31  5-MIN KMSN 110445Z 35004KT 10SM CLR 01/M02 A3030 520 85 -1000 340/04 RMK AO2
14837KMSN MSN20011110225011211/10/01 22:50:31  5-MIN KMSN 110450Z 36005KT 10SM CLR 01/M02 A3030 520 85 -1000 360/05 RMK AO2 SLP265 T00061017
14837KMSN MSN20011110225509511/10/01 22:55:31  5-MIN KMSN 110455Z 36004KT 10SM CLR 01/M02 A3030 520 82 -1000 360/04 RMK AO2
14837KMSN MSN20011110230009511/10/01 23:00:31  5-MIN KMSN 110500Z VRB03KT 10SM CLR 01/M02 A3030 520 82 -1000 VRB/03 RMK AO2
14837KMSN MSN20011110230509411/10/01 23:05:31  5-MIN KMSN 110505Z 00000KT 10SM CLR 02/M02 A3030 510 78 -900 000/00 RMK AO2
14837KMSN MSN20011110231009511/10/01 23:10:31  5-MIN KMSN 110510Z 35003KT 10SM CLR 01/M02 A3030 510 82 -1000 350/03 RMK AO2
14837KMSN MSN20011110231509411/10/01 23:15:31  5-MIN KMSN 110515Z 35003KT 10SM CLR 02/M02 A3030 510 78 -900 350/03 RMK AO2
14837KMSN MSN20011110232009411/10/01 23:20:31  5-MIN KMSN 110520Z 33003KT 10SM CLR 02/M02 A3030 510 78 -900 330/03 RMK AO2
14837KMSN MSN20011110232509511/10/01 23:25:31  5-MIN KMSN 110525Z VRB03KT 10SM CLR 01/M02 A3031 510 82 -1000 VRB/03 RMK AO2
14837KMSN MSN20011110233009511/10/01 23:30:31  5-MIN KMSN 110530Z VRB03KT 10SM CLR 01/M02 A3031 510 82 -1000 VRB/03 RMK AO2
14837KMSN MSN20011110233509511/10/01 23:35:31  5-MIN KMSN 110535Z 32004KT 10SM CLR 01/M02 A3031 500 85 -1000 320/04 RMK AO2
14837KMSN MSN20011110234009511/10/01 23:40:31  5-MIN KMSN 110540Z 34005KT 10SM CLR 01/M02 A3031 510 82 -1000 340/05 RMK AO2
14837KMSN MSN20011110234509511/10/01 23:45:31  5-MIN KMSN 110545Z 34005KT 10SM CLR 01/M02 A3031 500 82 -1000 340/05 RMK AO2
14837KMSN MSN20011110235013911/10/01 23:50:31  5-MIN KMSN 110550Z 35005KT 10SM CLR 02/M02 A3031 500 78 -900 350/05 RMK AO2 SLP271 T00171017 10067 20000 401390000 51025
14837KMSN MSN20011110235509511/10/01 23:55:31  5-MIN KMSN 110555Z 35005KT 10SM CLR 01/M02 A3031 500 82 -1000 350/05 RMK AO2
14837KMSN MSN20011111000009511/11/01 00:00:31  5-MIN KMSN 110600Z 35005KT 10SM CLR 00/M02 A3032 500 85 -1100 340/05 RMK AO2
14837KMSN MSN20011111000509511/11/01 00:05:31  5-MIN KMSN 110605Z 34005KT 10SM CLR 00/M02 A3031 500 85 -1100 340/05 RMK AO2
14837KMSN MSN20011111001009511/11/01 00:10:31  5-MIN KMSN 110610Z 35005KT 10SM CLR 00/M02 A3031 500 85 -1100 350/05 RMK AO2
14837KMSN MSN20011111001509511/11/01 00:15:31  5-MIN KMSN 110615Z 35005KT 10SM CLR 01/M02 A3032 500 82 -1100 350/05 RMK AO2
14837KMSN MSN20011111002009511/11/01 00:20:31  5-MIN KMSN 110620Z VRB03KT 10SM CLR 01/M02 A3032 500 82 -1100 VRB/03 RMK AO2
14837KMSN MSN20011111002509511/11/01 00:25:31  5-MIN KMSN 110625Z 00000KT 10SM CLR 00/M02 A3032 500 85 -1100 000/00 RMK AO2
14837KMSN MSN20011111003009511/11/01 00:30:31  5-MIN KMSN 110630Z 35003KT 10SM CLR 00/M02 A3032 500 85 -1100 350/03 RMK AO2
14837KMSN MSN20011111003509511/11/01 00:35:31  5-MIN KMSN 110635Z 35004KT 10SM CLR 01/M02 A3032 500 85 -1100 350/04 RMK AO2
14837KMSN MSN20011111004009511/11/01 00:40:31  5-MIN KMSN 110640Z 35005KT 10SM CLR 01/M02 A3032 490 82 -1100 350/05 RMK AO2
14837KMSN MSN20011111004509511/11/01 00:45:31  5-MIN KMSN 110645Z VRB03KT 10SM CLR 01/M02 A3033 490 85 -1100 VRB/03 RMK AO2
14837KMSN MSN20011111005011211/11/01 00:50:31  5-MIN KMSN 110650Z 00000KT 10SM CLR 00/M02 A3033 490 85 -1100 000/00 RMK AO2 SLP275 T00001022
14837KMSN MSN20011111005509611/11/01 00:55:31  5-MIN KMSN 110655Z VRB03KT 10SM CLR M01/M02 A3032 490 88 -1200 VRB/03 RMK AO2
14837KMSN MSN20011111010009511/11/01 01:00:31  5-MIN KMSN 110700Z 00000KT 10SM CLR 00/M02 A3032 490 85 -1100 000/00 RMK AO2
14837KMSN MSN20011111010509511/11/01 01:05:31  5-MIN KMSN 110705Z 00000KT 10SM CLR 00/M02 A3033 490 85 -1100 000/00 RMK AO2
14837KMSN MSN20011111011009611/11/01 01:10:31  5-MIN KMSN 110710Z 00000KT 10SM CLR M01/M03 A3033 490 85 -1200 000/00 RMK AO2
14837KMSN MSN20011111011509611/11/01 01:15:31  5-MIN KMSN 110715Z 00000KT 10SM CLR M01/M02 A3033 490 88 -1200 000/00 RMK AO2
14837KMSN MSN20011111012009611/11/01 01:20:31  5-MIN KMSN 110720Z 00000KT 10SM CLR M01/M02 A3033 490 92 -1300 000/00 RMK AO2
14837KMSN MSN20011111012509611/11/01 01:25:31  5-MIN KMSN 110725Z 00000KT 10SM CLR M01/M03 A3033 490 88 -1300 000/00 RMK AO2
14837KMSN MSN20011111013009611/11/01 01:30:31  5-MIN KMSN 110730Z 00000KT 10SM CLR M01/M03 A3034 480 88 -1300 000/00 RMK AO2
14837KMSN MSN20011111013509611/11/01 01:35:31  5-MIN KMSN 110735Z 00000KT 10SM CLR M01/M03 A3033 480 88 -1300 000/00 RMK AO2
14837KMSN MSN20011111014009611/11/01 01:40:31  5-MIN KMSN 110740Z 00000KT 10SM CLR M01/M03 A3034 480 88 -1300 000/00 RMK AO2
14837KMSN MSN20011111014509911/11/01 01:45:31  5-MIN KMSN 110745Z 34003KT 10SM FEW120 M01/M02 A3034 480 92 -1300 340/03 RMK AO2
14837KMSN MSN20011111015011611/11/01 01:50:31  5-MIN KMSN 110750Z 34003KT 10SM FEW120 M01/M02 A3034 480 92 -1300 340/03 RMK AO2 SLP281 T10111022
14837KMSN MSN20011111015509911/11/01 01:55:31  5-MIN KMSN 110755Z 35003KT 10SM BKN120 M01/M02 A3035 470 92 -1300 350/03 RMK AO2
14837KMSN MSN20011111020009911/11/01 02:00:31  5-MIN KMSN 110800Z 35004KT 10SM SCT120 M01/M02 A3035 470 92 -1300 350/04 RMK AO2
14837KMSN MSN20011111020509911/11/01 02:05:31  5-MIN KMSN 110805Z 34004KT 10SM SCT120 M01/M02 A3035 470 92 -1300 340/04 RMK AO2
14837KMSN MSN20011111021009911/11/01 02:10:31  5-MIN KMSN 110810Z 34003KT 10SM SCT120 M01/M02 A3035 470 92 -1300 340/03 RMK AO2
14837KMSN MSN20011111021509911/11/01 02:15:31  5-MIN KMSN 110815Z 34003KT 10SM FEW120 M01/M02 A3035 470 92 -1300 340/03 RMK AO2
14837KMSN MSN20011111022009911/11/01 02:20:31  5-MIN KMSN 110820Z 35003KT 10SM FEW120 M01/M02 A3035 470 92 -1300 350/03 RMK AO2
14837KMSN MSN20011111022509911/11/01 02:25:31  5-MIN KMSN 110825Z 35003KT 10SM FEW120 M01/M02 A3035 470 92 -1200 350/03 RMK AO2
14837KMSN MSN20011111023009911/11/01 02:30:31  5-MIN KMSN 110830Z 34003KT 10SM FEW120 M01/M02 A3035 470 88 -1200 340/03 RMK AO2
14837KMSN MSN20011111023509911/11/01 02:35:31  5-MIN KMSN 110835Z 34003KT 10SM FEW120 M01/M02 A3035 470 92 -1300 340/03 RMK AO2
14837KMSN MSN20011111024009911/11/01 02:40:31  5-MIN KMSN 110840Z 33003KT 10SM FEW120 M02/M02 A3035 470 96 -1400 330/03 RMK AO2
14837KMSN MSN20011111024509911/11/01 02:45:31  5-MIN KMSN 110845Z 00000KT 10SM FEW120 M02/M03 A3035 470 92 -1400 000/00 RMK AO2
14837KMSN MSN20011111025012211/11/01 02:50:31  5-MIN KMSN 110850Z 00000KT 10SM FEW120 M02/M03 A3035 470 92 -1400 000/00 RMK AO2 SLP285 T10171028 53014
14837KMSN MSN20011111025509611/11/01 02:55:31  5-MIN KMSN 110855Z 00000KT 10SM CLR M02/M03 A3035 470 92 -1400 000/00 RMK AO2
14837KMSN MSN20011111030009611/11/01 03:00:31  5-MIN KMSN 110900Z 32003KT 10SM CLR M02/M03 A3036 460 96 -1400 320/03 RMK AO2
14837KMSN MSN20011111030509611/11/01 03:05:31  5-MIN KMSN 110905Z 32003KT 10SM CLR M02/M03 A3036 460 96 -1500 310/03 RMK AO2
14837KMSN MSN20011111031009611/11/01 03:10:31  5-MIN KMSN 110910Z 34003KT 10SM CLR M02/M03 A3036 460 92 -1400 340/03 RMK AO2
14837KMSN MSN20011111031509611/11/01 03:15:31  5-MIN KMSN 110915Z 00000KT 10SM CLR M02/M02 A3036 460 96 -1400 000/00 RMK AO2
14837KMSN MSN20011111032009611/11/01 03:20:31  5-MIN KMSN 110920Z 00000KT 10SM CLR M02/M03 A3036 460 92 -1400 000/00 RMK AO2
14837KMSN MSN20011111032509611/11/01 03:25:31  5-MIN KMSN 110925Z 00000KT 10SM CLR M02/M03 A3036 460 96 -1500 000/00 RMK AO2
14837KMSN MSN20011111033009611/11/01 03:30:31  5-MIN KMSN 110930Z 00000KT 10SM CLR M02/M03 A3036 460 92 -1500 000/00 RMK AO2
14837KMSN MSN20011111033509611/11/01 03:35:31  5-MIN KMSN 110935Z 00000KT 10SM CLR M02/M03 A3036 460 96 -1500 000/00 RMK AO2
14837KMSN MSN20011111034009611/11/01 03:40:31  5-MIN KMSN 110940Z 00000KT 10SM CLR M02/M03 A3036 460 96 -1500 000/00 RMK AO2
14837KMSN MSN20011111034509611/11/01 03:45:31  5-MIN KMSN 110945Z 00000KT 10SM CLR M02/M03 A3036 460 92 -1500 000/00 RMK AO2
14837KMSN MSN20011111035011311/11/01 03:50:31  5-MIN KMSN 110950Z 00000KT 10SM CLR M02/M03 A3037 450 92 -1400 000/00 RMK AO2 SLP290 T10171028
14837KMSN MSN20011111035509611/11/01 03:55:31  5-MIN KMSN 110955Z 00000KT 10SM CLR M02/M03 A3037 450 96 -1500 000/00 RMK AO2
14837KMSN MSN20011111040009611/11/01 04:00:31  5-MIN KMSN 111000Z 00000KT 10SM CLR M02/M03 A3037 450 96 -1500 000/00 RMK AO2
14837KMSN MSN20011111040509611/11/01 04:05:31  5-MIN KMSN 111005Z 00000KT 10SM CLR M02/M03 A3037 450 96 -1500 000/00 RMK AO2
14837KMSN MSN20011111041009611/11/01 04:10:31  5-MIN KMSN 111010Z 00000KT 10SM CLR M02/M03 A3037 450 96 -1500 000/00 RMK AO2
14837KMSN MSN20011111041509611/11/01 04:15:31  5-MIN KMSN 111015Z 01003KT 10SM CLR M02/M03 A3037 450 92 -1400 010/03 RMK AO2
14837KMSN MSN20011111042009611/11/01 04:20:31  5-MIN KMSN 111020Z 01003KT 10SM CLR M03/M03 A3037 450 96 -1500 010/03 RMK AO2
14837KMSN MSN20011111042509611/11/01 04:25:31  5-MIN KMSN 111025Z 00000KT 10SM CLR M03/M03 A3037 450 96 -1500 000/00 RMK AO2
14837KMSN MSN20011111043009611/11/01 04:30:31  5-MIN KMSN 111030Z 00000KT 10SM CLR M03/M03 A3037 450 96 -1500 000/00 RMK AO2
14837KMSN MSN20011111123509411/11/01 12:35:31  5-MIN KMSN 111835Z VRB06KT 10SM CLR 08/M01 A3039 440 53 -200 VRB/06 RMK AO2
14837KMSN MSN20011111124009411/11/01 12:40:31  5-MIN KMSN 111840Z 23006KT 10SM CLR 08/M01 A3038 440 53 -200 230/06 RMK AO2
14837KMSN MSN20011111124509411/11/01 12:45:31  5-MIN KMSN 111845Z 26006KT 10SM CLR 08/M01 A3038 440 53 -200 260/06 RMK AO2
14837KMSN MSN20011111125011111/11/01 12:50:31  5-MIN KMSN 111850Z VRB05KT 10SM CLR 08/M01 A3038 440 51 -200 VRB/05 RMK AO2 SLP295 T00831011
14837KMSN MSN20011111125509411/11/01 12:55:31  5-MIN KMSN 111855Z 00000KT 10SM CLR 08/M01 A3038 450 53 -200 000/00 RMK AO2
14837KMSN MSN20011111130009411/11/01 13:00:31  5-MIN KMSN 111900Z VRB03KT 10SM CLR 08/M01 A3038 450 51 -200 VRB/03 RMK AO2
14837KMSN MSN20011111130509411/11/01 13:05:31  5-MIN KMSN 111905Z VRB03KT 10SM CLR 08/M01 A3038 450 53 -200 VRB/03 RMK AO2
14837KMSN MSN20011111131009411/11/01 13:10:31  5-MIN KMSN 111910Z VRB04KT 10SM CLR 08/M01 A3038 440 51 -200 VRB/04 RMK AO2
14837KMSN MSN20011111131509411/11/01 13:15:31  5-MIN KMSN 111915Z 00000KT 10SM CLR 08/M01 A3037 450 53 -200 000/00 RMK AO2
14837KMSN MSN20011111132009411/11/01 13:20:31  5-MIN KMSN 111920Z 21005KT 10SM CLR 08/M01 A3037 450 51 -200 210/05 RMK AO2
14837KMSN MSN20011111132509411/11/01 13:25:31  5-MIN KMSN 111925Z 25005KT 10SM CLR 08/M01 A3037 450 53 -200 240/05 RMK AO2
14837KMSN MSN20011111133009411/11/01 13:30:31  5-MIN KMSN 111930Z 00000KT 10SM CLR 08/M01 A3037 450 51 -200 000/00 RMK AO2
14837KMSN MSN20011111133509411/11/01 13:35:31  5-MIN KMSN 111935Z 18004KT 10SM CLR 09/M01 A3037 450 51 -100 180/04 RMK AO2
14837KMSN MSN20011111134009411/11/01 13:40:31  5-MIN KMSN 111940Z 20003KT 10SM CLR 09/M01 A3037 450 51 -100 200/03 RMK AO2
14837KMSN MSN20011111134509411/11/01 13:45:31  5-MIN KMSN 111945Z 21004KT 10SM CLR 09/M01 A3036 460 51 -100 210/04 RMK AO2
14837KMSN MSN20011111135011111/11/01 13:50:31  5-MIN KMSN 111950Z 00000KT 10SM CLR 09/M01 A3036 460 51 -100 000/00 RMK AO2 SLP290 T00891006
14837KMSN MSN20011111135509411/11/01 13:55:31  5-MIN KMSN 111955Z 00000KT 10SM CLR 09/M01 A3036 460 51 -100 000/00 RMK AO2
14837KMSN MSN20011111140009411/11/01 14:00:31  5-MIN KMSN 112000Z 19004KT 10SM CLR 09/M01 A3036 460 51 -100 180/04 RMK AO2
14837KMSN MSN20011111140509411/11/01 14:05:31  5-MIN KMSN 112005Z 20005KT 10SM CLR 09/M01 A3036 460 51 -100 200/05 RMK AO2
14837KMSN MSN20011111141009311/11/01 14:10:31  5-MIN KMSN 112010Z 19003KT 10SM CLR 09/00 A3036 460 53 -100 190/03 RMK AO2
14837KMSN MSN20011111141509411/11/01 14:15:31  5-MIN KMSN 112015Z VRB04KT 10SM CLR 09/M01 A3036 460 51 -100 VRB/04 RMK AO2
14837KMSN MSN20011111142009011/11/01 14:20:31  5-MIN KMSN 112020Z 21004KT 10SM CLR 09/00 A3036 460 51 0 210/04 RMK AO2
14837KMSN MSN20011111142509411/11/01 14:25:31  5-MIN KMSN 112025Z 20005KT 10SM CLR 09/M01 A3036 460 51 -100 190/05 RMK AO2
14837KMSN MSN20011111143009411/11/01 14:30:31  5-MIN KMSN 112030Z VRB04KT 10SM CLR 09/M01 A3036 460 51 -100 VRB/04 RMK AO2
14837KMSN MSN20011111143509411/11/01 14:35:31  5-MIN KMSN 112035Z 20006KT 10SM CLR 09/M01 A3036 460 51 -100 200/06 RMK AO2
14837KMSN MSN20011111144009411/11/01 14:40:31  5-MIN KMSN 112040Z VRB05KT 10SM CLR 09/M01 A3036 460 51 -100 VRB/05 RMK AO2
14837KMSN MSN20011111144509411/11/01 14:45:31  5-MIN KMSN 112045Z 21004KT 10SM CLR 09/M01 A3036 460 51 -100 210/04 RMK AO2
14837KMSN MSN20011111145011711/11/01 14:50:31  5-MIN KMSN 112050Z 24005KT 10SM CLR 09/M01 A3036 460 51 -100 240/05 RMK AO2 SLP289 T00891006 58012
14837KMSN MSN20011111145509111/11/01 14:55:31  5-MIN KMSN 112055Z 23004KT 10SM CLR 09/M01 A3036 460 49 0 230/04 RMK AO2
14837KMSN MSN20011111150009111/11/01 15:00:31  5-MIN KMSN 112100Z 20004KT 10SM CLR 09/M01 A3036 460 49 0 200/04 RMK AO2
14837KMSN MSN20011111150509111/11/01 15:05:31  5-MIN KMSN 112105Z 21005KT 10SM CLR 09/M01 A3036 460 49 0 210/05 RMK AO2
14837KMSN MSN20011111151009411/11/01 15:10:31  5-MIN KMSN 112110Z 19005KT 10SM CLR 09/M01 A3036 460 51 -100 190/05 RMK AO2
14837KMSN MSN20011111151509411/11/01 15:15:31  5-MIN KMSN 112115Z 19005KT 10SM CLR 09/M01 A3036 460 51 -100 190/05 RMK AO2
14837KMSN MSN20011111152009311/11/01 15:20:31  5-MIN KMSN 112120Z VRB04KT 10SM CLR 09/00 A3036 460 53 -100 VRB/04 RMK AO2
14837KMSN MSN20011111152509311/11/01 15:25:31  5-MIN KMSN 112125Z 21005KT 10SM CLR 09/00 A3036 460 53 -100 200/05 RMK AO2
14837KMSN MSN20011111153009411/11/01 15:30:31  5-MIN KMSN 112130Z 23003KT 10SM CLR 09/M01 A3036 460 51 -100 230/03 RMK AO2
14837KMSN MSN20011111153509311/11/01 15:35:31  5-MIN KMSN 112135Z 20004KT 10SM CLR 09/00 A3036 460 53 -100 190/04 RMK AO2
14837KMSN MSN20011111154009411/11/01 15:40:31  5-MIN KMSN 112140Z 20005KT 10SM CLR 09/M01 A3036 460 51 -100 200/05 RMK AO2
14837KMSN MSN20011111154509411/11/01 15:45:31  5-MIN KMSN 112145Z 19005KT 10SM CLR 09/M01 A3036 460 51 -100 190/05 RMK AO2
14837KMSN MSN20011111155011011/11/01 15:50:31  5-MIN KMSN 112150Z 19005KT 10SM CLR 09/00 A3036 460 53 -100 190/05 RMK AO2 SLP289 T00890000
14837KMSN MSN20011111155509311/11/01 15:55:31  5-MIN KMSN 112155Z 21004KT 10SM CLR 09/00 A3036 460 53 -100 210/04 RMK AO2
14837KMSN MSN20011111160009411/11/01 16:00:31  5-MIN KMSN 112200Z 20004KT 10SM CLR 09/M01 A3036 460 51 -100 200/04 RMK AO2
14837KMSN MSN20011111160509311/11/01 16:05:31  5-MIN KMSN 112205Z 20004KT 10SM CLR 09/00 A3036 460 53 -100 200/04 RMK AO2
14837KMSN MSN20011111161009311/11/01 16:10:31  5-MIN KMSN 112210Z 20003KT 10SM CLR 09/00 A3036 460 53 -100 200/03 RMK AO2
14837KMSN MSN20011111161509311/11/01 16:15:31  5-MIN KMSN 112215Z 00000KT 10SM CLR 08/00 A3036 460 55 -100 000/00 RMK AO2
14837KMSN MSN20011111162009311/11/01 16:20:31  5-MIN KMSN 112220Z 00000KT 10SM CLR 08/00 A3036 460 55 -100 000/00 RMK AO2
14837KMSN MSN20011111162509311/11/01 16:25:31  5-MIN KMSN 112225Z 00000KT 10SM CLR 08/00 A3036 460 58 -200 000/00 RMK AO2
14837KMSN MSN20011111163009311/11/01 16:30:31  5-MIN KMSN 112230Z 21003KT 10SM CLR 08/00 A3036 460 58 -200 210/03 RMK AO2
14837KMSN MSN20011111163509311/11/01 16:35:31  5-MIN KMSN 112235Z 19003KT 10SM CLR 08/00 A3036 460 55 -100 190/03 RMK AO2
14837KMSN MSN20011111164009311/11/01 16:40:31  5-MIN KMSN 112240Z 00000KT 10SM CLR 07/00 A3036 460 60 -300 000/00 RMK AO2
14837KMSN MSN20011111164509311/11/01 16:45:31  5-MIN KMSN 112245Z 00000KT 10SM CLR 08/00 A3037 450 58 -200 000/00 RMK AO2
14837KMSN MSN20011111165011011/11/01 16:50:31  5-MIN KMSN 112250Z 00000KT 10SM CLR 08/00 A3037 450 58 -200 000/00 RMK AO2 SLP292 T00780000
14837KMSN MSN20011111165509311/11/01 16:55:31  5-MIN KMSN 112255Z 20003KT 10SM CLR 07/00 A3037 450 60 -300 200/03 RMK AO2
14837KMSN MSN20011111170009311/11/01 17:00:31  5-MIN KMSN 112300Z 00000KT 10SM CLR 07/00 A3037 450 60 -300 000/00 RMK AO2
14837KMSN MSN20011111170509411/11/01 17:05:31  5-MIN KMSN 112305Z 00000KT 10SM CLR 06/M01 A3037 450 62 -400 000/00 RMK AO2
14837KMSN MSN20011111171009311/11/01 17:10:31  5-MIN KMSN 112310Z 00000KT 10SM CLR 06/00 A3037 450 65 -400 000/00 RMK AO2
14837KMSN MSN20011111171509311/11/01 17:15:31  5-MIN KMSN 112315Z 00000KT 10SM CLR 07/00 A3037 450 62 -400 000/00 RMK AO2
14837KMSN MSN20011111172009411/11/01 17:20:31  5-MIN KMSN 112320Z 00000KT 10SM CLR 06/M01 A3037 450 65 -500 000/00 RMK AO2
14837KMSN MSN20011111172509311/11/01 17:25:31  5-MIN KMSN 112325Z 00000KT 10SM CLR 06/00 A3037 450 65 -400 000/00 RMK AO2
14837KMSN MSN20011111173009411/11/01 17:30:31  5-MIN KMSN 112330Z 00000KT 10SM CLR 04/M01 A3037 450 70 -600 000/00 RMK AO2
14837KMSN MSN20011111173509411/11/01 17:35:31  5-MIN KMSN 112335Z 19003KT 10SM CLR 04/M01 A3037 450 70 -600 190/03 RMK AO2
14837KMSN MSN20011111174009411/11/01 17:40:31  5-MIN KMSN 112340Z 00000KT 10SM CLR 04/M01 A3037 450 73 -700 000/00 RMK AO2
14837KMSN MSN20011111174509411/11/01 17:45:31  5-MIN KMSN 112345Z 19003KT 10SM CLR 04/M01 A3037 450 73 -700 190/03 RMK AO2
14837KMSN MSN20011111175012911/11/01 17:50:31  5-MIN KMSN 112350Z 19003KT 10SM CLR 04/M01 A3037 450 73 -700 190/03 RMK AO2 SLP294 T00391006 10094 20039 56013
14837KMSN MSN20011111175509411/11/01 17:55:31  5-MIN KMSN 112355Z 00000KT 10SM CLR 04/M01 A3037 450 73 -700 000/00 RMK AO2
14837KMSN MSN20011111180009411/11/01 18:00:31  5-MIN KMSN 120000Z 00000KT 10SM CLR 04/M01 A3037 450 73 -700 000/00 RMK AO2
14837KMSN MSN20011111180509411/11/01 18:05:31  5-MIN KMSN 120005Z 18003KT 10SM CLR 04/M01 A3037 450 73 -700 180/03 RMK AO2
14837KMSN MSN20011111181009411/11/01 18:10:31  5-MIN KMSN 120010Z 00000KT 10SM CLR 03/M01 A3037 450 76 -800 000/00 RMK AO2
14837KMSN MSN20011111181509411/11/01 18:15:31  5-MIN KMSN 120015Z 17003KT 10SM CLR 04/M01 A3037 450 70 -600 170/03 RMK AO2
14837KMSN MSN20011111182009411/11/01 18:20:31  5-MIN KMSN 120020Z 18003KT 10SM CLR 04/M01 A3037 450 73 -700 180/03 RMK AO2
14837KMSN MSN20011111182509411/11/01 18:25:31  5-MIN KMSN 120025Z 00000KT 10SM CLR 03/M01 A3037 450 76 -800 000/00 RMK AO2
14837KMSN MSN20011111183009411/11/01 18:30:31  5-MIN KMSN 120030Z 00000KT 10SM CLR 03/M01 A3037 450 76 -800 000/00 RMK AO2
14837KMSN MSN20011111183509411/11/01 18:35:31  5-MIN KMSN 120035Z 00000KT 10SM CLR 03/M01 A3037 450 79 -800 000/00 RMK AO2
14837KMSN MSN20011111184009411/11/01 18:40:31  5-MIN KMSN 120040Z 00000KT 10SM CLR 03/M01 A3037 450 79 -800 000/00 RMK AO2
14837KMSN MSN20011111184509411/11/01 18:45:31  5-MIN KMSN 120045Z 00000KT 10SM CLR 03/M01 A3037 450 79 -800 000/00 RMK AO2
14837KMSN MSN20011111185011111/11/01 18:50:31  5-MIN KMSN 120050Z 00000KT 10SM CLR 03/M01 A3038 450 79 -800 000/00 RMK AO2 SLP296 T00281006
14837KMSN MSN20011111185509411/11/01 18:55:31  5-MIN KMSN 120055Z 00000KT 10SM CLR 03/M01 A3038 450 76 -800 000/00 RMK AO2
14837KMSN MSN20011111190009411/11/01 19:00:31  5-MIN KMSN 120100Z 00000KT 10SM CLR 03/M01 A3038 450 79 -800 000/00 RMK AO2
14837KMSN MSN20011111190509411/11/01 19:05:31  5-MIN KMSN 120105Z 00000KT 10SM CLR 03/M01 A3038 450 79 -800 000/00 RMK AO2
14837KMSN MSN20011111191009411/11/01 19:10:31  5-MIN KMSN 120110Z 00000KT 10SM CLR 03/M01 A3037 450 79 -800 000/00 RMK AO2
14837KMSN MSN20011111191509411/11/01 19:15:31  5-MIN KMSN 120115Z 00000KT 10SM CLR 03/M01 A3037 450 79 -800 000/00 RMK AO2
14837KMSN MSN20011111192009411/11/01 19:20:31  5-MIN KMSN 120120Z 00000KT 10SM CLR 03/M01 A3038 450 79 -800 000/00 RMK AO2
14837KMSN MSN20011111192509311/11/01 19:25:31  5-MIN KMSN 120125Z 00000KT 10SM CLR 03/00 A3037 450 82 -800 000/00 RMK AO2
14837KMSN MSN20011111193009411/11/01 19:30:31  5-MIN KMSN 120130Z 00000KT 10SM CLR 02/M01 A3037 450 82 -900 000/00 RMK AO2
14837KMSN MSN20011111193509411/11/01 19:35:31  5-MIN KMSN 120135Z 00000KT 10SM CLR 02/M01 A3037 450 78 -900 000/00 RMK AO2
14837KMSN MSN20011111194009411/11/01 19:40:31  5-MIN KMSN 120140Z 00000KT 10SM CLR 02/M01 A3037 450 82 -900 000/00 RMK AO2
14837KMSN MSN20011111194509411/11/01 19:45:31  5-MIN KMSN 120145Z 00000KT 10SM CLR 02/M01 A3037 450 78 -900 000/00 RMK AO2
14837KMSN MSN20011111195011111/11/01 19:50:31  5-MIN KMSN 120150Z 00000KT 10SM CLR 02/M01 A3037 450 82 -900 000/00 RMK AO2 SLP295 T00221006
14837KMSN MSN20011111195509411/11/01 19:55:31  5-MIN KMSN 120155Z 00000KT 10SM CLR 02/M01 A3037 450 82 -900 000/00 RMK AO2
14837KMSN MSN20011111200009411/11/01 20:00:31  5-MIN KMSN 120200Z 00000KT 10SM CLR 02/M01 A3037 450 82 -900 000/00 RMK AO2
14837KMSN MSN20011111200509411/11/01 20:05:31  5-MIN KMSN 120205Z 00000KT 10SM CLR 02/M01 A3038 450 82 -900 000/00 RMK AO2
14837KMSN MSN20011111201009411/11/01 20:10:31  5-MIN KMSN 120210Z 00000KT 10SM CLR 02/M01 A3037 450 82 -900 000/00 RMK AO2
14837KMSN MSN20011111201509511/11/01 20:15:31  5-MIN KMSN 120215Z 21003KT 10SM CLR 02/M01 A3038 450 85 -1000 200/03 RMK AO2
14837KMSN MSN20011111202009411/11/01 20:20:31  5-MIN KMSN 120220Z 22003KT 10SM CLR 02/M01 A3038 440 82 -900 220/03 RMK AO2
14837KMSN MSN20011111202509511/11/01 20:25:31  5-MIN KMSN 120225Z 00000KT 10SM CLR 02/M01 A3038 440 85 -1000 000/00 RMK AO2
14837KMSN MSN20011111203009511/11/01 20:30:31  5-MIN KMSN 120230Z 00000KT 10SM CLR 02/M01 A3038 440 85 -1000 000/00 RMK AO2
14837KMSN MSN20011111203509411/11/01 20:35:31  5-MIN KMSN 120235Z 00000KT 10SM CLR 02/M01 A3038 440 82 -900 000/00 RMK AO2
14837KMSN MSN20011111204009411/11/01 20:40:31  5-MIN KMSN 120240Z 00000KT 10SM CLR 02/M01 A3038 440 78 -900 000/00 RMK AO2
14837KMSN MSN20011111204509511/11/01 20:45:31  5-MIN KMSN 120245Z 00000KT 10SM CLR 02/M01 A3038 440 82 -1000 000/00 RMK AO2
14837KMSN MSN20011111205011811/11/01 20:50:31  5-MIN KMSN 120250Z 00000KT 10SM CLR 02/M01 A3038 440 82 -1000 000/00 RMK AO2 SLP297 T00171011 52003
14837KMSN MSN20011111205509511/11/01 20:55:31  5-MIN KMSN 120255Z 00000KT 10SM CLR 02/M01 A3038 440 82 -1000 000/00 RMK AO2
14837KMSN MSN20011111210009511/11/01 21:00:31  5-MIN KMSN 120300Z 00000KT 10SM CLR 02/M01 A3038 440 85 -1000 000/00 RMK AO2
14837KMSN MSN20011111210509511/11/01 21:05:31  5-MIN KMSN 120305Z 00000KT 10SM CLR 02/M01 A3038 440 85 -1000 000/00 RMK AO2
14837KMSN MSN20011111211009511/11/01 21:10:31  5-MIN KMSN 120310Z 00000KT 10SM CLR 02/M01 A3038 440 82 -1000 000/00 RMK AO2
14837KMSN MSN20011111211509511/11/01 21:15:31  5-MIN KMSN 120315Z 00000KT 10SM CLR 01/M02 A3038 440 82 -1100 000/00 RMK AO2
14837KMSN MSN20011111212009511/11/01 21:20:31  5-MIN KMSN 120320Z 00000KT 10SM CLR 01/M02 A3038 440 82 -1100 000/00 RMK AO2
14837KMSN MSN20011111212509511/11/01 21:25:31  5-MIN KMSN 120325Z 00000KT 10SM CLR 02/M02 A3038 440 78 -1000 000/00 RMK AO2
14837KMSN MSN20011111213009511/11/01 21:30:31  5-MIN KMSN 120330Z 00000KT 10SM CLR 01/M02 A3038 440 82 -1100 000/00 RMK AO2
14837KMSN MSN20011111213509511/11/01 21:35:31  5-MIN KMSN 120335Z 19003KT 10SM CLR 02/M01 A3038 440 82 -1000 190/03 RMK AO2
14837KMSN MSN20011111214009511/11/01 21:40:31  5-MIN KMSN 120340Z 19003KT 10SM CLR 02/M01 A3038 440 82 -1000 190/03 RMK AO2
14837KMSN MSN20011111214509511/11/01 21:45:31  5-MIN KMSN 120345Z 00000KT 10SM CLR 01/M02 A3038 440 85 -1100 000/00 RMK AO2
14837KMSN MSN20011111215011211/11/01 21:50:31  5-MIN KMSN 120350Z 00000KT 10SM CLR 01/M02 A3038 440 82 -1100 000/00 RMK AO2 SLP297 T00061022
14837KMSN MSN20011111215509511/11/01 21:55:31  5-MIN KMSN 120355Z 00000KT 10SM CLR 00/M02 A3038 440 85 -1200 000/00 RMK AO2
14837KMSN MSN20011111220009511/11/01 22:00:31  5-MIN KMSN 120400Z 00000KT 10SM CLR 00/M02 A3038 440 85 -1200 000/00 RMK AO2
14837KMSN MSN20011111220509511/11/01 22:05:31  5-MIN KMSN 120405Z 00000KT 10SM CLR 00/M02 A3038 440 85 -1200 000/00 RMK AO2
14837KMSN MSN20011111221009511/11/01 22:10:31  5-MIN KMSN 120410Z 00000KT 10SM CLR 01/M02 A3038 440 85 -1100 000/00 RMK AO2
14837KMSN MSN20011111221509511/11/01 22:15:31  5-MIN KMSN 120415Z 00000KT 10SM CLR 01/M02 A3038 440 85 -1100 000/00 RMK AO2
14837KMSN MSN20011111222009511/11/01 22:20:31  5-MIN KMSN 120420Z 00000KT 10SM CLR 01/M02 A3039 440 82 -1100 000/00 RMK AO2
14837KMSN MSN20011111222509511/11/01 22:25:31  5-MIN KMSN 120425Z 18003KT 10SM CLR 01/M01 A3039 440 85 -1100 170/03 RMK AO2
14837KMSN MSN20011111223009511/11/01 22:30:31  5-MIN KMSN 120430Z 17003KT 10SM CLR 01/M01 A3039 440 85 -1100 170/03 RMK AO2
14837KMSN MSN20011111223509511/11/01 22:35:31  5-MIN KMSN 120435Z 17003KT 10SM CLR 01/M02 A3039 440 78 -1100 170/03 RMK AO2
14837KMSN MSN20011111224009511/11/01 22:40:31  5-MIN KMSN 120440Z 17003KT 10SM CLR 01/M02 A3039 440 82 -1100 170/03 RMK AO2
14837KMSN MSN20011111224509511/11/01 22:45:31  5-MIN KMSN 120445Z 00000KT 10SM CLR 01/M02 A3039 440 82 -1100 000/00 RMK AO2
14837KMSN MSN20011111225011211/11/01 22:50:31  5-MIN KMSN 120450Z 17003KT 10SM CLR 01/M02 A3038 440 82 -1100 170/03 RMK AO2 SLP297 T00061022
14837KMSN MSN20011111225509511/11/01 22:55:31  5-MIN KMSN 120455Z 17003KT 10SM CLR 01/M02 A3038 440 82 -1100 170/03 RMK AO2
14837KMSN MSN20011111230009511/11/01 23:00:31  5-MIN KMSN 120500Z 17003KT 10SM CLR 00/M02 A3038 440 85 -1200 170/03 RMK AO2
14837KMSN MSN20011111230509511/11/01 23:05:31  5-MIN KMSN 120505Z 16003KT 10SM CLR 00/M02 A3039 440 85 -1200 160/03 RMK AO2
14837KMSN MSN20011111231009511/11/01 23:10:31  5-MIN KMSN 120510Z 00000KT 10SM CLR 00/M02 A3039 440 85 -1200 000/00 RMK AO2
14837KMSN MSN20011111231509511/11/01 23:15:31  5-MIN KMSN 120515Z 00000KT 10SM CLR 00/M02 A3039 440 85 -1200 000/00 RMK AO2
14837KMSN MSN20011111232009611/11/01 23:20:31  5-MIN KMSN 120520Z 00000KT 10SM CLR M01/M02 A3039 440 88 -1300 000/00 RMK AO2
14837KMSN MSN20011111232509611/11/01 23:25:31  5-MIN KMSN 120525Z 00000KT 10SM CLR M01/M02 A3039 440 88 -1300 000/00 RMK AO2
14837KMSN MSN20011111233009611/11/01 23:30:31  5-MIN KMSN 120530Z 00000KT 10SM CLR M01/M02 A3039 440 92 -1300 000/00 RMK AO2
14837KMSN MSN20011111233509511/11/01 23:35:31  5-MIN KMSN 120535Z 00000KT 10SM CLR 00/M02 A3039 430 88 -1200 000/00 RMK AO2
14837KMSN MSN20011111234009511/11/01 23:40:31  5-MIN KMSN 120540Z 00000KT 10SM CLR 01/M02 A3039 430 82 -1100 000/00 RMK AO2
14837KMSN MSN20011111234509511/11/01 23:45:31  5-MIN KMSN 120545Z 00000KT 10SM CLR 01/M02 A3039 430 82 -1100 000/00 RMK AO2
14837KMSN MSN20011111235014111/11/01 23:50:31  5-MIN KMSN 120550Z 00000KT 10SM CLR M01/M02 A3039 430 88 -1300 000/00 RMK AO2 SLP299 T10061022 10044 21011 400941033 53003
14837KMSN MSN20011111235509511/11/01 23:55:31  5-MIN KMSN 120555Z 00000KT 10SM CLR 00/M02 A3039 430 85 -1200 000/00 RMK AO2
14837KMSN MSN20011112000009511/12/01 00:00:31  5-MIN KMSN 120600Z 00000KT 10SM CLR 00/M02 A3039 430 85 -1200 000/00 RMK AO2
14837KMSN MSN20011112000509611/12/01 00:05:31  5-MIN KMSN 120605Z 00000KT 10SM CLR M01/M03 A3039 430 85 -1300 000/00 RMK AO2
14837KMSN MSN20011112001009611/12/01 00:10:31  5-MIN KMSN 120610Z 00000KT 10SM CLR M01/M03 A3039 430 88 -1300 000/00 RMK AO2
14837KMSN MSN20011112001509611/12/01 00:15:31  5-MIN KMSN 120615Z 00000KT 10SM CLR M01/M02 A3039 430 88 -1300 000/00 RMK AO2
14837KMSN MSN20011112002009511/12/01 00:20:31  5-MIN KMSN 120620Z 00000KT 10SM CLR 00/M02 A3039 430 88 -1200 000/00 RMK AO2
14837KMSN MSN20011112002509611/12/01 00:25:31  5-MIN KMSN 120625Z 00000KT 10SM CLR M01/M02 A3039 430 88 -1300 000/00 RMK AO2
14837KMSN MSN20011112003009511/12/01 00:30:31  5-MIN KMSN 120630Z 00000KT 10SM CLR 00/M02 A3039 430 85 -1200 000/00 RMK AO2
14837KMSN MSN20011112003509511/12/01 00:35:31  5-MIN KMSN 120635Z 00000KT 10SM CLR 00/M02 A3039 430 85 -1200 000/00 RMK AO2
14837KMSN MSN20011112004009611/12/01 00:40:31  5-MIN KMSN 120640Z 00000KT 10SM CLR M01/M03 A3039 440 81 -1300 000/00 RMK AO2
14837KMSN MSN20011112004509611/12/01 00:45:31  5-MIN KMSN 120645Z 00000KT 10SM CLR M01/M03 A3039 440 85 -1300 000/00 RMK AO2
14837KMSN MSN20011112005011311/12/01 00:50:31  5-MIN KMSN 120650Z 00000KT 10SM CLR M01/M03 A3038 440 85 -1300 000/00 RMK AO2 SLP297 T10061028
14837KMSN MSN20011112005509611/12/01 00:55:31  5-MIN KMSN 120655Z 18003KT 10SM CLR M01/M03 A3038 440 85 -1300 180/03 RMK AO2
14837KMSN MSN20011112010009511/12/01 01:00:31  5-MIN KMSN 120700Z 18003KT 10SM CLR 00/M03 A3038 440 81 -1200 180/03 RMK AO2
14837KMSN MSN20011112010509511/12/01 01:05:31  5-MIN KMSN 120705Z 19003KT 10SM CLR 00/M03 A3038 440 78 -1200 190/03 RMK AO2
14837KMSN MSN20011112011009511/12/01 01:10:31  5-MIN KMSN 120710Z 19003KT 10SM CLR 00/M02 A3038 440 85 -1200 190/03 RMK AO2
14837KMSN MSN20011112011509511/12/01 01:15:31  5-MIN KMSN 120715Z 18003KT 10SM CLR 00/M02 A3038 440 88 -1200 180/03 RMK AO2
14837KMSN MSN20011112012009511/12/01 01:20:31  5-MIN KMSN 120720Z 17003KT 10SM CLR 01/M01 A3038 440 85 -1100 170/03 RMK AO2
14837KMSN MSN20011112012509511/12/01 01:25:31  5-MIN KMSN 120725Z 16004KT 10SM CLR 01/M01 A3038 440 85 -1100 160/04 RMK AO2
14837KMSN MSN20011112013009511/12/01 01:30:31  5-MIN KMSN 120730Z 17003KT 10SM CLR 02/M01 A3038 440 85 -1000 170/03 RMK AO2
14837KMSN MSN20011112013509411/12/01 01:35:31  5-MIN KMSN 120735Z 18003KT 10SM CLR 02/M01 A3038 440 82 -900 180/03 RMK AO2
14837KMSN MSN20011112014009511/12/01 01:40:31  5-MIN KMSN 120740Z 00000KT 10SM CLR 02/M01 A3038 440 85 -1000 000/00 RMK AO2
14837KMSN MSN20011112014509511/12/01 01:45:31  5-MIN KMSN 120745Z 00000KT 10SM CLR 01/M01 A3038 440 89 -1100 000/00 RMK AO2
14837KMSN MSN20011112015011111/12/01 01:50:31  5-MIN KMSN 120750Z 16003KT 10SM CLR 02/00 A3038 440 89 -1000 160/03 RMK AO2 SLP295 T00170000
14837KMSN MSN20011112015509411/12/01 01:55:31  5-MIN KMSN 120755Z 00000KT 10SM CLR 01/00 A3038 440 96 -1100 000/00 RMK AO2
14837KMSN MSN20011112020009411/12/01 02:00:31  5-MIN KMSN 120800Z 00000KT 10SM CLR 01/00 A3039 440 96 -1100 000/00 RMK AO2
14837KMSN MSN20011112020509511/12/01 02:05:31  5-MIN KMSN 120805Z 00000KT 10SM CLR 01/M01 A3039 440 85 -1100 000/00 RMK AO2
14837KMSN MSN20011112021009511/12/01 02:10:31  5-MIN KMSN 120810Z 00000KT 10SM CLR 01/M01 A3039 440 85 -1100 000/00 RMK AO2
14837KMSN MSN20011112021509511/12/01 02:15:31  5-MIN KMSN 120815Z 00000KT 10SM CLR 01/M01 A3038 440 85 -1100 000/00 RMK AO2
14837KMSN MSN20011112022009511/12/01 02:20:31  5-MIN KMSN 120820Z 00000KT 10SM CLR 01/M02 A3039 440 85 -1100 000/00 RMK AO2
14837KMSN MSN20011112022509511/12/01 02:25:31  5-MIN KMSN 120825Z 09003KT 10SM CLR 00/M02 A3038 440 85 -1200 090/03 RMK AO2
14837KMSN MSN20011112023009511/12/01 02:30:31  5-MIN KMSN 120830Z 09003KT 10SM CLR 00/M02 A3038 440 85 -1200 090/03 RMK AO2
14837KMSN MSN20011112023509511/12/01 02:35:31  5-MIN KMSN 120835Z 00000KT 10SM CLR 00/M02 A3038 440 85 -1200 000/00 RMK AO2
14837KMSN MSN20011112024009511/12/01 02:40:31  5-MIN KMSN 120840Z 00000KT 10SM CLR 00/M02 A3038 440 88 -1200 000/00 RMK AO2
14837KMSN MSN20011112024509611/12/01 02:45:31  5-MIN KMSN 120845Z 00000KT 10SM CLR M01/M02 A3038 440 88 -1300 000/00 RMK AO2
14837KMSN MSN20011112025011911/12/01 02:50:31  5-MIN KMSN 120850Z 00000KT 10SM CLR M01/M03 A3038 440 88 -1300 000/00 RMK AO2 SLP297 T10111028 53004
14837KMSN MSN20011112025509611/12/01 02:55:31  5-MIN KMSN 120855Z 00000KT 10SM CLR M01/M03 A3038 440 85 -1300 000/00 RMK AO2
14837KMSN MSN20011112030009611/12/01 03:00:31  5-MIN KMSN 120900Z 00000KT 10SM CLR M01/M03 A3038 440 85 -1300 000/00 RMK AO2
14837KMSN MSN20011112030509611/12/01 03:05:31  5-MIN KMSN 120905Z 00000KT 10SM CLR M01/M03 A3038 440 85 -1300 000/00 RMK AO2
14837KMSN MSN20011112031009611/12/01 03:10:31  5-MIN KMSN 120910Z 00000KT 10SM CLR M02/M03 A3038 440 88 -1400 000/00 RMK AO2
14837KMSN MSN20011112031509611/12/01 03:15:31  5-MIN KMSN 120915Z 00000KT 10SM CLR M01/M03 A3038 440 88 -1300 000/00 RMK AO2
14837KMSN MSN20011112032009611/12/01 03:20:31  5-MIN KMSN 120920Z 00000KT 10SM CLR M01/M03 A3039 440 88 -1300 000/00 RMK AO2
14837KMSN MSN20011112032509611/12/01 03:25:31  5-MIN KMSN 120925Z 17004KT 10SM CLR M01/M02 A3038 440 88 -1300 170/04 RMK AO2
14837KMSN MSN20011112033009611/12/01 03:30:31  5-MIN KMSN 120930Z 17005KT 10SM CLR M01/M02 A3038 440 88 -1300 170/05 RMK AO2
14837KMSN MSN20011112033509511/12/01 03:35:31  5-MIN KMSN 120935Z 17005KT 10SM CLR 01/M02 A3038 440 85 -1100 170/05 RMK AO2
14837KMSN MSN20011112034009511/12/01 03:40:31  5-MIN KMSN 120940Z 16007KT 10SM CLR 01/M01 A3038 440 85 -1100 160/07 RMK AO2
14837KMSN MSN20011112034509511/12/01 03:45:31  5-MIN KMSN 120945Z 17006KT 10SM CLR 01/M01 A3038 440 85 -1100 170/06 RMK AO2
14837KMSN MSN20011112035011211/12/01 03:50:31  5-MIN KMSN 120950Z 18006KT 10SM CLR 02/M01 A3038 440 82 -1000 170/06 RMK AO2 SLP294 T00171011
14837KMSN MSN20011112035509511/12/01 03:55:31  5-MIN KMSN 120955Z 17006KT 10SM CLR 02/M01 A3038 440 82 -1000 170/06 RMK AO2
14837KMSN MSN20011112040009511/12/01 04:00:31  5-MIN KMSN 121000Z 17006KT 10SM CLR 02/M01 A3038 440 82 -1000 170/06 RMK AO2
14837KMSN MSN20011112040509411/12/01 04:05:31  5-MIN KMSN 121005Z 17006KT 10SM CLR 02/M01 A3038 440 78 -900 170/06 RMK AO2
14837KMSN MSN20011112041009511/12/01 04:10:31  5-MIN KMSN 121010Z 18005KT 10SM CLR 02/M01 A3038 440 82 -1000 170/05 RMK AO2
14837KMSN MSN20011112041509511/12/01 04:15:31  5-MIN KMSN 121015Z 18006KT 10SM CLR 02/M01 A3038 440 82 -1000 180/06 RMK AO2
14837KMSN MSN20011112042009511/12/01 04:20:31  5-MIN KMSN 121020Z 18005KT 10SM CLR 02/M01 A3038 440 82 -1000 180/05 RMK AO2
14837KMSN MSN20011112042509511/12/01 04:25:31  5-MIN KMSN 121025Z 17005KT 10SM CLR 02/M01 A3038 440 82 -1000 170/05 RMK AO2
14837KMSN MSN20011112043009511/12/01 04:30:31  5-MIN KMSN 121030Z 17004KT 10SM CLR 02/M01 A3038 440 82 -1000 170/04 RMK AO2
14837KMSN MSN20011112043509511/12/01 04:35:31  5-MIN KMSN 121035Z 17005KT 10SM CLR 02/M01 A3038 440 82 -1000 170/05 RMK AO2
14837KMSN MSN20011112044009511/12/01 04:40:31  5-MIN KMSN 121040Z 17005KT 10SM CLR 02/M01 A3039 440 82 -1000 160/05 RMK AO2
14837KMSN MSN20011112044509511/12/01 04:45:31  5-MIN KMSN 121045Z 16004KT 10SM CLR 02/M01 A3039 440 82 -1000 160/04 RMK AO2
14837KMSN MSN20011112045011211/12/01 04:50:31  5-MIN KMSN 121050Z 15004KT 10SM CLR 02/M01 A3039 440 82 -1000 150/04 RMK AO2 SLP297 T00171011
14837KMSN MSN20011112045509511/12/01 04:55:31  5-MIN KMSN 121055Z 15004KT 10SM CLR 02/M01 A3038 440 82 -1000 150/04 RMK AO2
14837KMSN MSN20011112050009511/12/01 05:00:31  5-MIN KMSN 121100Z 15005KT 10SM CLR 02/M01 A3038 440 82 -1000 150/05 RMK AO2
14837KMSN MSN20011112050509511/12/01 05:05:31  5-MIN KMSN 121105Z 16005KT 10SM CLR 02/M02 A3039 440 78 -1000 160/05 RMK AO2
14837KMSN MSN20011112051009511/12/01 05:10:31  5-MIN KMSN 121110Z 16004KT 10SM CLR 01/M02 A3039 440 82 -1100 160/04 RMK AO2
14837KMSN MSN20011112051509511/12/01 05:15:31  5-MIN KMSN 121115Z 17003KT 10SM CLR 01/M02 A3039 430 85 -1100 160/03 RMK AO2
14837KMSN MSN20011112052009511/12/01 05:20:31  5-MIN KMSN 121120Z 16003KT 10SM CLR 01/M02 A3039 430 85 -1100 160/03 RMK AO2
14837KMSN MSN20011112052509511/12/01 05:25:31  5-MIN KMSN 121125Z 16003KT 10SM CLR 01/M02 A3039 430 85 -1100 160/03 RMK AO2
14837KMSN MSN20011112053009511/12/01 05:30:31  5-MIN KMSN 121130Z 15004KT 10SM CLR 01/M02 A3039 430 85 -1100 150/04 RMK AO2
14837KMSN MSN20011112053509511/12/01 05:35:31  5-MIN KMSN 121135Z 14004KT 10SM CLR 00/M02 A3039 430 88 -1200 140/04 RMK AO2
14837KMSN MSN20011112054009511/12/01 05:40:31  5-MIN KMSN 121140Z 15004KT 10SM CLR 01/M02 A3039 430 85 -1100 150/04 RMK AO2
14837KMSN MSN20011112054509611/12/01 05:45:31  5-MIN KMSN 121145Z 16003KT 10SM CLR M01/M02 A3039 430 88 -1300 160/03 RMK AO2
14837KMSN MSN20011112055013111/12/01 05:50:31  5-MIN KMSN 121150Z 17004KT 10SM CLR M01/M02 A3039 430 88 -1300 170/04 RMK AO2 SLP301 T10061022 10022 21017 56002
14837KMSN MSN20011112055509611/12/01 05:55:31  5-MIN KMSN 121155Z 17004KT 10SM CLR M01/M03 A3039 430 88 -1300 170/04 RMK AO2
14837KMSN MSN20011112060009611/12/01 06:00:31  5-MIN KMSN 121200Z 17004KT 10SM CLR M02/M03 A3039 430 92 -1400 170/04 RMK AO2
14837KMSN MSN20011112060509611/12/01 06:05:31  5-MIN KMSN 121205Z 17004KT 10SM CLR M01/M02 A3039 430 92 -1300 160/04 RMK AO2
14837KMSN MSN20011112061009611/12/01 06:10:31  5-MIN KMSN 121210Z 17004KT 10SM CLR M01/M02 A3039 430 88 -1300 170/04 RMK AO2
14837KMSN MSN20011112061509611/12/01 06:15:31  5-MIN KMSN 121215Z 17004KT 10SM CLR M01/M02 A3039 430 88 -1300 170/04 RMK AO2
14837KMSN MSN20011112062009611/12/01 06:20:31  5-MIN KMSN 121220Z 00000KT 10SM CLR M01/M02 A3039 430 92 -1300 000/00 RMK AO2
14837KMSN MSN20011112062509611/12/01 06:25:31  5-MIN KMSN 121225Z 18003KT 10SM CLR M01/M02 A3040 430 92 -1300 170/03 RMK AO2
14837KMSN MSN20011112063009511/12/01 06:30:31  5-MIN KMSN 121230Z 00000KT 10SM CLR 00/M02 A3040 430 88 -1200 000/00 RMK AO2
14837KMSN MSN20011112063509511/12/01 06:35:31  5-MIN KMSN 121235Z VRB04KT 10SM CLR 01/M02 A3040 430 85 -1100 VRB/04 RMK AO2
14837KMSN MSN20011112064009611/12/01 06:40:31  5-MIN KMSN 121240Z 16006KT 10SM CLR M01/M02 A3040 430 88 -1300 160/06 RMK AO2
14837KMSN MSN20011112064509511/12/01 06:45:31  5-MIN KMSN 121245Z 16006KT 10SM CLR 00/M02 A3040 420 88 -1200 160/06 RMK AO2
14837KMSN MSN20011112065011211/12/01 06:50:31  5-MIN KMSN 121250Z 16005KT 10SM CLR 01/M01 A3040 420 89 -1100 160/05 RMK AO2 SLP304 T00061011
14837KMSN MSN20011112065509511/12/01 06:55:31  5-MIN KMSN 121255Z 16007KT 10SM CLR 01/M01 A3040 420 85 -1100 160/07 RMK AO2
14837KMSN MSN20011112070009411/12/01 07:00:31  5-MIN KMSN 121300Z 16007KT 9SM CLR 01/M01 A3040 420 85 -1100 160/07 RMK AO2
14837KMSN MSN20011112070509411/12/01 07:05:31  5-MIN KMSN 121305Z 16007KT 9SM CLR 01/M01 A3040 420 85 -1100 160/07 RMK AO2
14837KMSN MSN20011112071009411/12/01 07:10:31  5-MIN KMSN 121310Z 16006KT 9SM CLR 01/M01 A3040 420 85 -1100 160/06 RMK AO2
14837KMSN MSN20011112071509411/12/01 07:15:31  5-MIN KMSN 121315Z 16005KT 9SM CLR 01/M01 A3040 420 85 -1100 160/05 RMK AO2
14837KMSN MSN20011112072009411/12/01 07:20:31  5-MIN KMSN 121320Z 16006KT 9SM CLR 01/M01 A3041 420 85 -1100 160/06 RMK AO2
14837KMSN MSN20011112072509511/12/01 07:25:31  5-MIN KMSN 121325Z 16005KT 10SM CLR 01/M01 A3041 420 89 -1200 150/05 RMK AO2
14837KMSN MSN20011112073009511/12/01 07:30:31  5-MIN KMSN 121330Z 16006KT 10SM CLR 01/M01 A3041 420 85 -1100 160/06 RMK AO2
14837KMSN MSN20011112073509511/12/01 07:35:31  5-MIN KMSN 121335Z 16006KT 10SM CLR 02/M01 A3041 410 85 -1000 160/06 RMK AO2
14837KMSN MSN20011112074009411/12/01 07:40:31  5-MIN KMSN 121340Z 16006KT 9SM CLR 01/M01 A3041 410 89 -1100 160/06 RMK AO2
14837KMSN MSN20011112074509411/12/01 07:45:31  5-MIN KMSN 121345Z 15005KT 9SM CLR 02/M01 A3041 410 85 -1000 150/05 RMK AO2
14837KMSN MSN20011112075011111/12/01 07:50:31  5-MIN KMSN 121350Z 15005KT 9SM CLR 02/M01 A3041 410 85 -1000 150/05 RMK AO2 SLP308 T00171006
14837KMSN MSN20011112075509511/12/01 07:55:31  5-MIN KMSN 121355Z 17004KT 10SM CLR 02/M01 A3041 410 82 -1000 170/04 RMK AO2
14837KMSN MSN20011112080009411/12/01 08:00:31  5-MIN KMSN 121400Z 17004KT 10SM CLR 03/M01 A3041 410 79 -900 170/04 RMK AO2
14837KMSN MSN20011112080509411/12/01 08:05:31  5-MIN KMSN 121405Z 15004KT 10SM CLR 03/M01 A3041 410 79 -900 150/04 RMK AO2
14837KMSN MSN20011112081009411/12/01 08:10:31  5-MIN KMSN 121410Z 16005KT 10SM CLR 03/M01 A3041 410 79 -900 160/05 RMK AO2
14837KMSN MSN20011112081509411/12/01 08:15:31  5-MIN KMSN 121415Z 17006KT 10SM CLR 03/M01 A3041 410 76 -800 170/06 RMK AO2
14837KMSN MSN20011112082009411/12/01 08:20:31  5-MIN KMSN 121420Z 17007KT 10SM CLR 04/M01 A3041 410 73 -700 170/07 RMK AO2
14837KMSN MSN20011112082509411/12/01 08:25:31  5-MIN KMSN 121425Z 17009KT 10SM CLR 04/M01 A3041 410 73 -700 170/09 RMK AO2
14837KMSN MSN20011112083009411/12/01 08:30:31  5-MIN KMSN 121430Z 18009KT 10SM CLR 04/M01 A3041 410 70 -700 180/09 RMK AO2
14837KMSN MSN20011112083509411/12/01 08:35:31  5-MIN KMSN 121435Z 18007KT 10SM CLR 04/M01 A3041 410 70 -700 180/07 RMK AO2
14837KMSN MSN20011112084009411/12/01 08:40:31  5-MIN KMSN 121440Z 17007KT 10SM CLR 04/M01 A3041 410 70 -700 170/07 RMK AO2
14837KMSN MSN20011112084509411/12/01 08:45:31  5-MIN KMSN 121445Z 17007KT 10SM CLR 04/M01 A3041 410 70 -700 170/07 RMK AO2
14837KMSN MSN20011112085011711/12/01 08:50:31  5-MIN KMSN 121450Z 17007KT 10SM CLR 05/M01 A3041 410 67 -600 170/07 RMK AO2 SLP307 T00501006 53002
14837KMSN MSN20011112085509411/12/01 08:55:31  5-MIN KMSN 121455Z 19007KT 10SM CLR 05/M01 A3041 410 67 -600 190/07 RMK AO2
14837KMSN MSN20011112090009411/12/01 09:00:31  5-MIN KMSN 121500Z 18007KT 10SM CLR 06/M01 A3041 410 65 -500 180/07 RMK AO2
14837KMSN MSN20011112090509411/12/01 09:05:31  5-MIN KMSN 121505Z 18006KT 10SM CLR 06/M01 A3041 410 65 -500 180/06 RMK AO2
14837KMSN MSN20011112091009411/12/01 09:10:31  5-MIN KMSN 121510Z 19006KT 10SM CLR 06/M01 A3041 410 62 -500 190/06 RMK AO2
14837KMSN MSN20011112091509411/12/01 09:15:31  5-MIN KMSN 121515Z 19008KT 10SM CLR 06/M01 A3041 410 62 -500 190/08 RMK AO2
14837KMSN MSN20011112092009411/12/01 09:20:31  5-MIN KMSN 121520Z 19010KT 10SM CLR 06/M01 A3041 420 62 -500 190/10 RMK AO2
14837KMSN MSN20011112092509411/12/01 09:25:31  5-MIN KMSN 121525Z 19009KT 10SM CLR 06/M01 A3041 420 62 -500 190/09 RMK AO2
14837KMSN MSN20011112093009411/12/01 09:30:31  5-MIN KMSN 121530Z 19010KT 10SM CLR 07/M01 A3041 420 60 -400 190/10 RMK AO2
14837KMSN MSN20011112093509411/12/01 09:35:31  5-MIN KMSN 121535Z 19009KT 10SM CLR 07/M01 A3041 420 60 -400 190/09 RMK AO2
14837KMSN MSN20011112094009411/12/01 09:40:31  5-MIN KMSN 121540Z 19007KT 10SM CLR 07/M01 A3041 420 60 -400 180/07 RMK AO2
14837KMSN MSN20011112094509411/12/01 09:45:31  5-MIN KMSN 121545Z 18009KT 10SM CLR 07/M01 A3041 420 60 -400 180/09 RMK AO2
14837KMSN MSN20011112095011111/12/01 09:50:31  5-MIN KMSN 121550Z 19010KT 10SM CLR 07/M01 A3041 420 60 -400 190/10 RMK AO2 SLP305 T00671006
14837KMSN MSN20011112095509411/12/01 09:55:31  5-MIN KMSN 121555Z 17009KT 10SM CLR 07/M01 A3041 420 60 -400 170/09 RMK AO2
14837KMSN MSN20011112100009411/12/01 10:00:31  5-MIN KMSN 121600Z 17009KT 10SM CLR 07/M01 A3040 420 60 -400 170/09 RMK AO2
14837KMSN MSN20011112100509411/12/01 10:05:31  5-MIN KMSN 121605Z 16009KT 10SM CLR 07/M01 A3040 420 57 -300 160/09 RMK AO2
14837KMSN MSN20011112101009411/12/01 10:10:31  5-MIN KMSN 121610Z 17008KT 10SM CLR 07/M01 A3040 420 57 -300 160/08 RMK AO2
14837KMSN MSN20011112101509411/12/01 10:15:31  5-MIN KMSN 121615Z 16007KT 10SM CLR 07/M01 A3040 420 57 -300 160/07 RMK AO2
14837KMSN MSN20011112102009411/12/01 10:20:31  5-MIN KMSN 121620Z 18006KT 10SM CLR 08/M01 A3040 420 55 -300 170/06 RMK AO2
14837KMSN MSN20011112102509411/12/01 10:25:31  5-MIN KMSN 121625Z 17006KT 10SM CLR 08/M01 A3040 420 53 -200 170/06 RMK AO2
14837KMSN MSN20011112103009411/12/01 10:30:31  5-MIN KMSN 121630Z 16008KT 10SM CLR 08/M01 A3040 420 53 -200 160/08 RMK AO2
14837KMSN MSN20011112103509411/12/01 10:35:31  5-MIN KMSN 121635Z 17009KT 10SM CLR 08/M01 A3040 420 53 -200 170/09 RMK AO2
14837KMSN MSN20011112104009411/12/01 10:40:31  5-MIN KMSN 121640Z 17007KT 10SM CLR 08/M01 A3040 430 53 -200 170/07 RMK AO2
14837KMSN MSN20011112104509411/12/01 10:45:31  5-MIN KMSN 121645Z 16008KT 10SM CLR 09/M01 A3040 430 51 -100 160/08 RMK AO2
14837KMSN MSN20011112105011111/12/01 10:50:31  5-MIN KMSN 121650Z 17009KT 10SM CLR 09/M01 A3039 430 51 -100 160/09 RMK AO2 SLP300 T00891006
14837KMSN MSN20011112105509111/12/01 10:55:31  5-MIN KMSN 121655Z 16011KT 10SM CLR 09/M01 A3039 430 49 0 160/11 RMK AO2
14837KMSN MSN20011112110009111/12/01 11:00:31  5-MIN KMSN 121700Z 17010KT 10SM CLR 09/M01 A3039 430 49 0 170/10 RMK AO2
14837KMSN MSN20011112110509111/12/01 11:05:31  5-MIN KMSN 121705Z 17012KT 10SM CLR 09/M01 A3039 430 49 0 170/12 RMK AO2
14837KMSN MSN20011112111009111/12/01 11:10:31  5-MIN KMSN 121710Z 19010KT 10SM CLR 09/M01 A3039 440 49 0 190/10 RMK AO2
14837KMSN MSN20011112111509111/12/01 11:15:31  5-MIN KMSN 121715Z 18012KT 10SM CLR 10/M01 A3039 440 47 0 180/12 RMK AO2
14837KMSN MSN20011112112009111/12/01 11:20:31  5-MIN KMSN 121720Z 17012KT 10SM CLR 10/M01 A3038 440 47 0 170/12 RMK AO2
14837KMSN MSN20011112112509111/12/01 11:25:31  5-MIN KMSN 121725Z 19010KT 10SM CLR 10/M01 A3038 440 47 0 190/10 RMK AO2
14837KMSN MSN20011112113009111/12/01 11:30:31  5-MIN KMSN 121730Z 18011KT 10SM CLR 10/M01 A3038 450 47 0 180/11 RMK AO2
14837KMSN MSN20011112113509111/12/01 11:35:31  5-MIN KMSN 121735Z 18011KT 10SM CLR 10/M01 A3037 450 47 0 180/11 RMK AO2
14837KMSN MSN20011112114009711/12/01 11:40:31  5-MIN KMSN 121740Z 19009G17KT 10SM CLR 10/M01 A3037 450 47 0 190/09G17 RMK AO2
14837KMSN MSN20011112114509111/12/01 11:45:31  5-MIN KMSN 121745Z 18012KT 10SM CLR 10/M01 A3037 450 47 0 170/12 RMK AO2
14837KMSN MSN20011112115012611/12/01 11:50:31  5-MIN KMSN 121750Z 17010KT 10SM CLR 10/M01 A3036 460 47 0 170/10 RMK AO2 SLP289 T01001006 10100 21017 51007
14837KMSN MSN20011112115509311/12/01 11:55:31  5-MIN KMSN 121755Z 18010KT 10SM CLR 11/M01 A3036 460 46 100 180/10 RMK AO2
14837KMSN MSN20011112120009111/12/01 12:00:31  5-MIN KMSN 121800Z 20010KT 10SM CLR 10/M01 A3036 460 47 0 190/10 RMK AO2
14837KMSN MSN20011112120509111/12/01 12:05:31  5-MIN KMSN 121805Z 17011KT 10SM CLR 10/M01 A3035 460 47 0 170/11 RMK AO2
14837KMSN MSN20011112121009311/12/01 12:10:31  5-MIN KMSN 121810Z 17011KT 10SM CLR 11/M01 A3035 470 46 100 170/11 RMK AO2
14837KMSN MSN20011112121509311/12/01 12:15:31  5-MIN KMSN 121815Z 17011KT 10SM CLR 11/M01 A3035 470 46 100 170/11 RMK AO2
14837KMSN MSN20011112122009311/12/01 12:20:31  5-MIN KMSN 121820Z 17011KT 10SM CLR 11/M01 A3035 470 44 200 170/11 RMK AO2
14837KMSN MSN20011112122509311/12/01 12:25:31  5-MIN KMSN 121825Z 18011KT 10SM CLR 11/M01 A3034 470 44 200 170/11 RMK AO2
14837KMSN MSN20011112123009311/12/01 12:30:31  5-MIN KMSN 121830Z 18012KT 10SM CLR 11/M01 A3034 480 44 200 180/12 RMK AO2
14837KMSN MSN20011112123509311/12/01 12:35:31  5-MIN KMSN 121835Z 18012KT 10SM CLR 11/M01 A3034 480 44 200 180/12 RMK AO2
14837KMSN MSN20011112124009311/12/01 12:40:31  5-MIN KMSN 121840Z 18011KT 10SM CLR 11/M01 A3034 480 44 200 180/11 RMK AO2
14837KMSN MSN20011112124509311/12/01 12:45:31  5-MIN KMSN 121845Z 17013KT 10SM CLR 12/M01 A3034 480 42 200 170/13 RMK AO2
14837KMSN MSN20011112125011011/12/01 12:50:31  5-MIN KMSN 121850Z 18011KT 10SM CLR 12/M01 A3034 480 41 300 180/11 RMK AO2 SLP279 T01221006
14837KMSN MSN20011112125509311/12/01 12:55:31  5-MIN KMSN 121855Z 17012KT 10SM CLR 12/M01 A3034 480 42 200 160/12 RMK AO2
14837KMSN MSN20011112130009311/12/01 13:00:31  5-MIN KMSN 121900Z 17010KT 10SM CLR 12/M01 A3033 490 41 300 170/10 RMK AO2
14837KMSN MSN20011112130509311/12/01 13:05:31  5-MIN KMSN 121905Z 19010KT 10SM CLR 12/M01 A3033 490 41 300 190/10 RMK AO2
14837KMSN MSN20011112131009311/12/01 13:10:31  5-MIN KMSN 121910Z 17011KT 10SM CLR 12/M01 A3033 490 41 300 170/11 RMK AO2
14837KMSN MSN20011112131509311/12/01 13:15:31  5-MIN KMSN 121915Z 17011KT 10SM CLR 12/M01 A3032 490 41 300 170/11 RMK AO2
14837KMSN MSN20011112132009311/12/01 13:20:31  5-MIN KMSN 121920Z 17012KT 10SM CLR 12/M01 A3032 490 41 300 170/12 RMK AO2
14837KMSN MSN20011112132509311/12/01 13:25:31  5-MIN KMSN 121925Z 18010KT 10SM CLR 12/M01 A3032 490 41 300 180/10 RMK AO2
14837KMSN MSN20011112133009311/12/01 13:30:31  5-MIN KMSN 121930Z 17010KT 10SM CLR 13/M01 A3032 490 39 400 170/10 RMK AO2
14837KMSN MSN20011112133509311/12/01 13:35:31  5-MIN KMSN 121935Z 17010KT 10SM CLR 12/M01 A3032 490 41 300 170/10 RMK AO2
14837KMSN MSN20011112134009311/12/01 13:40:31  5-MIN KMSN 121940Z 17011KT 10SM CLR 12/M01 A3032 500 41 300 170/11 RMK AO2
14837KMSN MSN20011112134509311/12/01 13:45:31  5-MIN KMSN 121945Z 17010KT 10SM CLR 12/M01 A3032 500 41 300 170/10 RMK AO2
14837KMSN MSN20011112135011011/12/01 13:50:31  5-MIN KMSN 121950Z 18009KT 10SM CLR 13/M01 A3032 500 39 400 180/09 RMK AO2 SLP273 T01281006
14837KMSN MSN20011112135509311/12/01 13:55:31  5-MIN KMSN 121955Z 17010KT 10SM CLR 13/M01 A3032 500 39 400 170/10 RMK AO2
14837KMSN MSN20011112140009311/12/01 14:00:31  5-MIN KMSN 122000Z 18010KT 10SM CLR 13/M01 A3032 500 39 400 180/10 RMK AO2
14837KMSN MSN20011112140509311/12/01 14:05:31  5-MIN KMSN 122005Z 19007KT 10SM CLR 13/M01 A3031 500 39 400 190/07 RMK AO2
14837KMSN MSN20011112141009311/12/01 14:10:31  5-MIN KMSN 122010Z 17009KT 10SM CLR 13/M01 A3031 500 39 400 170/09 RMK AO2
14837KMSN MSN20011112141509311/12/01 14:15:31  5-MIN KMSN 122015Z 17011KT 10SM CLR 13/M01 A3031 500 39 400 170/11 RMK AO2
14837KMSN MSN20011112142009311/12/01 14:20:31  5-MIN KMSN 122020Z 19010KT 10SM CLR 13/M01 A3031 500 39 400 190/10 RMK AO2
14837KMSN MSN20011112142509311/12/01 14:25:31  5-MIN KMSN 122025Z 18009KT 10SM CLR 13/M01 A3031 500 39 400 180/09 RMK AO2
14837KMSN MSN20011112143009311/12/01 14:30:31  5-MIN KMSN 122030Z 18009KT 10SM CLR 13/M01 A3031 510 39 400 180/09 RMK AO2
14837KMSN MSN20011112143509311/12/01 14:35:31  5-MIN KMSN 122035Z 18009KT 10SM CLR 13/M01 A3031 510 38 500 180/09 RMK AO2
14837KMSN MSN20011112144009311/12/01 14:40:31  5-MIN KMSN 122040Z 18010KT 10SM CLR 13/M01 A3031 510 36 500 180/10 RMK AO2
14837KMSN MSN20011112144509311/12/01 14:45:31  5-MIN KMSN 122045Z 19010KT 10SM CLR 13/M01 A3031 510 36 500 190/10 RMK AO2
14837KMSN MSN20011112145011611/12/01 14:50:31  5-MIN KMSN 122050Z 19011KT 10SM CLR 13/M01 A3031 510 36 500 190/11 RMK AO2 SLP269 T01331011 58017
14837KMSN MSN20011112145509311/12/01 14:55:31  5-MIN KMSN 122055Z 19010KT 10SM CLR 13/M01 A3030 510 38 400 190/10 RMK AO2
14837KMSN MSN20011112150009311/12/01 15:00:31  5-MIN KMSN 122100Z 18011KT 10SM CLR 13/M01 A3030 510 36 500 180/11 RMK AO2
14837KMSN MSN20011112150509311/12/01 15:05:31  5-MIN KMSN 122105Z 18009KT 10SM CLR 13/M01 A3030 510 38 400 180/09 RMK AO2
14837KMSN MSN20011112151009311/12/01 15:10:31  5-MIN KMSN 122110Z 19009KT 10SM CLR 13/M01 A3030 510 38 400 190/09 RMK AO2
14837KMSN MSN20011112151509311/12/01 15:15:31  5-MIN KMSN 122115Z 18011KT 10SM CLR 13/M01 A3030 520 38 400 180/11 RMK AO2
14837KMSN MSN20011112152009311/12/01 15:20:31  5-MIN KMSN 122120Z 19011KT 10SM CLR 13/M01 A3030 520 38 400 190/11 RMK AO2
14837KMSN MSN20011112152509311/12/01 15:25:31  5-MIN KMSN 122125Z 19010KT 10SM CLR 13/M01 A3030 520 38 400 190/10 RMK AO2
14837KMSN MSN20011112153009311/12/01 15:30:31  5-MIN KMSN 122130Z 18010KT 10SM CLR 13/M01 A3030 520 38 400 180/10 RMK AO2
14837KMSN MSN20011112153509311/12/01 15:35:31  5-MIN KMSN 122135Z 18010KT 10SM CLR 13/M01 A3030 520 38 400 180/10 RMK AO2
14837KMSN MSN20011112154009311/12/01 15:40:31  5-MIN KMSN 122140Z 18009KT 10SM CLR 13/M01 A3030 520 38 400 180/09 RMK AO2
14837KMSN MSN20011112154509311/12/01 15:45:31  5-MIN KMSN 122145Z 18007KT 10SM CLR 12/M01 A3030 520 39 300 180/07 RMK AO2
14837KMSN MSN20011112155011011/12/01 15:50:31  5-MIN KMSN 122150Z 17009KT 10SM CLR 12/M01 A3030 520 41 400 170/09 RMK AO2 SLP264 T01221006
14837KMSN MSN20011112155509311/12/01 15:55:31  5-MIN KMSN 122155Z 18010KT 10SM CLR 12/M01 A3029 520 41 400 180/10 RMK AO2
14837KMSN MSN20011112160009311/12/01 16:00:31  5-MIN KMSN 122200Z 18009KT 10SM CLR 12/M01 A3029 520 41 400 170/09 RMK AO2
14837KMSN MSN20011112160509311/12/01 16:05:31  5-MIN KMSN 122205Z 17009KT 10SM CLR 12/M01 A3029 520 42 300 170/09 RMK AO2
14837KMSN MSN20011112161009311/12/01 16:10:31  5-MIN KMSN 122210Z 17008KT 10SM CLR 12/M01 A3029 520 42 300 170/08 RMK AO2
14837KMSN MSN20011112161509311/12/01 16:15:31  5-MIN KMSN 122215Z 18007KT 10SM CLR 11/M01 A3029 530 42 200 180/07 RMK AO2
14837KMSN MSN20011112162009311/12/01 16:20:31  5-MIN KMSN 122220Z 18007KT 10SM CLR 11/M01 A3029 530 44 200 180/07 RMK AO2
14837KMSN MSN20011112162509311/12/01 16:25:31  5-MIN KMSN 122225Z 18007KT 10SM CLR 11/M01 A3029 530 42 200 180/07 RMK AO2
14837KMSN MSN20011112163009311/12/01 16:30:31  5-MIN KMSN 122230Z 18008KT 10SM CLR 11/M01 A3028 530 42 200 170/08 RMK AO2
14837KMSN MSN20011112163509311/12/01 16:35:31  5-MIN KMSN 122235Z 17007KT 10SM CLR 11/M01 A3028 530 44 200 170/07 RMK AO2
14837KMSN MSN20011112164009311/12/01 16:40:31  5-MIN KMSN 122240Z 17008KT 10SM CLR 11/M01 A3028 530 44 200 170/08 RMK AO2
14837KMSN MSN20011112164509311/12/01 16:45:31  5-MIN KMSN 122245Z 18007KT 10SM CLR 11/M01 A3028 530 42 200 180/07 RMK AO2
14837KMSN MSN20011112165011011/12/01 16:50:31  5-MIN KMSN 122250Z 18007KT 10SM CLR 10/M01 A3028 530 46 100 180/07 RMK AO2 SLP261 T01001011
14837KMSN MSN20011112165509111/12/01 16:55:31  5-MIN KMSN 122255Z 17007KT 10SM CLR 09/M01 A3028 530 47 0 170/07 RMK AO2
14837KMSN MSN20011112170009111/12/01 17:00:31  5-MIN KMSN 122300Z 17007KT 10SM CLR 09/M01 A3028 530 47 0 170/07 RMK AO2
14837KMSN MSN20011112170509111/12/01 17:05:31  5-MIN KMSN 122305Z 17008KT 10SM CLR 09/M01 A3028 530 49 0 170/08 RMK AO2
14837KMSN MSN20011112171009111/12/01 17:10:31  5-MIN KMSN 122310Z 17007KT 10SM CLR 09/M01 A3028 530 47 0 170/07 RMK AO2
14837KMSN MSN20011112171509311/12/01 17:15:31  5-MIN KMSN 122315Z 18008KT 10SM CLR 10/M01 A3028 530 47 100 170/08 RMK AO2
14837KMSN MSN20011112172009311/12/01 17:20:31  5-MIN KMSN 122320Z 18008KT 10SM CLR 10/M01 A3028 530 46 100 180/08 RMK AO2
14837KMSN MSN20011112172509311/12/01 17:25:31  5-MIN KMSN 122325Z 18009KT 10SM CLR 11/M01 A3028 530 46 200 180/09 RMK AO2
14837KMSN MSN20011112173009311/12/01 17:30:31  5-MIN KMSN 122330Z 18008KT 10SM CLR 11/M01 A3028 540 44 200 170/08 RMK AO2
14837KMSN MSN20011112173509311/12/01 17:35:31  5-MIN KMSN 122335Z 18009KT 10SM CLR 10/M01 A3028 540 47 100 180/09 RMK AO2
14837KMSN MSN20011112174009311/12/01 17:40:31  5-MIN KMSN 122340Z 17009KT 10SM CLR 10/M01 A3028 540 46 100 170/09 RMK AO2
14837KMSN MSN20011112174509311/12/01 17:45:31  5-MIN KMSN 122345Z 17008KT 10SM CLR 10/M01 A3028 540 46 100 170/08 RMK AO2
14837KMSN MSN20011112175012611/12/01 17:50:31  5-MIN KMSN 122350Z 17008KT 10SM CLR 09/M01 A3027 540 47 0 170/08 RMK AO2 SLP259 T00941011 10133 20089 56019
14837KMSN MSN20011112175509111/12/01 17:55:31  5-MIN KMSN 122355Z 16008KT 10SM CLR 09/M01 A3027 540 49 0 160/08 RMK AO2
14837KMSN MSN20011112180009111/12/01 18:00:31  5-MIN KMSN 130000Z 16006KT 10SM CLR 08/M01 A3027 540 51 0 160/06 RMK AO2
14837KMSN MSN20011112180509111/12/01 18:05:31  5-MIN KMSN 130005Z 16007KT 10SM CLR 08/M01 A3027 540 51 0 160/07 RMK AO2
14837KMSN MSN20011112181009111/12/01 18:10:31  5-MIN KMSN 130010Z 17007KT 10SM CLR 08/M01 A3027 540 51 0 170/07 RMK AO2
14837KMSN MSN20011112181509011/12/01 18:15:31  5-MIN KMSN 130015Z 17007KT 7SM CLR 08/M01 A3027 540 51 0 170/07 RMK AO2
14837KMSN MSN20011112182009711/12/01 18:20:31  5-MIN KMSN 130020Z 17008KT 2 1/2SM HZ CLR 08/M01 A3027 540 51 0 170/08 RMK AO2
14837KMSN MSN20011112182510911/12/01 18:25:31  5-MIN KMSN 130025Z 17008KT 1 1/2SM HZ CLR 09/M01 A3027 540 49 0 170/08 RMK AO2 VIS 1V2 1/2
14837KMSN MSN20011112183009111/12/01 18:30:31  5-MIN KMSN 130030Z 17008KT 10SM CLR 09/M01 A3027 550 49 0 170/08 RMK AO2
14837KMSN MSN20011112183509111/12/01 18:35:31  5-MIN KMSN 130035Z 17007KT 10SM CLR 08/M01 A3027 550 51 0 170/07 RMK AO2
14837KMSN MSN20011112184009111/12/01 18:40:31  5-MIN KMSN 130040Z 17008KT 10SM CLR 09/M01 A3026 550 49 0 170/08 RMK AO2
14837KMSN MSN20011112184509111/12/01 18:45:31  5-MIN KMSN 130045Z 17009KT 10SM CLR 09/M01 A3026 550 49 0 170/09 RMK AO2
14837KMSN MSN20011112185010811/12/01 18:50:31  5-MIN KMSN 130050Z 17010KT 10SM CLR 09/M01 A3026 550 49 0 170/10 RMK AO2 SLP255 T00891011
14837KMSN MSN20011112185509411/12/01 18:55:31  5-MIN KMSN 130055Z 17008KT 2 1/2SM CLR 09/M01 A3026 550 49 0 170/08 RMK AO2
14837KMSN MSN20011112190009111/12/01 19:00:31  5-MIN KMSN 130100Z 18009KT 10SM CLR 09/M01 A3026 550 49 0 180/09 RMK AO2
14837KMSN MSN20011112190509111/12/01 19:05:31  5-MIN KMSN 130105Z 18008KT 10SM CLR 09/M01 A3026 550 49 0 180/08 RMK AO2
14837KMSN MSN20011112191009311/12/01 19:10:31  5-MIN KMSN 130110Z 18008KT 10SM CLR 09/M01 A3026 550 47 100 180/08 RMK AO2
14837KMSN MSN20011112191509311/12/01 19:15:31  5-MIN KMSN 130115Z 18008KT 10SM CLR 09/M01 A3027 550 47 100 180/08 RMK AO2
14837KMSN MSN20011112192009111/12/01 19:20:31  5-MIN KMSN 130120Z 18008KT 10SM CLR 09/M01 A3027 550 49 0 180/08 RMK AO2
14837KMSN MSN20011112192509111/12/01 19:25:31  5-MIN KMSN 130125Z 17008KT 10SM CLR 08/M01 A3027 550 51 0 170/08 RMK AO2
14837KMSN MSN20011112193009111/12/01 19:30:31  5-MIN KMSN 130130Z 18008KT 10SM CLR 08/M01 A3027 550 51 0 170/08 RMK AO2
14837KMSN MSN20011112193509111/12/01 19:35:31  5-MIN KMSN 130135Z 17008KT 10SM CLR 08/M01 A3026 550 51 0 170/08 RMK AO2
14837KMSN MSN20011112194009411/12/01 19:40:31  5-MIN KMSN 130140Z 17009KT 10SM CLR 08/M01 A3026 550 53 -100 170/09 RMK AO2
14837KMSN MSN20011112194509411/12/01 19:45:31  5-MIN KMSN 130145Z 17008KT 10SM CLR 07/M01 A3026 550 55 -200 170/08 RMK AO2
14837KMSN MSN20011112195011111/12/01 19:50:31  5-MIN KMSN 130150Z 17008KT 10SM CLR 07/M01 A3026 550 55 -200 170/08 RMK AO2 SLP254 T00721011
14837KMSN MSN20011112195509411/12/01 19:55:31  5-MIN KMSN 130155Z 17008KT 10SM CLR 07/M01 A3026 550 55 -200 170/08 RMK AO2
14837KMSN MSN20011112200009411/12/01 20:00:31  5-MIN KMSN 130200Z 18006KT 10SM CLR 07/M01 A3026 550 55 -200 180/06 RMK AO2
14837KMSN MSN20011112200509411/12/01 20:05:31  5-MIN KMSN 130205Z 18006KT 10SM CLR 08/M01 A3026 550 53 -100 180/06 RMK AO2
14837KMSN MSN20011112201009411/12/01 20:10:31  5-MIN KMSN 130210Z 18006KT 10SM CLR 08/M01 A3026 550 53 -100 180/06 RMK AO2
14837KMSN MSN20011112201509411/12/01 20:15:31  5-MIN KMSN 130215Z 18006KT 10SM CLR 08/M01 A3027 550 53 -100 180/06 RMK AO2
14837KMSN MSN20011112202009411/12/01 20:20:31  5-MIN KMSN 130220Z 18005KT 10SM CLR 08/M01 A3027 550 53 -100 180/05 RMK AO2
14837KMSN MSN20011112202509411/12/01 20:25:31  5-MIN KMSN 130225Z 18005KT 10SM CLR 08/M01 A3027 540 53 -100 180/05 RMK AO2
14837KMSN MSN20011112203009411/12/01 20:30:31  5-MIN KMSN 130230Z 18006KT 10SM CLR 08/M01 A3027 550 53 -100 180/06 RMK AO2
14837KMSN MSN20011112203509411/12/01 20:35:31  5-MIN KMSN 130235Z 18004KT 10SM CLR 07/M01 A3027 550 57 -200 180/04 RMK AO2
14837KMSN MSN20011112204009411/12/01 20:40:31  5-MIN KMSN 130240Z 18004KT 10SM CLR 06/M01 A3027 540 62 -400 180/04 RMK AO2
14837KMSN MSN20011112204509411/12/01 20:45:31  5-MIN KMSN 130245Z 18004KT 10SM CLR 06/M01 A3027 540 60 -300 180/04 RMK AO2
14837KMSN MSN20011112205011711/12/01 20:50:31  5-MIN KMSN 130250Z 18005KT 10SM CLR 07/M01 A3027 540 57 -200 180/05 RMK AO2 SLP257 T00721006 56010
14837KMSN MSN20011112205509411/12/01 20:55:31  5-MIN KMSN 130255Z 18006KT 10SM CLR 07/M01 A3027 540 57 -200 180/06 RMK AO2
14837KMSN MSN20011112210009411/12/01 21:00:31  5-MIN KMSN 130300Z 18006KT 10SM CLR 07/M01 A3027 540 57 -200 180/06 RMK AO2
14837KMSN MSN20011112210509411/12/01 21:05:31  5-MIN KMSN 130305Z 18007KT 10SM CLR 07/M01 A3027 540 57 -200 180/07 RMK AO2
14837KMSN MSN20011112211009411/12/01 21:10:31  5-MIN KMSN 130310Z 18006KT 10SM CLR 07/M01 A3027 540 57 -200 180/06 RMK AO2
14837KMSN MSN20011112211509411/12/01 21:15:31  5-MIN KMSN 130315Z 18006KT 10SM CLR 06/M01 A3027 540 62 -300 180/06 RMK AO2
14837KMSN MSN20011112212009411/12/01 21:20:31  5-MIN KMSN 130320Z 18006KT 10SM CLR 06/M01 A3027 550 62 -300 180/06 RMK AO2
14837KMSN MSN20011112212509411/12/01 21:25:31  5-MIN KMSN 130325Z 18007KT 10SM CLR 07/M01 A3027 550 60 -200 180/07 RMK AO2
14837KMSN MSN20011112213009411/12/01 21:30:31  5-MIN KMSN 130330Z 18008KT 10SM CLR 07/M02 A3026 550 51 -200 180/08 RMK AO2
14837KMSN MSN20011112213509411/12/01 21:35:31  5-MIN KMSN 130335Z 18007KT 10SM CLR 07/M01 A3026 550 55 -200 180/07 RMK AO2
14837KMSN MSN20011112214009411/12/01 21:40:31  5-MIN KMSN 130340Z 18008KT 10SM CLR 08/M01 A3026 550 55 -100 180/08 RMK AO2
14837KMSN MSN20011112214509411/12/01 21:45:31  5-MIN KMSN 130345Z 18008KT 10SM CLR 08/M01 A3026 550 55 -100 180/08 RMK AO2
14837KMSN MSN20011112215011111/12/01 21:50:31  5-MIN KMSN 130350Z 18009KT 10SM CLR 08/M01 A3026 550 55 -100 180/09 RMK AO2 SLP253 T00781006
14837KMSN MSN20011112215509411/12/01 21:55:31  5-MIN KMSN 130355Z 18008KT 10SM CLR 08/M01 A3026 550 55 -100 180/08 RMK AO2
14837KMSN MSN20011112220009411/12/01 22:00:31  5-MIN KMSN 130400Z 18008KT 10SM CLR 08/M01 A3026 550 55 -100 180/08 RMK AO2
14837KMSN MSN20011112220509411/12/01 22:05:31  5-MIN KMSN 130405Z 18008KT 10SM CLR 07/M01 A3026 560 57 -200 180/08 RMK AO2
14837KMSN MSN20011112221009411/12/01 22:10:31  5-MIN KMSN 130410Z 18010KT 10SM CLR 08/M01 A3025 560 55 -100 170/10 RMK AO2
14837KMSN MSN20011112221509411/12/01 22:15:31  5-MIN KMSN 130415Z 18009KT 10SM CLR 07/M01 A3025 560 57 -200 180/09 RMK AO2
14837KMSN MSN20011112222009411/12/01 22:20:31  5-MIN KMSN 130420Z 18009KT 10SM CLR 07/M01 A3025 560 57 -100 170/09 RMK AO2
14837KMSN MSN20011112222509711/12/01 22:25:31  5-MIN KMSN 130425Z 18010KT 10SM FEW110 08/M01 A3025 560 55 -100 180/10 RMK AO2
14837KMSN MSN20011112223009711/12/01 22:30:31  5-MIN KMSN 130430Z 18009KT 10SM SCT110 08/M01 A3025 560 55 -100 180/09 RMK AO2
14837KMSN MSN20011112223509411/12/01 22:35:31  5-MIN KMSN 130435Z 18008KT 10SM BKN110 08/M01 A3025 560 53 0 180/08 RMK AO2
14837KMSN MSN20011112224009411/12/01 22:40:31  5-MIN KMSN 130440Z 18008KT 10SM BKN110 08/M01 A3025 560 53 0 180/08 RMK AO2
14837KMSN MSN20011112224509411/12/01 22:45:31  5-MIN KMSN 130445Z 18011KT 10SM BKN110 08/M01 A3025 560 53 0 180/11 RMK AO2
14837KMSN MSN20011112225011111/12/01 22:50:31  5-MIN KMSN 130450Z 19010KT 10SM OVC110 09/M01 A3025 560 51 0 190/10 RMK AO2 SLP247 T00891006
14837KMSN MSN20011112225509411/12/01 22:55:31  5-MIN KMSN 130455Z 18010KT 10SM OVC110 09/M01 A3024 570 51 0 180/10 RMK AO2
14837KMSN MSN20011112230009411/12/01 23:00:31  5-MIN KMSN 130500Z 18010KT 10SM OVC120 09/M01 A3024 570 51 0 180/10 RMK AO2
14837KMSN MSN20011112230509411/12/01 23:05:31  5-MIN KMSN 130505Z 18012KT 10SM OVC110 09/M01 A3024 570 51 0 180/12 RMK AO2
14837KMSN MSN20011112231010111/12/01 23:10:31  5-MIN KMSN 130510Z 18010KT 10SM FEW090 OVC110 09/M01 A3024 570 51 0 180/10 RMK AO2
14837KMSN MSN20011112231509411/12/01 23:15:31  5-MIN KMSN 130515Z 19012KT 10SM OVC110 09/M01 A3024 570 51 0 180/12 RMK AO2
14837KMSN MSN20011112232010111/12/01 23:20:31  5-MIN KMSN 130520Z 19012KT 10SM SCT090 OVC110 09/M01 A3024 570 51 0 190/12 RMK AO2
14837KMSN MSN20011112232509411/12/01 23:25:31  5-MIN KMSN 130525Z 19011KT 10SM OVC100 09/M01 A3024 570 51 0 190/11 RMK AO2
14837KMSN MSN20011112233009411/12/01 23:30:31  5-MIN KMSN 130530Z 18011KT 10SM OVC100 09/M01 A3024 570 51 0 180/11 RMK AO2
14837KMSN MSN20011112233510111/12/01 23:35:31  5-MIN KMSN 130535Z 19010KT 10SM FEW090 OVC110 09/M01 A3024 570 51 0 190/10 RMK AO2
14837KMSN MSN20011112234010111/12/01 23:40:31  5-MIN KMSN 130540Z 18010KT 10SM FEW090 OVC110 09/M01 A3024 570 51 0 180/10 RMK AO2
14837KMSN MSN20011112234510111/12/01 23:45:31  5-MIN KMSN 130545Z 18008KT 10SM FEW090 OVC120 09/M01 A3023 580 51 0 180/08 RMK AO2
14837KMSN MSN20011112235014111/12/01 23:50:31  5-MIN KMSN 130550Z 18009KT 10SM OVC110 09/M01 A3023 580 49 100 180/09 RMK AO2 SLP241 T00941006 10094 20056 401331017 55001
14837KMSN MSN20011112235509411/12/01 23:55:31  5-MIN KMSN 130555Z 20008KT 10SM OVC120 09/M01 A3024 570 51 0 190/08 RMK AO2
14837KMSN MSN20011113000010311/13/01 00:00:31  5-MIN KMSN 130600Z 19008KT 10SM FEW090 OVC120 09/M01 A3024 570 49 100 190/08 RMK AO2
14837KMSN MSN20011113000510311/13/01 00:05:31  5-MIN KMSN 130605Z 20010KT 10SM FEW090 OVC120 09/M01 A3024 570 49 100 200/10 RMK AO2
14837KMSN MSN20011113001009611/13/01 00:10:31  5-MIN KMSN 130610Z 19010KT 10SM OVC120 09/M01 A3023 580 49 100 190/10 RMK AO2
14837KMSN MSN20011113001509411/13/01 00:15:31  5-MIN KMSN 130615Z 19010KT 10SM OVC120 09/M01 A3023 580 51 0 190/10 RMK AO2
14837KMSN MSN20011113002009411/13/01 00:20:31  5-MIN KMSN 130620Z 19009KT 10SM OVC120 09/M01 A3023 580 51 0 190/09 RMK AO2
14837KMSN MSN20011113002510111/13/01 00:25:31  5-MIN KMSN 130625Z 19010KT 10SM FEW090 OVC120 09/M01 A3023 580 51 0 190/10 RMK AO2
14837KMSN MSN20011113003010111/13/01 00:30:31  5-MIN KMSN 130630Z 19008KT 10SM FEW090 OVC120 09/M01 A3023 580 51 0 190/08 RMK AO2
14837KMSN MSN20011113003510111/13/01 00:35:31  5-MIN KMSN 130635Z 19008KT 10SM FEW090 OVC120 09/M01 A3023 580 51 0 190/08 RMK AO2
14837KMSN MSN20011113004009411/13/01 00:40:31  5-MIN KMSN 130640Z 19009KT 10SM BKN120 09/M01 A3022 580 51 0 190/09 RMK AO2
14837KMSN MSN20011113004509411/13/01 00:45:31  5-MIN KMSN 130645Z 18010KT 10SM OVC110 09/M01 A3022 590 51 0 180/10 RMK AO2
14837KMSN MSN20011113005011811/13/01 00:50:31  5-MIN KMSN 130650Z 18009KT 10SM SCT100 OVC120 09/M01 A3022 590 51 0 180/09 RMK AO2 SLP237 T00891006
14837KMSN MSN20011113005510111/13/01 00:55:31  5-MIN KMSN 130655Z 18009KT 10SM SCT095 OVC120 09/M01 A3022 590 51 0 180/09 RMK AO2
14837KMSN MSN20011113010010111/13/01 01:00:31  5-MIN KMSN 130700Z 18008KT 10SM SCT095 OVC120 09/M01 A3022 590 51 0 180/08 RMK AO2
14837KMSN MSN20011113010510111/13/01 01:05:31  5-MIN KMSN 130705Z 17010KT 10SM BKN095 OVC120 09/M01 A3021 590 51 0 170/10 RMK AO2
14837KMSN MSN20011113011010111/13/01 01:10:31  5-MIN KMSN 130710Z 18009KT 10SM BKN100 BKN120 08/M01 A3021 590 53 0 180/09 RMK AO2
14837KMSN MSN20011113011510111/13/01 01:15:31  5-MIN KMSN 130715Z 18008KT 10SM SCT095 BKN120 08/M01 A3021 590 53 0 180/08 RMK AO2
14837KMSN MSN20011113012010111/13/01 01:20:31  5-MIN KMSN 130720Z 18008KT 10SM SCT095 BKN120 08/M01 A3021 590 53 0 180/08 RMK AO2
14837KMSN MSN20011113012510111/13/01 01:25:31  5-MIN KMSN 130725Z 18007KT 10SM FEW095 SCT120 08/M01 A3021 590 53 0 180/07 RMK AO2
14837KMSN MSN20011113013009411/13/01 01:30:31  5-MIN KMSN 130730Z 18007KT 10SM FEW100 08/M01 A3021 600 53 0 180/07 RMK AO2
14837KMSN MSN20011113013509411/13/01 01:35:31  5-MIN KMSN 130735Z 18008KT 10SM FEW100 08/M01 A3021 600 53 0 180/08 RMK AO2
14837KMSN MSN20011113014009411/13/01 01:40:31  5-MIN KMSN 130740Z 17009KT 10SM FEW100 08/M01 A3021 600 53 0 170/09 RMK AO2
14837KMSN MSN20011113014509411/13/01 01:45:31  5-MIN KMSN 130745Z 17009KT 10SM FEW100 09/M01 A3021 600 51 0 170/09 RMK AO2
14837KMSN MSN20011113015011211/13/01 01:50:31  5-MIN KMSN 130750Z 18009KT 10SM BKN100 09/01 A3021 600 56 100 170/09 RMK AO2 SLP232 T00890006
14837KMSN MSN20011113015509511/13/01 01:55:31  5-MIN KMSN 130755Z 18009KT 10SM SCT100 09/01 A3020 600 56 100 180/09 RMK AO2
14837KMSN MSN20011113020009511/13/01 02:00:31  5-MIN KMSN 130800Z 18009KT 10SM SCT100 09/01 A3020 600 56 100 180/09 RMK AO2
14837KMSN MSN20011113020509511/13/01 02:05:31  5-MIN KMSN 130805Z 19009KT 10SM BKN100 09/00 A3021 600 53 100 180/09 RMK AO2
14837KMSN MSN20011113021009511/13/01 02:10:31  5-MIN KMSN 130810Z 19009KT 10SM BKN100 09/00 A3021 600 53 100 190/09 RMK AO2
14837KMSN MSN20011113021509511/13/01 02:15:31  5-MIN KMSN 130815Z 19011KT 10SM BKN100 09/00 A3021 600 53 100 190/11 RMK AO2
14837KMSN MSN20011113022009511/13/01 02:20:31  5-MIN KMSN 130820Z 18010KT 10SM BKN100 09/00 A3020 600 53 100 180/10 RMK AO2
14837KMSN MSN20011113022509511/13/01 02:25:31  5-MIN KMSN 130825Z 18011KT 10SM OVC100 09/00 A3020 600 53 100 180/11 RMK AO2
14837KMSN MSN20011113023009511/13/01 02:30:31  5-MIN KMSN 130830Z 18010KT 10SM OVC100 09/00 A3020 610 53 100 180/10 RMK AO2
14837KMSN MSN20011113023509511/13/01 02:35:31  5-MIN KMSN 130835Z 19009KT 10SM OVC100 09/00 A3020 600 53 100 190/09 RMK AO2
14837KMSN MSN20011113024009511/13/01 02:40:31  5-MIN KMSN 130840Z 19009KT 10SM BKN100 09/00 A3020 610 53 100 190/09 RMK AO2
14837KMSN MSN20011113024509511/13/01 02:45:31  5-MIN KMSN 130845Z 19009KT 10SM BKN095 09/00 A3020 610 53 100 180/09 RMK AO2
14837KMSN MSN20011113025012511/13/01 02:50:31  5-MIN KMSN 130850Z 18008KT 10SM FEW070 BKN095 09/00 A3020 610 53 100 180/08 RMK AO2 SLP229 T00890000 57011
14837KMSN MSN20011113025510911/13/01 02:55:31  5-MIN KMSN 130855Z 19009KT 10SM FEW070 BKN095 BKN120 09/00 A3019 610 53 100 190/09 RMK AO2
14837KMSN MSN20011113030010911/13/01 03:00:31  5-MIN KMSN 130900Z 18011KT 10SM FEW070 BKN095 BKN120 09/00 A3019 620 53 100 180/11 RMK AO2
14837KMSN MSN20011113030510211/13/01 03:05:31  5-MIN KMSN 130905Z 19010KT 10SM FEW075 BKN090 09/00 A3019 620 51 100 190/10 RMK AO2
14837KMSN MSN20011113031010211/13/01 03:10:31  5-MIN KMSN 130910Z 19010KT 10SM SCT070 BKN090 09/00 A3019 620 51 100 190/10 RMK AO2
14837KMSN MSN20011113031510211/13/01 03:15:31  5-MIN KMSN 130915Z 19011KT 10SM BKN070 OVC095 09/00 A3019 620 51 100 190/11 RMK AO2
14837KMSN MSN20011113032010211/13/01 03:20:31  5-MIN KMSN 130920Z 20010KT 10SM BKN075 OVC095 09/00 A3019 620 51 100 190/10 RMK AO2
14837KMSN MSN20011113032510211/13/01 03:25:31  5-MIN KMSN 130925Z 19009KT 10SM BKN070 OVC090 09/00 A3018 620 51 100 190/09 RMK AO2
14837KMSN MSN20011113033010211/13/01 03:30:31  5-MIN KMSN 130930Z 19012KT 10SM SCT070 OVC090 09/00 A3018 620 51 100 190/12 RMK AO2
14837KMSN MSN20011113033511811/13/01 03:35:31  5-MIN KMSN 130935Z 19012KT 10SM -RA SCT070 OVC085 09/01 A3018 620 53 100 190/12 RMK AO2 RAB31 P0000
14837KMSN MSN20011113034011111/13/01 03:40:31  5-MIN KMSN 130940Z 19012KT 10SM -RA OVC080 09/01 A3018 620 53 100 190/12 RMK AO2 RAB31 P0000
14837KMSN MSN20011113034512411/13/01 03:45:31  5-MIN KMSN 130945Z 19012KT 10SM FEW050 SCT070 OVC085 09/01 A3018 630 53 100 190/12 RMK AO2 RAB31E44 P0000
14837KMSN MSN20011113035013511/13/01 03:50:31  5-MIN KMSN 130950Z 19012KT 10SM -RA FEW050 OVC085 09/01 A3018 630 56 100 190/12 RMK AO2 RAB31 SLP222 P0000 T00890006
14837KMSN MSN20011113035511911/13/01 03:55:31  5-MIN KMSN 130955Z 19010KT 10SM -RA SCT050 SCT065 OVC085 09/01 A3018 620 58 100 190/10 RMK AO2 P0000
14837KMSN MSN20011113040012311/13/01 04:00:31  5-MIN KMSN 131000Z 18010KT 10SM SCT050 BKN070 OVC085 09/01 A3018 630 58 100 180/10 RMK AO2 RAE0959 P0000
14837KMSN MSN20011113040511811/13/01 04:05:31  5-MIN KMSN 131005Z 18013G17KT 10SM -RA SCT050 OVC075 09/01 A3017 640 58 100 170/13G17 RMK AO2 P0000
14837KMSN MSN20011113041011011/13/01 04:10:31  5-MIN KMSN 131010Z 17011KT 10SM -RA SCT050 OVC070 08/02 A3017 640 63 0 170/11 RMK AO2 P0000
14837KMSN MSN20011113041511011/13/01 04:15:31  5-MIN KMSN 131015Z 18010KT 10SM -RA SCT050 OVC065 08/02 A3017 640 65 0 180/10 RMK AO2 P0000
14837KMSN MSN20011113042011011/13/01 04:20:31  5-MIN KMSN 131020Z 18010KT 10SM -RA BKN048 OVC070 08/03 A3017 640 68 0 180/10 RMK AO2 P0000
14837KMSN MSN20011113042511211/13/01 04:25:31  5-MIN KMSN 131025Z 18009KT 10SM BKN048 OVC070 08/02 A3017 640 65 0 180/09 RMK AO2 RAE24 P0000
14837KMSN MSN20011113043011211/13/01 04:30:31  5-MIN KMSN 131030Z 19008KT 10SM BKN048 OVC065 08/02 A3017 640 65 0 190/08 RMK AO2 RAE24 P0000
14837KMSN MSN20011113043511211/13/01 04:35:31  5-MIN KMSN 131035Z 18007KT 10SM BKN048 OVC065 08/02 A3017 640 65 0 180/07 RMK AO2 RAE24 P0000
14837KMSN MSN20011113044010711/13/01 04:40:31  5-MIN KMSN 131040Z 18009KT 10SM OVC048 09/02 A3017 640 63 100 180/09 RMK AO2 RAE24 P0000
14837KMSN MSN20011113044510711/13/01 04:45:31  5-MIN KMSN 131045Z 18008KT 10SM OVC048 09/02 A3016 640 63 100 180/08 RMK AO2 RAE24 P0000
14837KMSN MSN20011113045012411/13/01 04:50:31  5-MIN KMSN 131050Z 18011KT 10SM OVC048 09/02 A3016 640 60 100 180/11 RMK AO2 RAE24 SLP217 P0000 T00890017
14837KMSN MSN20011113045509511/13/01 04:55:31  5-MIN KMSN 131055Z 19009KT 10SM OVC048 09/02 A3016 640 60 100 190/09 RMK AO2
14837KMSN MSN20011113050009511/13/01 05:00:31  5-MIN KMSN 131100Z 19009KT 10SM OVC048 09/02 A3016 640 58 200 190/09 RMK AO2
14837KMSN MSN20011113050509511/13/01 05:05:31  5-MIN KMSN 131105Z 18010KT 10SM OVC048 09/01 A3016 640 56 200 180/10 RMK AO2
14837KMSN MSN20011113051009511/13/01 05:10:31  5-MIN KMSN 131110Z 18011KT 10SM OVC048 09/01 A3016 640 56 200 180/11 RMK AO2
14837KMSN MSN20011113051509511/13/01 05:15:31  5-MIN KMSN 131115Z 18010KT 10SM OVC048 09/01 A3016 640 56 200 180/10 RMK AO2
14837KMSN MSN20011113052009511/13/01 05:20:31  5-MIN KMSN 131120Z 19009KT 10SM OVC048 09/01 A3016 640 56 200 190/09 RMK AO2
14837KMSN MSN20011113052509511/13/01 05:25:31  5-MIN KMSN 131125Z 18011KT 10SM OVC048 09/01 A3016 650 56 200 180/11 RMK AO2
14837KMSN MSN20011113053010111/13/01 05:30:31  5-MIN KMSN 131130Z 18010G17KT 10SM OVC050 09/01 A3015 650 53 200 180/10G17 RMK AO2
14837KMSN MSN20011113053510111/13/01 05:35:31  5-MIN KMSN 131135Z 19012G17KT 10SM OVC050 09/01 A3015 650 53 200 190/12G17 RMK AO2
14837KMSN MSN20011113054011111/13/01 05:40:31  5-MIN KMSN 131140Z 19011KT 10SM -RA OVC050 09/01 A3016 650 53 200 190/11 RMK AO2 RAB40 P0000
14837KMSN MSN20011113054512411/13/01 05:45:31  5-MIN KMSN 131145Z 19012G19KT 10SM -RA BKN050 OVC065 09/01 A3016 650 56 200 190/12G19 RMK AO2 RAB40 P0000
14837KMSN MSN20011113055016511/13/01 05:50:31  5-MIN KMSN 131150Z 19014G19KT 10SM -RA BKN048 OVC075 09/02 A3016 640 60 100 190/14G19 RMK AO2 RAB40 SLP217 P0000 60000 T00890017 10094 20083 56014
14837KMSN MSN20011113055511811/13/01 05:55:31  5-MIN KMSN 131155Z 19014G18KT 10SM -RA BKN048 OVC080 09/03 A3015 650 65 100 190/14G18 RMK AO2 P0000
14837KMSN MSN20011113060011011/13/01 06:00:31  5-MIN KMSN 131200Z 19013KT 10SM -RA SCT048 OVC075 08/03 A3015 650 68 0 190/13 RMK AO2 P0000
14837KMSN MSN20011113060511011/13/01 06:05:31  5-MIN KMSN 131205Z 19012KT 10SM -RA SCT048 OVC075 08/03 A3015 650 70 0 190/12 RMK AO2 P0001
14837KMSN MSN20011113061011011/13/01 06:10:31  5-MIN KMSN 131210Z 19010KT 10SM -RA FEW046 OVC075 08/03 A3015 650 73 0 190/10 RMK AO2 P0001
14837KMSN MSN20011113061511011/13/01 06:15:31  5-MIN KMSN 131215Z 19010KT 10SM -RA FEW046 OVC080 08/03 A3015 650 73 0 190/10 RMK AO2 P0001
14837KMSN MSN20011113062010311/13/01 06:20:31  5-MIN KMSN 131220Z 19010KT 10SM -RA OVC080 08/04 A3014 660 76 0 190/10 RMK AO2 P0001
14837KMSN MSN20011113062510311/13/01 06:25:31  5-MIN KMSN 131225Z 18012KT 10SM -RA OVC080 08/04 A3014 660 76 0 180/12 RMK AO2 P0001
14837KMSN MSN20011113063010311/13/01 06:30:31  5-MIN KMSN 131230Z 18010KT 10SM -RA OVC080 08/04 A3014 660 76 0 180/10 RMK AO2 P0001
14837KMSN MSN20011113063510311/13/01 06:35:31  5-MIN KMSN 131235Z 19009KT 10SM -RA OVC080 08/04 A3014 660 76 0 180/09 RMK AO2 P0001
14837KMSN MSN20011113064010311/13/01 06:40:31  5-MIN KMSN 131240Z 19008KT 10SM -RA OVC075 08/04 A3014 660 76 0 190/08 RMK AO2 P0001
14837KMSN MSN20011113064510211/13/01 06:45:31  5-MIN KMSN 131245Z 19010KT 9SM -RA OVC075 08/04 A3015 660 76 0 190/10 RMK AO2 P0002
14837KMSN MSN20011113065012611/13/01 06:50:31  5-MIN KMSN 131250Z 20008KT 9SM -RA FEW023 OVC075 08/04 A3015 650 76 0 200/08 RMK AO2 SLP216 P0002 T00780039
14837KMSN MSN20011113065511011/13/01 06:55:31  5-MIN KMSN 131255Z 19011KT 10SM -RA SCT021 OVC075 08/04 A3015 650 76 0 190/11 RMK AO2 P0000
14837KMSN MSN20011113070011711/13/01 07:00:31  5-MIN KMSN 131300Z 19010KT 10SM -RA BKN021 BKN060 OVC075 08/04 A3015 660 76 0 190/10 RMK AO2 P0000
14837KMSN MSN20011113070511711/13/01 07:05:31  5-MIN KMSN 131305Z 19011KT 10SM -RA SCT021 BKN048 OVC075 08/04 A3015 650 76 0 190/11 RMK AO2 P0000
14837KMSN MSN20011113071011711/13/01 07:10:31  5-MIN KMSN 131310Z 21008KT 10SM -RA BKN021 BKN048 OVC075 08/04 A3016 640 76 0 210/08 RMK AO2 P0000
14837KMSN MSN20011113071511911/13/01 07:15:31  5-MIN KMSN 131315Z 21008KT 8SM -RA BKN021 BKN048 OVC075 07/04 A3017 640 82 -100 210/08 RMK AO2 P0001
14837KMSN MSN20011113072012911/13/01 07:20:31  5-MIN KMSN 131320Z 21006KT 3SM -RA BKN021 BKN048 OVC075 07/04 A3016 640 82 -100 210/06 RMK AO2 SFC VIS 7 P0002
14837KMSN MSN20011113072512611/13/01 07:25:31  5-MIN KMSN 131325Z 19008KT 3SM -RA BKN021 BKN048 OVC075 07/04 A3016 640 82 0 190/08 RMK AO2 SFC VIS 5 P0002
14837KMSN MSN20011113073011811/13/01 07:30:31  5-MIN KMSN 131330Z 19009KT 3SM RA BR FEW032 BKN046 OVC060 07/05 A3016 640 86 0 190/09 RMK AO2 P0003
14837KMSN MSN20011113073512911/13/01 07:35:31  5-MIN KMSN 131335Z 19009KT 3SM -RA BR FEW032 BKN046 OVC060 07/05 A3016 640 86 0 190/09 RMK AO2 SFC VIS 5 P0003
14837KMSN MSN20011113074011811/13/01 07:40:31  5-MIN KMSN 131340Z 19010KT 3SM RA BR FEW029 BKN046 OVC060 07/05 A3015 650 86 0 190/10 RMK AO2 P0004
14837KMSN MSN20011113074512111/13/01 07:45:31  5-MIN KMSN 131345Z 20010KT 3SM RA BR FEW029 BKN046 OVC060 07/05 A3016 650 89 -100 190/10 RMK AO2 P0005
14837KMSN MSN20011113075013911/13/01 07:50:31  5-MIN KMSN 131350Z 20012KT 3SM -RA BR SCT032 BKN046 OVC060 07/05 A3016 650 89 -100 200/12 RMK AO2 SLP216 P0006 T00670050
14837KMSN MSN20011113075512211/13/01 07:55:31  5-MIN KMSN 131355Z 19010KT 5SM -RA BR FEW028 BKN036 OVC050 07/05 A3015 650 89 -100 190/10 RMK AO2 P0000
14837KMSN MSN20011113080012211/13/01 08:00:31  5-MIN KMSN 131400Z 18009KT 4SM -RA BR FEW029 BKN036 OVC048 07/05 A3015 650 89 -100 180/09 RMK AO2 P0000
14837KMSN MSN20011113080511511/13/01 08:05:31  5-MIN KMSN 131405Z 18009KT 4SM -RA BR BKN034 OVC047 07/06 A3015 650 93 -100 180/09 RMK AO2 P0000
14837KMSN MSN20011113081011511/13/01 08:10:31  5-MIN KMSN 131410Z 19008KT 4SM -RA BR FEW030 OVC040 07/06 A3015 650 93 -100 190/08 RMK AO2 P0000
14837KMSN MSN20011113081511511/13/01 08:15:31  5-MIN KMSN 131415Z 19009KT 4SM -RA BR FEW029 OVC039 07/06 A3015 650 93 -100 190/09 RMK AO2 P0000
14837KMSN MSN20011113082012411/13/01 08:20:31  5-MIN KMSN 131420Z 19011KT 4SM BR FEW031 BKN038 OVC045 07/06 A3015 650 93 -100 190/11 RMK AO2 RAE18 P0000
14837KMSN MSN20011113082511711/13/01 08:25:31  5-MIN KMSN 131425Z 19009KT 6SM BR FEW010 OVC040 07/06 A3015 650 93 -100 190/09 RMK AO2 RAE18 P0000
14837KMSN MSN20011113083011711/13/01 08:30:31  5-MIN KMSN 131430Z 19010KT 6SM BR FEW010 OVC040 07/06 A3015 650 93 -100 190/10 RMK AO2 RAE18 P0000
14837KMSN MSN20011113083511511/13/01 08:35:31  5-MIN KMSN 131435Z 19011KT 5SM -RA BR FEW010 OVC038 07/06 A3015 650 93 -100 190/11 RMK AO2 P0000
14837KMSN MSN20011113084011511/13/01 08:40:31  5-MIN KMSN 131440Z 19011KT 6SM -RA BR FEW010 OVC038 07/06 A3015 650 93 -100 190/11 RMK AO2 P0000
14837KMSN MSN20011113084511211/13/01 08:45:31  5-MIN KMSN 131445Z 20009KT 6SM -RA BR FEW010 OVC036 07/06 A3015 650 89 0 190/09 RMK AO2 P0000
14837KMSN MSN20011113085014111/13/01 08:50:31  5-MIN KMSN 131450Z 19009KT 6SM -RA BR FEW010 OVC036 07/06 A3015 650 89 0 190/09 RMK AO2 SLP214 P0001 60009 T00720056 56013
14837KMSN MSN20011113085511211/13/01 08:55:31  5-MIN KMSN 131455Z 19010KT 6SM -RA BR FEW010 OVC036 07/06 A3015 650 89 0 190/10 RMK AO2 P0000
14837KMSN MSN20011113090011811/13/01 09:00:31  5-MIN KMSN 131500Z 19010KT 4SM RA BR FEW010 BKN030 OVC034 07/06 A3015 660 89 0 190/10 RMK AO2 P0001
14837KMSN MSN20011113090511211/13/01 09:05:31  5-MIN KMSN 131505Z 19009KT 4SM -RA BR BKN030 OVC034 07/06 A3015 650 89 0 190/09 RMK AO2 P0001
14837KMSN MSN20011113091011111/13/01 09:10:31  5-MIN KMSN 131510Z 19012G17KT 4SM -RA BR OVC030 07/06 A3015 660 89 0 190/12G17 RMK AO2 P0002
14837KMSN MSN20011113091511111/13/01 09:15:31  5-MIN KMSN 131515Z 19010G17KT 4SM -RA BR OVC030 07/06 A3015 660 89 0 190/10G17 RMK AO2 P0002
14837KMSN MSN20011113092010511/13/01 09:20:31  5-MIN KMSN 131520Z 19011KT 4SM -RA BR OVC030 07/06 A3015 650 89 0 190/11 RMK AO2 P0003
14837KMSN MSN20011113092510411/13/01 09:25:31  5-MIN KMSN 131525Z 19012KT 3SM RA BR OVC028 07/06 A3015 660 89 0 190/12 RMK AO2 P0004
14837KMSN MSN20011113093010411/13/01 09:30:31  5-MIN KMSN 131530Z 19010KT 3SM RA BR OVC028 07/06 A3015 660 89 0 190/10 RMK AO2 P0005
14837KMSN MSN20011113093510511/13/01 09:35:31  5-MIN KMSN 131535Z 19012KT 3SM -RA BR OVC028 07/06 A3015 650 89 0 190/12 RMK AO2 P0005
14837KMSN MSN20011113094010511/13/01 09:40:31  5-MIN KMSN 131540Z 19012KT 5SM -RA BR OVC028 07/06 A3015 650 89 0 190/12 RMK AO2 P0005
14837KMSN MSN20011113094510511/13/01 09:45:31  5-MIN KMSN 131545Z 20011KT 4SM -RA BR OVC028 07/06 A3015 650 89 0 200/11 RMK AO2 P0005
14837KMSN MSN20011113095012211/13/01 09:50:31  5-MIN KMSN 131550Z 19012KT 4SM -RA BR OVC028 07/06 A3014 660 89 0 190/12 RMK AO2 SLP212 P0006 T00720056
14837KMSN MSN20011113095511911/13/01 09:55:31  5-MIN KMSN 131555Z 19011KT 5SM -RA BR BKN028 BKN038 OVC075 07/06 A3014 670 89 0 190/11 RMK AO2 P0000
14837KMSN MSN20011113100011611/13/01 10:00:31  5-MIN KMSN 131600Z 19012KT 7SM -RA BKN028 BKN046 OVC075 07/06 A3015 660 89 0 190/12 RMK AO2 P0000
14837KMSN MSN20011113100511911/13/01 10:05:31  5-MIN KMSN 131605Z 20012KT 5SM -RA BR SCT028 BKN041 OVC060 07/06 A3015 660 89 0 200/12 RMK AO2 P0001
14837KMSN MSN20011113101011911/13/01 10:10:31  5-MIN KMSN 131610Z 20010KT 5SM -RA BR FEW028 BKN037 OVC070 07/06 A3015 660 89 0 200/10 RMK AO2 P0001
14837KMSN MSN20011113101511911/13/01 10:15:31  5-MIN KMSN 131615Z 20010KT 5SM -RA BR FEW026 BKN037 OVC070 08/06 A3015 650 86 0 200/10 RMK AO2 P0001
14837KMSN MSN20011113102011911/13/01 10:20:31  5-MIN KMSN 131620Z 20009KT 4SM -RA BR SCT026 BKN037 OVC060 08/06 A3014 660 86 0 190/09 RMK AO2 P0001
14837KMSN MSN20011113102512511/13/01 10:25:31  5-MIN KMSN 131625Z 20010G17KT 4SM -RA BR FEW026 BKN033 OVC060 07/06 A3014 660 89 0 200/10G17 RMK AO2 P0002
14837KMSN MSN20011113103012411/13/01 10:30:31  5-MIN KMSN 131630Z 20008G17KT 4SM RA BR BKN029 BKN055 OVC070 07/06 A3014 660 89 0 190/08G17 RMK AO2 P0003
14837KMSN MSN20011113103511911/13/01 10:35:31  5-MIN KMSN 131635Z 19011KT 4SM -RA BR BKN027 BKN055 OVC070 07/06 A3013 670 89 0 190/11 RMK AO2 P0003
14837KMSN MSN20011113104012211/13/01 10:40:31  5-MIN KMSN 131640Z 20009KT 4SM -RA BR BKN027 OVC065 07/06 A3014 670 89 0 200/09 RMK AO2 VIS LWR E P0003
14837KMSN MSN20011113104512211/13/01 10:45:31  5-MIN KMSN 131645Z 19010KT 4SM -RA BR BKN027 OVC065 07/06 A3013 670 89 0 190/10 RMK AO2 VIS LWR E P0003
14837KMSN MSN20011113105014111/13/01 10:50:31  5-MIN KMSN 131650Z 20010KT 5SM BR BKN025 OVC065 08/06 A3013 670 89 0 200/10 RMK AO2 RAE47 SLP208 VIS LWR E P0003 T00780061
14837KMSN MSN20011113105510211/13/01 10:55:31  5-MIN KMSN 131655Z 19011KT 6SM BR BKN025 OVC065 08/06 A3013 670 89 0 190/11 RMK AO2
14837KMSN MSN20011113110009211/13/01 11:00:31  5-MIN KMSN 131700Z 20009KT 7SM OVC025 08/06 A3013 670 89 0 200/09 RMK AO2
14837KMSN MSN20011113110509211/13/01 11:05:31  5-MIN KMSN 131705Z 19011KT 7SM OVC025 08/06 A3013 670 89 0 190/11 RMK AO2
14837KMSN MSN20011113111009411/13/01 11:10:31  5-MIN KMSN 131710Z 19009KT 7SM OVC025 08/06 A3013 670 86 100 190/09 RMK AO2
14837KMSN MSN20011113111509411/13/01 11:15:31  5-MIN KMSN 131715Z 19011KT 7SM OVC025 08/06 A3012 680 86 100 190/11 RMK AO2
14837KMSN MSN20011113112009211/13/01 11:20:31  5-MIN KMSN 131720Z 19011KT 7SM OVC025 08/06 A3012 680 89 0 190/11 RMK AO2
14837KMSN MSN20011113112509211/13/01 11:25:31  5-MIN KMSN 131725Z 19011KT 7SM OVC025 08/06 A3012 680 89 0 190/11 RMK AO2
14837KMSN MSN20011113113009211/13/01 11:30:31  5-MIN KMSN 131730Z 19010KT 7SM OVC025 08/06 A3011 690 89 0 190/10 RMK AO2
14837KMSN MSN20011113113510611/13/01 11:35:31  5-MIN KMSN 131735Z 19013KT 7SM BKN025 BKN043 OVC050 08/06 A3012 680 89 0 190/13 RMK AO2
14837KMSN MSN20011113114010611/13/01 11:40:31  5-MIN KMSN 131740Z 19012KT 7SM BKN025 BKN043 OVC050 08/06 A3011 690 89 0 190/12 RMK AO2
14837KMSN MSN20011113114509911/13/01 11:45:31  5-MIN KMSN 131745Z 19012KT 7SM SCT025 OVC043 08/06 A3011 690 89 0 190/12 RMK AO2
14837KMSN MSN20011113115014011/13/01 11:50:31  5-MIN KMSN 131750Z 19011KT 7SM FEW025 OVC043 08/06 A3010 690 89 0 190/11 RMK AO2 SLP198 60017 T00780061 10089 20067 58003
14837KMSN MSN20011113115510211/13/01 11:55:31  5-MIN KMSN 131755Z 19009KT 6SM BR FEW025 OVC045 08/07 A3010 700 93 0 190/09 RMK AO2
14837KMSN MSN20011113120009511/13/01 12:00:31  5-MIN KMSN 131800Z 19009KT 6SM BR OVC045 08/07 A3010 700 93 0 180/09 RMK AO2
14837KMSN MSN20011113120509511/13/01 12:05:31  5-MIN KMSN 131805Z 19010KT 6SM BR OVC043 08/06 A3010 700 89 0 190/10 RMK AO2
14837KMSN MSN20011113121009211/13/01 12:10:31  5-MIN KMSN 131810Z 19010KT 7SM OVC043 08/06 A3010 700 89 0 190/10 RMK AO2
14837KMSN MSN20011113121509511/13/01 12:15:31  5-MIN KMSN 131815Z 19008KT 6SM BR OVC043 08/06 A3010 700 89 0 190/08 RMK AO2
14837KMSN MSN20011113122009411/13/01 12:20:31  5-MIN KMSN 131820Z 19009KT 7SM OVC043 08/07 A3010 700 89 100 190/09 RMK AO2
14837KMSN MSN20011113122509711/13/01 12:25:31  5-MIN KMSN 131825Z 19010KT 6SM BR OVC043 08/07 A3010 700 89 100 190/10 RMK AO2
14837KMSN MSN20011113123009711/13/01 12:30:31  5-MIN KMSN 131830Z 19009KT 6SM BR OVC043 08/07 A3009 700 89 100 190/09 RMK AO2
14837KMSN MSN20011113123509711/13/01 12:35:31  5-MIN KMSN 131835Z 19008KT 6SM BR OVC041 08/07 A3010 700 89 100 190/08 RMK AO2
14837KMSN MSN20011113124009411/13/01 12:40:31  5-MIN KMSN 131840Z 19011KT 7SM OVC041 08/07 A3009 710 89 100 190/11 RMK AO2
14837KMSN MSN20011113124509411/13/01 12:45:31  5-MIN KMSN 131845Z 19009KT 7SM OVC041 08/07 A3009 710 89 100 190/09 RMK AO2
14837KMSN MSN20011113125011111/13/01 12:50:31  5-MIN KMSN 131850Z 19008KT 7SM OVC041 09/07 A3009 700 86 200 190/08 RMK AO2 SLP194 T00890067
14837KMSN MSN20011113125509411/13/01 12:55:31  5-MIN KMSN 131855Z 19009KT 8SM OVC041 09/07 A3009 710 86 200 190/09 RMK AO2
14837KMSN MSN20011113130009411/13/01 13:00:31  5-MIN KMSN 131900Z 20008KT 8SM OVC039 09/07 A3009 710 86 200 200/08 RMK AO2
14837KMSN MSN20011113130509411/13/01 13:05:31  5-MIN KMSN 131905Z 20008KT 8SM OVC039 09/07 A3009 710 86 200 190/08 RMK AO2
14837KMSN MSN20011113131009411/13/01 13:10:31  5-MIN KMSN 131910Z 20009KT 7SM OVC037 09/07 A3009 710 86 200 200/09 RMK AO2
14837KMSN MSN20011113131509411/13/01 13:15:31  5-MIN KMSN 131915Z 20011KT 7SM OVC037 09/07 A3009 710 89 200 200/11 RMK AO2
14837KMSN MSN20011113132009411/13/01 13:20:31  5-MIN KMSN 131920Z 19009KT 7SM OVC037 09/07 A3008 710 89 200 190/09 RMK AO2
14837KMSN MSN20011113132509411/13/01 13:25:31  5-MIN KMSN 131925Z 20009KT 7SM OVC037 09/07 A3008 710 89 200 190/09 RMK AO2
14837KMSN MSN20011113133009411/13/01 13:30:31  5-MIN KMSN 131930Z 20010KT 7SM OVC037 09/07 A3008 720 89 200 190/10 RMK AO2
14837KMSN MSN20011113133509411/13/01 13:35:31  5-MIN KMSN 131935Z 20008KT 8SM OVC037 09/07 A3008 710 89 200 200/08 RMK AO2
14837KMSN MSN20011113134009411/13/01 13:40:31  5-MIN KMSN 131940Z 20009KT 8SM OVC037 09/07 A3008 720 89 200 200/09 RMK AO2
14837KMSN MSN20011113134509411/13/01 13:45:31  5-MIN KMSN 131945Z 19008KT 8SM OVC037 09/07 A3008 720 89 200 190/08 RMK AO2
14837KMSN MSN20011113135011811/13/01 13:50:31  5-MIN KMSN 131950Z 19010KT 8SM FEW021 OVC035 09/07 A3008 720 89 200 190/10 RMK AO2 SLP189 T00890072
14837KMSN MSN20011113135510111/13/01 13:55:31  5-MIN KMSN 131955Z 19010KT 8SM FEW021 OVC035 09/07 A3008 720 86 300 190/10 RMK AO2
14837KMSN MSN20011113140010111/13/01 14:00:31  5-MIN KMSN 132000Z 20009KT 7SM SCT018 OVC033 09/07 A3008 720 86 300 200/09 RMK AO2
14837KMSN MSN20011113140510111/13/01 14:05:31  5-MIN KMSN 132005Z 20009KT 7SM BKN016 OVC033 09/07 A3007 720 86 300 200/09 RMK AO2
14837KMSN MSN20011113141010111/13/01 14:10:31  5-MIN KMSN 132010Z 20011KT 7SM BKN016 OVC033 09/07 A3008 720 86 300 190/11 RMK AO2
14837KMSN MSN20011113141510111/13/01 14:15:31  5-MIN KMSN 132015Z 19012KT 7SM BKN018 OVC033 09/07 A3007 720 86 300 190/12 RMK AO2
14837KMSN MSN20011113142010111/13/01 14:20:31  5-MIN KMSN 132020Z 20009KT 7SM BKN018 OVC033 09/07 A3008 720 86 300 190/09 RMK AO2
14837KMSN MSN20011113142510111/13/01 14:25:31  5-MIN KMSN 132025Z 19010KT 7SM BKN018 OVC033 09/07 A3008 720 86 300 190/10 RMK AO2
14837KMSN MSN20011113143010811/13/01 14:30:31  5-MIN KMSN 132030Z 19011KT 7SM BKN020 BKN026 OVC033 09/07 A3007 730 86 300 190/11 RMK AO2
14837KMSN MSN20011113143510811/13/01 14:35:31  5-MIN KMSN 132035Z 19008KT 7SM BKN020 BKN026 OVC033 09/07 A3008 720 86 300 190/08 RMK AO2
14837KMSN MSN20011113144010111/13/01 14:40:31  5-MIN KMSN 132040Z 19008KT 7SM BKN022 OVC030 09/07 A3007 720 86 300 190/08 RMK AO2
14837KMSN MSN20011113144510111/13/01 14:45:31  5-MIN KMSN 132045Z 19010KT 7SM BKN024 OVC030 09/07 A3008 720 86 300 190/10 RMK AO2
14837KMSN MSN20011113145011711/13/01 14:50:31  5-MIN KMSN 132050Z 19009KT 7SM OVC024 09/07 A3007 720 89 200 190/09 RMK AO2 SLP188 T00890072 58015
14837KMSN MSN20011113145509411/13/01 14:55:31  5-MIN KMSN 132055Z 19007KT 7SM OVC024 09/07 A3007 720 89 200 190/07 RMK AO2
14837KMSN MSN20011113150010411/13/01 15:00:31  5-MIN KMSN 132100Z 19010KT 6SM BR FEW010 OVC026 09/07 A3008 720 89 200 190/10 RMK AO2
14837KMSN MSN20011113150510411/13/01 15:05:31  5-MIN KMSN 132105Z 18010KT 6SM BR FEW010 OVC026 09/07 A3007 720 89 200 180/10 RMK AO2
14837KMSN MSN20011113151009711/13/01 15:10:31  5-MIN KMSN 132110Z 19010KT 6SM BR OVC026 09/07 A3007 720 89 200 180/10 RMK AO2
14837KMSN MSN20011113151510411/13/01 15:15:31  5-MIN KMSN 132115Z 18009KT 6SM BR FEW021 OVC026 09/07 A3007 720 89 200 180/09 RMK AO2
14837KMSN MSN20011113152010411/13/01 15:20:31  5-MIN KMSN 132120Z 18010KT 6SM BR FEW021 OVC026 09/07 A3007 720 89 200 180/10 RMK AO2
14837KMSN MSN20011113152510411/13/01 15:25:31  5-MIN KMSN 132125Z 18009KT 6SM BR FEW019 OVC028 09/07 A3008 720 89 200 180/09 RMK AO2
14837KMSN MSN20011113153010411/13/01 15:30:31  5-MIN KMSN 132130Z 18008KT 6SM BR SCT019 OVC028 09/07 A3008 720 89 200 180/08 RMK AO2
14837KMSN MSN20011113153510111/13/01 15:35:31  5-MIN KMSN 132135Z 18008KT 7SM BKN019 OVC028 09/07 A3008 720 89 200 180/08 RMK AO2
14837KMSN MSN20011113154010111/13/01 15:40:31  5-MIN KMSN 132140Z 17008KT 7SM BKN019 OVC028 09/07 A3007 720 86 300 170/08 RMK AO2
14837KMSN MSN20011113154510111/13/01 15:45:31  5-MIN KMSN 132145Z 18008KT 7SM BKN019 OVC028 09/07 A3007 720 86 300 180/08 RMK AO2
14837KMSN MSN20011113155011111/13/01 15:50:31  5-MIN KMSN 132150Z 18008KT 8SM OVC017 09/07 A3007 720 86 300 180/08 RMK AO2 SLP188 T00940072
14837KMSN MSN20011113155509411/13/01 15:55:31  5-MIN KMSN 132155Z 19008KT 7SM OVC017 09/07 A3007 730 86 300 190/08 RMK AO2
14837KMSN MSN20011113160009411/13/01 16:00:31  5-MIN KMSN 132200Z 19008KT 7SM OVC017 09/07 A3007 720 86 300 190/08 RMK AO2
14837KMSN MSN20011113160509411/13/01 16:05:31  5-MIN KMSN 132205Z 19009KT 7SM OVC017 09/07 A3007 720 86 300 190/09 RMK AO2
14837KMSN MSN20011113161009411/13/01 16:10:31  5-MIN KMSN 132210Z 19008KT 7SM OVC017 09/07 A3007 720 86 300 190/08 RMK AO2
14837KMSN MSN20011113161509411/13/01 16:15:31  5-MIN KMSN 132215Z 19006KT 7SM OVC017 09/07 A3007 720 86 300 190/06 RMK AO2
14837KMSN MSN20011113162009411/13/01 16:20:31  5-MIN KMSN 132220Z 20006KT 7SM OVC017 09/07 A3007 720 86 300 200/06 RMK AO2
14837KMSN MSN20011113162509411/13/01 16:25:31  5-MIN KMSN 132225Z 20005KT 7SM OVC017 09/07 A3007 720 86 300 200/05 RMK AO2
14837KMSN MSN20011113163009411/13/01 16:30:31  5-MIN KMSN 132230Z 20006KT 7SM OVC019 09/07 A3007 720 86 300 200/06 RMK AO2
14837KMSN MSN20011113163509711/13/01 16:35:31  5-MIN KMSN 132235Z 19006KT 6SM BR OVC019 09/07 A3007 720 86 300 190/06 RMK AO2
14837KMSN MSN20011113164011311/13/01 16:40:31  5-MIN KMSN 132240Z 19007KT 6SM -RA BR OVC019 09/07 A3007 720 86 300 190/07 RMK AO2 RAB36 P0000
14837KMSN MSN20011113164511211/13/01 16:45:31  5-MIN KMSN 132245Z 20005KT 6SM BR OVC021 09/07 A3007 720 86 300 200/05 RMK AO2 RAB36E43 P0000
14837KMSN MSN20011113165012911/13/01 16:50:31  5-MIN KMSN 132250Z 20004KT 6SM BR OVC021 09/07 A3007 720 86 300 200/04 RMK AO2 RAB36E43 SLP187 P0000 T00940072
14837KMSN MSN20011113165510411/13/01 16:55:31  5-MIN KMSN 132255Z 19004KT 6SM BR BKN021 OVC027 09/07 A3007 730 86 300 190/04 RMK AO2
14837KMSN MSN20011113170009711/13/01 17:00:31  5-MIN KMSN 132300Z 21003KT 6SM BR OVC024 09/07 A3007 720 86 300 210/03 RMK AO2
14837KMSN MSN20011113170509711/13/01 17:05:31  5-MIN KMSN 132305Z 18003KT 6SM HZ OVC022 10/07 A3007 720 83 300 180/03 RMK AO2
14837KMSN MSN20011113171009711/13/01 17:10:31  5-MIN KMSN 132310Z 00000KT 6SM HZ OVC022 10/07 A3007 730 83 300 000/00 RMK AO2
14837KMSN MSN20011113171509711/13/01 17:15:31  5-MIN KMSN 132315Z 00000KT 6SM HZ OVC022 10/07 A3007 720 83 300 000/00 RMK AO2
14837KMSN MSN20011113172009411/13/01 17:20:31  5-MIN KMSN 132320Z 00000KT 7SM OVC022 10/07 A3007 730 83 300 000/00 RMK AO2
14837KMSN MSN20011113172509411/13/01 17:25:31  5-MIN KMSN 132325Z 17003KT 7SM OVC022 10/07 A3007 730 83 300 170/03 RMK AO2
14837KMSN MSN20011113173009411/13/01 17:30:31  5-MIN KMSN 132330Z 19003KT 7SM OVC022 10/07 A3007 720 83 300 180/03 RMK AO2
14837KMSN MSN20011113173509411/13/01 17:35:31  5-MIN KMSN 132335Z 17004KT 7SM OVC022 10/07 A3007 730 83 300 170/04 RMK AO2
14837KMSN MSN20011113174009411/13/01 17:40:31  5-MIN KMSN 132340Z 17005KT 7SM OVC022 10/07 A3007 730 83 300 170/05 RMK AO2
14837KMSN MSN20011113174509411/13/01 17:45:31  5-MIN KMSN 132345Z 15004KT 7SM OVC024 10/07 A3007 730 83 300 150/04 RMK AO2
14837KMSN MSN20011113175013511/13/01 17:50:31  5-MIN KMSN 132350Z 15003KT 9SM OVC024 09/07 A3007 720 86 300 150/03 RMK AO2 SLP187 60000 T00940072 10100 20078 56010
14837KMSN MSN20011113175509511/13/01 17:55:31  5-MIN KMSN 132355Z 13003KT 10SM OVC024 10/07 A3007 730 83 300 130/03 RMK AO2
14837KMSN MSN20011113180009511/13/01 18:00:31  5-MIN KMSN 140000Z 00000KT 10SM OVC024 10/07 A3007 730 83 300 000/00 RMK AO2
14837KMSN MSN20011113180509411/13/01 18:05:31  5-MIN KMSN 140005Z 16003KT 9SM OVC024 10/07 A3007 730 83 300 160/03 RMK AO2
14837KMSN MSN20011113181009511/13/01 18:10:31  5-MIN KMSN 140010Z 00000KT 10SM OVC024 10/07 A3007 730 83 300 000/00 RMK AO2
14837KMSN MSN20011113181509511/13/01 18:15:31  5-MIN KMSN 140015Z 00000KT 10SM OVC026 10/07 A3007 730 83 300 000/00 RMK AO2
14837KMSN MSN20011113182009511/13/01 18:20:31  5-MIN KMSN 140020Z 00000KT 10SM OVC026 10/07 A3007 730 83 300 000/00 RMK AO2
14837KMSN MSN20011113182509511/13/01 18:25:31  5-MIN KMSN 140025Z 17003KT 10SM OVC026 10/07 A3007 730 83 300 170/03 RMK AO2
14837KMSN MSN20011113183009511/13/01 18:30:31  5-MIN KMSN 140030Z 18004KT 10SM OVC028 10/07 A3007 730 83 300 180/04 RMK AO2
14837KMSN MSN20011113183510211/13/01 18:35:31  5-MIN KMSN 140035Z 00000KT 10SM BKN028 OVC039 10/07 A3007 730 83 300 000/00 RMK AO2
14837KMSN MSN20011113184010211/13/01 18:40:31  5-MIN KMSN 140040Z 00000KT 10SM BKN030 OVC040 10/07 A3007 730 83 300 000/00 RMK AO2
14837KMSN MSN20011113184510211/13/01 18:45:31  5-MIN KMSN 140045Z 00000KT 10SM SCT028 OVC035 10/07 A3007 730 83 300 000/00 RMK AO2
14837KMSN MSN20011113185011911/13/01 18:50:31  5-MIN KMSN 140050Z 00000KT 10SM BKN031 OVC040 10/07 A3007 730 83 300 000/00 RMK AO2 SLP185 T01000072
14837KMSN MSN20011113185510211/13/01 18:55:31  5-MIN KMSN 140055Z 00000KT 10SM BKN031 OVC040 10/07 A3007 730 83 300 000/00 RMK AO2
14837KMSN MSN20011113190009511/13/01 19:00:31  5-MIN KMSN 140100Z 00000KT 10SM OVC031 10/07 A3007 730 83 300 000/00 RMK AO2
14837KMSN MSN20011113190509511/13/01 19:05:31  5-MIN KMSN 140105Z 00000KT 10SM OVC031 10/07 A3007 730 83 300 000/00 RMK AO2
14837KMSN MSN20011113191009511/13/01 19:10:31  5-MIN KMSN 140110Z 00000KT 10SM OVC031 10/07 A3007 730 83 300 000/00 RMK AO2
14837KMSN MSN20011113191509511/13/01 19:15:31  5-MIN KMSN 140115Z 15003KT 10SM OVC031 10/07 A3007 730 83 300 150/03 RMK AO2
14837KMSN MSN20011113192009511/13/01 19:20:31  5-MIN KMSN 140120Z 15004KT 10SM OVC031 10/07 A3007 730 83 300 140/04 RMK AO2
14837KMSN MSN20011113192509511/13/01 19:25:31  5-MIN KMSN 140125Z 15003KT 10SM OVC031 10/07 A3006 730 83 300 140/03 RMK AO2
14837KMSN MSN20011113193009511/13/01 19:30:31  5-MIN KMSN 140130Z 00000KT 10SM OVC031 10/08 A3007 730 86 300 000/00 RMK AO2
14837KMSN MSN20011113193509511/13/01 19:35:31  5-MIN KMSN 140135Z 00000KT 10SM OVC031 10/07 A3007 730 83 300 000/00 RMK AO2
14837KMSN MSN20011113194009511/13/01 19:40:31  5-MIN KMSN 140140Z 17003KT 10SM OVC031 10/08 A3006 730 86 300 170/03 RMK AO2
14837KMSN MSN20011113194509511/13/01 19:45:31  5-MIN KMSN 140145Z 17003KT 10SM OVC031 10/07 A3006 730 83 400 170/03 RMK AO2
14837KMSN MSN20011113195011211/13/01 19:50:31  5-MIN KMSN 140150Z 00000KT 10SM OVC031 10/08 A3006 730 86 400 000/00 RMK AO2 SLP184 T01000078
14837KMSN MSN20011113195509511/13/01 19:55:31  5-MIN KMSN 140155Z 00000KT 10SM OVC031 11/07 A3006 730 80 400 000/00 RMK AO2
14837KMSN MSN20011113200009511/13/01 20:00:31  5-MIN KMSN 140200Z 00000KT 10SM OVC031 11/07 A3006 730 80 400 000/00 RMK AO2
14837KMSN MSN20011113200509511/13/01 20:05:31  5-MIN KMSN 140205Z 17003KT 10SM OVC031 11/07 A3006 740 80 400 170/03 RMK AO2
14837KMSN MSN20011113201009511/13/01 20:10:31  5-MIN KMSN 140210Z 19003KT 10SM OVC031 11/07 A3006 730 80 400 190/03 RMK AO2
14837KMSN MSN20011113201509511/13/01 20:15:31  5-MIN KMSN 140215Z 00000KT 10SM OVC031 11/07 A3006 740 80 400 000/00 RMK AO2
14837KMSN MSN20011113202009511/13/01 20:20:31  5-MIN KMSN 140220Z 00000KT 10SM OVC031 11/07 A3006 730 80 400 000/00 RMK AO2
14837KMSN MSN20011113202509511/13/01 20:25:31  5-MIN KMSN 140225Z 00000KT 10SM OVC031 11/07 A3006 730 80 400 000/00 RMK AO2
14837KMSN MSN20011113203009511/13/01 20:30:31  5-MIN KMSN 140230Z 00000KT 10SM OVC031 10/08 A3006 740 86 400 000/00 RMK AO2
14837KMSN MSN20011113203509511/13/01 20:35:31  5-MIN KMSN 140235Z 00000KT 10SM OVC031 10/08 A3006 730 86 300 000/00 RMK AO2
14837KMSN MSN20011113204009511/13/01 20:40:31  5-MIN KMSN 140240Z 00000KT 10SM OVC031 10/08 A3006 730 86 300 000/00 RMK AO2
14837KMSN MSN20011113204509511/13/01 20:45:31  5-MIN KMSN 140245Z 00000KT 10SM OVC033 10/08 A3007 730 86 300 000/00 RMK AO2
14837KMSN MSN20011113205011811/13/01 20:50:31  5-MIN KMSN 140250Z 00000KT 10SM OVC033 10/08 A3006 730 86 300 000/00 RMK AO2 SLP184 T01000078 55001
14837KMSN MSN20011113205509511/13/01 20:55:31  5-MIN KMSN 140255Z 00000KT 10SM OVC033 10/08 A3006 730 86 300 000/00 RMK AO2
14837KMSN MSN20011113210009511/13/01 21:00:31  5-MIN KMSN 140300Z 13003KT 10SM OVC033 11/08 A3006 730 83 400 130/03 RMK AO2
14837KMSN MSN20011113210509511/13/01 21:05:31  5-MIN KMSN 140305Z 14004KT 10SM OVC033 10/08 A3006 730 86 400 140/04 RMK AO2
14837KMSN MSN20011113211009511/13/01 21:10:31  5-MIN KMSN 140310Z 15003KT 10SM OVC035 10/08 A3006 730 86 300 150/03 RMK AO2
14837KMSN MSN20011113211509511/13/01 21:15:31  5-MIN KMSN 140315Z 15003KT 10SM OVC035 10/08 A3006 730 86 400 150/03 RMK AO2
14837KMSN MSN20011113212009411/13/01 21:20:31  5-MIN KMSN 140320Z 16004KT 9SM OVC035 10/08 A3006 730 86 400 150/04 RMK AO2
14837KMSN MSN20011113212509511/13/01 21:25:31  5-MIN KMSN 140325Z 16004KT 10SM OVC035 10/08 A3006 730 86 400 150/04 RMK AO2
14837KMSN MSN20011113213009511/13/01 21:30:31  5-MIN KMSN 140330Z 16004KT 10SM OVC035 10/08 A3006 730 86 300 160/04 RMK AO2
14837KMSN MSN20011113213509511/13/01 21:35:31  5-MIN KMSN 140335Z 16004KT 10SM OVC035 10/08 A3006 730 86 300 160/04 RMK AO2
14837KMSN MSN20011113214009511/13/01 21:40:31  5-MIN KMSN 140340Z 16004KT 10SM OVC035 11/08 A3006 730 83 400 160/04 RMK AO2
14837KMSN MSN20011113214509511/13/01 21:45:31  5-MIN KMSN 140345Z 17004KT 10SM OVC037 11/08 A3006 730 83 400 170/04 RMK AO2
14837KMSN MSN20011113215011211/13/01 21:50:31  5-MIN KMSN 140350Z 17004KT 10SM OVC037 11/08 A3006 730 83 400 170/04 RMK AO2 SLP184 T01060078
14837KMSN MSN20011113215510211/13/01 21:55:31  5-MIN KMSN 140355Z 17003KT 10SM BKN037 OVC048 11/08 A3006 730 83 400 170/03 RMK AO2
14837KMSN MSN20011113220009511/13/01 22:00:31  5-MIN KMSN 140400Z 17003KT 10SM OVC037 11/08 A3006 730 83 400 170/03 RMK AO2
14837KMSN MSN20011113220509511/13/01 22:05:31  5-MIN KMSN 140405Z 18003KT 10SM OVC037 11/08 A3006 730 83 400 180/03 RMK AO2
14837KMSN MSN20011113221009511/13/01 22:10:31  5-MIN KMSN 140410Z 18003KT 10SM OVC037 11/08 A3006 730 83 400 180/03 RMK AO2
14837KMSN MSN20011113221509511/13/01 22:15:31  5-MIN KMSN 140415Z 17003KT 10SM OVC035 11/08 A3006 740 83 400 170/03 RMK AO2
14837KMSN MSN20011113222009511/13/01 22:20:31  5-MIN KMSN 140420Z 17004KT 10SM OVC035 11/08 A3006 740 83 400 170/04 RMK AO2
14837KMSN MSN20011113222509511/13/01 22:25:31  5-MIN KMSN 140425Z 17004KT 10SM OVC035 10/08 A3006 740 89 400 170/04 RMK AO2
14837KMSN MSN20011113223009511/13/01 22:30:31  5-MIN KMSN 140430Z 16004KT 10SM OVC035 10/08 A3006 740 89 400 160/04 RMK AO2
14837KMSN MSN20011113223510211/13/01 22:35:31  5-MIN KMSN 140435Z 16004KT 10SM BKN035 OVC049 10/08 A3006 740 89 400 160/04 RMK AO2
14837KMSN MSN20011113224010211/13/01 22:40:31  5-MIN KMSN 140440Z 00000KT 10SM BKN035 OVC049 10/08 A3006 740 89 400 000/00 RMK AO2
14837KMSN MSN20011113224510211/13/01 22:45:31  5-MIN KMSN 140445Z 17003KT 10SM BKN035 OVC049 11/08 A3006 740 86 400 170/03 RMK AO2
14837KMSN MSN20011113225011911/13/01 22:50:31  5-MIN KMSN 140450Z 17003KT 10SM SCT035 OVC049 11/08 A3006 740 86 400 170/03 RMK AO2 SLP182 T01060083
14837KMSN MSN20011113225510211/13/01 22:55:31  5-MIN KMSN 140455Z 00000KT 10SM FEW035 OVC049 11/08 A3006 740 86 400 000/00 RMK AO2
14837KMSN MSN20011113230010211/13/01 23:00:31  5-MIN KMSN 140500Z 00000KT 10SM FEW035 OVC049 11/08 A3006 740 86 400 000/00 RMK AO2
14837KMSN MSN20011113230509511/13/01 23:05:31  5-MIN KMSN 140505Z 16003KT 10SM OVC049 11/08 A3006 740 86 400 160/03 RMK AO2
14837KMSN MSN20011113231009511/13/01 23:10:31  5-MIN KMSN 140510Z 00000KT 10SM BKN049 10/08 A3006 730 86 400 000/00 RMK AO2
14837KMSN MSN20011113231509511/13/01 23:15:31  5-MIN KMSN 140515Z 00000KT 10SM BKN049 10/08 A3006 730 86 300 000/00 RMK AO2
14837KMSN MSN20011113232010211/13/01 23:20:31  5-MIN KMSN 140520Z 00000KT 10SM FEW039 OVC049 10/08 A3006 730 89 300 000/00 RMK AO2
14837KMSN MSN20011113232510211/13/01 23:25:31  5-MIN KMSN 140525Z 00000KT 10SM SCT037 OVC049 10/08 A3006 730 89 300 000/00 RMK AO2
14837KMSN MSN20011113233010211/13/01 23:30:31  5-MIN KMSN 140530Z 16003KT 10SM BKN037 OVC049 10/08 A3007 730 89 300 160/03 RMK AO2
14837KMSN MSN20011113233510211/13/01 23:35:31  5-MIN KMSN 140535Z 17003KT 10SM BKN037 OVC049 10/08 A3007 730 89 300 170/03 RMK AO2
14837KMSN MSN20011113234010211/13/01 23:40:31  5-MIN KMSN 140540Z 18003KT 10SM BKN037 OVC049 11/08 A3007 730 86 400 180/03 RMK AO2
14837KMSN MSN20011113234509511/13/01 23:45:31  5-MIN KMSN 140545Z 18003KT 10SM OVC039 11/08 A3007 730 86 400 180/03 RMK AO2
14837KMSN MSN20011113235014011/13/01 23:50:31  5-MIN KMSN 140550Z 19004KT 10SM OVC039 11/08 A3007 730 86 400 180/04 RMK AO2 SLP185 T01060083 10106 20094 401060067 56003
14837KMSN MSN20011113235509411/13/01 23:55:31  5-MIN KMSN 140555Z 18003KT 8SM OVC039 11/08 A3007 730 83 500 180/03 RMK AO2
14837KMSN MSN20011114000009411/14/01 00:00:31  5-MIN KMSN 140600Z 18004KT 8SM OVC041 11/09 A3007 730 86 500 180/04 RMK AO2
14837KMSN MSN20011114000509411/14/01 00:05:31  5-MIN KMSN 140605Z 18005KT 8SM OVC041 11/09 A3007 730 86 500 180/05 RMK AO2
14837KMSN MSN20011114001009411/14/01 00:10:31  5-MIN KMSN 140610Z 19004KT 8SM OVC041 11/09 A3007 730 86 500 190/04 RMK AO2
14837KMSN MSN20011114001509411/14/01 00:15:31  5-MIN KMSN 140615Z 20004KT 8SM OVC039 11/08 A3007 730 83 500 200/04 RMK AO2
14837KMSN MSN20011114002009411/14/01 00:20:31  5-MIN KMSN 140620Z 19004KT 8SM OVC039 11/08 A3007 730 83 500 190/04 RMK AO2
14837KMSN MSN20011114002509411/14/01 00:25:31  5-MIN KMSN 140625Z 20003KT 8SM OVC037 11/08 A3007 730 83 500 200/03 RMK AO2
14837KMSN MSN20011114003009411/14/01 00:30:31  5-MIN KMSN 140630Z VRB03KT 8SM OVC037 11/08 A3007 730 83 500 VRB/03 RMK AO2
14837KMSN MSN20011114003509411/14/01 00:35:31  5-MIN KMSN 140635Z 19004KT 8SM OVC035 11/08 A3007 730 83 500 190/04 RMK AO2
14837KMSN MSN20011114004009411/14/01 00:40:31  5-MIN KMSN 140640Z 19003KT 8SM OVC035 12/08 A3007 730 80 500 190/03 RMK AO2
14837KMSN MSN20011114004509411/14/01 00:45:31  5-MIN KMSN 140645Z 19003KT 8SM OVC035 12/08 A3007 730 80 500 190/03 RMK AO2
14837KMSN MSN20011114005011111/14/01 00:50:31  5-MIN KMSN 140650Z 19003KT 8SM OVC035 11/08 A3007 730 83 500 190/03 RMK AO2 SLP185 T01110083
14837KMSN MSN20011114005509711/14/01 00:55:31  5-MIN KMSN 140655Z 19004KT 6SM HZ OVC035 12/08 A3007 730 80 500 190/04 RMK AO2
14837KMSN MSN20011114010009711/14/01 01:00:31  5-MIN KMSN 140700Z 19003KT 6SM HZ OVC035 12/09 A3007 730 83 500 190/03 RMK AO2
14837KMSN MSN20011114010509711/14/01 01:05:31  5-MIN KMSN 140705Z 18004KT 6SM BR OVC035 11/09 A3007 730 86 500 180/04 RMK AO2
14837KMSN MSN20011114011009711/14/01 01:10:31  5-MIN KMSN 140710Z 18004KT 6SM HZ OVC035 12/09 A3007 730 83 500 180/04 RMK AO2
14837KMSN MSN20011114011509711/14/01 01:15:31  5-MIN KMSN 140715Z 18005KT 6SM HZ OVC035 12/09 A3006 730 83 500 180/05 RMK AO2
14837KMSN MSN20011114012009711/14/01 01:20:31  5-MIN KMSN 140720Z 18004KT 6SM HZ OVC035 12/09 A3006 730 83 500 180/04 RMK AO2
14837KMSN MSN20011114012509711/14/01 01:25:31  5-MIN KMSN 140725Z 19004KT 6SM HZ OVC035 12/09 A3006 730 83 500 190/04 RMK AO2
14837KMSN MSN20011114013009711/14/01 01:30:31  5-MIN KMSN 140730Z 18004KT 6SM HZ OVC035 12/09 A3006 730 83 500 180/04 RMK AO2
14837KMSN MSN20011114013509711/14/01 01:35:31  5-MIN KMSN 140735Z 19004KT 6SM HZ OVC035 12/09 A3006 730 83 500 180/04 RMK AO2
14837KMSN MSN20011114014009711/14/01 01:40:31  5-MIN KMSN 140740Z 19004KT 6SM HZ OVC035 12/09 A3006 730 83 500 190/04 RMK AO2
14837KMSN MSN20011114014509711/14/01 01:45:31  5-MIN KMSN 140745Z 19004KT 6SM HZ OVC035 12/09 A3007 730 83 500 190/04 RMK AO2
14837KMSN MSN20011114015011411/14/01 01:50:31  5-MIN KMSN 140750Z 19005KT 6SM HZ OVC033 12/09 A3006 730 83 500 190/05 RMK AO2 SLP184 T01170089
14837KMSN MSN20011114015509711/14/01 01:55:31  5-MIN KMSN 140755Z 19005KT 6SM HZ OVC033 12/09 A3006 730 83 500 190/05 RMK AO2
14837KMSN MSN20011114020009711/14/01 02:00:31  5-MIN KMSN 140800Z 19005KT 6SM HZ OVC031 12/09 A3006 730 80 600 190/05 RMK AO2
14837KMSN MSN20011114020509711/14/01 02:05:31  5-MIN KMSN 140805Z 19005KT 6SM HZ OVC031 12/09 A3006 730 80 600 190/05 RMK AO2
14837KMSN MSN20011114021009711/14/01 02:10:31  5-MIN KMSN 140810Z 19005KT 6SM HZ OVC031 12/09 A3006 730 80 600 190/05 RMK AO2
14837KMSN MSN20011114021509711/14/01 02:15:31  5-MIN KMSN 140815Z 19005KT 6SM HZ OVC031 12/09 A3006 730 80 600 190/05 RMK AO2
14837KMSN MSN20011114022009711/14/01 02:20:31  5-MIN KMSN 140820Z 18005KT 6SM HZ OVC031 12/09 A3006 730 80 600 180/05 RMK AO2
14837KMSN MSN20011114022509711/14/01 02:25:31  5-MIN KMSN 140825Z 18005KT 6SM HZ OVC031 12/09 A3006 730 80 600 180/05 RMK AO2
14837KMSN MSN20011114023009711/14/01 02:30:31  5-MIN KMSN 140830Z 18005KT 6SM BR OVC029 12/09 A3006 730 86 500 180/05 RMK AO2
14837KMSN MSN20011114023509711/14/01 02:35:31  5-MIN KMSN 140835Z 18005KT 6SM BR OVC027 12/09 A3006 730 86 500 180/05 RMK AO2
14837KMSN MSN20011114024009711/14/01 02:40:31  5-MIN KMSN 140840Z 18006KT 6SM BR OVC027 12/09 A3006 730 86 500 180/06 RMK AO2
14837KMSN MSN20011114024509711/14/01 02:45:31  5-MIN KMSN 140845Z 18006KT 6SM BR OVC025 12/09 A3006 730 86 500 180/06 RMK AO2
14837KMSN MSN20011114025012011/14/01 02:50:31  5-MIN KMSN 140850Z 18005KT 6SM BR OVC025 12/09 A3006 730 86 500 180/05 RMK AO2 SLP182 T01170094 53001
14837KMSN MSN20011114025509711/14/01 02:55:31  5-MIN KMSN 140855Z 18005KT 6SM BR OVC027 12/09 A3006 730 86 600 180/05 RMK AO2
14837KMSN MSN20011114030010411/14/01 03:00:31  5-MIN KMSN 140900Z 18007KT 6SM BR BKN027 OVC033 12/09 A3006 730 86 600 180/07 RMK AO2
14837KMSN MSN20011114030510411/14/01 03:05:31  5-MIN KMSN 140905Z 19006KT 6SM HZ BKN027 OVC033 12/09 A3006 730 83 500 190/06 RMK AO2
14837KMSN MSN20011114031009711/14/01 03:10:31  5-MIN KMSN 140910Z 19005KT 6SM BR OVC030 12/09 A3006 730 86 500 180/05 RMK AO2
14837KMSN MSN20011114031510411/14/01 03:15:31  5-MIN KMSN 140915Z 19004KT 6SM BR BKN030 OVC050 12/09 A3006 730 86 500 180/04 RMK AO2
14837KMSN MSN20011114032010411/14/01 03:20:31  5-MIN KMSN 140920Z 18004KT 6SM BR BKN030 OVC050 12/09 A3007 730 86 500 180/04 RMK AO2
14837KMSN MSN20011114032510411/14/01 03:25:31  5-MIN KMSN 140925Z 19004KT 6SM BR BKN030 OVC050 12/09 A3007 730 86 500 180/04 RMK AO2
14837KMSN MSN20011114033010411/14/01 03:30:31  5-MIN KMSN 140930Z 18003KT 6SM BR BKN030 OVC050 12/09 A3007 730 86 500 180/03 RMK AO2
14837KMSN MSN20011114033510411/14/01 03:35:31  5-MIN KMSN 140935Z 17003KT 6SM BR BKN028 OVC050 12/09 A3007 730 86 500 170/03 RMK AO2
14837KMSN MSN20011114034010411/14/01 03:40:31  5-MIN KMSN 140940Z 17004KT 6SM BR BKN025 OVC030 12/09 A3007 730 86 500 170/04 RMK AO2
14837KMSN MSN20011114034510411/14/01 03:45:31  5-MIN KMSN 140945Z 16004KT 6SM BR BKN025 OVC030 12/09 A3006 730 86 500 160/04 RMK AO2
14837KMSN MSN20011114035011411/14/01 03:50:31  5-MIN KMSN 140950Z 17004KT 5SM BR OVC025 12/09 A3007 730 86 500 160/04 RMK AO2 SLP184 T01170094
14837KMSN MSN20011114035509711/14/01 03:55:31  5-MIN KMSN 140955Z 17005KT 5SM BR OVC025 12/09 A3007 730 86 500 170/05 RMK AO2
14837KMSN MSN20011114040009711/14/01 04:00:31  5-MIN KMSN 141000Z 17005KT 6SM HZ OVC025 12/09 A3007 730 83 600 170/05 RMK AO2
14837KMSN MSN20011114040509711/14/01 04:05:31  5-MIN KMSN 141005Z 17004KT 6SM HZ OVC025 12/09 A3007 730 83 600 170/04 RMK AO2
14837KMSN MSN20011114041009711/14/01 04:10:31  5-MIN KMSN 141010Z 17004KT 6SM BR OVC025 12/09 A3007 730 86 500 170/04 RMK AO2
14837KMSN MSN20011114041509711/14/01 04:15:31  5-MIN KMSN 141015Z 17005KT 6SM HZ OVC023 12/09 A3007 730 83 600 170/05 RMK AO2
14837KMSN MSN20011114042009711/14/01 04:20:31  5-MIN KMSN 141020Z 18004KT 6SM HZ OVC023 12/09 A3007 730 83 600 180/04 RMK AO2
14837KMSN MSN20011114042510411/14/01 04:25:31  5-MIN KMSN 141025Z 18004KT 6SM HZ BKN020 OVC025 12/09 A3007 720 83 600 180/04 RMK AO2
14837KMSN MSN20011114043010411/14/01 04:30:31  5-MIN KMSN 141030Z 18005KT 6SM HZ BKN020 OVC025 12/09 A3007 720 83 600 180/05 RMK AO2
14837KMSN MSN20011114043509711/14/01 04:35:31  5-MIN KMSN 141035Z 18004KT 6SM HZ OVC018 12/09 A3007 720 83 600 180/04 RMK AO2
14837KMSN MSN20011114044009711/14/01 04:40:31  5-MIN KMSN 141040Z 18004KT 6SM HZ OVC018 12/09 A3007 720 83 600 180/04 RMK AO2
14837KMSN MSN20011114044509711/14/01 04:45:31  5-MIN KMSN 141045Z 18003KT 6SM HZ OVC018 12/09 A3007 720 83 600 180/03 RMK AO2
14837KMSN MSN20011114045011411/14/01 04:50:31  5-MIN KMSN 141050Z 18004KT 6SM BR OVC018 12/10 A3008 720 86 600 180/04 RMK AO2 SLP187 T01220100
14837KMSN MSN20011114045509711/14/01 04:55:31  5-MIN KMSN 141055Z 18005KT 6SM BR OVC018 12/10 A3007 720 86 600 180/05 RMK AO2
14837KMSN MSN20011114050009711/14/01 05:00:31  5-MIN KMSN 141100Z 18006KT 6SM BR OVC020 12/10 A3007 720 86 600 180/06 RMK AO2
14837KMSN MSN20011114050509711/14/01 05:05:31  5-MIN KMSN 141105Z 18006KT 6SM BR OVC020 12/10 A3007 720 86 600 180/06 RMK AO2
14837KMSN MSN20011114051009711/14/01 05:10:31  5-MIN KMSN 141110Z 18006KT 6SM BR OVC020 12/10 A3007 720 86 600 180/06 RMK AO2
14837KMSN MSN20011114051509711/14/01 05:15:31  5-MIN KMSN 141115Z 18006KT 6SM BR OVC019 12/10 A3007 720 86 600 180/06 RMK AO2
14837KMSN MSN20011114052009711/14/01 05:20:31  5-MIN KMSN 141120Z 18006KT 6SM BR OVC019 12/10 A3007 720 86 600 180/06 RMK AO2
14837KMSN MSN20011114052510411/14/01 05:25:31  5-MIN KMSN 141125Z 18006KT 6SM BR BKN015 OVC021 12/10 A3007 720 86 600 180/06 RMK AO2
14837KMSN MSN20011114053010411/14/01 05:30:31  5-MIN KMSN 141130Z 18006KT 5SM BR BKN015 OVC021 12/10 A3007 720 86 600 180/06 RMK AO2
14837KMSN MSN20011114053510411/14/01 05:35:31  5-MIN KMSN 141135Z 18005KT 5SM BR BKN012 OVC019 12/10 A3008 720 86 600 180/05 RMK AO2
14837KMSN MSN20011114054010411/14/01 05:40:31  5-MIN KMSN 141140Z 18006KT 4SM BR BKN012 OVC021 12/10 A3008 720 86 600 180/06 RMK AO2
14837KMSN MSN20011114054511311/14/01 05:45:31  5-MIN KMSN 141145Z 19006KT 4SM -DZ BR OVC012 12/10 A3008 720 86 600 180/06 RMK AO2 DZB45 P0000
14837KMSN MSN20011114055016011/14/01 05:50:31  5-MIN KMSN 141150Z 18005KT 4SM -DZ BR OVC012 12/10 A3008 720 86 600 180/05 RMK AO2 DZB45 SLP188 P0000 60000 70018 T01220100 10122 20111 58001
14837KMSN MSN20011114055510711/14/01 05:55:31  5-MIN KMSN 141155Z 18006KT 4SM -DZ BR OVC012 12/11 A3008 720 93 500 180/06 RMK AO2 P0000
14837KMSN MSN20011114060010711/14/01 06:00:31  5-MIN KMSN 141200Z 18006KT 4SM -DZ BR OVC012 12/11 A3008 720 93 500 180/06 RMK AO2 P0000
14837KMSN MSN20011114060510711/14/01 06:05:31  5-MIN KMSN 141205Z 19005KT 4SM -DZ BR OVC012 12/11 A3008 720 93 500 190/05 RMK AO2 P0000
14837KMSN MSN20011114061010711/14/01 06:10:31  5-MIN KMSN 141210Z 18004KT 3SM -DZ BR OVC012 12/11 A3008 720 93 500 180/04 RMK AO2 P0000
14837KMSN MSN20011114061512211/14/01 06:15:31  5-MIN KMSN 141215Z 18005KT 2 1/2SM -RA BR OVC010 12/11 A3008 720 93 500 180/05 RMK AO2 DZE15RAB15 P0001
14837KMSN MSN20011114062012211/14/01 06:20:31  5-MIN KMSN 141220Z 18005KT 2 1/2SM -RA BR OVC010 12/11 A3008 720 93 500 180/05 RMK AO2 DZE15RAB15 P0001
14837KMSN MSN20011114062513211/14/01 06:25:31  5-MIN KMSN 141225Z 18006KT 2 1/2SM -RA BR OVC010 12/11 A3008 720 93 500 180/06 RMK AO2 SFC VIS 3 DZE15RAB15 P0001
14837KMSN MSN20011114063014411/14/01 06:30:31  5-MIN KMSN 141230Z 19005KT 2 1/2SM -RA BR OVC010 12/11 A3008 720 93 500 190/05 RMK AO2 SFC VIS 3 DZE15RAB15 CIG 007V011 P0001
14837KMSN MSN20011114063513411/14/01 06:35:31  5-MIN KMSN 141235Z 18005KT 2 1/2SM -RA BR OVC008 12/11 A3008 720 93 500 180/05 RMK AO2 DZE15RAB15 CIG 007V010 P0001
14837KMSN MSN20011114064014411/14/01 06:40:31  5-MIN KMSN 141240Z 17005KT 2SM -RA BR OVC008 12/11 A3008 720 93 500 170/05 RMK AO2 TWR VIS 2 1/2 DZE15RAB15 CIG 007V010 P0001
14837KMSN MSN20011114064513211/14/01 06:45:31  5-MIN KMSN 141245Z 17004KT 1 3/4SM -RA BR OVC008 12/11 A3008 720 93 500 170/04 RMK AO2 TWR VIS 2 DZE15RAB15 P0002
14837KMSN MSN20011114065014911/14/01 06:50:31  5-MIN KMSN 141250Z 18004KT 1SM -RA BR OVC008 12/11 A3008 720 93 500 170/04 RMK AO2 TWR VIS 1 1/4 DZE15RAB15 SLP189 P0002 T01170106
14837KMSN MSN20011114065510711/14/01 06:55:31  5-MIN KMSN 141255Z 17004KT 1SM -RA BR OVC006 11/11 A3008 720 96 500 170/04 RMK AO2 P0000
14837KMSN MSN20011114070010711/14/01 07:00:31  5-MIN KMSN 141300Z 16005KT 1SM -RA BR OVC006 11/11 A3008 720 96 500 160/05 RMK AO2 P0001
14837KMSN MSN20011114070510711/14/01 07:05:31  5-MIN KMSN 141305Z 17005KT 1SM -RA BR OVC006 11/11 A3008 720 96 500 170/05 RMK AO2 P0001
14837KMSN MSN20011114071011911/14/01 07:10:31  5-MIN KMSN 141310Z 17005KT 1SM -RA BR OVC006 11/11 A3008 720 96 500 170/05 RMK AO2 CIG 004V009 P0001
14837KMSN MSN20011114071510711/14/01 07:15:31  5-MIN KMSN 141315Z 16005KT 1SM -RA BR OVC006 11/11 A3008 720 96 500 160/05 RMK AO2 P0002
14837KMSN MSN20011114072010811/14/01 07:20:31  5-MIN KMSN 141320Z 17006KT 1SM -RA BR OVC006 11/11 A3008 720 100 500 170/06 RMK AO2 P0002
14837KMSN MSN20011114072510711/14/01 07:25:31  5-MIN KMSN 141325Z 17006KT 1SM -RA BR OVC006 12/11 A3008 710 96 500 170/06 RMK AO2 P0002
14837KMSN MSN20011114073015111/14/01 07:30:31  5-MIN KMSN 141330Z 18005KT 1SM BR OVC006 12/11 A3008 710 96 500 180/05 RMK AO2 SFC VIS 1 1/2 VIS 1 1/4V2 1/2 RAE27 CIG 004V009 P0002
14837KMSN MSN20011114073514211/14/01 07:35:31  5-MIN KMSN 141335Z 17006KT 1SM BR BKN006 OVC021 12/11 A3008 720 96 500 170/06 RMK AO2 SFC VIS 1 1/2 RAE27 CIG 005V009 P0002
14837KMSN MSN20011114074014711/14/01 07:40:31  5-MIN KMSN 141340Z 17006KT 1SM -RA BR BKN006 BKN021 OVC048 12/11 A3008 720 96 500 170/06 RMK AO2 SFC VIS 1 1/4 CIG 005V009 P0002
14837KMSN MSN20011114074513511/14/01 07:45:31  5-MIN KMSN 141345Z 18006KT 1SM -RA BR SCT006 BKN021 OVC048 12/11 A3008 710 96 500 180/06 RMK AO2 SFC VIS 1 1/4 P0003
14837KMSN MSN20011114075015211/14/01 07:50:31  5-MIN KMSN 141350Z 19004KT 1SM -RA BR SCT008 BKN021 OVC046 12/11 A3009 710 96 500 180/04 RMK AO2 SFC VIS 1 1/2 SLP191 P0003 T01170111
14837KMSN MSN20011114075513511/14/01 07:55:31  5-MIN KMSN 141355Z 19004KT 1SM -RA BR FEW008 BKN021 OVC046 12/11 A3009 710 93 600 190/04 RMK AO2 SFC VIS 1 1/2 P0000
14837KMSN MSN20011114080013911/14/01 08:00:31  5-MIN KMSN 141400Z 19005KT 1SM BR FEW008 BKN021 OVC046 12/11 A3009 710 93 600 190/05 RMK AO2 SFC VIS 1 1/2 RAE1356 P0000
14837KMSN MSN20011114080513911/14/01 08:05:31  5-MIN KMSN 141405Z 19006KT 1SM BR FEW008 BKN021 OVC046 12/11 A3009 710 93 600 190/06 RMK AO2 SFC VIS 1 1/2 RAE1356 P0000
14837KMSN MSN20011114081012511/14/01 08:10:31  5-MIN KMSN 141410Z 19006KT 1SM BR OVC021 12/11 A3009 710 93 600 190/06 RMK AO2 SFC VIS 1 1/2 RAE1356 P0000
14837KMSN MSN20011114081512511/14/01 08:15:31  5-MIN KMSN 141415Z 20004KT 1SM BR OVC021 12/11 A3009 710 93 600 190/04 RMK AO2 SFC VIS 1 1/2 RAE1356 P0000
14837KMSN MSN20011114082012511/14/01 08:20:31  5-MIN KMSN 141420Z 20004KT 1SM BR OVC021 12/12 A3009 710 96 600 200/04 RMK AO2 SFC VIS 1 1/2 RAE1356 P0000
14837KMSN MSN20011114082512511/14/01 08:25:31  5-MIN KMSN 141425Z 19005KT 1SM BR OVC023 12/12 A3009 710 96 600 190/05 RMK AO2 SFC VIS 1 1/2 RAE1356 P0000
14837KMSN MSN20011114083011111/14/01 08:30:31  5-MIN KMSN 141430Z 19005KT 2SM BR OVC023 12/12 A3009 710 96 600 190/05 RMK AO2 RAE1356 P0000
14837KMSN MSN20011114083511111/14/01 08:35:31  5-MIN KMSN 141435Z 19006KT 2SM BR OVC023 12/12 A3009 710 96 600 190/06 RMK AO2 RAE1356 P0000
14837KMSN MSN20011114084011111/14/01 08:40:31  5-MIN KMSN 141440Z 19006KT 2SM BR OVC023 13/12 A3009 710 93 700 190/06 RMK AO2 RAE1356 P0000
14837KMSN MSN20011114084511111/14/01 08:45:31  5-MIN KMSN 141445Z 19007KT 2SM BR OVC023 13/12 A3009 710 93 700 190/07 RMK AO2 RAE1356 P0000
14837KMSN MSN20011114085014411/14/01 08:50:31  5-MIN KMSN 141450Z 19008KT 2 1/2SM BR OVC023 13/11 A3009 710 89 700 190/08 RMK AO2 RAE1356 SLP191 P0000 60005 T01280111 51006
14837KMSN MSN20011114085510111/14/01 08:55:31  5-MIN KMSN 141455Z 19008KT 2 1/2SM BR OVC023 13/11 A3009 710 89 700 190/08 RMK AO2
14837KMSN MSN20011114090010111/14/01 09:00:31  5-MIN KMSN 141500Z 19008KT 2 1/2SM BR OVC023 13/11 A3009 710 89 700 190/08 RMK AO2
14837KMSN MSN20011114090510111/14/01 09:05:31  5-MIN KMSN 141505Z 18007KT 2 1/2SM BR OVC023 13/12 A3009 710 93 700 180/07 RMK AO2
14837KMSN MSN20011114091010111/14/01 09:10:31  5-MIN KMSN 141510Z 18008KT 2 1/2SM BR OVC025 13/11 A3009 710 89 700 180/08 RMK AO2
14837KMSN MSN20011114091509711/14/01 09:15:31  5-MIN KMSN 141515Z 19007KT 3SM BR OVC025 13/11 A3009 710 89 700 180/07 RMK AO2
14837KMSN MSN20011114092009711/14/01 09:20:31  5-MIN KMSN 141520Z 18006KT 3SM BR OVC025 13/11 A3009 710 89 700 180/06 RMK AO2
14837KMSN MSN20011114092509711/14/01 09:25:31  5-MIN KMSN 141525Z 18007KT 3SM BR OVC025 13/11 A3009 710 89 700 180/07 RMK AO2
14837KMSN MSN20011114093009711/14/01 09:30:31  5-MIN KMSN 141530Z 18007KT 3SM BR OVC025 13/11 A3009 710 89 700 180/07 RMK AO2
14837KMSN MSN20011114093509711/14/01 09:35:31  5-MIN KMSN 141535Z 19007KT 3SM BR OVC025 13/11 A3009 710 89 700 190/07 RMK AO2
14837KMSN MSN20011114094009711/14/01 09:40:31  5-MIN KMSN 141540Z 19008KT 3SM BR OVC025 13/11 A3009 710 86 700 190/08 RMK AO2
14837KMSN MSN20011114094509711/14/01 09:45:31  5-MIN KMSN 141545Z 18008KT 3SM BR OVC025 13/11 A3009 710 86 700 180/08 RMK AO2
14837KMSN MSN20011114095012111/14/01 09:50:31  5-MIN KMSN 141550Z 19010KT 4SM BR BKN025 OVC032 13/11 A3009 710 86 700 190/10 RMK AO2 SLP190 T01330111
14837KMSN MSN20011114095510411/14/01 09:55:31  5-MIN KMSN 141555Z 19009KT 4SM BR BKN025 OVC032 13/11 A3009 710 86 700 190/09 RMK AO2
14837KMSN MSN20011114100010411/14/01 10:00:31  5-MIN KMSN 141600Z 19008KT 4SM BR BKN025 OVC032 13/11 A3009 710 86 700 190/08 RMK AO2
14837KMSN MSN20011114100510411/14/01 10:05:31  5-MIN KMSN 141605Z 19008KT 4SM BR BKN025 OVC032 13/11 A3009 710 86 700 190/08 RMK AO2
14837KMSN MSN20011114101010411/14/01 10:10:31  5-MIN KMSN 141610Z 19007KT 4SM BR BKN025 OVC032 13/11 A3009 710 86 700 190/07 RMK AO2
14837KMSN MSN20011114101510411/14/01 10:15:31  5-MIN KMSN 141615Z VRB06KT 4SM HZ BKN025 OVC032 14/11 A3009 710 83 800 VRB/06 RMK AO2
14837KMSN MSN20011114102009711/14/01 10:20:31  5-MIN KMSN 141620Z 20007KT 5SM HZ OVC025 13/11 A3009 710 83 700 200/07 RMK AO2
14837KMSN MSN20011114102509711/14/01 10:25:31  5-MIN KMSN 141625Z 21006KT 5SM HZ OVC025 13/11 A3009 710 83 700 200/06 RMK AO2
14837KMSN MSN20011114103009711/14/01 10:30:31  5-MIN KMSN 141630Z 21007KT 5SM HZ OVC025 14/11 A3009 710 80 800 210/07 RMK AO2
14837KMSN MSN20011114103509711/14/01 10:35:31  5-MIN KMSN 141635Z 19007KT 5SM HZ OVC025 13/11 A3009 710 83 700 190/07 RMK AO2
14837KMSN MSN20011114104009711/14/01 10:40:31  5-MIN KMSN 141640Z 19008KT 5SM HZ OVC025 14/11 A3009 710 80 800 190/08 RMK AO2
14837KMSN MSN20011114104509711/14/01 10:45:31  5-MIN KMSN 141645Z 20007KT 5SM HZ OVC025 14/11 A3009 710 80 800 200/07 RMK AO2
14837KMSN MSN20011114105011411/14/01 10:50:31  5-MIN KMSN 141650Z 19008KT 5SM HZ OVC025 14/11 A3009 710 80 800 190/08 RMK AO2 SLP190 T01390106
14837KMSN MSN20011114105509711/14/01 10:55:31  5-MIN KMSN 141655Z 19009KT 5SM HZ OVC025 14/11 A3008 710 80 800 190/09 RMK AO2
14837KMSN MSN20011114110009711/14/01 11:00:31  5-MIN KMSN 141700Z 19006KT 5SM HZ OVC025 14/11 A3008 720 80 800 190/06 RMK AO2
14837KMSN MSN20011114110509711/14/01 11:05:31  5-MIN KMSN 141705Z 19009KT 5SM HZ OVC025 14/11 A3008 720 83 800 190/09 RMK AO2
14837KMSN MSN20011114111009711/14/01 11:10:31  5-MIN KMSN 141710Z 19008KT 5SM HZ OVC025 14/11 A3008 720 80 900 190/08 RMK AO2
14837KMSN MSN20011114111510411/14/01 11:15:31  5-MIN KMSN 141715Z 19008KT 5SM HZ BKN025 OVC070 14/11 A3008 720 77 900 190/08 RMK AO2
14837KMSN MSN20011114112010411/14/01 11:20:31  5-MIN KMSN 141720Z 20008KT 5SM HZ BKN025 OVC070 14/11 A3008 720 80 900 200/08 RMK AO2
14837KMSN MSN20011114112510411/14/01 11:25:31  5-MIN KMSN 141725Z 19006KT 6SM HZ BKN025 OVC070 14/11 A3008 720 80 900 190/06 RMK AO2
14837KMSN MSN20011114113010411/14/01 11:30:31  5-MIN KMSN 141730Z 20008KT 6SM HZ BKN025 OVC070 14/11 A3008 720 80 900 200/08 RMK AO2
14837KMSN MSN20011114113510411/14/01 11:35:31  5-MIN KMSN 141735Z 20007KT 6SM HZ BKN025 OVC070 14/11 A3007 730 80 900 200/07 RMK AO2
14837KMSN MSN20011114114010411/14/01 11:40:31  5-MIN KMSN 141740Z 20008KT 6SM HZ BKN025 OVC070 14/11 A3007 730 80 900 200/08 RMK AO2
14837KMSN MSN20011114114510411/14/01 11:45:31  5-MIN KMSN 141745Z 20007KT 6SM HZ BKN025 OVC070 14/11 A3007 730 77 900 200/07 RMK AO2
14837KMSN MSN20011114115014511/14/01 11:50:31  5-MIN KMSN 141750Z 20006KT 6SM HZ BKN025 OVC070 15/11 A3007 730 77 900 200/06 RMK AO2 SLP183 60005 T01500111 10150 20111 53003
14837KMSN MSN20011114115509711/14/01 11:55:31  5-MIN KMSN 141755Z 20007KT 5SM HZ OVC025 15/11 A3006 730 77 900 200/07 RMK AO2
14837KMSN MSN20011114120010411/14/01 12:00:31  5-MIN KMSN 141800Z 19008KT 5SM HZ BKN025 OVC070 15/11 A3006 730 77 900 190/08 RMK AO2
14837KMSN MSN20011114120510411/14/01 12:05:31  5-MIN KMSN 141805Z 19009KT 5SM HZ SCT023 BKN065 15/11 A3006 740 77 900 190/09 RMK AO2
14837KMSN MSN20011114121010511/14/01 12:10:31  5-MIN KMSN 141810Z 19009KT 6SM HZ SCT023 BKN070 15/11 A3006 740 77 1000 190/09 RMK AO2
14837KMSN MSN20011114121510511/14/01 12:15:31  5-MIN KMSN 141815Z 19008KT 6SM HZ SCT023 BKN070 16/11 A3006 740 74 1000 190/08 RMK AO2
14837KMSN MSN20011114122010511/14/01 12:20:31  5-MIN KMSN 141820Z 19009KT 6SM HZ FEW023 BKN070 16/11 A3005 740 74 1000 190/09 RMK AO2
14837KMSN MSN20011114122510511/14/01 12:25:31  5-MIN KMSN 141825Z 19008KT 6SM HZ SCT023 BKN070 16/11 A3005 740 74 1000 190/08 RMK AO2
14837KMSN MSN20011114123010511/14/01 12:30:31  5-MIN KMSN 141830Z 20007KT 6SM HZ BKN021 BKN070 16/11 A3005 740 74 1000 190/07 RMK AO2
14837KMSN MSN20011114123510511/14/01 12:35:31  5-MIN KMSN 141835Z 20007KT 6SM HZ BKN021 BKN070 16/11 A3005 740 74 1000 200/07 RMK AO2
14837KMSN MSN20011114124009811/14/01 12:40:31  5-MIN KMSN 141840Z 21009KT 6SM HZ BKN021 16/12 A3005 740 75 1100 200/09 RMK AO2
14837KMSN MSN20011114124509811/14/01 12:45:31  5-MIN KMSN 141845Z 20010KT 6SM HZ BKN021 16/11 A3005 740 72 1100 200/10 RMK AO2
14837KMSN MSN20011114125011511/14/01 12:50:31  5-MIN KMSN 141850Z 20008KT 6SM HZ BKN021 16/12 A3005 740 75 1100 200/08 RMK AO2 SLP177 T01610117
14837KMSN MSN20011114125509811/14/01 12:55:31  5-MIN KMSN 141855Z 20008KT 5SM HZ BKN021 16/12 A3005 740 75 1100 200/08 RMK AO2
14837KMSN MSN20011114130009811/14/01 13:00:31  5-MIN KMSN 141900Z 20007KT 6SM HZ BKN021 16/12 A3005 740 77 1000 200/07 RMK AO2
14837KMSN MSN20011114130509811/14/01 13:05:31  5-MIN KMSN 141905Z 20007KT 6SM HZ BKN021 16/12 A3005 750 77 1000 190/07 RMK AO2
14837KMSN MSN20011114131009811/14/01 13:10:31  5-MIN KMSN 141910Z 20006KT 6SM HZ OVC021 16/12 A3005 750 75 1100 200/06 RMK AO2
14837KMSN MSN20011114131509811/14/01 13:15:31  5-MIN KMSN 141915Z 19005KT 6SM HZ OVC021 16/12 A3005 750 75 1100 190/05 RMK AO2
14837KMSN MSN20011114132009811/14/01 13:20:31  5-MIN KMSN 141920Z VRB04KT 6SM HZ OVC021 16/12 A3005 750 75 1100 VRB/04 RMK AO2
14837KMSN MSN20011114132509811/14/01 13:25:31  5-MIN KMSN 141925Z 20005KT 6SM HZ OVC019 16/12 A3005 750 75 1100 200/05 RMK AO2
14837KMSN MSN20011114133009811/14/01 13:30:31  5-MIN KMSN 141930Z 20005KT 6SM HZ OVC019 16/12 A3004 750 75 1100 200/05 RMK AO2
14837KMSN MSN20011114133509811/14/01 13:35:31  5-MIN KMSN 141935Z 20005KT 6SM HZ OVC019 16/12 A3004 750 75 1100 200/05 RMK AO2
14837KMSN MSN20011114134009811/14/01 13:40:31  5-MIN KMSN 141940Z 21005KT 6SM HZ OVC019 16/12 A3004 750 77 1100 210/05 RMK AO2
14837KMSN MSN20011114134509811/14/01 13:45:31  5-MIN KMSN 141945Z 20005KT 6SM HZ OVC019 16/12 A3004 750 77 1100 200/05 RMK AO2
14837KMSN MSN20011114135011511/14/01 13:50:31  5-MIN KMSN 141950Z 19005KT 6SM HZ OVC019 16/12 A3004 750 75 1100 190/05 RMK AO2 SLP174 T01610117
14837KMSN MSN20011114135509811/14/01 13:55:31  5-MIN KMSN 141955Z 19005KT 5SM HZ OVC019 16/12 A3004 750 77 1100 190/05 RMK AO2
14837KMSN MSN20011114140009811/14/01 14:00:31  5-MIN KMSN 142000Z 20005KT 5SM HZ OVC019 16/12 A3004 750 75 1100 200/05 RMK AO2
14837KMSN MSN20011114140509811/14/01 14:05:31  5-MIN KMSN 142005Z 19004KT 5SM HZ OVC019 16/12 A3004 750 77 1100 190/04 RMK AO2
14837KMSN MSN20011114141009811/14/01 14:10:31  5-MIN KMSN 142010Z VRB03KT 4SM HZ OVC019 16/12 A3004 750 77 1100 VRB/03 RMK AO2
14837KMSN MSN20011114141509811/14/01 14:15:31  5-MIN KMSN 142015Z VRB04KT 5SM HZ OVC019 16/12 A3004 760 77 1100 VRB/04 RMK AO2
14837KMSN MSN20011114142009811/14/01 14:20:31  5-MIN KMSN 142020Z 20004KT 5SM HZ OVC019 16/12 A3004 760 77 1100 200/04 RMK AO2
14837KMSN MSN20011114142509811/14/01 14:25:31  5-MIN KMSN 142025Z 19005KT 5SM HZ OVC019 16/12 A3003 760 77 1100 190/05 RMK AO2
14837KMSN MSN20011114143009811/14/01 14:30:31  5-MIN KMSN 142030Z 21005KT 5SM HZ OVC019 16/12 A3003 760 77 1100 200/05 RMK AO2
14837KMSN MSN20011114143509811/14/01 14:35:31  5-MIN KMSN 142035Z 19004KT 5SM HZ OVC019 16/12 A3004 760 77 1100 190/04 RMK AO2
14837KMSN MSN20011114144009811/14/01 14:40:31  5-MIN KMSN 142040Z 18007KT 5SM HZ OVC019 16/12 A3003 760 77 1100 180/07 RMK AO2
14837KMSN MSN20011114144509811/14/01 14:45:31  5-MIN KMSN 142045Z 18008KT 5SM HZ OVC019 16/12 A3003 760 77 1100 180/08 RMK AO2
14837KMSN MSN20011114145012111/14/01 14:50:31  5-MIN KMSN 142050Z 18009KT 5SM HZ OVC021 16/12 A3003 760 77 1100 180/09 RMK AO2 SLP170 T01610122 58007
14837KMSN MSN20011114145510511/14/01 14:55:31  5-MIN KMSN 142055Z 17009KT 4SM HZ BKN021 OVC070 16/12 A3003 770 77 1100 170/09 RMK AO2
14837KMSN MSN20011114150010511/14/01 15:00:31  5-MIN KMSN 142100Z 18011KT 5SM HZ BKN021 OVC070 16/12 A3002 770 77 1100 170/11 RMK AO2
14837KMSN MSN20011114150510511/14/01 15:05:31  5-MIN KMSN 142105Z 17010KT 5SM HZ BKN021 OVC070 16/12 A3002 770 77 1100 170/10 RMK AO2
14837KMSN MSN20011114151010511/14/01 15:10:31  5-MIN KMSN 142110Z 18008KT 5SM HZ BKN021 BKN070 16/12 A3002 770 80 1100 180/08 RMK AO2
14837KMSN MSN20011114151510511/14/01 15:15:31  5-MIN KMSN 142115Z 18007KT 5SM HZ SCT021 BKN070 16/12 A3002 770 80 1100 180/07 RMK AO2
14837KMSN MSN20011114152010511/14/01 15:20:31  5-MIN KMSN 142120Z 19005KT 5SM HZ SCT021 BKN070 16/12 A3003 760 77 1000 190/05 RMK AO2
14837KMSN MSN20011114152510511/14/01 15:25:31  5-MIN KMSN 142125Z 19005KT 5SM HZ BKN019 BKN070 16/12 A3003 760 77 1000 190/05 RMK AO2
14837KMSN MSN20011114153010511/14/01 15:30:31  5-MIN KMSN 142130Z 19006KT 5SM HZ BKN019 BKN070 16/12 A3003 760 77 1000 180/06 RMK AO2
14837KMSN MSN20011114153510511/14/01 15:35:31  5-MIN KMSN 142135Z 18007KT 5SM HZ BKN019 BKN070 16/12 A3003 760 80 1000 180/07 RMK AO2
14837KMSN MSN20011114154009811/14/01 15:40:31  5-MIN KMSN 142140Z 18006KT 5SM HZ OVC019 16/12 A3003 760 80 1000 180/06 RMK AO2
14837KMSN MSN20011114154509811/14/01 15:45:31  5-MIN KMSN 142145Z 19007KT 5SM HZ OVC019 16/12 A3003 760 80 1000 190/07 RMK AO2
14837KMSN MSN20011114155011511/14/01 15:50:31  5-MIN KMSN 142150Z 18007KT 5SM HZ OVC019 16/12 A3003 760 80 1000 180/07 RMK AO2 SLP170 T01560122
14837KMSN MSN20011114155509811/14/01 15:55:31  5-MIN KMSN 142155Z 19006KT 5SM HZ OVC019 16/12 A3003 760 80 1000 190/06 RMK AO2
14837KMSN MSN20011114160009811/14/01 16:00:31  5-MIN KMSN 142200Z 17005KT 5SM HZ OVC019 16/12 A3003 760 80 1000 170/05 RMK AO2
14837KMSN MSN20011114160509811/14/01 16:05:31  5-MIN KMSN 142205Z 17006KT 4SM HZ OVC019 16/12 A3003 760 80 1000 170/06 RMK AO2
14837KMSN MSN20011114161009811/14/01 16:10:31  5-MIN KMSN 142210Z 17007KT 4SM HZ OVC019 16/12 A3003 760 80 1000 170/07 RMK AO2
14837KMSN MSN20011114161510511/14/01 16:15:31  5-MIN KMSN 142215Z 17007KT 4SM HZ BKN021 OVC026 15/12 A3003 760 83 1000 170/07 RMK AO2
14837KMSN MSN20011114162009811/14/01 16:20:31  5-MIN KMSN 142220Z 17005KT 5SM HZ OVC023 16/12 A3003 760 80 1000 170/05 RMK AO2
14837KMSN MSN20011114162509811/14/01 16:25:31  5-MIN KMSN 142225Z 17005KT 5SM HZ OVC023 16/12 A3003 760 80 1000 170/05 RMK AO2
14837KMSN MSN20011114163009811/14/01 16:30:31  5-MIN KMSN 142230Z 17006KT 5SM HZ OVC023 16/12 A3003 760 80 1000 170/06 RMK AO2
14837KMSN MSN20011114163509811/14/01 16:35:31  5-MIN KMSN 142235Z 16006KT 4SM BR OVC023 15/13 A3003 760 86 1000 160/06 RMK AO2
14837KMSN MSN20011114164009811/14/01 16:40:31  5-MIN KMSN 142240Z 17006KT 4SM BR OVC023 15/13 A3003 760 86 1000 170/06 RMK AO2
14837KMSN MSN20011114164509811/14/01 16:45:31  5-MIN KMSN 142245Z 17005KT 4SM BR OVC023 15/13 A3003 760 86 1000 170/05 RMK AO2
14837KMSN MSN20011114165011511/14/01 16:50:31  5-MIN KMSN 142250Z 17005KT 4SM BR OVC023 15/13 A3003 760 86 1000 170/05 RMK AO2 SLP171 T01500128
14837KMSN MSN20011114165509811/14/01 16:55:31  5-MIN KMSN 142255Z 18004KT 4SM HZ OVC023 16/13 A3004 760 83 1000 180/04 RMK AO2
14837KMSN MSN20011114170009811/14/01 17:00:31  5-MIN KMSN 142300Z 18004KT 4SM HZ OVC023 16/13 A3004 760 83 1000 180/04 RMK AO2
14837KMSN MSN20011114170509811/14/01 17:05:31  5-MIN KMSN 142305Z 18004KT 4SM HZ OVC023 16/13 A3004 760 83 1000 180/04 RMK AO2
14837KMSN MSN20011114171009811/14/01 17:10:31  5-MIN KMSN 142310Z 18004KT 4SM HZ OVC023 16/13 A3004 760 83 1000 180/04 RMK AO2
14837KMSN MSN20011114171509811/14/01 17:15:31  5-MIN KMSN 142315Z 00000KT 4SM HZ OVC023 16/13 A3004 750 83 1000 000/00 RMK AO2
14837KMSN MSN20011114172009811/14/01 17:20:31  5-MIN KMSN 142320Z 00000KT 4SM HZ OVC023 16/13 A3004 750 83 1000 000/00 RMK AO2
14837KMSN MSN20011114172509811/14/01 17:25:31  5-MIN KMSN 142325Z 18003KT 4SM HZ OVC023 16/13 A3004 750 83 1000 180/03 RMK AO2
14837KMSN MSN20011114173009811/14/01 17:30:31  5-MIN KMSN 142330Z 00000KT 4SM BR OVC023 15/13 A3004 750 86 1000 000/00 RMK AO2
14837KMSN MSN20011114173509811/14/01 17:35:31  5-MIN KMSN 142335Z 17004KT 4SM BR OVC023 15/13 A3004 750 86 1000 170/04 RMK AO2
14837KMSN MSN20011114174009811/14/01 17:40:31  5-MIN KMSN 142340Z 16005KT 4SM BR OVC023 15/13 A3005 750 86 1000 160/05 RMK AO2
14837KMSN MSN20011114174509811/14/01 17:45:31  5-MIN KMSN 142345Z 15005KT 4SM BR OVC023 15/13 A3004 750 86 1000 150/05 RMK AO2
14837KMSN MSN20011114175013311/14/01 17:50:31  5-MIN KMSN 142350Z 18005KT 4SM BR OVC023 15/13 A3004 750 86 1000 180/05 RMK AO2 SLP175 T01500128 10161 20150 57013
14837KMSN MSN20011114175509811/14/01 17:55:31  5-MIN KMSN 142355Z 18003KT 4SM HZ OVC023 16/13 A3004 750 83 1000 180/03 RMK AO2
14837KMSN MSN20011114180009811/14/01 18:00:31  5-MIN KMSN 150000Z 17004KT 4SM BR OVC023 15/13 A3004 750 86 1000 170/04 RMK AO2
14837KMSN MSN20011114180509811/14/01 18:05:31  5-MIN KMSN 150005Z 17004KT 4SM HZ OVC023 16/13 A3004 750 83 1000 170/04 RMK AO2
14837KMSN MSN20011114181009811/14/01 18:10:31  5-MIN KMSN 150010Z 16004KT 4SM BR OVC023 15/13 A3004 750 86 1000 160/04 RMK AO2
14837KMSN MSN20011114181509711/14/01 18:15:31  5-MIN KMSN 150015Z 16004KT 4SM BR OVC023 14/13 A3004 750 90 900 160/04 RMK AO2
14837KMSN MSN20011114182009711/14/01 18:20:31  5-MIN KMSN 150020Z 16004KT 4SM BR OVC023 14/13 A3004 750 90 900 160/04 RMK AO2
14837KMSN MSN20011114182509811/14/01 18:25:31  5-MIN KMSN 150025Z 17004KT 4SM BR OVC023 15/13 A3004 750 86 1000 170/04 RMK AO2
14837KMSN MSN20011114183009811/14/01 18:30:31  5-MIN KMSN 150030Z 16004KT 4SM BR OVC023 15/13 A3004 750 86 1000 160/04 RMK AO2
14837KMSN MSN20011114183509811/14/01 18:35:31  5-MIN KMSN 150035Z 16004KT 4SM BR OVC023 15/13 A3004 750 86 1000 160/04 RMK AO2
14837KMSN MSN20011114184009711/14/01 18:40:31  5-MIN KMSN 150040Z 15005KT 4SM BR OVC025 14/13 A3004 750 90 900 150/05 RMK AO2
14837KMSN MSN20011114184509711/14/01 18:45:31  5-MIN KMSN 150045Z 16004KT 4SM BR OVC027 14/13 A3004 750 90 900 160/04 RMK AO2
14837KMSN MSN20011114185011411/14/01 18:50:31  5-MIN KMSN 150050Z 17003KT 4SM BR OVC027 14/13 A3004 750 90 900 170/03 RMK AO2 SLP175 T01440128
14837KMSN MSN20011114185509711/14/01 18:55:31  5-MIN KMSN 150055Z 17004KT 4SM BR OVC027 14/13 A3004 750 90 900 170/04 RMK AO2
14837KMSN MSN20011114190009811/14/01 19:00:31  5-MIN KMSN 150100Z 18004KT 4SM BR OVC029 15/13 A3004 750 86 1000 180/04 RMK AO2
14837KMSN MSN20011114190511411/14/01 19:05:31  5-MIN KMSN 150105Z 00000KT 4SM -RA BR OVC029 15/13 A3004 750 86 1000 000/00 RMK AO2 RAB04 P0000
14837KMSN MSN20011114191011411/14/01 19:10:31  5-MIN KMSN 150110Z 00000KT 3SM -RA BR OVC029 15/13 A3004 750 86 1000 000/00 RMK AO2 RAB04 P0001
14837KMSN MSN20011114191511411/14/01 19:15:31  5-MIN KMSN 150115Z 19003KT 3SM -RA BR OVC028 15/13 A3004 750 90 1000 190/03 RMK AO2 RAB04 P0001
14837KMSN MSN20011114192011411/14/01 19:20:31  5-MIN KMSN 150120Z 18003KT 4SM -RA BR OVC030 15/13 A3004 750 90 1000 180/03 RMK AO2 RAB04 P0001
14837KMSN MSN20011114192511411/14/01 19:25:31  5-MIN KMSN 150125Z 17003KT 4SM -RA BR OVC030 15/13 A3004 750 90 1000 170/03 RMK AO2 RAB04 P0001
14837KMSN MSN20011114193012011/14/01 19:30:31  5-MIN KMSN 150130Z 17005KT 4SM BR BKN030 OVC045 15/13 A3004 750 90 1000 170/05 RMK AO2 RAB04E26 P0001
14837KMSN MSN20011114193512011/14/01 19:35:31  5-MIN KMSN 150135Z 18004KT 4SM BR BKN030 OVC045 15/13 A3004 750 90 1000 180/04 RMK AO2 RAB04E26 P0001
14837KMSN MSN20011114194011311/14/01 19:40:31  5-MIN KMSN 150140Z 17004KT 4SM BR OVC030 15/13 A3004 750 90 1000 170/04 RMK AO2 RAB04E26 P0001
14837KMSN MSN20011114194511311/14/01 19:45:31  5-MIN KMSN 150145Z 18003KT 4SM BR OVC032 15/13 A3004 750 90 1000 180/03 RMK AO2 RAB04E26 P0001
14837KMSN MSN20011114195013611/14/01 19:50:31  5-MIN KMSN 150150Z 17003KT 4SM BR BKN032 OVC041 14/13 A3004 750 93 900 170/03 RMK AO2 RAB04E26 SLP173 P0001 T01440133
14837KMSN MSN20011114195510511/14/01 19:55:31  5-MIN KMSN 150155Z VRB03KT 4SM BR BKN032 OVC041 15/13 A3004 750 90 1000 VRB/03 RMK AO2
14837KMSN MSN20011114200009811/14/01 20:00:31  5-MIN KMSN 150200Z 00000KT 4SM BR OVC032 15/13 A3004 750 90 1000 000/00 RMK AO2
14837KMSN MSN20011114200509811/14/01 20:05:31  5-MIN KMSN 150205Z 19003KT 4SM BR OVC034 15/13 A3004 750 90 1000 190/03 RMK AO2
14837KMSN MSN20011114201009811/14/01 20:10:31  5-MIN KMSN 150210Z 00000KT 4SM BR OVC034 15/13 A3004 750 90 1000 000/00 RMK AO2
14837KMSN MSN20011114201509811/14/01 20:15:31  5-MIN KMSN 150215Z 00000KT 4SM BR OVC034 15/13 A3004 750 90 1000 000/00 RMK AO2
14837KMSN MSN20011114202009811/14/01 20:20:31  5-MIN KMSN 150220Z 00000KT 4SM BR OVC032 16/13 A3004 750 86 1000 000/00 RMK AO2
14837KMSN MSN20011114202509811/14/01 20:25:31  5-MIN KMSN 150225Z 00000KT 4SM BR OVC032 16/13 A3004 750 86 1000 000/00 RMK AO2
14837KMSN MSN20011114203009811/14/01 20:30:31  5-MIN KMSN 150230Z 00000KT 4SM BR OVC032 15/13 A3004 750 90 1000 000/00 RMK AO2
14837KMSN MSN20011114203509811/14/01 20:35:31  5-MIN KMSN 150235Z 20003KT 4SM BR OVC032 15/13 A3004 750 90 1000 190/03 RMK AO2
14837KMSN MSN20011114204009811/14/01 20:40:31  5-MIN KMSN 150240Z 19004KT 4SM BR OVC032 15/13 A3004 750 90 1000 190/04 RMK AO2
14837KMSN MSN20011114204509811/14/01 20:45:31  5-MIN KMSN 150245Z 19003KT 4SM BR OVC034 15/13 A3004 750 90 1000 190/03 RMK AO2
14837KMSN MSN20011114205012711/14/01 20:50:31  5-MIN KMSN 150250Z 19004KT 4SM BR OVC034 15/13 A3004 750 86 1000 190/04 RMK AO2 SLP173 60001 T01500128 53006
14837KMSN MSN20011114205509811/14/01 20:55:31  5-MIN KMSN 150255Z 20003KT 4SM HZ OVC034 16/13 A3004 760 83 1000 200/03 RMK AO2
14837KMSN MSN20011114210009811/14/01 21:00:31  5-MIN KMSN 150300Z 19004KT 4SM HZ OVC034 16/13 A3004 760 83 1000 190/04 RMK AO2
14837KMSN MSN20011114210509811/14/01 21:05:31  5-MIN KMSN 150305Z 19004KT 4SM HZ OVC034 16/13 A3004 760 83 1000 190/04 RMK AO2
14837KMSN MSN20011114211009811/14/01 21:10:31  5-MIN KMSN 150310Z 19004KT 4SM BR OVC034 15/13 A3003 760 86 1000 190/04 RMK AO2
14837KMSN MSN20011114211509811/14/01 21:15:31  5-MIN KMSN 150315Z 21003KT 4SM BR OVC036 15/13 A3004 760 86 1000 210/03 RMK AO2
14837KMSN MSN20011114212009811/14/01 21:20:31  5-MIN KMSN 150320Z 21003KT 4SM BR OVC036 15/13 A3004 760 86 1000 210/03 RMK AO2
14837KMSN MSN20011114212509811/14/01 21:25:31  5-MIN KMSN 150325Z 19004KT 4SM BR OVC036 15/13 A3004 750 86 1000 190/04 RMK AO2
14837KMSN MSN20011114213009811/14/01 21:30:31  5-MIN KMSN 150330Z 19005KT 4SM BR OVC036 15/13 A3004 750 86 1000 190/05 RMK AO2
14837KMSN MSN20011114213509811/14/01 21:35:31  5-MIN KMSN 150335Z 20005KT 4SM BR OVC036 15/13 A3004 760 86 1000 200/05 RMK AO2
14837KMSN MSN20011114214009811/14/01 21:40:31  5-MIN KMSN 150340Z 20003KT 4SM BR OVC036 15/13 A3004 760 86 1000 200/03 RMK AO2
14837KMSN MSN20011114214509811/14/01 21:45:31  5-MIN KMSN 150345Z 19004KT 4SM BR OVC036 15/13 A3004 760 86 1000 190/04 RMK AO2
14837KMSN MSN20011114215011511/14/01 21:50:31  5-MIN KMSN 150350Z 20005KT 4SM BR OVC036 15/13 A3004 760 86 1000 200/05 RMK AO2 SLP172 T01500128
14837KMSN MSN20011114215510511/14/01 21:55:31  5-MIN KMSN 150355Z 19006KT 5SM HZ BKN038 OVC045 16/12 A3004 760 80 1000 190/06 RMK AO2
14837KMSN MSN20011114220010511/14/01 22:00:31  5-MIN KMSN 150400Z 19005KT 5SM HZ BKN036 OVC045 15/12 A3004 760 83 1000 190/05 RMK AO2
14837KMSN MSN20011114220510511/14/01 22:05:31  5-MIN KMSN 150405Z 20005KT 5SM HZ BKN038 OVC047 15/12 A3004 760 83 1000 190/05 RMK AO2
14837KMSN MSN20011114221011211/14/01 22:10:31  5-MIN KMSN 150410Z 19005KT 5SM HZ BKN038 BKN049 OVC065 15/12 A3003 760 83 1000 190/05 RMK AO2
14837KMSN MSN20011114221511211/14/01 22:15:31  5-MIN KMSN 150415Z 20004KT 5SM HZ BKN038 BKN047 OVC060 15/12 A3003 760 83 1000 200/04 RMK AO2
14837KMSN MSN20011114222011811/14/01 22:20:31  5-MIN KMSN 150420Z 20005KT 5SM -RA BKN040 OVC060 15/12 A3003 760 83 1000 200/05 RMK AO2 RAB20 P0000
14837KMSN MSN20011114222511811/14/01 22:25:31  5-MIN KMSN 150425Z 20006KT 5SM -RA BKN037 OVC060 15/12 A3003 760 83 1000 200/06 RMK AO2 RAB20 P0000
14837KMSN MSN20011114223012011/14/01 22:30:31  5-MIN KMSN 150430Z 21004KT 4SM HZ BKN037 OVC060 16/12 A3003 760 80 1000 210/04 RMK AO2 RAB20E29 P0000
14837KMSN MSN20011114223512011/14/01 22:35:31  5-MIN KMSN 150435Z 23004KT 4SM HZ BKN037 OVC065 16/12 A3003 760 80 1000 230/04 RMK AO2 RAB20E29 P0000
14837KMSN MSN20011114224012011/14/01 22:40:31  5-MIN KMSN 150440Z 22004KT 4SM HZ BKN037 OVC065 16/12 A3003 760 80 1000 220/04 RMK AO2 RAB20E29 P0000
14837KMSN MSN20011114224511311/14/01 22:45:31  5-MIN KMSN 150445Z 23004KT 4SM HZ OVC035 16/12 A3003 760 80 1000 220/04 RMK AO2 RAB20E29 P0000
14837KMSN MSN20011114225013711/14/01 22:50:31  5-MIN KMSN 150450Z VRB03KT 4SM HZ BKN035 OVC050 16/12 A3003 760 80 1000 VRB/03 RMK AO2 RAB20E29 SLP169 P0000 T01560122
14837KMSN MSN20011114225510511/14/01 22:55:31  5-MIN KMSN 150455Z 21005KT 5SM HZ BKN035 OVC050 16/12 A3003 760 80 1000 210/05 RMK AO2
14837KMSN MSN20011114230011211/14/01 23:00:31  5-MIN KMSN 150500Z 20006KT 5SM HZ BKN035 BKN050 OVC080 16/12 A3003 760 80 1000 200/06 RMK AO2
14837KMSN MSN20011114230511211/14/01 23:05:31  5-MIN KMSN 150505Z 20005KT 5SM HZ BKN035 BKN050 OVC080 16/12 A3003 760 80 1000 200/05 RMK AO2
14837KMSN MSN20011114231011211/14/01 23:10:31  5-MIN KMSN 150510Z 20006KT 5SM HZ BKN035 BKN050 OVC080 16/12 A3003 760 80 1000 200/06 RMK AO2
14837KMSN MSN20011114231511211/14/01 23:15:31  5-MIN KMSN 150515Z 20006KT 5SM HZ SCT033 BKN050 OVC080 15/12 A3003 760 83 1000 200/06 RMK AO2
14837KMSN MSN20011114232011211/14/01 23:20:31  5-MIN KMSN 150520Z 20005KT 5SM HZ BKN035 BKN050 OVC080 15/12 A3003 760 83 1000 200/05 RMK AO2
14837KMSN MSN20011114232510511/14/01 23:25:31  5-MIN KMSN 150525Z 20005KT 5SM HZ BKN035 OVC080 15/12 A3003 760 83 1000 200/05 RMK AO2
14837KMSN MSN20011114233010511/14/01 23:30:31  5-MIN KMSN 150530Z 20005KT 5SM HZ BKN035 OVC080 15/12 A3003 760 83 1000 200/05 RMK AO2
14837KMSN MSN20011114233510511/14/01 23:35:31  5-MIN KMSN 150535Z 20005KT 5SM HZ SCT035 BKN080 15/12 A3003 760 83 1000 200/05 RMK AO2
14837KMSN MSN20011114234010511/14/01 23:40:31  5-MIN KMSN 150540Z 20004KT 5SM HZ SCT035 OVC075 15/12 A3003 760 83 1000 200/04 RMK AO2
14837KMSN MSN20011114234511211/14/01 23:45:31  5-MIN KMSN 150545Z 19004KT 5SM HZ SCT035 BKN070 OVC080 15/12 A3003 760 83 1000 190/04 RMK AO2
14837KMSN MSN20011114235016311/14/01 23:50:31  5-MIN KMSN 150550Z 19004KT 5SM HZ FEW035 SCT044 OVC075 15/12 A3004 760 83 1000 190/04 RMK AO2 SLP171 60001 T01500122 10156 20144 401610111 56002
14837KMSN MSN20011114235510511/14/01 23:55:31  5-MIN KMSN 150555Z 20005KT 5SM HZ SCT042 OVC075 15/12 A3003 760 83 1000 190/05 RMK AO2
14837KMSN MSN20011115000010511/15/01 00:00:31  5-MIN KMSN 150600Z 20005KT 5SM HZ SCT044 OVC075 15/12 A3004 760 83 1000 200/05 RMK AO2
14837KMSN MSN20011115000511211/15/01 00:05:31  5-MIN KMSN 150605Z 20005KT 5SM HZ SCT040 BKN048 OVC075 15/12 A3004 760 83 1000 200/05 RMK AO2
14837KMSN MSN20011115001011211/15/01 00:10:31  5-MIN KMSN 150610Z 21005KT 5SM HZ SCT040 BKN048 OVC080 15/12 A3004 760 83 1000 210/05 RMK AO2
14837KMSN MSN20011115001511211/15/01 00:15:31  5-MIN KMSN 150615Z 21004KT 5SM HZ SCT040 BKN048 OVC080 16/12 A3004 760 80 1000 210/04 RMK AO2
14837KMSN MSN20011115002011211/15/01 00:20:31  5-MIN KMSN 150620Z 21004KT 5SM HZ FEW040 SCT048 OVC080 15/12 A3004 760 83 1000 210/04 RMK AO2
14837KMSN MSN20011115002511211/15/01 00:25:31  5-MIN KMSN 150625Z 20005KT 5SM HZ FEW040 SCT048 OVC080 15/12 A3004 760 83 1000 200/05 RMK AO2
14837KMSN MSN20011115003011211/15/01 00:30:31  5-MIN KMSN 150630Z 20005KT 5SM HZ SCT038 SCT048 OVC080 15/12 A3003 760 83 1000 200/05 RMK AO2
14837KMSN MSN20011115003511211/15/01 00:35:31  5-MIN KMSN 150635Z 21005KT 5SM HZ SCT040 BKN075 OVC090 15/12 A3003 760 83 1000 200/05 RMK AO2
14837KMSN MSN20011115004011211/15/01 00:40:31  5-MIN KMSN 150640Z 20004KT 5SM HZ FEW040 BKN075 BKN090 15/12 A3003 760 83 1000 200/04 RMK AO2
14837KMSN MSN20011115004511211/15/01 00:45:31  5-MIN KMSN 150645Z VRB04KT 5SM HZ FEW038 SCT070 OVC090 15/12 A3003 760 83 1000 VRB/04 RMK AO2
14837KMSN MSN20011115005012211/15/01 00:50:31  5-MIN KMSN 150650Z VRB04KT 6SM HZ FEW038 BKN090 15/12 A3003 770 83 1000 VRB/04 RMK AO2 SLP168 T01500122
14837KMSN MSN20011115005510511/15/01 00:55:31  5-MIN KMSN 150655Z 22004KT 6SM HZ FEW038 BKN085 15/12 A3003 770 83 1000 220/04 RMK AO2
14837KMSN MSN20011115010009811/15/01 01:00:31  5-MIN KMSN 150700Z VRB03KT 6SM HZ BKN090 15/12 A3003 770 83 1000 VRB/03 RMK AO2
14837KMSN MSN20011115010509811/15/01 01:05:31  5-MIN KMSN 150705Z 22003KT 6SM HZ BKN090 15/12 A3002 770 80 1000 220/03 RMK AO2
14837KMSN MSN20011115011009811/15/01 01:10:31  5-MIN KMSN 150710Z 22005KT 6SM HZ SCT090 15/12 A3002 770 80 1000 210/05 RMK AO2
14837KMSN MSN20011115011509811/15/01 01:15:31  5-MIN KMSN 150715Z VRB03KT 6SM HZ SCT090 15/12 A3002 770 80 1000 VRB/03 RMK AO2
14837KMSN MSN20011115012009811/15/01 01:20:31  5-MIN KMSN 150720Z 22005KT 6SM HZ BKN090 15/12 A3002 770 80 1000 210/05 RMK AO2
14837KMSN MSN20011115012509811/15/01 01:25:31  5-MIN KMSN 150725Z VRB04KT 6SM HZ BKN090 15/12 A3002 770 83 1000 VRB/04 RMK AO2
14837KMSN MSN20011115013009811/15/01 01:30:31  5-MIN KMSN 150730Z 22004KT 6SM HZ BKN095 15/12 A3002 770 83 1000 220/04 RMK AO2
14837KMSN MSN20011115013509811/15/01 01:35:31  5-MIN KMSN 150735Z 23004KT 6SM HZ BKN090 15/12 A3002 770 83 1000 230/04 RMK AO2
14837KMSN MSN20011115014009811/15/01 01:40:31  5-MIN KMSN 150740Z 00000KT 6SM HZ OVC090 15/12 A3002 770 80 1000 000/00 RMK AO2
14837KMSN MSN20011115014509811/15/01 01:45:31  5-MIN KMSN 150745Z VRB04KT 6SM HZ BKN090 15/12 A3002 770 80 1000 VRB/04 RMK AO2
14837KMSN MSN20011115015011511/15/01 01:50:31  5-MIN KMSN 150750Z VRB03KT 6SM BR BKN090 15/13 A3002 770 86 1000 VRB/03 RMK AO2 SLP166 T01500128
14837KMSN MSN20011115015509711/15/01 01:55:31  5-MIN KMSN 150755Z VRB04KT 6SM BR SCT090 14/13 A3002 770 90 900 VRB/04 RMK AO2
14837KMSN MSN20011115020009711/15/01 02:00:31  5-MIN KMSN 150800Z VRB04KT 6SM HZ SCT090 14/12 A3002 770 83 900 VRB/04 RMK AO2
14837KMSN MSN20011115020509711/15/01 02:05:31  5-MIN KMSN 150805Z VRB04KT 6SM HZ FEW090 14/12 A3002 770 83 900 VRB/04 RMK AO2
14837KMSN MSN20011115021009511/15/01 02:10:31  5-MIN KMSN 150810Z 24005KT 6SM HZ CLR 15/12 A3002 770 80 1000 240/05 RMK AO2
14837KMSN MSN20011115021509511/15/01 02:15:31  5-MIN KMSN 150815Z VRB06KT 6SM HZ CLR 15/12 A3002 770 83 1000 VRB/06 RMK AO2
14837KMSN MSN20011115022009511/15/01 02:20:31  5-MIN KMSN 150820Z 22005KT 6SM HZ CLR 15/12 A3002 770 83 1000 220/05 RMK AO2
14837KMSN MSN20011115022509511/15/01 02:25:31  5-MIN KMSN 150825Z 21007KT 6SM HZ CLR 15/12 A3002 770 83 1000 210/07 RMK AO2
14837KMSN MSN20011115023009811/15/01 02:30:31  5-MIN KMSN 150830Z 22006KT 6SM HZ FEW031 15/12 A3002 770 83 1000 220/06 RMK AO2
14837KMSN MSN20011115023509811/15/01 02:35:31  5-MIN KMSN 150835Z 22006KT 6SM HZ SCT029 15/12 A3002 770 83 1000 220/06 RMK AO2
14837KMSN MSN20011115024009811/15/01 02:40:31  5-MIN KMSN 150840Z 22005KT 6SM HZ BKN029 15/12 A3002 770 83 1000 220/05 RMK AO2
14837KMSN MSN20011115024509811/15/01 02:45:31  5-MIN KMSN 150845Z 22008KT 6SM HZ BKN029 16/12 A3002 770 80 1100 220/08 RMK AO2
14837KMSN MSN20011115025012111/15/01 02:50:31  5-MIN KMSN 150850Z 23005KT 6SM HZ BKN031 15/12 A3002 770 83 1000 220/05 RMK AO2 SLP166 T01500122 55001
14837KMSN MSN20011115025509811/15/01 02:55:31  5-MIN KMSN 150855Z 22005KT 6SM HZ BKN031 15/12 A3002 770 83 1000 220/05 RMK AO2
14837KMSN MSN20011115030009811/15/01 03:00:31  5-MIN KMSN 150900Z 22006KT 5SM HZ BKN031 15/12 A3002 770 83 1000 220/06 RMK AO2
14837KMSN MSN20011115030509811/15/01 03:05:31  5-MIN KMSN 150905Z 22006KT 5SM HZ BKN031 15/12 A3002 770 83 1000 220/06 RMK AO2
14837KMSN MSN20011115031009811/15/01 03:10:31  5-MIN KMSN 150910Z 22006KT 5SM HZ BKN031 15/12 A3002 770 83 1000 220/06 RMK AO2
14837KMSN MSN20011115031510511/15/01 03:15:31  5-MIN KMSN 150915Z 22007KT 5SM HZ BKN031 BKN039 15/12 A3002 770 83 1000 220/07 RMK AO2
14837KMSN MSN20011115032009811/15/01 03:20:31  5-MIN KMSN 150920Z 22007KT 5SM HZ BKN033 15/12 A3002 780 83 1000 220/07 RMK AO2
14837KMSN MSN20011115032509811/15/01 03:25:31  5-MIN KMSN 150925Z 22007KT 5SM HZ SCT033 15/12 A3001 780 83 1000 220/07 RMK AO2
14837KMSN MSN20011115033010511/15/01 03:30:31  5-MIN KMSN 150930Z 22006KT 5SM HZ SCT030 SCT037 15/12 A3001 780 83 1000 220/06 RMK AO2
14837KMSN MSN20011115033510511/15/01 03:35:31  5-MIN KMSN 150935Z 23006KT 5SM HZ FEW030 SCT037 15/12 A3001 780 83 1000 230/06 RMK AO2
14837KMSN MSN20011115034009811/15/01 03:40:31  5-MIN KMSN 150940Z 23006KT 5SM HZ FEW037 15/12 A3001 780 83 1000 220/06 RMK AO2
14837KMSN MSN20011115034509511/15/01 03:45:31  5-MIN KMSN 150945Z 22006KT 5SM HZ CLR 15/12 A3001 780 83 1000 220/06 RMK AO2
14837KMSN MSN20011115035011411/15/01 03:50:31  5-MIN KMSN 150950Z 22006KT 5SM BR FEW031 14/12 A3001 780 86 900 220/06 RMK AO2 SLP162 T01440122
14837KMSN MSN20011115035509411/15/01 03:55:31  5-MIN KMSN 150955Z 23008KT 5SM BR CLR 14/12 A3001 780 86 900 230/08 RMK AO2
14837KMSN MSN20011115040009411/15/01 04:00:31  5-MIN KMSN 151000Z 23007KT 5SM BR CLR 14/12 A3001 780 86 900 220/07 RMK AO2
14837KMSN MSN20011115040509711/15/01 04:05:31  5-MIN KMSN 151005Z 22007KT 5SM BR FEW021 14/12 A3001 780 86 900 220/07 RMK AO2
14837KMSN MSN20011115041009711/15/01 04:10:31  5-MIN KMSN 151010Z 23006KT 5SM BR FEW021 14/12 A3001 780 86 900 230/06 RMK AO2
14837KMSN MSN20011115041509711/15/01 04:15:31  5-MIN KMSN 151015Z 23005KT 5SM BR FEW021 14/12 A3001 780 86 900 230/05 RMK AO2
14837KMSN MSN20011115042009711/15/01 04:20:31  5-MIN KMSN 151020Z 23005KT 5SM BR SCT023 14/12 A3001 780 86 900 230/05 RMK AO2
14837KMSN MSN20011115042509711/15/01 04:25:31  5-MIN KMSN 151025Z 22006KT 5SM BR BKN025 14/12 A3001 780 86 900 220/06 RMK AO2
14837KMSN MSN20011115043010411/15/01 04:30:31  5-MIN KMSN 151030Z 21006KT 5SM BR SCT025 BKN046 14/12 A3001 780 86 900 210/06 RMK AO2
14837KMSN MSN20011115043510411/15/01 04:35:31  5-MIN KMSN 151035Z 22006KT 5SM BR SCT025 BKN046 14/12 A3001 780 86 900 220/06 RMK AO2
14837KMSN MSN20011115044010411/15/01 04:40:31  5-MIN KMSN 151040Z 22006KT 5SM BR SCT025 BKN046 14/12 A3002 780 86 900 220/06 RMK AO2
14837KMSN MSN20011115044510411/15/01 04:45:31  5-MIN KMSN 151045Z 22006KT 5SM BR FEW025 SCT046 14/12 A3002 780 90 900 220/06 RMK AO2
14837KMSN MSN20011115045011411/15/01 04:50:31  5-MIN KMSN 151050Z 22005KT 5SM BR FEW025 14/12 A3002 780 90 900 220/05 RMK AO2 SLP165 T01390122
14837KMSN MSN20011115045509711/15/01 04:55:31  5-MIN KMSN 151055Z 23005KT 4SM BR FEW019 14/12 A3002 780 90 900 230/05 RMK AO2
14837KMSN MSN20011115050009711/15/01 05:00:31  5-MIN KMSN 151100Z 22006KT 4SM BR SCT019 14/12 A3002 780 86 900 220/06 RMK AO2
14837KMSN MSN20011115050509711/15/01 05:05:31  5-MIN KMSN 151105Z 22006KT 4SM BR BKN019 14/12 A3002 780 86 900 220/06 RMK AO2
14837KMSN MSN20011115051009711/15/01 05:10:31  5-MIN KMSN 151110Z 22007KT 4SM BR BKN019 14/12 A3002 780 86 900 220/07 RMK AO2
14837KMSN MSN20011115051509711/15/01 05:15:31  5-MIN KMSN 151115Z 22009KT 5SM BR BKN019 14/12 A3002 770 86 900 220/09 RMK AO2
14837KMSN MSN20011115052009711/15/01 05:20:31  5-MIN KMSN 151120Z 22006KT 5SM BR OVC019 14/12 A3002 770 86 900 220/06 RMK AO2
14837KMSN MSN20011115052509711/15/01 05:25:31  5-MIN KMSN 151125Z 22007KT 5SM BR OVC017 14/12 A3002 770 86 900 220/07 RMK AO2
14837KMSN MSN20011115053009711/15/01 05:30:31  5-MIN KMSN 151130Z 21006KT 4SM BR OVC017 14/12 A3002 780 86 900 210/06 RMK AO2
14837KMSN MSN20011115053509711/15/01 05:35:31  5-MIN KMSN 151135Z 22006KT 4SM BR OVC017 14/12 A3002 770 86 900 220/06 RMK AO2
14837KMSN MSN20011115054009711/15/01 05:40:31  5-MIN KMSN 151140Z 22006KT 4SM BR OVC017 14/12 A3002 770 86 900 220/06 RMK AO2
14837KMSN MSN20011115054509711/15/01 05:45:31  5-MIN KMSN 151145Z 22006KT 4SM BR OVC017 14/12 A3002 770 86 900 220/06 RMK AO2
14837KMSN MSN20011115055013811/15/01 05:50:31  5-MIN KMSN 151150Z 23004KT 4SM BR OVC017 14/12 A3002 770 86 900 230/04 RMK AO2 SLP165 70006 T01440122 10156 20139 55004
14837KMSN MSN20011115055509711/15/01 05:55:31  5-MIN KMSN 151155Z 23004KT 4SM BR OVC017 14/12 A3002 770 86 900 230/04 RMK AO2
14837KMSN MSN20011115060009711/15/01 06:00:31  5-MIN KMSN 151200Z VRB05KT 4SM BR OVC017 14/12 A3002 780 86 900 VRB/05 RMK AO2
14837KMSN MSN20011115060509711/15/01 06:05:31  5-MIN KMSN 151205Z 24004KT 4SM BR OVC015 14/12 A3002 770 86 900 230/04 RMK AO2
14837KMSN MSN20011115061009711/15/01 06:10:31  5-MIN KMSN 151210Z 23003KT 4SM BR OVC015 14/12 A3002 770 86 900 230/03 RMK AO2
14837KMSN MSN20011115061509711/15/01 06:15:31  5-MIN KMSN 151215Z 23004KT 4SM BR OVC015 14/12 A3002 770 90 900 230/04 RMK AO2
14837KMSN MSN20011115062009711/15/01 06:20:31  5-MIN KMSN 151220Z 22005KT 4SM BR OVC015 14/12 A3002 770 90 900 220/05 RMK AO2
14837KMSN MSN20011115062509711/15/01 06:25:31  5-MIN KMSN 151225Z 22005KT 4SM BR OVC015 14/12 A3002 770 90 900 220/05 RMK AO2
14837KMSN MSN20011115063009711/15/01 06:30:31  5-MIN KMSN 151230Z 22005KT 4SM BR OVC015 14/12 A3002 770 86 900 220/05 RMK AO2
14837KMSN MSN20011115063509711/15/01 06:35:31  5-MIN KMSN 151235Z 22006KT 4SM BR OVC015 14/12 A3002 770 86 900 220/06 RMK AO2
14837KMSN MSN20011115064009711/15/01 06:40:31  5-MIN KMSN 151240Z 21007KT 4SM BR OVC015 14/12 A3002 770 86 900 210/07 RMK AO2
14837KMSN MSN20011115064509711/15/01 06:45:31  5-MIN KMSN 151245Z 22006KT 4SM BR OVC015 14/12 A3002 770 86 900 220/06 RMK AO2
14837KMSN MSN20011115065011411/15/01 06:50:31  5-MIN KMSN 151250Z 21007KT 4SM BR OVC015 14/12 A3003 770 86 900 210/07 RMK AO2 SLP168 T01440122
14837KMSN MSN20011115065509711/15/01 06:55:31  5-MIN KMSN 151255Z 22004KT 4SM BR OVC015 14/13 A3002 770 90 900 220/04 RMK AO2
14837KMSN MSN20011115070009711/15/01 07:00:31  5-MIN KMSN 151300Z 22005KT 4SM BR OVC013 14/13 A3003 770 90 900 220/05 RMK AO2
14837KMSN MSN20011115070510711/15/01 07:05:31  5-MIN KMSN 151305Z VRB05KT 3SM BR OVC013 14/13 A3003 760 90 900 VRB/05 RMK AO2 SFC VIS 4
14837KMSN MSN20011115071009811/15/01 07:10:31  5-MIN KMSN 151310Z 22007KT 3SM BR OVC013 15/13 A3003 770 86 1000 220/07 RMK AO2
14837KMSN MSN20011115071509811/15/01 07:15:31  5-MIN KMSN 151315Z 23006KT 3SM BR OVC013 15/13 A3003 770 86 1000 230/06 RMK AO2
14837KMSN MSN20011115072009711/15/01 07:20:31  5-MIN KMSN 151320Z 22006KT 3SM BR OVC011 14/13 A3003 770 90 900 220/06 RMK AO2
14837KMSN MSN20011115072509711/15/01 07:25:31  5-MIN KMSN 151325Z 22006KT 3SM BR OVC011 14/13 A3003 770 90 900 220/06 RMK AO2
14837KMSN MSN20011115073009811/15/01 07:30:31  5-MIN KMSN 151330Z 23006KT 3SM BR OVC011 15/13 A3003 770 86 1000 230/06 RMK AO2
14837KMSN MSN20011115073509811/15/01 07:35:31  5-MIN KMSN 151335Z 23005KT 3SM BR OVC011 15/13 A3003 760 86 1000 230/05 RMK AO2
14837KMSN MSN20011115074009811/15/01 07:40:31  5-MIN KMSN 151340Z VRB04KT 3SM BR OVC011 15/13 A3003 760 86 1000 VRB/04 RMK AO2
14837KMSN MSN20011115074509711/15/01 07:45:31  5-MIN KMSN 151345Z VRB03KT 3SM BR OVC011 14/13 A3003 760 90 900 VRB/03 RMK AO2
14837KMSN MSN20011115075011411/15/01 07:50:31  5-MIN KMSN 151350Z 23005KT 3SM BR OVC011 14/13 A3004 760 90 900 230/05 RMK AO2 SLP172 T01440128
14837KMSN MSN20011115075509711/15/01 07:55:31  5-MIN KMSN 151355Z 22004KT 3SM BR OVC011 14/13 A3003 760 90 900 220/04 RMK AO2
14837KMSN MSN20011115080009811/15/01 08:00:31  5-MIN KMSN 151400Z 21005KT 3SM BR OVC011 15/13 A3003 760 86 1000 210/05 RMK AO2
14837KMSN MSN20011115080509811/15/01 08:05:31  5-MIN KMSN 151405Z 22005KT 3SM BR OVC013 15/13 A3003 760 86 1000 220/05 RMK AO2
14837KMSN MSN20011115081009811/15/01 08:10:31  5-MIN KMSN 151410Z 22006KT 3SM BR OVC015 15/13 A3003 760 86 1000 220/06 RMK AO2
14837KMSN MSN20011115081509811/15/01 08:15:31  5-MIN KMSN 151415Z 23006KT 3SM BR OVC015 15/13 A3003 760 86 1000 230/06 RMK AO2
14837KMSN MSN20011115082009811/15/01 08:20:31  5-MIN KMSN 151420Z 23006KT 3SM BR OVC015 15/13 A3003 760 86 1000 230/06 RMK AO2
14837KMSN MSN20011115082509811/15/01 08:25:31  5-MIN KMSN 151425Z 23005KT 3SM BR OVC015 15/13 A3003 760 86 1000 230/05 RMK AO2
14837KMSN MSN20011115083009811/15/01 08:30:31  5-MIN KMSN 151430Z 23007KT 3SM BR OVC015 15/13 A3003 760 86 1000 230/07 RMK AO2
14837KMSN MSN20011115083509811/15/01 08:35:31  5-MIN KMSN 151435Z 23006KT 3SM BR OVC015 15/13 A3003 760 86 1000 230/06 RMK AO2
14837KMSN MSN20011115084009811/15/01 08:40:31  5-MIN KMSN 151440Z 23007KT 3SM BR OVC013 15/13 A3003 760 86 1000 230/07 RMK AO2
14837KMSN MSN20011115084509811/15/01 08:45:31  5-MIN KMSN 151445Z 23006KT 3SM BR OVC013 15/13 A3003 760 86 1000 230/06 RMK AO2
14837KMSN MSN20011115085012111/15/01 08:50:31  5-MIN KMSN 151450Z 23005KT 3SM BR OVC013 15/13 A3004 760 86 1000 230/05 RMK AO2 SLP171 T01500128 55002
14837KMSN MSN20011115085509811/15/01 08:55:31  5-MIN KMSN 151455Z 23006KT 3SM BR OVC013 15/13 A3004 760 86 1000 220/06 RMK AO2
14837KMSN MSN20011115090009811/15/01 09:00:31  5-MIN KMSN 151500Z 22007KT 3SM BR OVC013 15/13 A3004 760 90 1000 220/07 RMK AO2
14837KMSN MSN20011115090509811/15/01 09:05:31  5-MIN KMSN 151505Z 23006KT 3SM BR OVC013 15/13 A3003 760 90 1000 220/06 RMK AO2
14837KMSN MSN20011115091010511/15/01 09:10:31  5-MIN KMSN 151510Z 22006KT 3SM BR BKN015 OVC019 15/13 A3003 760 90 1000 220/06 RMK AO2
14837KMSN MSN20011115091509811/15/01 09:15:31  5-MIN KMSN 151515Z 22006KT 3SM BR OVC015 15/13 A3003 760 90 1000 220/06 RMK AO2
14837KMSN MSN20011115092009811/15/01 09:20:31  5-MIN KMSN 151520Z 22007KT 3SM BR OVC015 15/13 A3003 760 90 1000 220/07 RMK AO2
14837KMSN MSN20011115092509811/15/01 09:25:31  5-MIN KMSN 151525Z 22008KT 3SM BR OVC015 16/13 A3003 760 86 1000 220/08 RMK AO2
14837KMSN MSN20011115093009811/15/01 09:30:31  5-MIN KMSN 151530Z 23006KT 3SM BR OVC015 16/13 A3003 770 86 1000 220/06 RMK AO2
14837KMSN MSN20011115093509811/15/01 09:35:31  5-MIN KMSN 151535Z 22007KT 3SM BR OVC015 16/13 A3003 770 86 1100 220/07 RMK AO2
14837KMSN MSN20011115094009811/15/01 09:40:31  5-MIN KMSN 151540Z 23007KT 3SM BR OVC017 16/13 A3003 770 86 1100 230/07 RMK AO2
14837KMSN MSN20011115094509811/15/01 09:45:31  5-MIN KMSN 151545Z 23008KT 3SM BR OVC017 16/13 A3003 770 86 1100 230/08 RMK AO2
14837KMSN MSN20011115095011511/15/01 09:50:31  5-MIN KMSN 151550Z 22008KT 3SM BR OVC017 16/13 A3003 770 86 1100 220/08 RMK AO2 SLP168 T01560133
14837KMSN MSN20011115095509811/15/01 09:55:31  5-MIN KMSN 151555Z 22010KT 3SM BR BKN017 16/13 A3003 770 86 1100 220/10 RMK AO2
14837KMSN MSN20011115100009811/15/01 10:00:31  5-MIN KMSN 151600Z 22008KT 3SM HZ BKN017 16/13 A3003 770 83 1100 220/08 RMK AO2
14837KMSN MSN20011115100509811/15/01 10:05:31  5-MIN KMSN 151605Z 23008KT 3SM HZ BKN017 16/13 A3003 770 83 1100 230/08 RMK AO2
14837KMSN MSN20011115101009811/15/01 10:10:31  5-MIN KMSN 151610Z 23007KT 3SM HZ BKN017 16/13 A3002 770 83 1100 230/07 RMK AO2
14837KMSN MSN20011115101509811/15/01 10:15:31  5-MIN KMSN 151615Z 23008KT 3SM HZ BKN017 16/13 A3003 770 83 1100 220/08 RMK AO2
14837KMSN MSN20011115102011411/15/01 10:20:31  5-MIN KMSN 151620Z 23008KT 200V270 3SM HZ BKN017 16/13 A3003 770 83 1100 230/08 200V270 RMK AO2
14837KMSN MSN20011115102509811/15/01 10:25:31  5-MIN KMSN 151625Z 24009KT 4SM HZ BKN017 17/13 A3003 760 80 1200 240/09 RMK AO2
14837KMSN MSN20011115103009811/15/01 10:30:31  5-MIN KMSN 151630Z 23008KT 4SM HZ BKN017 17/13 A3003 770 80 1200 230/08 RMK AO2
14837KMSN MSN20011115103511411/15/01 10:35:31  5-MIN KMSN 151635Z 23010KT 190V260 4SM HZ BKN017 17/13 A3002 770 80 1200 230/10 190V260 RMK AO2
14837KMSN MSN20011115104010411/15/01 10:40:31  5-MIN KMSN 151640Z 24009G15KT 4SM HZ SCT017 17/13 A3002 770 80 1200 240/09G15 RMK AO2
14837KMSN MSN20011115104510411/15/01 10:45:31  5-MIN KMSN 151645Z 24008G15KT 4SM HZ SCT017 17/13 A3002 770 77 1200 240/08G15 RMK AO2
14837KMSN MSN20011115105011511/15/01 10:50:31  5-MIN KMSN 151650Z 23008KT 4SM HZ SCT017 17/13 A3003 770 75 1200 230/08 RMK AO2 SLP166 T01720128
14837KMSN MSN20011115105509811/15/01 10:55:31  5-MIN KMSN 151655Z 23009KT 4SM HZ FEW017 17/13 A3002 770 78 1200 230/09 RMK AO2
14837KMSN MSN20011115110011111/15/01 11:00:31  5-MIN KMSN 151700Z 24008KT 210V290 4SM HZ CLR 17/13 A3002 770 78 1200 240/08 210V290 RMK AO2
14837KMSN MSN20011115110509511/15/01 11:05:31  5-MIN KMSN 151705Z 23009KT 4SM HZ CLR 17/13 A3002 770 75 1300 230/09 RMK AO2
14837KMSN MSN20011115111009811/15/01 11:10:31  5-MIN KMSN 151710Z 23008KT 4SM HZ FEW017 17/13 A3002 770 75 1300 230/08 RMK AO2
14837KMSN MSN20011115111511411/15/01 11:15:31  5-MIN KMSN 151715Z 24007KT 190V260 5SM HZ FEW017 17/13 A3002 770 75 1300 240/07 190V260 RMK AO2
14837KMSN MSN20011115112009811/15/01 11:20:31  5-MIN KMSN 151720Z 23007KT 5SM HZ FEW017 18/13 A3001 780 72 1300 230/07 RMK AO2
14837KMSN MSN20011115112509811/15/01 11:25:31  5-MIN KMSN 151725Z 23008KT 5SM HZ FEW017 18/13 A3001 780 72 1300 230/08 RMK AO2
14837KMSN MSN20011115113009811/15/01 11:30:31  5-MIN KMSN 151730Z 23008KT 5SM HZ FEW017 18/13 A3001 780 72 1300 230/08 RMK AO2
14837KMSN MSN20011115113509811/15/01 11:35:31  5-MIN KMSN 151735Z 23010KT 5SM HZ FEW017 18/13 A3001 780 72 1300 230/10 RMK AO2
14837KMSN MSN20011115114009811/15/01 11:40:31  5-MIN KMSN 151740Z 22007KT 5SM HZ FEW017 18/13 A3001 780 72 1300 220/07 RMK AO2
14837KMSN MSN20011115114509811/15/01 11:45:31  5-MIN KMSN 151745Z 23006KT 5SM HZ FEW017 18/12 A3001 790 69 1300 230/06 RMK AO2
14837KMSN MSN20011115115013311/15/01 11:50:31  5-MIN KMSN 151750Z 23007KT 6SM HZ FEW017 18/13 A3000 790 70 1400 230/07 RMK AO2 SLP158 T01830128 10183 20139 51006
14837KMSN MSN20011115115511111/15/01 11:55:31  5-MIN KMSN 151755Z 23009KT 190V260 5SM HZ CLR 18/12 A3000 790 67 1400 230/09 190V260 RMK AO2
14837KMSN MSN20011115120011111/15/01 12:00:31  5-MIN KMSN 151800Z 24007KT 200V270 6SM HZ CLR 18/12 A3000 790 67 1400 240/07 200V270 RMK AO2
14837KMSN MSN20011115120509511/15/01 12:05:31  5-MIN KMSN 151805Z 23009KT 6SM HZ CLR 18/12 A3000 790 67 1400 230/09 RMK AO2
14837KMSN MSN20011115121009511/15/01 12:10:31  5-MIN KMSN 151810Z 23008KT 6SM HZ CLR 18/12 A2999 800 67 1400 230/08 RMK AO2
14837KMSN MSN20011115121509511/15/01 12:15:31  5-MIN KMSN 151815Z 24008KT 6SM HZ CLR 18/12 A2999 800 67 1400 240/08 RMK AO2
14837KMSN MSN20011115122009511/15/01 12:20:31  5-MIN KMSN 151820Z 23007KT 6SM HZ CLR 18/12 A2999 800 67 1400 220/07 RMK AO2
14837KMSN MSN20011115122509511/15/01 12:25:31  5-MIN KMSN 151825Z 24007KT 6SM HZ CLR 18/12 A2999 800 67 1400 240/07 RMK AO2
14837KMSN MSN20011115123009511/15/01 12:30:31  5-MIN KMSN 151830Z 23008KT 6SM HZ CLR 18/12 A2999 800 67 1400 230/08 RMK AO2
14837KMSN MSN20011115123509511/15/01 12:35:31  5-MIN KMSN 151835Z 22008KT 6SM HZ CLR 18/12 A2999 800 65 1400 220/08 RMK AO2
14837KMSN MSN20011115124009211/15/01 12:40:31  5-MIN KMSN 151840Z 22010KT 7SM CLR 18/12 A2999 800 65 1400 220/10 RMK AO2
14837KMSN MSN20011115124509211/15/01 12:45:31  5-MIN KMSN 151845Z 23008KT 8SM CLR 18/12 A2998 810 65 1400 230/08 RMK AO2
14837KMSN MSN20011115125010911/15/01 12:50:31  5-MIN KMSN 151850Z 22009KT 8SM CLR 18/12 A2998 810 65 1400 220/09 RMK AO2 SLP151 T01830117
14837KMSN MSN20011115125509511/15/01 12:55:31  5-MIN KMSN 151855Z 22008KT 6SM HZ CLR 19/12 A2998 810 65 1500 220/08 RMK AO2
14837KMSN MSN20011115130009511/15/01 13:00:31  5-MIN KMSN 151900Z 23010KT 6SM HZ CLR 18/12 A2998 810 65 1400 230/10 RMK AO2
14837KMSN MSN20011115130509211/15/01 13:05:31  5-MIN KMSN 151905Z 23008KT 8SM CLR 18/12 A2998 810 65 1400 220/08 RMK AO2
14837KMSN MSN20011115131009211/15/01 13:10:31  5-MIN KMSN 151910Z VRB06KT 8SM CLR 18/12 A2998 810 65 1400 VRB/06 RMK AO2
14837KMSN MSN20011115131509211/15/01 13:15:31  5-MIN KMSN 151915Z 23008KT 8SM CLR 19/12 A2998 810 62 1500 230/08 RMK AO2
14837KMSN MSN20011115132010811/15/01 13:20:31  5-MIN KMSN 151920Z 23008KT 200V260 8SM CLR 19/12 A2998 810 62 1500 230/08 200V260 RMK AO2
14837KMSN MSN20011115132509211/15/01 13:25:31  5-MIN KMSN 151925Z 23009KT 8SM CLR 19/12 A2997 810 62 1500 220/09 RMK AO2
14837KMSN MSN20011115133010811/15/01 13:30:31  5-MIN KMSN 151930Z 23008KT 190V270 8SM CLR 19/12 A2997 810 62 1500 220/08 190V270 RMK AO2
14837KMSN MSN20011115133509211/15/01 13:35:31  5-MIN KMSN 151935Z 22008KT 8SM CLR 18/12 A2997 810 65 1400 220/08 RMK AO2
14837KMSN MSN20011115134010811/15/01 13:40:31  5-MIN KMSN 151940Z 23007KT 200V270 8SM CLR 19/12 A2998 810 62 1500 230/07 200V270 RMK AO2
14837KMSN MSN20011115134509211/15/01 13:45:31  5-MIN KMSN 151945Z VRB05KT 8SM CLR 18/12 A2998 810 65 1400 VRB/05 RMK AO2
14837KMSN MSN20011115135012511/15/01 13:50:31  5-MIN KMSN 151950Z 23007KT 200V260 8SM CLR 18/12 A2997 820 65 1400 230/07 200V260 RMK AO2 SLP148 T01830117
14837KMSN MSN20011115135509211/15/01 13:55:31  5-MIN KMSN 151955Z 23008KT 6SM CLR 18/12 A2997 820 65 1400 230/08 RMK AO2
14837KMSN MSN20011115140009211/15/01 14:00:31  5-MIN KMSN 152000Z 23008KT 8SM CLR 18/12 A2997 820 65 1400 230/08 RMK AO2
14837KMSN MSN20011115140509211/15/01 14:05:31  5-MIN KMSN 152005Z 22008KT 8SM CLR 18/12 A2997 820 65 1400 220/08 RMK AO2
14837KMSN MSN20011115141009211/15/01 14:10:31  5-MIN KMSN 152010Z 23009KT 8SM CLR 18/12 A2997 820 65 1400 230/09 RMK AO2
14837KMSN MSN20011115141509211/15/01 14:15:31  5-MIN KMSN 152015Z 23008KT 8SM CLR 18/12 A2997 820 65 1400 230/08 RMK AO2
14837KMSN MSN20011115142010811/15/01 14:20:31  5-MIN KMSN 152020Z 23007KT 200V270 7SM CLR 18/12 A2997 820 65 1400 230/07 200V270 RMK AO2
14837KMSN MSN20011115142509211/15/01 14:25:31  5-MIN KMSN 152025Z 23007KT 7SM CLR 18/12 A2997 820 65 1400 230/07 RMK AO2
14837KMSN MSN20011115143009211/15/01 14:30:31  5-MIN KMSN 152030Z 23008KT 7SM CLR 18/12 A2997 820 67 1400 230/08 RMK AO2
14837KMSN MSN20011115143509211/15/01 14:35:31  5-MIN KMSN 152035Z 23008KT 7SM CLR 18/12 A2997 820 65 1400 230/08 RMK AO2
14837KMSN MSN20011115144009211/15/01 14:40:31  5-MIN KMSN 152040Z 23007KT 7SM CLR 18/12 A2997 820 65 1400 230/07 RMK AO2
14837KMSN MSN20011115144509211/15/01 14:45:31  5-MIN KMSN 152045Z 23007KT 7SM CLR 18/12 A2997 810 65 1400 230/07 RMK AO2
14837KMSN MSN20011115145011511/15/01 14:50:31  5-MIN KMSN 152050Z 23007KT 7SM CLR 18/12 A2997 810 67 1400 220/07 RMK AO2 SLP149 T01780117 58011
14837KMSN MSN20011115145509511/15/01 14:55:31  5-MIN KMSN 152055Z 23008KT 5SM HZ CLR 18/12 A2997 810 67 1400 230/08 RMK AO2
14837KMSN MSN20011115150009211/15/01 15:00:31  5-MIN KMSN 152100Z 22008KT 7SM CLR 18/12 A2998 810 67 1400 220/08 RMK AO2
14837KMSN MSN20011115150509211/15/01 15:05:31  5-MIN KMSN 152105Z VRB06KT 7SM CLR 18/12 A2998 810 67 1400 VRB/06 RMK AO2
14837KMSN MSN20011115151009211/15/01 15:10:31  5-MIN KMSN 152110Z VRB06KT 7SM CLR 18/12 A2998 810 67 1400 VRB/06 RMK AO2
14837KMSN MSN20011115151509211/15/01 15:15:31  5-MIN KMSN 152115Z 24007KT 7SM CLR 18/12 A2998 810 67 1400 240/07 RMK AO2
14837KMSN MSN20011115152010811/15/01 15:20:31  5-MIN KMSN 152120Z 24008KT 220V340 7SM CLR 18/12 A2998 810 67 1400 240/08 220V340 RMK AO2
14837KMSN MSN20011115152509211/15/01 15:25:31  5-MIN KMSN 152125Z 22007KT 7SM CLR 17/12 A2998 810 69 1300 220/07 RMK AO2
14837KMSN MSN20011115153009211/15/01 15:30:31  5-MIN KMSN 152130Z VRB06KT 7SM CLR 17/12 A2999 800 69 1300 VRB/06 RMK AO2
14837KMSN MSN20011115153509211/15/01 15:35:31  5-MIN KMSN 152135Z 22007KT 7SM CLR 17/12 A2999 800 69 1300 220/07 RMK AO2
14837KMSN MSN20011115154009211/15/01 15:40:31  5-MIN KMSN 152140Z 22007KT 7SM CLR 17/12 A2999 800 69 1300 220/07 RMK AO2
14837KMSN MSN20011115154509211/15/01 15:45:31  5-MIN KMSN 152145Z 23007KT 7SM CLR 17/12 A2999 800 69 1300 220/07 RMK AO2
14837KMSN MSN20011115155010911/15/01 15:50:31  5-MIN KMSN 152150Z 23006KT 7SM CLR 17/12 A2999 800 69 1300 230/06 RMK AO2 SLP155 T01720117
14837KMSN MSN20011115155509211/15/01 15:55:31  5-MIN KMSN 152155Z 23005KT 7SM CLR 17/12 A2999 800 69 1300 230/05 RMK AO2
14837KMSN MSN20011115160009211/15/01 16:00:31  5-MIN KMSN 152200Z 23005KT 7SM CLR 17/12 A3000 790 72 1200 230/05 RMK AO2
14837KMSN MSN20011115160509211/15/01 16:05:31  5-MIN KMSN 152205Z 23006KT 7SM CLR 17/12 A3000 790 75 1200 230/06 RMK AO2
14837KMSN MSN20011115161009211/15/01 16:10:31  5-MIN KMSN 152210Z 23006KT 7SM CLR 17/12 A3000 790 75 1200 230/06 RMK AO2
14837KMSN MSN20011115161509211/15/01 16:15:31  5-MIN KMSN 152215Z 23006KT 7SM CLR 17/12 A3000 790 75 1200 230/06 RMK AO2
14837KMSN MSN20011115162009211/15/01 16:20:31  5-MIN KMSN 152220Z 23005KT 7SM CLR 17/12 A3000 790 75 1200 230/05 RMK AO2
14837KMSN MSN20011115162509211/15/01 16:25:31  5-MIN KMSN 152225Z 23005KT 7SM CLR 16/12 A3000 790 77 1100 230/05 RMK AO2
14837KMSN MSN20011115163009211/15/01 16:30:31  5-MIN KMSN 152230Z 22005KT 7SM CLR 16/12 A3000 790 75 1100 220/05 RMK AO2
14837KMSN MSN20011115163509211/15/01 16:35:31  5-MIN KMSN 152235Z 22006KT 7SM CLR 16/12 A3000 790 80 1100 220/06 RMK AO2
14837KMSN MSN20011115164009211/15/01 16:40:31  5-MIN KMSN 152240Z 22007KT 7SM CLR 16/12 A3000 790 77 1100 220/07 RMK AO2
14837KMSN MSN20011115164509211/15/01 16:45:31  5-MIN KMSN 152245Z 23006KT 7SM CLR 16/12 A3000 790 77 1100 230/06 RMK AO2
14837KMSN MSN20011115165011211/15/01 16:50:31  5-MIN KMSN 152250Z 22006KT 5SM HZ CLR 16/12 A3000 790 80 1100 220/06 RMK AO2 SLP159 T01560122
14837KMSN MSN20011115165509511/15/01 16:55:31  5-MIN KMSN 152255Z 23006KT 5SM HZ CLR 16/12 A3000 790 77 1100 230/06 RMK AO2
14837KMSN MSN20011115170009511/15/01 17:00:31  5-MIN KMSN 152300Z 22005KT 5SM HZ CLR 16/12 A3000 790 80 1100 220/05 RMK AO2
14837KMSN MSN20011115170509511/15/01 17:05:31  5-MIN KMSN 152305Z 23005KT 5SM HZ CLR 16/12 A3000 790 77 1100 220/05 RMK AO2
14837KMSN MSN20011115171009511/15/01 17:10:31  5-MIN KMSN 152310Z 23005KT 5SM HZ CLR 16/12 A3000 790 77 1100 220/05 RMK AO2
14837KMSN MSN20011115171509511/15/01 17:15:31  5-MIN KMSN 152315Z 22005KT 5SM HZ CLR 16/12 A3001 780 80 1100 220/05 RMK AO2
14837KMSN MSN20011115172009511/15/01 17:20:31  5-MIN KMSN 152320Z 22007KT 5SM HZ CLR 16/12 A3001 780 80 1100 220/07 RMK AO2
14837KMSN MSN20011115172509511/15/01 17:25:31  5-MIN KMSN 152325Z 22006KT 5SM HZ CLR 16/12 A3001 780 80 1100 220/06 RMK AO2
14837KMSN MSN20011115173009511/15/01 17:30:31  5-MIN KMSN 152330Z 22006KT 5SM HZ CLR 16/12 A3001 780 80 1100 220/06 RMK AO2
14837KMSN MSN20011115173509511/15/01 17:35:31  5-MIN KMSN 152335Z 22006KT 5SM HZ CLR 16/12 A3001 780 80 1100 220/06 RMK AO2
14837KMSN MSN20011115174009511/15/01 17:40:31  5-MIN KMSN 152340Z 23006KT 5SM HZ CLR 16/12 A3001 780 77 1100 230/06 RMK AO2
14837KMSN MSN20011115174509511/15/01 17:45:31  5-MIN KMSN 152345Z 23006KT 5SM HZ CLR 16/12 A3002 770 77 1100 230/06 RMK AO2
14837KMSN MSN20011115175013011/15/01 17:50:31  5-MIN KMSN 152350Z 23006KT 5SM HZ CLR 15/12 A3002 770 80 1000 230/06 RMK AO2 SLP165 T01500117 10189 20150 55009
14837KMSN MSN20011115175509411/15/01 17:55:31  5-MIN KMSN 152355Z 23006KT 4SM HZ CLR 14/12 A3002 770 83 900 230/06 RMK AO2
14837KMSN MSN20011115180009411/15/01 18:00:31  5-MIN KMSN 160000Z 23006KT 4SM HZ CLR 14/12 A3002 770 83 900 230/06 RMK AO2
14837KMSN MSN20011115180509411/15/01 18:05:31  5-MIN KMSN 160005Z 23006KT 4SM HZ CLR 14/12 A3002 770 83 900 230/06 RMK AO2
14837KMSN MSN20011118230509711/18/01 23:05:31  5-MIN KMSN 190505Z 22007KT 5SM BR OVC011 13/12 A2988 900 93 900 220/07 RMK AO2
14837KMSN MSN20011118231009711/18/01 23:10:31  5-MIN KMSN 190510Z 23007KT 5SM BR OVC011 13/12 A2988 900 93 900 220/07 RMK AO2
14837KMSN MSN20011118231511311/18/01 23:15:31  5-MIN KMSN 190515Z 21008KT 5SM -RA BR OVC011 13/12 A2988 900 93 900 210/08 RMK AO2 RAB13 P0000
14837KMSN MSN20011118232011311/18/01 23:20:31  5-MIN KMSN 190520Z 22008KT 5SM -RA BR OVC011 13/12 A2987 910 93 900 220/08 RMK AO2 RAB13 P0000
14837KMSN MSN20011118232511311/18/01 23:25:31  5-MIN KMSN 190525Z VRB06KT 5SM -RA BR OVC011 13/12 A2987 910 93 900 VRB/06 RMK AO2 RAB13 P0000
14837KMSN MSN20011118233012011/18/01 23:30:31  5-MIN KMSN 190530Z 21008KT 4SM -RA BR BKN011 OVC025 13/12 A2987 910 93 900 210/08 RMK AO2 RAB13 P0001
14837KMSN MSN20011118233512511/18/01 23:35:31  5-MIN KMSN 190535Z 22005G14KT 3SM RA BR BKN011 OVC025 13/12 A2987 910 93 900 220/05G14 RMK AO2 RAB13 P0002
14837KMSN MSN20011118234012611/18/01 23:40:31  5-MIN KMSN 190540Z 22007G14KT 4SM -RA BR BKN011 OVC025 13/12 A2987 910 93 900 220/07G14 RMK AO2 RAB13 P0002
14837KMSN MSN20011118234512011/18/01 23:45:31  5-MIN KMSN 190545Z VRB05KT 4SM -RA BR BKN011 OVC025 13/12 A2987 910 93 900 VRB/05 RMK AO2 RAB13 P0002
14837KMSN MSN20011118235017111/18/01 23:50:31  5-MIN KMSN 190550Z 23006KT 4SM -RA BR BKN011 OVC025 13/12 A2987 910 93 900 230/06 RMK AO2 RAB13 SLP115 P0002 60008 T01280117 10139 20117 401720078 56012
14837KMSN MSN20011118235511411/18/01 23:55:31  5-MIN KMSN 190555Z 22007KT 3SM -RA BR BKN011 OVC025 13/12 A2987 910 93 900 220/07 RMK AO2 P0000
14837KMSN MSN20011119000011911/19/01 00:00:31  5-MIN KMSN 190600Z VRB05KT 3SM -RA BR OVC011 13/12 A2987 910 93 900 VRB/05 RMK AO2 CIG 008V014 P0001
14837KMSN MSN20011119000511911/19/01 00:05:31  5-MIN KMSN 190605Z 23006KT 3SM -RA BR OVC011 13/12 A2986 920 93 900 230/06 RMK AO2 CIG 008V013 P0002
14837KMSN MSN20011119001011811/19/01 00:10:31  5-MIN KMSN 190610Z 22006KT 3SM RA BR OVC011 13/12 A2986 920 93 900 220/06 RMK AO2 CIG 008V014 P0002
14837KMSN MSN20011119001510711/19/01 00:15:31  5-MIN KMSN 190615Z 22006KT 3SM -RA BR OVC011 13/12 A2986 920 93 900 220/06 RMK AO2 P0003
14837KMSN MSN20011119002010711/19/01 00:20:31  5-MIN KMSN 190620Z 22007KT 4SM -RA BR OVC011 13/12 A2986 920 93 900 220/07 RMK AO2 P0003
14837KMSN MSN20011119002512611/19/01 00:25:31  5-MIN KMSN 190625Z 22007KT 4SM -RA BR BKN009 OVC013 12/12 A2986 920 96 800 220/07 RMK AO2 CIG 008V011 P0003
14837KMSN MSN20011119003011911/19/01 00:30:31  5-MIN KMSN 190630Z 23006KT 5SM -RA BR OVC009 12/12 A2986 920 96 900 230/06 RMK AO2 CIG 008V015 P0003
14837KMSN MSN20011119003510911/19/01 00:35:31  5-MIN KMSN 190635Z 22006KT 5SM BR OVC011 12/12 A2986 920 96 900 220/06 RMK AO2 RAE34 P0003
14837KMSN MSN20011119004010911/19/01 00:40:31  5-MIN KMSN 190640Z 23006KT 5SM BR OVC011 12/12 A2985 930 96 900 230/06 RMK AO2 RAE34 P0003
14837KMSN MSN20011119004512111/19/01 00:45:31  5-MIN KMSN 190645Z 23005KT 5SM BR OVC011 12/12 A2985 930 96 900 230/05 RMK AO2 RAE34 CIG 008V013 P0003
14837KMSN MSN20011119005014911/19/01 00:50:31  5-MIN KMSN 190650Z 31014G20KT 4SM -RA BR BKN011 OVC018 11/10 A2988 910 93 700 310/14G20 RMK AO2 CIG 007V014 SLP117 P0004 T01110100
14837KMSN MSN20011119005511911/19/01 00:55:31  5-MIN KMSN 190655Z 32018G26KT 3SM RA BR BKN011 OVC019 09/08 A2988 900 93 500 320/18G26 RMK AO2 P0000
14837KMSN MSN20011119010012711/19/01 01:00:31  5-MIN KMSN 190700Z 32015G26KT 4SM -RA BR BKN011 BKN019 OVC031 09/07 A2988 900 89 400 320/15G26 RMK AO2 P0000
14837KMSN MSN20011119010513511/19/01 01:05:31  5-MIN KMSN 190705Z 32011G23KT 8SM -RA BKN011 BKN017 OVC033 09/07 A2989 890 89 400 320/11G23 RMK AO2 WSHFT 0647 P0000
14837KMSN MSN20011119011013511/19/01 01:10:31  5-MIN KMSN 190710Z 32010G20KT 8SM -RA BKN011 BKN015 OVC024 09/07 A2989 890 89 400 320/10G20 RMK AO2 WSHFT 0647 P0001
14837KMSN MSN20011119011513511/19/01 01:15:31  5-MIN KMSN 190715Z 32011G20KT 7SM -RA BKN011 BKN015 OVC024 09/07 A2990 880 89 400 320/11G20 RMK AO2 WSHFT 0647 P0001
14837KMSN MSN20011119012013511/19/01 01:20:31  5-MIN KMSN 190720Z 31013G19KT 7SM -RA BKN011 BKN015 OVC024 09/07 A2990 880 89 400 310/13G19 RMK AO2 WSHFT 0647 P0001
14837KMSN MSN20011119012513511/19/01 01:25:31  5-MIN KMSN 190725Z 31014G22KT 7SM -RA BKN011 BKN015 OVC024 08/07 A2991 880 89 300 310/14G22 RMK AO2 WSHFT 0647 P0001
14837KMSN MSN20011119013013511/19/01 01:30:31  5-MIN KMSN 190730Z 32011G22KT 9SM -RA BKN011 BKN015 OVC024 08/07 A2991 880 89 300 320/11G22 RMK AO2 WSHFT 0647 P0001
14837KMSN MSN20011119013513411/19/01 01:35:31  5-MIN KMSN 190735Z 33009G22KT 7SM RA BKN011 BKN015 OVC024 08/06 A2990 890 89 300 330/09G22 RMK AO2 WSHFT 0647 P0002
14837KMSN MSN20011119014013811/19/01 01:40:31  5-MIN KMSN 190740Z 32011G15KT 6SM -RA BR BKN011 BKN015 OVC024 08/06 A2990 880 89 300 320/11G15 RMK AO2 WSHFT 0647 P0002
14837KMSN MSN20011119014512911/19/01 01:45:31  5-MIN KMSN 190745Z 33010KT 9SM -RA BKN011 BKN015 OVC024 08/06 A2990 880 89 300 330/10 RMK AO2 WSHFT 0647 P0002
14837KMSN MSN20011119015017111/19/01 01:50:31  5-MIN KMSN 190750Z 32008G15KT 290V360 10SM BKN011 BKN015 OVC024 08/06 A2991 880 89 300 320/08G15 290V360 RMK AO2 WSHFT 0647 RAE50 SLP129 P0002 T00780061
14837KMSN MSN20011119015509511/19/01 01:55:31  5-MIN KMSN 190755Z 32011KT 10SM OVC013 07/06 A2991 880 93 200 320/11 RMK AO2
14837KMSN MSN20011119020009511/19/01 02:00:31  5-MIN KMSN 190800Z 31009KT 10SM OVC013 07/06 A2991 870 93 200 310/09 RMK AO2
14837KMSN MSN20011119020510111/19/01 02:05:31  5-MIN KMSN 190805Z 31011G16KT 10SM OVC013 07/06 A2992 870 93 200 310/11G16 RMK AO2
14837KMSN MSN20011119021010111/19/01 02:10:31  5-MIN KMSN 190810Z 31011G16KT 10SM OVC013 07/06 A2992 860 93 200 310/11G16 RMK AO2
14837KMSN MSN20011119021510811/19/01 02:15:31  5-MIN KMSN 190815Z 33014G18KT 10SM BKN013 OVC020 07/06 A2992 860 89 200 330/14G18 RMK AO2
14837KMSN MSN20011119022013111/19/01 02:20:31  5-MIN KMSN 190820Z 34010G18KT 10SM -RA BKN013 BKN020 OVC075 07/06 A2992 870 89 200 340/10G18 RMK AO2 RAB18 P0000
14837KMSN MSN20011119022512411/19/01 02:25:31  5-MIN KMSN 190825Z 33010KT 7SM -RA SCT013 BKN019 OVC070 07/05 A2992 860 86 200 330/10 RMK AO2 RAB18 P0001
14837KMSN MSN20011119023012411/19/01 02:30:31  5-MIN KMSN 190830Z 33010KT 7SM -RA SCT013 BKN019 OVC095 07/06 A2992 870 93 100 330/10 RMK AO2 RAB18 P0001
14837KMSN MSN20011119023512511/19/01 02:35:31  5-MIN KMSN 190835Z 32007KT 10SM -RA BKN016 BKN032 OVC100 07/05 A2992 860 89 100 320/07 RMK AO2 RAB18 P0001
14837KMSN MSN20011119024012511/19/01 02:40:31  5-MIN KMSN 190840Z 31010KT 10SM -RA BKN018 BKN032 OVC100 07/06 A2992 860 93 100 310/10 RMK AO2 RAB18 P0002
14837KMSN MSN20011119024512511/19/01 02:45:31  5-MIN KMSN 190845Z 31009KT 10SM -RA BKN018 BKN032 OVC100 07/06 A2993 860 93 100 310/09 RMK AO2 RAB18 P0002
14837KMSN MSN20011119025016011/19/01 02:50:31  5-MIN KMSN 190850Z 30010KT 10SM SCT014 BKN018 OVC100 07/06 A2994 850 93 100 300/10 RMK AO2 RAB18E49 PRESRR SLP139 P0002 60009 T00670056 56020
14837KMSN MSN20011119025510811/19/01 02:55:31  5-MIN KMSN 190855Z 31013G20KT 10SM BKN016 OVC100 07/05 A2994 850 89 100 310/13G20 RMK AO2
14837KMSN MSN20011119030011511/19/01 03:00:31  5-MIN KMSN 190900Z 32011G20KT 10SM BKN016 BKN020 OVC100 07/05 A2994 850 89 100 320/11G20 RMK AO2
14837KMSN MSN20011119030510611/19/01 03:05:31  5-MIN KMSN 190905Z 32014G21KT 10SM BKN014 OVC020 06/05 A2994 840 93 0 320/14G21 RMK AO2
14837KMSN MSN20011119031009911/19/01 03:10:31  5-MIN KMSN 190910Z 32011G21KT 10SM OVC014 06/04 A2995 840 86 0 320/11G21 RMK AO2
14837KMSN MSN20011119031510011/19/01 03:15:31  5-MIN KMSN 190915Z 32011KT 10SM BKN014 OVC020 06/04 A2995 830 86 0 320/11 RMK AO2
14837KMSN MSN20011119032010611/19/01 03:20:31  5-MIN KMSN 190920Z 34015G21KT 10SM BKN014 OVC020 06/03 A2996 830 85 0 330/15G21 RMK AO2
14837KMSN MSN20011119032510611/19/01 03:25:31  5-MIN KMSN 190925Z 33015G21KT 10SM SCT014 OVC022 06/03 A2996 830 85 0 330/15G21 RMK AO2
14837KMSN MSN20011119033010611/19/01 03:30:31  5-MIN KMSN 190930Z 34013G21KT 10SM SCT014 OVC024 06/03 A2995 830 85 0 340/13G21 RMK AO2
14837KMSN MSN20011119033510611/19/01 03:35:31  5-MIN KMSN 190935Z 33012G21KT 10SM FEW016 OVC024 06/03 A2996 830 85 0 330/12G21 RMK AO2
14837KMSN MSN20011119034010011/19/01 03:40:31  5-MIN KMSN 190940Z 33013KT 10SM BKN021 OVC027 06/03 A2996 830 85 0 330/13 RMK AO2
14837KMSN MSN20011119034510711/19/01 03:45:31  5-MIN KMSN 190945Z 32009KT 10SM FEW013 BKN020 OVC027 06/03 A2996 830 85 0 320/09 RMK AO2
14837KMSN MSN20011119035013011/19/01 03:50:31  5-MIN KMSN 190950Z 33012G18KT 10SM SCT013 BKN017 OVC025 06/04 A2996 830 89 0 320/12G18 RMK AO2 SLP148 T00560039
14837KMSN MSN20011119035511311/19/01 03:55:31  5-MIN KMSN 190955Z 32010G18KT 10SM BKN011 BKN017 OVC027 06/04 A2996 820 89 0 320/10G18 RMK AO2
14837KMSN MSN20011119040011311/19/01 04:00:31  5-MIN KMSN 191000Z 31014G17KT 10SM BKN011 BKN017 OVC027 06/04 A2997 820 89 0 310/14G17 RMK AO2
14837KMSN MSN20011119040510811/19/01 04:05:31  5-MIN KMSN 191005Z 33012G17KT 8SM BKN013 OVC017 05/03 A2997 820 89 -100 330/12G17 RMK AO2
14837KMSN MSN20011119041010111/19/01 04:10:31  5-MIN KMSN 191010Z 32013G18KT 7SM OVC013 05/03 A2997 820 89 -100 320/13G18 RMK AO2
14837KMSN MSN20011119041511711/19/01 04:15:31  5-MIN KMSN 191015Z 32010G18KT 300V010 9SM OVC013 05/03 A2997 820 89 -100 320/10G18 300V010 RMK AO2
14837KMSN MSN20011119042010211/19/01 04:20:31  5-MIN KMSN 191020Z 32009G16KT 10SM OVC015 05/03 A2997 820 89 -100 320/09G16 RMK AO2
14837KMSN MSN20011119042510211/19/01 04:25:31  5-MIN KMSN 191025Z 33012G16KT 10SM OVC015 05/03 A2998 810 89 -100 330/12G16 RMK AO2
14837KMSN MSN20011119043010211/19/01 04:30:31  5-MIN KMSN 191030Z 32012G16KT 10SM OVC015 05/03 A2998 810 89 -100 320/12G16 RMK AO2
14837KMSN MSN20011119043509611/19/01 04:35:31  5-MIN KMSN 191035Z 33010KT 10SM OVC015 05/03 A2998 810 89 -100 320/10 RMK AO2
14837KMSN MSN20011119044010211/19/01 04:40:31  5-MIN KMSN 191040Z 33013G16KT 10SM OVC015 05/03 A2998 810 85 -100 330/13G16 RMK AO2
14837KMSN MSN20011119044510211/19/01 04:45:31  5-MIN KMSN 191045Z 33011G21KT 10SM OVC015 05/03 A2999 800 85 -100 330/11G21 RMK AO2
14837KMSN MSN20011119045011911/19/01 04:50:31  5-MIN KMSN 191050Z 33011G21KT 10SM OVC015 05/03 A2999 800 85 -100 320/11G21 RMK AO2 SLP157 T00500028
14837KMSN MSN20011119045510211/19/01 04:55:31  5-MIN KMSN 191055Z 32014G20KT 10SM OVC015 05/03 A2999 800 85 -100 320/14G20 RMK AO2
14837KMSN MSN20011119050011811/19/01 05:00:31  5-MIN KMSN 191100Z 32012G20KT 280V350 10SM OVC017 05/02 A2999 800 82 -100 320/12G20 280V350 RMK AO2
14837KMSN MSN20011119050510911/19/01 05:05:31  5-MIN KMSN 191105Z 32010G18KT 10SM BKN017 OVC021 05/02 A2999 800 82 -100 320/10G18 RMK AO2
14837KMSN MSN20011119051010911/19/01 05:10:31  5-MIN KMSN 191110Z 33012G17KT 10SM BKN017 OVC023 05/02 A2999 800 79 -100 330/12G17 RMK AO2
14837KMSN MSN20011119051510911/19/01 05:15:31  5-MIN KMSN 191115Z 33010G17KT 10SM BKN019 OVC025 05/02 A2999 800 79 -100 320/10G17 RMK AO2
14837KMSN MSN20011119052010911/19/01 05:20:31  5-MIN KMSN 191120Z 33011G19KT 10SM SCT019 OVC025 04/02 A2999 800 82 -200 330/11G19 RMK AO2
14837KMSN MSN20011119052510211/19/01 05:25:31  5-MIN KMSN 191125Z 33010G19KT 10SM OVC023 04/02 A3000 790 82 -200 330/10G19 RMK AO2
14837KMSN MSN20011119053010211/19/01 05:30:31  5-MIN KMSN 191130Z 33010G18KT 10SM OVC025 04/01 A3000 790 79 -200 330/10G18 RMK AO2
14837KMSN MSN20011119053510911/19/01 05:35:31  5-MIN KMSN 191135Z 33010G18KT 10SM BKN025 OVC070 04/01 A3000 790 79 -200 330/10G18 RMK AO2
14837KMSN MSN20011119054010911/19/01 05:40:31  5-MIN KMSN 191140Z 33012G18KT 10SM BKN025 OVC070 04/01 A3000 790 79 -200 330/12G18 RMK AO2
14837KMSN MSN20011119054510911/19/01 05:45:31  5-MIN KMSN 191145Z 32008G18KT 10SM SCT025 OVC070 04/01 A3000 790 79 -200 320/08G18 RMK AO2
14837KMSN MSN20011119055015011/19/01 05:50:31  5-MIN KMSN 191150Z 32008KT 10SM FEW025 OVC070 04/02 A3000 790 82 -200 320/08 RMK AO2 SLP162 60009 70022 T00440017 10128 20044 53024
14837KMSN MSN20011119055510311/19/01 05:55:31  5-MIN KMSN 191155Z 32011KT 10SM FEW027 OVC075 04/02 A3001 790 82 -200 320/11 RMK AO2
14837KMSN MSN20011119060009611/19/01 06:00:31  5-MIN KMSN 191200Z 31009KT 10SM OVC075 04/02 A3001 780 82 -200 310/09 RMK AO2
14837KMSN MSN20011119060510211/19/01 06:05:31  5-MIN KMSN 191205Z 32009G16KT 10SM OVC075 04/02 A3001 780 82 -200 320/09G16 RMK AO2
14837KMSN MSN20011119061010911/19/01 06:10:31  5-MIN KMSN 191210Z 31012G17KT 10SM FEW023 OVC075 04/02 A3001 780 82 -200 310/12G17 RMK AO2
14837KMSN MSN20011119061510911/19/01 06:15:31  5-MIN KMSN 191215Z 32010G17KT 10SM FEW023 OVC080 04/01 A3002 780 79 -200 320/10G17 RMK AO2
14837KMSN MSN20011119062010911/19/01 06:20:31  5-MIN KMSN 191220Z 32012G18KT 10SM FEW023 OVC080 04/01 A3002 780 79 -200 310/12G18 RMK AO2
14837KMSN MSN20011119062510911/19/01 06:25:31  5-MIN KMSN 191225Z 32012G18KT 10SM FEW023 OVC080 04/01 A3002 770 79 -200 320/12G18 RMK AO2
14837KMSN MSN20011119063010311/19/01 06:30:31  5-MIN KMSN 191230Z 31010KT 10SM FEW023 OVC085 04/01 A3002 770 82 -300 310/10 RMK AO2
14837KMSN MSN20011119063510911/19/01 06:35:31  5-MIN KMSN 191235Z 32012G19KT 10SM FEW023 OVC085 04/01 A3002 770 79 -300 320/12G19 RMK AO2
14837KMSN MSN20011119064010911/19/01 06:40:31  5-MIN KMSN 191240Z 33011G19KT 10SM FEW023 OVC085 04/01 A3002 770 79 -300 320/11G19 RMK AO2
14837KMSN MSN20011119064510311/19/01 06:45:31  5-MIN KMSN 191245Z 32008KT 10SM FEW023 OVC085 04/01 A3003 770 79 -300 320/08 RMK AO2
14837KMSN MSN20011119065011911/19/01 06:50:31  5-MIN KMSN 191250Z 32011G15KT 10SM OVC090 04/01 A3003 760 79 -300 310/11G15 RMK AO2 SLP175 T00390006
14837KMSN MSN20011119065510211/19/01 06:55:31  5-MIN KMSN 191255Z 31013G18KT 10SM OVC090 04/01 A3004 760 79 -300 310/13G18 RMK AO2
14837KMSN MSN20011119070010211/19/01 07:00:31  5-MIN KMSN 191300Z 31012G18KT 10SM OVC095 04/00 A3004 750 76 -300 310/12G18 RMK AO2
14837KMSN MSN20011119070510211/19/01 07:05:31  5-MIN KMSN 191305Z 32011G19KT 10SM OVC100 04/00 A3004 750 76 -300 320/11G19 RMK AO2
14837KMSN MSN20011119071010911/19/01 07:10:31  5-MIN KMSN 191310Z 31010G19KT 10SM SCT090 OVC110 04/00 A3004 750 76 -300 310/10G19 RMK AO2
14837KMSN MSN20011119071509611/19/01 07:15:31  5-MIN KMSN 191315Z 31012KT 10SM OVC110 04/00 A3005 750 76 -300 310/12 RMK AO2
14837KMSN MSN20011119072010211/19/01 07:20:31  5-MIN KMSN 191320Z 30011G18KT 10SM OVC110 04/00 A3005 740 76 -300 300/11G18 RMK AO2
14837KMSN MSN20011119072511811/19/01 07:25:31  5-MIN KMSN 191325Z 31010G18KT 280V350 10SM OVC110 04/00 A3005 740 76 -300 310/10G18 280V350 RMK AO2
14837KMSN MSN20011119073010211/19/01 07:30:31  5-MIN KMSN 191330Z 31010G19KT 10SM OVC110 03/00 A3006 740 79 -400 310/10G19 RMK AO2
14837KMSN MSN20011119073510311/19/01 07:35:31  5-MIN KMSN 191335Z 31012G19KT 10SM OVC110 03/M01 A3006 740 76 -400 310/12G19 RMK AO2
14837KMSN MSN20011119074011011/19/01 07:40:31  5-MIN KMSN 191340Z 31011G16KT 10SM FEW090 OVC110 03/M01 A3006 740 72 -400 310/11G16 RMK AO2
14837KMSN MSN20011119074511011/19/01 07:45:31  5-MIN KMSN 191345Z 32010G16KT 10SM FEW025 BKN110 03/M01 A3006 730 72 -400 310/10G16 RMK AO2
14837KMSN MSN20011119075012711/19/01 07:50:31  5-MIN KMSN 191350Z 31013G17KT 10SM FEW025 BKN110 03/M01 A3006 730 72 -400 310/13G17 RMK AO2 SLP185 T00331011
14837KMSN MSN20011119075510311/19/01 07:55:31  5-MIN KMSN 191355Z 30012G19KT 10SM SCT110 03/M02 A3006 730 70 -400 300/12G19 RMK AO2
14837KMSN MSN20011119080011011/19/01 08:00:31  5-MIN KMSN 191400Z 31014G19KT 10SM FEW010 SCT110 03/M02 A3006 730 69 -500 310/14G19 RMK AO2
14837KMSN MSN20011119080511011/19/01 08:05:31  5-MIN KMSN 191405Z 32010G18KT 10SM FEW010 SCT110 03/M02 A3007 730 69 -500 320/10G18 RMK AO2
14837KMSN MSN20011119081011011/19/01 08:10:31  5-MIN KMSN 191410Z 32011G17KT 10SM FEW010 SCT110 03/M02 A3007 730 69 -500 310/11G17 RMK AO2
14837KMSN MSN20011119081511011/19/01 08:15:31  5-MIN KMSN 191415Z 32012G17KT 10SM FEW010 SCT110 03/M02 A3007 720 69 -500 320/12G17 RMK AO2
14837KMSN MSN20011119082011011/19/01 08:20:31  5-MIN KMSN 191420Z 31015G21KT 10SM FEW010 SCT110 03/M02 A3007 720 69 -500 310/15G21 RMK AO2
14837KMSN MSN20011119082510311/19/01 08:25:31  5-MIN KMSN 191425Z 32011G21KT 10SM FEW010 03/M02 A3008 720 69 -500 320/11G21 RMK AO2
14837KMSN MSN20011119083010311/19/01 08:30:31  5-MIN KMSN 191430Z 32009G17KT 10SM FEW010 03/M02 A3007 720 69 -500 320/09G17 RMK AO2
14837KMSN MSN20011119083509711/19/01 08:35:31  5-MIN KMSN 191435Z 31014KT 10SM FEW010 03/M02 A3007 720 69 -500 310/14 RMK AO2
14837KMSN MSN20011119084010311/19/01 08:40:31  5-MIN KMSN 191440Z 32014G20KT 10SM FEW010 03/M03 A3007 720 64 -400 320/14G20 RMK AO2
14837KMSN MSN20011119084510311/19/01 08:45:31  5-MIN KMSN 191445Z 33012G21KT 10SM FEW010 03/M03 A3008 720 64 -400 320/12G21 RMK AO2
14837KMSN MSN20011119085012611/19/01 08:50:31  5-MIN KMSN 191450Z 31009G21KT 10SM FEW010 04/M02 A3007 720 64 -400 310/09G21 RMK AO2 SLP188 T00391022 51021
14837KMSN MSN20011119085510011/19/01 08:55:31  5-MIN KMSN 191455Z 32010G18KT 10SM CLR 03/M02 A3007 720 67 -400 320/10G18 RMK AO2
14837KMSN MSN20011119090010311/19/01 09:00:31  5-MIN KMSN 191500Z 30011G19KT 10SM FEW030 03/M03 A3008 720 64 -400 300/11G19 RMK AO2
14837KMSN MSN20011119090510311/19/01 09:05:31  5-MIN KMSN 191505Z 32013G20KT 10SM FEW030 03/M03 A3007 720 61 -400 320/13G20 RMK AO2
14837KMSN MSN20011119091010011/19/01 09:10:31  5-MIN KMSN 191510Z 31011G20KT 10SM CLR 03/M03 A3007 720 61 -400 310/11G20 RMK AO2
14837KMSN MSN20011119091510011/19/01 09:15:31  5-MIN KMSN 191515Z 32016G19KT 10SM CLR 04/M03 A3008 720 59 -400 310/16G19 RMK AO2
14837KMSN MSN20011119092010011/19/01 09:20:31  5-MIN KMSN 191520Z 31013G20KT 10SM CLR 03/M04 A3008 720 59 -400 310/13G20 RMK AO2
14837KMSN MSN20011119092510011/19/01 09:25:31  5-MIN KMSN 191525Z 30013G20KT 10SM CLR 04/M04 A3008 720 57 -400 300/13G20 RMK AO2
14837KMSN MSN20011119093010011/19/01 09:30:31  5-MIN KMSN 191530Z 31014G20KT 10SM CLR 03/M04 A3008 720 57 -400 310/14G20 RMK AO2
14837KMSN MSN20011119093510011/19/01 09:35:31  5-MIN KMSN 191535Z 32014G21KT 10SM CLR 03/M04 A3008 720 57 -400 320/14G21 RMK AO2
14837KMSN MSN20011119094010011/19/01 09:40:31  5-MIN KMSN 191540Z 32014G21KT 10SM CLR 03/M04 A3008 720 57 -400 320/14G21 RMK AO2
14837KMSN MSN20011119094509411/19/01 09:45:31  5-MIN KMSN 191545Z 30013KT 10SM CLR 04/M04 A3007 720 54 -400 300/13 RMK AO2
14837KMSN MSN20011119095011711/19/01 09:50:31  5-MIN KMSN 191550Z 31012G20KT 10SM CLR 04/M04 A3008 720 54 -400 310/12G20 RMK AO2 SLP190 T00391044
14837KMSN MSN20011119095510011/19/01 09:55:31  5-MIN KMSN 191555Z 31010G20KT 10SM CLR 04/M04 A3008 720 54 -400 310/10G20 RMK AO2
14837KMSN MSN20011119100010011/19/01 10:00:31  5-MIN KMSN 191600Z 32010G20KT 10SM CLR 04/M04 A3008 720 54 -400 310/10G20 RMK AO2
14837KMSN MSN20011119100510011/19/01 10:05:31  5-MIN KMSN 191605Z 31013G19KT 10SM CLR 04/M04 A3008 720 54 -400 310/13G19 RMK AO2
14837KMSN MSN20011119101010011/19/01 10:10:31  5-MIN KMSN 191610Z 31012G19KT 10SM CLR 04/M05 A3008 720 52 -400 310/12G19 RMK AO2
14837KMSN MSN20011119101510011/19/01 10:15:31  5-MIN KMSN 191615Z 30016G21KT 10SM CLR 04/M06 A3008 720 50 -400 300/16G21 RMK AO2
14837KMSN MSN20011119102010011/19/01 10:20:31  5-MIN KMSN 191620Z 29012G21KT 10SM CLR 04/M06 A3008 720 50 -400 290/12G21 RMK AO2
14837KMSN MSN20011119102509411/19/01 10:25:31  5-MIN KMSN 191625Z 32011KT 10SM CLR 04/M05 A3008 720 50 -300 310/11 RMK AO2
14837KMSN MSN20011119103009411/19/01 10:30:31  5-MIN KMSN 191630Z 30011KT 10SM CLR 04/M04 A3008 720 52 -300 290/11 RMK AO2
14837KMSN MSN20011119103510011/19/01 10:35:31  5-MIN KMSN 191635Z 29013G18KT 10SM CLR 04/M05 A3008 720 50 -300 290/13G18 RMK AO2
14837KMSN MSN20011119104010011/19/01 10:40:31  5-MIN KMSN 191640Z 30011G19KT 10SM CLR 04/M05 A3008 720 50 -300 300/11G19 RMK AO2
14837KMSN MSN20011119104510011/19/01 10:45:31  5-MIN KMSN 191645Z 31017G23KT 10SM CLR 04/M05 A3008 720 50 -300 310/17G23 RMK AO2
14837KMSN MSN20011119105011711/19/01 10:50:31  5-MIN KMSN 191650Z 32013G23KT 10SM CLR 04/M06 A3008 720 48 -300 310/13G23 RMK AO2 SLP190 T00441056
14837KMSN MSN20011119105510011/19/01 10:55:31  5-MIN KMSN 191655Z 30013G18KT 10SM CLR 04/M05 A3008 720 50 -300 300/13G18 RMK AO2
14837KMSN MSN20011119110010011/19/01 11:00:31  5-MIN KMSN 191700Z 31011G17KT 10SM CLR 05/M05 A3008 720 48 -200 300/11G17 RMK AO2
14837KMSN MSN20011119110510011/19/01 11:05:31  5-MIN KMSN 191705Z 31013G16KT 10SM CLR 06/M04 A3008 720 48 -200 310/13G16 RMK AO2
14837KMSN MSN20011119111010011/19/01 11:10:31  5-MIN KMSN 191710Z 31012G18KT 10SM CLR 05/M06 A3007 720 46 -200 310/12G18 RMK AO2
14837KMSN MSN20011119111511611/19/01 11:15:31  5-MIN KMSN 191715Z 30010G18KT 260V330 10SM CLR 05/M06 A3007 730 46 -200 300/10G18 260V330 RMK AO2
14837KMSN MSN20011119112010011/19/01 11:20:31  5-MIN KMSN 191720Z 29014G19KT 10SM CLR 05/M05 A3007 730 48 -200 290/14G19 RMK AO2
14837KMSN MSN20011119112510011/19/01 11:25:31  5-MIN KMSN 191725Z 30010G19KT 10SM CLR 05/M05 A3007 730 48 -200 300/10G19 RMK AO2
14837KMSN MSN20011119113010011/19/01 11:30:31  5-MIN KMSN 191730Z 30012G19KT 10SM CLR 06/M06 A3006 730 44 -100 300/12G19 RMK AO2
14837KMSN MSN20011119113509411/19/01 11:35:31  5-MIN KMSN 191735Z 31011KT 10SM CLR 06/M06 A3006 730 44 -100 310/11 RMK AO2
14837KMSN MSN20011119114010011/19/01 11:40:31  5-MIN KMSN 191740Z 31014G19KT 10SM CLR 06/M06 A3006 730 44 -100 310/14G19 RMK AO2
14837KMSN MSN20011119114510011/19/01 11:45:31  5-MIN KMSN 191745Z 31012G19KT 10SM CLR 06/M06 A3006 730 44 -100 310/12G19 RMK AO2
14837KMSN MSN20011119115015111/19/01 11:50:31  5-MIN KMSN 191750Z 30013G19KT 270V350 10SM CLR 06/M06 A3006 740 44 -100 300/13G19 270V350 RMK AO2 SLP183 T00561056 10056 20028 51023
14837KMSN MSN20011119115510011/19/01 11:55:31  5-MIN KMSN 191755Z 31012G19KT 10SM CLR 06/M06 A3006 740 43 -100 310/12G19 RMK AO2
14837KMSN MSN20011119120010011/19/01 12:00:31  5-MIN KMSN 191800Z 31015G20KT 10SM CLR 06/M06 A3006 740 41 -100 310/15G20 RMK AO2
14837KMSN MSN20011119120510011/19/01 12:05:31  5-MIN KMSN 191805Z 31014G21KT 10SM CLR 06/M06 A3006 740 43 -100 310/14G21 RMK AO2
14837KMSN MSN20011119121010011/19/01 12:10:31  5-MIN KMSN 191810Z 30013G21KT 10SM CLR 06/M06 A3006 740 43 -100 300/13G21 RMK AO2
14837KMSN MSN20011119121510011/19/01 12:15:31  5-MIN KMSN 191815Z 31014G19KT 10SM CLR 06/M06 A3006 740 43 -100 310/14G19 RMK AO2
14837KMSN MSN20011119122010011/19/01 12:20:31  5-MIN KMSN 191820Z 30012G19KT 10SM CLR 06/M06 A3005 740 43 -100 300/12G19 RMK AO2
14837KMSN MSN20011119122511611/19/01 12:25:31  5-MIN KMSN 191825Z 30012G18KT 250V310 10SM CLR 06/M06 A3006 740 41 -100 300/12G18 250V310 RMK AO2
14837KMSN MSN20011119123010011/19/01 12:30:31  5-MIN KMSN 191830Z 30016G19KT 10SM CLR 06/M07 A3006 740 41 -100 300/16G19 RMK AO2
14837KMSN MSN20011119123510011/19/01 12:35:31  5-MIN KMSN 191835Z 31012G18KT 10SM CLR 06/M06 A3006 740 43 -100 300/12G18 RMK AO2
14837KMSN MSN20011119124010011/19/01 12:40:31  5-MIN KMSN 191840Z 31013G18KT 10SM CLR 06/M06 A3005 740 41 -100 310/13G18 RMK AO2
14837KMSN MSN20011119124510011/19/01 12:45:31  5-MIN KMSN 191845Z 32011G18KT 10SM CLR 06/M06 A3006 740 41 -100 320/11G18 RMK AO2
14837KMSN MSN20011119125011711/19/01 12:50:31  5-MIN KMSN 191850Z 31012G19KT 10SM CLR 06/M06 A3006 740 41 -100 310/12G19 RMK AO2 SLP181 T00611061
14837KMSN MSN20011119125510011/19/01 12:55:31  5-MIN KMSN 191855Z 31015G21KT 10SM CLR 06/M06 A3006 740 43 -100 310/15G21 RMK AO2
14837KMSN MSN20011119130010011/19/01 13:00:31  5-MIN KMSN 191900Z 30013G21KT 10SM CLR 06/M07 A3006 740 41 -100 300/13G21 RMK AO2
14837KMSN MSN20011119130510011/19/01 13:05:31  5-MIN KMSN 191905Z 30014G24KT 10SM CLR 06/M07 A3006 740 41 -100 300/14G24 RMK AO2
14837KMSN MSN20011119131010011/19/01 13:10:31  5-MIN KMSN 191910Z 30013G24KT 10SM CLR 06/M06 A3006 740 43 -100 300/13G24 RMK AO2
14837KMSN MSN20011119131509411/19/01 13:15:31  5-MIN KMSN 191915Z 31016KT 10SM CLR 06/M06 A3006 740 43 -100 310/16 RMK AO2
14837KMSN MSN20011119132010011/19/01 13:20:31  5-MIN KMSN 191920Z 31013G22KT 10SM CLR 06/M07 A3006 740 41 -100 310/13G22 RMK AO2
14837KMSN MSN20011119132510011/19/01 13:25:31  5-MIN KMSN 191925Z 32014G22KT 10SM CLR 06/M07 A3006 740 39 -100 320/14G22 RMK AO2
14837KMSN MSN20011119133011611/19/01 13:30:31  5-MIN KMSN 191930Z 30012G20KT 260V330 10SM CLR 06/M06 A3006 740 41 -100 300/12G20 260V330 RMK AO2
14837KMSN MSN20011119133510011/19/01 13:35:31  5-MIN KMSN 191935Z 29014G20KT 10SM CLR 06/M07 A3006 730 41 -100 290/14G20 RMK AO2
14837KMSN MSN20011119134011611/19/01 13:40:31  5-MIN KMSN 191940Z 30013G20KT 270V330 10SM CLR 06/M07 A3006 740 41 -100 300/13G20 270V330 RMK AO2
14837KMSN MSN20011119134510311/19/01 13:45:31  5-MIN KMSN 191945Z 30013G19KT 10SM FEW035 06/M07 A3006 730 41 -100 300/13G19 RMK AO2
14837KMSN MSN20011119135012011/19/01 13:50:31  5-MIN KMSN 191950Z 31014G23KT 10SM FEW035 06/M07 A3006 740 41 -100 300/14G23 RMK AO2 SLP184 T00561067
14837KMSN MSN20011119135510011/19/01 13:55:31  5-MIN KMSN 191955Z 31015G23KT 10SM CLR 06/M07 A3006 740 41 -100 310/15G23 RMK AO2
14837KMSN MSN20011119140009411/19/01 14:00:31  5-MIN KMSN 192000Z 30015KT 10SM CLR 06/M07 A3006 740 39 -100 300/15 RMK AO2
14837KMSN MSN20011119140510011/19/01 14:05:31  5-MIN KMSN 192005Z 30009G20KT 10SM CLR 06/M07 A3006 740 41 -100 300/09G20 RMK AO2
14837KMSN MSN20011119141010011/19/01 14:10:31  5-MIN KMSN 192010Z 32014G19KT 10SM CLR 06/M06 A3006 740 43 -100 310/14G19 RMK AO2
14837KMSN MSN20011119141510011/19/01 14:15:31  5-MIN KMSN 192015Z 29012G19KT 10SM CLR 06/M06 A3006 740 43 -100 290/12G19 RMK AO2
14837KMSN MSN20011119142010011/19/01 14:20:31  5-MIN KMSN 192020Z 28010G17KT 10SM CLR 06/M06 A3006 740 43 -100 270/10G17 RMK AO2
14837KMSN MSN20011119142510011/19/01 14:25:31  5-MIN KMSN 192025Z 29012G19KT 10SM CLR 06/M06 A3006 740 43 -100 290/12G19 RMK AO2
14837KMSN MSN20011119143010011/19/01 14:30:31  5-MIN KMSN 192030Z 29010G19KT 10SM CLR 06/M07 A3006 740 41 -100 290/10G19 RMK AO2
14837KMSN MSN20011119143510011/19/01 14:35:31  5-MIN KMSN 192035Z 29012G19KT 10SM CLR 06/M05 A3006 740 46 -100 290/12G19 RMK AO2
14837KMSN MSN20011119144010011/19/01 14:40:31  5-MIN KMSN 192040Z 30011G19KT 10SM CLR 06/M04 A3006 740 48 -100 300/11G19 RMK AO2
14837KMSN MSN20011119144510011/19/01 14:45:31  5-MIN KMSN 192045Z 30010G19KT 10SM CLR 06/M04 A3006 730 48 -100 300/10G19 RMK AO2
14837KMSN MSN20011119145012611/19/01 14:50:31  5-MIN KMSN 192050Z 30010G17KT 10SM FEW040 06/M07 A3006 730 41 -100 300/10G17 RMK AO2 SLP186 T00561067 58006
14837KMSN MSN20011119145510011/19/01 14:55:31  5-MIN KMSN 192055Z 29013G19KT 10SM CLR 06/M07 A3007 730 41 -100 290/13G19 RMK AO2
14837KMSN MSN20011119150010011/19/01 15:00:31  5-MIN KMSN 192100Z 30013G20KT 10SM CLR 06/M07 A3007 730 39 -100 300/13G20 RMK AO2
14837KMSN MSN20011119150510011/19/01 15:05:31  5-MIN KMSN 192105Z 31012G20KT 10SM CLR 06/M07 A3007 720 39 -200 310/12G20 RMK AO2
14837KMSN MSN20011119151009411/19/01 15:10:31  5-MIN KMSN 192110Z 30009KT 10SM CLR 06/M07 A3007 720 41 -200 300/09 RMK AO2
14837KMSN MSN20011119151509711/19/01 15:15:31  5-MIN KMSN 192115Z 31009KT 10SM FEW040 06/M06 A3008 720 43 -200 310/09 RMK AO2
14837KMSN MSN20011119152010311/19/01 15:20:31  5-MIN KMSN 192120Z 30010G17KT 10SM FEW040 06/M07 A3008 720 41 -200 300/10G17 RMK AO2
14837KMSN MSN20011119152510311/19/01 15:25:31  5-MIN KMSN 192125Z 30010G17KT 10SM FEW040 06/M06 A3008 710 43 -200 290/10G17 RMK AO2
14837KMSN MSN20011119153010311/19/01 15:30:31  5-MIN KMSN 192130Z 30012G16KT 10SM FEW040 06/M06 A3008 710 43 -200 300/12G16 RMK AO2
14837KMSN MSN20011119153510311/19/01 15:35:31  5-MIN KMSN 192135Z 29012G17KT 10SM FEW040 06/M06 A3009 710 43 -200 290/12G17 RMK AO2
14837KMSN MSN20011119154009711/19/01 15:40:31  5-MIN KMSN 192140Z 30012KT 10SM FEW040 06/M06 A3009 710 43 -200 300/12 RMK AO2
14837KMSN MSN20011119154510311/19/01 15:45:31  5-MIN KMSN 192145Z 30010G18KT 10SM FEW040 05/M06 A3009 700 46 -200 300/10G18 RMK AO2
14837KMSN MSN20011119155012011/19/01 15:50:31  5-MIN KMSN 192150Z 30010G18KT 10SM FEW050 05/M06 A3009 710 46 -200 300/10G18 RMK AO2 SLP196 T00501056
14837KMSN MSN20011119155511311/19/01 15:55:31  5-MIN KMSN 192155Z 29010KT 250V340 10SM FEW050 05/M06 A3009 700 46 -200 290/10 250V340 RMK AO2
14837KMSN MSN20011119160009711/19/01 16:00:31  5-MIN KMSN 192200Z 30010KT 10SM FEW050 05/M06 A3010 700 46 -200 300/10 RMK AO2
14837KMSN MSN20011119160509711/19/01 16:05:31  5-MIN KMSN 192205Z 30008KT 10SM FEW050 04/M07 A3009 700 44 -300 300/08 RMK AO2
14837KMSN MSN20011119161009711/19/01 16:10:31  5-MIN KMSN 192210Z 29009KT 10SM FEW050 04/M06 A3009 700 46 -300 290/09 RMK AO2
14837KMSN MSN20011119161509711/19/01 16:15:31  5-MIN KMSN 192215Z 29006KT 10SM FEW050 04/M06 A3010 700 46 -300 290/06 RMK AO2
14837KMSN MSN20011119162011011/19/01 16:20:31  5-MIN KMSN 192220Z 30007KT 270V330 10SM CLR 04/M06 A3010 700 48 -400 300/07 270V330 RMK AO2
14837KMSN MSN20011119162509411/19/01 16:25:31  5-MIN KMSN 192225Z 30008KT 10SM CLR 04/M06 A3010 700 48 -400 290/08 RMK AO2
14837KMSN MSN20011119163010311/19/01 16:30:31  5-MIN KMSN 192230Z 29009G14KT 10SM FEW050 04/M06 A3010 700 48 -400 290/09G14 RMK AO2
14837KMSN MSN20011119163509711/19/01 16:35:31  5-MIN KMSN 192235Z 30009KT 10SM FEW050 04/M06 A3010 700 48 -400 300/09 RMK AO2
14837KMSN MSN20011119164009711/19/01 16:40:31  5-MIN KMSN 192240Z 30010KT 10SM FEW050 04/M06 A3010 690 48 -400 300/10 RMK AO2
14837KMSN MSN20011119164510311/19/01 16:45:31  5-MIN KMSN 192245Z 30011G16KT 10SM FEW050 04/M06 A3011 690 48 -400 300/11G16 RMK AO2
14837KMSN MSN20011119165012011/19/01 16:50:31  5-MIN KMSN 192250Z 30007G16KT 10SM FEW050 04/M06 A3011 690 48 -400 300/07G16 RMK AO2 SLP203 T00391061
14837KMSN MSN20011119165509411/19/01 16:55:31  5-MIN KMSN 192255Z 31008KT 10SM CLR 03/M06 A3011 690 50 -500 310/08 RMK AO2
14837KMSN MSN20011119170009711/19/01 17:00:31  5-MIN KMSN 192300Z 32007KT 10SM FEW050 03/M06 A3011 690 52 -500 310/07 RMK AO2
14837KMSN MSN20011119170509711/19/01 17:05:31  5-MIN KMSN 192305Z 31007KT 10SM FEW050 03/M06 A3012 680 52 -500 310/07 RMK AO2
14837KMSN MSN20011119171009711/19/01 17:10:31  5-MIN KMSN 192310Z 31008KT 10SM FEW050 03/M05 A3012 680 56 -500 310/08 RMK AO2
14837KMSN MSN20011119171509711/19/01 17:15:31  5-MIN KMSN 192315Z 31008KT 10SM FEW050 03/M05 A3012 680 56 -500 310/08 RMK AO2
14837KMSN MSN20011119172009711/19/01 17:20:31  5-MIN KMSN 192320Z 31010KT 10SM FEW050 03/M06 A3012 680 52 -500 310/10 RMK AO2
14837KMSN MSN20011119172510311/19/01 17:25:31  5-MIN KMSN 192325Z 31010G16KT 10SM FEW050 03/M06 A3013 670 52 -500 310/10G16 RMK AO2
14837KMSN MSN20011119173009711/19/01 17:30:31  5-MIN KMSN 192330Z 32011KT 10SM FEW050 03/M06 A3013 670 52 -500 310/11 RMK AO2
14837KMSN MSN20011119173509711/19/01 17:35:31  5-MIN KMSN 192335Z 31010KT 10SM SCT050 03/M06 A3013 670 52 -500 310/10 RMK AO2
14837KMSN MSN20011119174009711/19/01 17:40:31  5-MIN KMSN 192340Z 31009KT 10SM SCT050 03/M06 A3013 670 52 -500 310/09 RMK AO2
14837KMSN MSN20011119174510311/19/01 17:45:31  5-MIN KMSN 192345Z 30006G14KT 10SM BKN055 03/M05 A3013 670 54 -500 300/06G14 RMK AO2
14837KMSN MSN20011119175013211/19/01 17:50:31  5-MIN KMSN 192350Z 31007KT 10SM BKN055 03/M05 A3013 670 54 -500 310/07 RMK AO2 SLP211 T00331050 10061 20028 53003
14837KMSN MSN20011119175509711/19/01 17:55:31  5-MIN KMSN 192355Z 30008KT 10SM BKN060 03/M06 A3013 670 52 -500 300/08 RMK AO2
14837KMSN MSN20011119180010311/19/01 18:00:31  5-MIN KMSN 200000Z 30010G15KT 10SM BKN060 03/M06 A3013 670 52 -500 300/10G15 RMK AO2
14837KMSN MSN20011119180510311/19/01 18:05:31  5-MIN KMSN 200005Z 30008G15KT 10SM SCT060 03/M06 A3013 670 52 -500 300/08G15 RMK AO2
14837KMSN MSN20011119181009711/19/01 18:10:31  5-MIN KMSN 200010Z 30008KT 10SM SCT060 03/M06 A3013 670 54 -600 300/08 RMK AO2
14837KMSN MSN20011119181509711/19/01 18:15:31  5-MIN KMSN 200015Z 31007KT 10SM FEW060 03/M06 A3013 670 54 -600 310/07 RMK AO2
14837KMSN MSN20011119182009711/19/01 18:20:31  5-MIN KMSN 200020Z 31008KT 10SM SCT060 03/M06 A3013 670 54 -600 310/08 RMK AO2
14837KMSN MSN20011119182509711/19/01 18:25:31  5-MIN KMSN 200025Z 31008KT 10SM FEW060 03/M05 A3013 670 56 -600 310/08 RMK AO2
14837KMSN MSN20011119183009711/19/01 18:30:31  5-MIN KMSN 200030Z 31006KT 10SM SCT060 03/M05 A3014 670 56 -600 310/06 RMK AO2
14837KMSN MSN20011119183509711/19/01 18:35:31  5-MIN KMSN 200035Z 30007KT 10SM BKN060 03/M05 A3014 660 56 -600 300/07 RMK AO2
14837KMSN MSN20011119184009711/19/01 18:40:31  5-MIN KMSN 200040Z 30007KT 10SM BKN060 03/M05 A3014 660 56 -600 300/07 RMK AO2
14837KMSN MSN20011119184509711/19/01 18:45:31  5-MIN KMSN 200045Z 30011KT 10SM BKN060 03/M05 A3014 660 56 -600 300/11 RMK AO2
14837KMSN MSN20011119185011411/19/01 18:50:31  5-MIN KMSN 200050Z 31007KT 10SM BKN060 03/M05 A3014 660 54 -500 300/07 RMK AO2 SLP214 T00331050
14837KMSN MSN20011119185509711/19/01 18:55:31  5-MIN KMSN 200055Z 30006KT 10SM BKN060 03/M05 A3014 660 56 -600 300/06 RMK AO2
14837KMSN MSN20011119190010311/19/01 19:00:31  5-MIN KMSN 200100Z 32008G16KT 10SM BKN060 03/M05 A3014 660 56 -600 320/08G16 RMK AO2
14837KMSN MSN20011119190510311/19/01 19:05:31  5-MIN KMSN 200105Z 31008G16KT 10SM BKN060 03/M05 A3014 660 56 -600 310/08G16 RMK AO2
14837KMSN MSN20011119191009711/19/01 19:10:31  5-MIN KMSN 200110Z 31008KT 10SM BKN060 03/M05 A3015 660 56 -600 310/08 RMK AO2
14837KMSN MSN20011119191509711/19/01 19:15:31  5-MIN KMSN 200115Z 31009KT 10SM BKN060 03/M05 A3015 650 56 -600 310/09 RMK AO2
14837KMSN MSN20011119192010311/19/01 19:20:31  5-MIN KMSN 200120Z 33011G15KT 10SM BKN060 03/M06 A3015 650 52 -600 320/11G15 RMK AO2
14837KMSN MSN20011119192509711/19/01 19:25:31  5-MIN KMSN 200125Z 31012KT 10SM BKN060 03/M06 A3015 650 52 -600 310/12 RMK AO2
14837KMSN MSN20011119193009711/19/01 19:30:31  5-MIN KMSN 200130Z 31011KT 10SM BKN060 03/M07 A3015 650 50 -600 310/11 RMK AO2
14837KMSN MSN20011119193509711/19/01 19:35:31  5-MIN KMSN 200135Z 31011KT 10SM BKN060 03/M07 A3015 650 50 -600 310/11 RMK AO2
14837KMSN MSN20011119194009711/19/01 19:40:31  5-MIN KMSN 200140Z 32011KT 10SM BKN060 03/M07 A3015 650 50 -600 310/11 RMK AO2
14837KMSN MSN20011119194510311/19/01 19:45:31  5-MIN KMSN 200145Z 32013G18KT 10SM SCT055 03/M07 A3015 650 50 -600 320/13G18 RMK AO2
14837KMSN MSN20011119195012011/19/01 19:50:31  5-MIN KMSN 200150Z 32011G18KT 10SM SCT055 02/M07 A3015 650 52 -700 320/11G18 RMK AO2 SLP218 T00221067
14837KMSN MSN20011119195510311/19/01 19:55:31  5-MIN KMSN 200155Z 33009G17KT 10SM FEW055 02/M07 A3015 650 52 -700 320/09G17 RMK AO2
14837KMSN MSN20011119200010311/19/01 20:00:31  5-MIN KMSN 200200Z 33009G16KT 10SM FEW050 02/M07 A3015 650 52 -700 330/09G16 RMK AO2
14837KMSN MSN20011119200509711/19/01 20:05:31  5-MIN KMSN 200205Z 33010KT 10SM FEW050 02/M07 A3015 650 52 -700 330/10 RMK AO2
14837KMSN MSN20011119201009711/19/01 20:10:31  5-MIN KMSN 200210Z 33008KT 10SM FEW050 02/M06 A3016 650 56 -700 330/08 RMK AO2
14837KMSN MSN20011119201509711/19/01 20:15:31  5-MIN KMSN 200215Z 32007KT 10SM FEW050 02/M06 A3016 650 54 -700 320/07 RMK AO2
14837KMSN MSN20011119202009411/19/01 20:20:31  5-MIN KMSN 200220Z 33008KT 10SM CLR 02/M06 A3016 650 56 -700 320/08 RMK AO2
14837KMSN MSN20011119202509411/19/01 20:25:31  5-MIN KMSN 200225Z 33008KT 10SM CLR 02/M06 A3016 650 56 -700 330/08 RMK AO2
14837KMSN MSN20011119203009411/19/01 20:30:31  5-MIN KMSN 200230Z 33007KT 10SM CLR 02/M06 A3016 650 56 -700 320/07 RMK AO2
14837KMSN MSN20011119203509411/19/01 20:35:31  5-MIN KMSN 200235Z 33008KT 10SM CLR 01/M06 A3016 640 58 -800 330/08 RMK AO2
14837KMSN MSN20011119204009411/19/01 20:40:31  5-MIN KMSN 200240Z 33006KT 10SM CLR 02/M06 A3016 640 56 -700 330/06 RMK AO2
14837KMSN MSN20011119204509411/19/01 20:45:31  5-MIN KMSN 200245Z VRB05KT 10SM CLR 01/M06 A3016 640 58 -800 VRB/05 RMK AO2
14837KMSN MSN20011119205011711/19/01 20:50:31  5-MIN KMSN 200250Z 31004KT 10SM CLR 01/M06 A3017 640 58 -800 300/04 RMK AO2 SLP223 T00111061 51022
14837KMSN MSN20011119205509411/19/01 20:55:31  5-MIN KMSN 200255Z 00000KT 10SM CLR 01/M06 A3017 640 58 -800 000/00 RMK AO2
14837KMSN MSN20011119210009411/19/01 21:00:31  5-MIN KMSN 200300Z 29004KT 10SM CLR 01/M06 A3017 630 58 -800 290/04 RMK AO2
14837KMSN MSN20011119210509411/19/01 21:05:31  5-MIN KMSN 200305Z 30003KT 10SM CLR 01/M06 A3017 630 61 -800 300/03 RMK AO2
14837KMSN MSN20011119211009411/19/01 21:10:31  5-MIN KMSN 200310Z 31003KT 10SM CLR 01/M06 A3017 630 63 -900 310/03 RMK AO2
14837KMSN MSN20011119211509411/19/01 21:15:31  5-MIN KMSN 200315Z 31004KT 10SM CLR 01/M06 A3017 630 61 -900 310/04 RMK AO2
14837KMSN MSN20011119212009411/19/01 21:20:31  5-MIN KMSN 200320Z 31004KT 10SM CLR 01/M06 A3018 630 63 -900 310/04 RMK AO2
14837KMSN MSN20011119212509511/19/01 21:25:31  5-MIN KMSN 200325Z 31005KT 10SM CLR 00/M06 A3018 630 66 -1000 310/05 RMK AO2
14837KMSN MSN20011119213009511/19/01 21:30:31  5-MIN KMSN 200330Z 32005KT 10SM CLR 00/M06 A3018 630 66 -1000 320/05 RMK AO2
14837KMSN MSN20011119213509511/19/01 21:35:31  5-MIN KMSN 200335Z 31004KT 10SM CLR 00/M06 A3018 630 66 -1000 310/04 RMK AO2
14837KMSN MSN20011119214009511/19/01 21:40:31  5-MIN KMSN 200340Z 31003KT 10SM CLR 00/M06 A3018 630 66 -1000 300/03 RMK AO2
14837KMSN MSN20011119214509511/19/01 21:45:31  5-MIN KMSN 200345Z 30003KT 10SM CLR 00/M06 A3018 620 66 -1000 300/03 RMK AO2
14837KMSN MSN20011119215011211/19/01 21:50:31  5-MIN KMSN 200350Z 29003KT 10SM CLR 00/M06 A3019 620 66 -1000 290/03 RMK AO2 SLP231 T00001056
14837KMSN MSN20011119215509511/19/01 21:55:31  5-MIN KMSN 200355Z 27003KT 10SM CLR 00/M06 A3019 620 66 -1000 270/03 RMK AO2
14837KMSN MSN20011119220009511/19/01 22:00:31  5-MIN KMSN 200400Z 00000KT 10SM CLR 00/M06 A3019 620 66 -1000 000/00 RMK AO2
14837KMSN MSN20011119220509511/19/01 22:05:31  5-MIN KMSN 200405Z 29004KT 10SM CLR 00/M06 A3019 610 66 -1000 290/04 RMK AO2
14837KMSN MSN20011119221009911/19/01 22:10:31  5-MIN KMSN 200410Z 29004KT 10SM FEW055 M01/M06 A3019 610 69 -1000 280/04 RMK AO2
14837KMSN MSN20011119221509911/19/01 22:15:31  5-MIN KMSN 200415Z 30004KT 10SM FEW055 M01/M06 A3019 620 69 -1000 290/04 RMK AO2
14837KMSN MSN20011119222009911/19/01 22:20:31  5-MIN KMSN 200420Z 30004KT 10SM SCT055 M01/M06 A3019 610 69 -1000 300/04 RMK AO2
14837KMSN MSN20011119222509911/19/01 22:25:31  5-MIN KMSN 200425Z 29004KT 10SM SCT055 M01/M06 A3019 610 69 -1000 290/04 RMK AO2
14837KMSN MSN20011119223009911/19/01 22:30:31  5-MIN KMSN 200430Z 28004KT 10SM FEW055 M01/M06 A3019 610 69 -1100 280/04 RMK AO2
14837KMSN MSN20011119223509811/19/01 22:35:31  5-MIN KMSN 200435Z 29004KT 10SM FEW055 00/M06 A3019 610 66 -1000 290/04 RMK AO2
14837KMSN MSN20011119224009911/19/01 22:40:31  5-MIN KMSN 200440Z 29003KT 10SM FEW055 M01/M05 A3019 610 72 -1000 290/03 RMK AO2
14837KMSN MSN20011119224509911/19/01 22:45:31  5-MIN KMSN 200445Z 00000KT 10SM FEW055 M01/M06 A3019 620 69 -1000 000/00 RMK AO2
14837KMSN MSN20011119225011611/19/01 22:50:31  5-MIN KMSN 200450Z 00000KT 10SM SCT060 M01/M06 A3019 620 69 -1000 000/00 RMK AO2 SLP232 T10061056
14837KMSN MSN20011119225509911/19/01 22:55:31  5-MIN KMSN 200455Z VRB03KT 10SM BKN060 M01/M06 A3019 620 69 -1000 VRB/03 RMK AO2
14837KMSN MSN20011119230009811/19/01 23:00:31  5-MIN KMSN 200500Z VRB03KT 10SM SCT060 00/M06 A3019 620 66 -1000 VRB/03 RMK AO2
14837KMSN MSN20011119230509811/19/01 23:05:31  5-MIN KMSN 200505Z 00000KT 10SM SCT060 00/M06 A3019 610 66 -1000 000/00 RMK AO2
14837KMSN MSN20011119231009811/19/01 23:10:31  5-MIN KMSN 200510Z 27003KT 10SM SCT060 00/M06 A3019 610 66 -1000 270/03 RMK AO2
14837KMSN MSN20011119231509811/19/01 23:15:31  5-MIN KMSN 200515Z 28003KT 10SM SCT060 00/M06 A3019 610 66 -1000 280/03 RMK AO2
14837KMSN MSN20011119232009811/19/01 23:20:31  5-MIN KMSN 200520Z VRB03KT 10SM BKN060 00/M06 A3019 610 66 -1000 VRB/03 RMK AO2
14837KMSN MSN20011119232509811/19/01 23:25:31  5-MIN KMSN 200525Z 28003KT 10SM BKN060 00/M06 A3019 610 66 -1000 280/03 RMK AO2
14837KMSN MSN20011119233009811/19/01 23:30:31  5-MIN KMSN 200530Z VRB03KT 10SM BKN060 00/M06 A3019 620 66 -1000 VRB/03 RMK AO2
14837KMSN MSN20011119233509911/19/01 23:35:31  5-MIN KMSN 200535Z 00000KT 10SM BKN060 M01/M05 A3019 620 72 -1000 000/00 RMK AO2
14837KMSN MSN20011119234009911/19/01 23:40:31  5-MIN KMSN 200540Z VRB03KT 10SM BKN060 M01/M05 A3019 610 72 -1100 VRB/03 RMK AO2
14837KMSN MSN20011119234509911/19/01 23:45:31  5-MIN KMSN 200545Z VRB03KT 10SM BKN060 M01/M05 A3019 620 72 -1000 VRB/03 RMK AO2
14837KMSN MSN20011119235014411/19/01 23:50:31  5-MIN KMSN 200550Z 28003KT 10SM BKN060 M01/M05 A3019 620 72 -1000 280/03 RMK AO2 SLP230 T10061050 10033 21006 401281006 53012
14837KMSN MSN20011119235509911/19/01 23:55:31  5-MIN KMSN 200555Z 28003KT 10SM SCT055 M01/M05 A3019 620 72 -1000 280/03 RMK AO2
14837KMSN MSN20011120000009911/20/01 00:00:31  5-MIN KMSN 200600Z 27004KT 10SM SCT055 M01/M05 A3019 620 75 -1100 270/04 RMK AO2
14837KMSN MSN20011120000509911/20/01 00:05:31  5-MIN KMSN 200605Z 27004KT 10SM SCT055 M01/M05 A3019 620 72 -1000 270/04 RMK AO2
14837KMSN MSN20011120001009911/20/01 00:10:31  5-MIN KMSN 200610Z 28004KT 10SM SCT055 M01/M05 A3019 620 72 -1000 280/04 RMK AO2
14837KMSN MSN20011120001509911/20/01 00:15:31  5-MIN KMSN 200615Z 28003KT 10SM SCT055 M01/M05 A3018 620 72 -1000 280/03 RMK AO2
14837KMSN MSN20011120002009911/20/01 00:20:31  5-MIN KMSN 200620Z 28004KT 10SM SCT055 M01/M05 A3018 620 75 -1100 280/04 RMK AO2
14837KMSN MSN20011120002509911/20/01 00:25:31  5-MIN KMSN 200625Z 28004KT 10SM SCT055 M01/M05 A3018 620 72 -1000 280/04 RMK AO2
14837KMSN MSN20011120003009911/20/01 00:30:31  5-MIN KMSN 200630Z 29004KT 10SM SCT055 M01/M05 A3018 620 75 -1100 290/04 RMK AO2
14837KMSN MSN20011120003509911/20/01 00:35:31  5-MIN KMSN 200635Z 29004KT 10SM SCT055 M01/M05 A3018 620 75 -1100 290/04 RMK AO2
14837KMSN MSN20011120004009911/20/01 00:40:31  5-MIN KMSN 200640Z 28004KT 10SM SCT055 M01/M05 A3018 620 75 -1100 280/04 RMK AO2
14837KMSN MSN20011120004509911/20/01 00:45:31  5-MIN KMSN 200645Z 27003KT 10SM FEW055 M01/M05 A3018 620 75 -1100 270/03 RMK AO2
14837KMSN MSN20011120005011611/20/01 00:50:31  5-MIN KMSN 200650Z 28003KT 10SM FEW055 M02/M05 A3018 620 78 -1200 280/03 RMK AO2 SLP230 T10171050
14837KMSN MSN20011120005509611/20/01 00:55:31  5-MIN KMSN 200655Z VRB03KT 10SM CLR M02/M06 A3018 620 75 -1200 VRB/03 RMK AO2
14837KMSN MSN20011120010009611/20/01 01:00:31  5-MIN KMSN 200700Z VRB04KT 10SM CLR M01/M05 A3018 620 75 -1100 VRB/04 RMK AO2
14837KMSN MSN20011120010509611/20/01 01:05:31  5-MIN KMSN 200705Z VRB04KT 10SM CLR M02/M06 A3018 620 75 -1200 VRB/04 RMK AO2
14837KMSN MSN20011120011009611/20/01 01:10:31  5-MIN KMSN 200710Z VRB03KT 10SM CLR M01/M05 A3018 630 75 -1100 VRB/03 RMK AO2
14837KMSN MSN20011120011509611/20/01 01:15:31  5-MIN KMSN 200715Z 28004KT 10SM CLR M01/M05 A3018 620 75 -1100 280/04 RMK AO2
14837KMSN MSN20011120012009611/20/01 01:20:31  5-MIN KMSN 200720Z 29004KT 10SM CLR M02/M05 A3018 620 78 -1200 290/04 RMK AO2
14837KMSN MSN20011120012509611/20/01 01:25:31  5-MIN KMSN 200725Z 28004KT 10SM CLR M02/M05 A3019 620 78 -1200 280/04 RMK AO2
14837KMSN MSN20011120013009611/20/01 01:30:31  5-MIN KMSN 200730Z 28004KT 10SM CLR M02/M05 A3019 620 78 -1200 280/04 RMK AO2
14837KMSN MSN20011120013509611/20/01 01:35:31  5-MIN KMSN 200735Z 28004KT 10SM CLR M02/M06 A3019 610 75 -1200 280/04 RMK AO2
14837KMSN MSN20011120014009611/20/01 01:40:31  5-MIN KMSN 200740Z 28005KT 10SM CLR M02/M06 A3019 610 75 -1200 280/05 RMK AO2
14837KMSN MSN20011120014509611/20/01 01:45:31  5-MIN KMSN 200745Z 29004KT 10SM CLR M02/M06 A3019 610 75 -1200 290/04 RMK AO2
14837KMSN MSN20011120015011311/20/01 01:50:31  5-MIN KMSN 200750Z 28005KT 10SM CLR M02/M06 A3020 610 75 -1200 280/05 RMK AO2 SLP234 T10171056
14837KMSN MSN20011120015509611/20/01 01:55:31  5-MIN KMSN 200755Z 29005KT 10SM CLR M02/M06 A3019 610 75 -1200 280/05 RMK AO2
14837KMSN MSN20011120020009611/20/01 02:00:31  5-MIN KMSN 200800Z 29004KT 10SM CLR M02/M06 A3019 620 78 -1300 290/04 RMK AO2
14837KMSN MSN20011120020509611/20/01 02:05:31  5-MIN KMSN 200805Z 28004KT 10SM CLR M02/M06 A3018 620 75 -1200 280/04 RMK AO2
14837KMSN MSN20011120021009611/20/01 02:10:31  5-MIN KMSN 200810Z 28003KT 10SM CLR M02/M06 A3018 620 75 -1200 280/03 RMK AO2
14837KMSN MSN20011120021509611/20/01 02:15:31  5-MIN KMSN 200815Z 29003KT 10SM CLR M02/M06 A3019 620 78 -1300 290/03 RMK AO2
14837KMSN MSN20011120022009611/20/01 02:20:31  5-MIN KMSN 200820Z VRB03KT 10SM CLR M02/M06 A3019 620 78 -1300 VRB/03 RMK AO2
14837KMSN MSN20011120022509611/20/01 02:25:31  5-MIN KMSN 200825Z 00000KT 10SM CLR M02/M06 A3019 620 78 -1300 000/00 RMK AO2
14837KMSN MSN20011120023009611/20/01 02:30:31  5-MIN KMSN 200830Z 00000KT 10SM CLR M02/M05 A3019 610 81 -1300 000/00 RMK AO2
14837KMSN MSN20011120023509611/20/01 02:35:31  5-MIN KMSN 200835Z 00000KT 10SM CLR M02/M06 A3019 610 78 -1300 000/00 RMK AO2
14837KMSN MSN20011120024009611/20/01 02:40:31  5-MIN KMSN 200840Z 00000KT 10SM CLR M02/M06 A3019 610 78 -1300 000/00 RMK AO2
14837KMSN MSN20011120024509611/20/01 02:45:31  5-MIN KMSN 200845Z 25003KT 10SM CLR M02/M06 A3019 610 78 -1300 250/03 RMK AO2
14837KMSN MSN20011120025011911/20/01 02:50:31  5-MIN KMSN 200850Z 26003KT 10SM CLR M02/M06 A3020 610 78 -1300 260/03 RMK AO2 SLP235 T10221056 50007
14837KMSN MSN20011120025509611/20/01 02:55:31  5-MIN KMSN 200855Z 25003KT 10SM CLR M03/M06 A3019 610 81 -1300 250/03 RMK AO2
14837KMSN MSN20011120030009611/20/01 03:00:31  5-MIN KMSN 200900Z 26003KT 10SM CLR M02/M06 A3019 620 78 -1300 260/03 RMK AO2
14837KMSN MSN20011120030509611/20/01 03:05:31  5-MIN KMSN 200905Z 26003KT 10SM CLR M02/M06 A3019 610 78 -1300 260/03 RMK AO2
14837KMSN MSN20011120031009611/20/01 03:10:31  5-MIN KMSN 200910Z 27003KT 10SM CLR M03/M06 A3020 610 81 -1300 270/03 RMK AO2
14837KMSN MSN20011120031509611/20/01 03:15:31  5-MIN KMSN 200915Z 27004KT 10SM CLR M03/M06 A3020 610 85 -1400 270/04 RMK AO2
14837KMSN MSN20011120032009611/20/01 03:20:31  5-MIN KMSN 200920Z 27004KT 10SM CLR M03/M06 A3019 620 85 -1400 270/04 RMK AO2
14837KMSN MSN20011120032509611/20/01 03:25:31  5-MIN KMSN 200925Z 27004KT 10SM CLR M03/M06 A3019 620 81 -1300 270/04 RMK AO2
14837KMSN MSN20011120033009611/20/01 03:30:31  5-MIN KMSN 200930Z 27003KT 10SM CLR M03/M06 A3019 610 81 -1300 270/03 RMK AO2
14837KMSN MSN20011120033509611/20/01 03:35:31  5-MIN KMSN 200935Z 29004KT 10SM CLR M03/M06 A3020 610 78 -1300 290/04 RMK AO2
14837KMSN MSN20011120034009611/20/01 03:40:31  5-MIN KMSN 200940Z 28005KT 10SM CLR M03/M06 A3020 610 78 -1300 280/05 RMK AO2
14837KMSN MSN20011120034509611/20/01 03:45:31  5-MIN KMSN 200945Z 29004KT 10SM CLR M02/M06 A3020 610 75 -1300 290/04 RMK AO2
14837KMSN MSN20011120035011311/20/01 03:50:31  5-MIN KMSN 200950Z 28004KT 10SM CLR M03/M06 A3020 610 78 -1300 280/04 RMK AO2 SLP234 T10281061
14837KMSN MSN20011120035509611/20/01 03:55:31  5-MIN KMSN 200955Z 29003KT 10SM CLR M02/M06 A3020 610 75 -1300 290/03 RMK AO2
14837KMSN MSN20011120040009611/20/01 04:00:31  5-MIN KMSN 201000Z VRB03KT 10SM CLR M03/M06 A3020 610 78 -1300 VRB/03 RMK AO2
14837KMSN MSN20011120040509611/20/01 04:05:31  5-MIN KMSN 201005Z 00000KT 10SM CLR M03/M06 A3020 610 81 -1300 000/00 RMK AO2
14837KMSN MSN20011120041009611/20/01 04:10:31  5-MIN KMSN 201010Z 28004KT 10SM CLR M03/M06 A3020 600 85 -1400 280/04 RMK AO2
14837KMSN MSN20011120041509611/20/01 04:15:31  5-MIN KMSN 201015Z 28004KT 10SM CLR M04/M06 A3021 600 85 -1500 280/04 RMK AO2
14837KMSN MSN20011120042009611/20/01 04:20:31  5-MIN KMSN 201020Z 28005KT 10SM CLR M03/M06 A3021 600 85 -1400 280/05 RMK AO2
14837KMSN MSN20011120042509611/20/01 04:25:31  5-MIN KMSN 201025Z 28005KT 10SM CLR M03/M06 A3021 600 78 -1400 280/05 RMK AO2
14837KMSN MSN20011120043009611/20/01 04:30:31  5-MIN KMSN 201030Z 29005KT 10SM CLR M03/M06 A3021 590 78 -1400 280/05 RMK AO2
14837KMSN MSN20011120043509611/20/01 04:35:31  5-MIN KMSN 201035Z 28004KT 10SM CLR M03/M06 A3021 600 78 -1400 280/04 RMK AO2
14837KMSN MSN20011120044009611/20/01 04:40:31  5-MIN KMSN 201040Z 28004KT 10SM CLR M03/M06 A3021 590 78 -1400 280/04 RMK AO2
14837KMSN MSN20011120044509611/20/01 04:45:31  5-MIN KMSN 201045Z 29005KT 10SM CLR M03/M06 A3021 590 78 -1400 280/05 RMK AO2
14837KMSN MSN20011120045011311/20/01 04:50:31  5-MIN KMSN 201050Z 28004KT 10SM CLR M03/M06 A3021 590 78 -1400 280/04 RMK AO2 SLP241 T10281061
14837KMSN MSN20011120045509611/20/01 04:55:31  5-MIN KMSN 201055Z 28003KT 10SM CLR M03/M06 A3021 590 78 -1400 280/03 RMK AO2
14837KMSN MSN20011120050009611/20/01 05:00:31  5-MIN KMSN 201100Z 28004KT 10SM CLR M03/M06 A3022 590 78 -1400 280/04 RMK AO2
14837KMSN MSN20011120050509611/20/01 05:05:31  5-MIN KMSN 201105Z 29004KT 10SM CLR M03/M06 A3021 590 78 -1400 290/04 RMK AO2
14837KMSN MSN20011120051009611/20/01 05:10:31  5-MIN KMSN 201110Z 28004KT 10SM CLR M03/M06 A3021 600 78 -1400 280/04 RMK AO2
14837KMSN MSN20011120051509611/20/01 05:15:31  5-MIN KMSN 201115Z 29004KT 10SM CLR M03/M06 A3022 590 78 -1400 290/04 RMK AO2
14837KMSN MSN20011120052009611/20/01 05:20:31  5-MIN KMSN 201120Z 27004KT 10SM CLR M03/M06 A3021 590 78 -1400 270/04 RMK AO2
14837KMSN MSN20011120052509611/20/01 05:25:31  5-MIN KMSN 201125Z 27003KT 10SM CLR M03/M06 A3021 590 78 -1400 270/03 RMK AO2
14837KMSN MSN20011120053009611/20/01 05:30:31  5-MIN KMSN 201130Z 28004KT 10SM CLR M03/M06 A3022 590 81 -1400 280/04 RMK AO2
14837KMSN MSN20011120053509611/20/01 05:35:31  5-MIN KMSN 201135Z 28004KT 10SM CLR M03/M06 A3022 590 81 -1400 280/04 RMK AO2
14837KMSN MSN20011120054009611/20/01 05:40:31  5-MIN KMSN 201140Z 28004KT 10SM CLR M03/M06 A3022 590 78 -1400 280/04 RMK AO2
14837KMSN MSN20011120054509611/20/01 05:45:31  5-MIN KMSN 201145Z 29004KT 10SM CLR M03/M06 A3022 590 78 -1400 290/04 RMK AO2
14837KMSN MSN20011120055013111/20/01 05:50:31  5-MIN KMSN 201150Z 29004KT 10SM CLR M03/M06 A3022 590 78 -1400 290/04 RMK AO2 SLP243 T10281061 11006 21039 53002
14837KMSN MSN20011120055509611/20/01 05:55:31  5-MIN KMSN 201155Z 28004KT 10SM CLR M03/M06 A3021 590 81 -1400 280/04 RMK AO2
14837KMSN MSN20011120060009611/20/01 06:00:31  5-MIN KMSN 201200Z 28004KT 10SM CLR M03/M06 A3021 600 78 -1400 280/04 RMK AO2
14837KMSN MSN20011120060509611/20/01 06:05:31  5-MIN KMSN 201205Z 29003KT 10SM CLR M03/M06 A3021 600 81 -1400 290/03 RMK AO2
14837KMSN MSN20011120061009611/20/01 06:10:31  5-MIN KMSN 201210Z 29003KT 10SM CLR M03/M06 A3021 600 81 -1400 290/03 RMK AO2
14837KMSN MSN20011120061509611/20/01 06:15:31  5-MIN KMSN 201215Z 28004KT 10SM CLR M04/M06 A3022 590 85 -1500 280/04 RMK AO2
14837KMSN MSN20011120062009611/20/01 06:20:31  5-MIN KMSN 201220Z 29005KT 10SM CLR M03/M06 A3022 590 81 -1400 280/05 RMK AO2
14837KMSN MSN20011120062509611/20/01 06:25:31  5-MIN KMSN 201225Z 28003KT 10SM CLR M03/M06 A3022 590 78 -1400 280/03 RMK AO2
14837KMSN MSN20011120063009611/20/01 06:30:31  5-MIN KMSN 201230Z 28003KT 10SM CLR M03/M06 A3022 590 81 -1400 280/03 RMK AO2
14837KMSN MSN20011120063509611/20/01 06:35:31  5-MIN KMSN 201235Z VRB04KT 10SM CLR M03/M06 A3022 590 81 -1400 VRB/04 RMK AO2
14837KMSN MSN20011120064009611/20/01 06:40:31  5-MIN KMSN 201240Z 28004KT 10SM CLR M03/M06 A3021 590 81 -1400 270/04 RMK AO2
14837KMSN MSN20011120064509611/20/01 06:45:31  5-MIN KMSN 201245Z 28003KT 10SM CLR M03/M06 A3021 590 78 -1400 280/03 RMK AO2
14837KMSN MSN20011120065011311/20/01 06:50:31  5-MIN KMSN 201250Z 29004KT 10SM CLR M03/M06 A3022 590 78 -1400 290/04 RMK AO2 SLP242 T10281061
14837KMSN MSN20011120065509611/20/01 06:55:31  5-MIN KMSN 201255Z VRB03KT 10SM CLR M03/M06 A3021 590 81 -1400 VRB/03 RMK AO2
14837KMSN MSN20011120070009611/20/01 07:00:31  5-MIN KMSN 201300Z VRB03KT 10SM CLR M03/M06 A3021 590 81 -1400 VRB/03 RMK AO2
14837KMSN MSN20011120070509611/20/01 07:05:31  5-MIN KMSN 201305Z 00000KT 10SM CLR M04/M06 A3021 590 85 -1500 000/00 RMK AO2
14837KMSN MSN20011120071009611/20/01 07:10:31  5-MIN KMSN 201310Z 00000KT 10SM CLR M04/M07 A3022 590 81 -1500 000/00 RMK AO2
14837KMSN MSN20011120071509611/20/01 07:15:31  5-MIN KMSN 201315Z 00000KT 10SM CLR M04/M07 A3021 600 81 -1500 000/00 RMK AO2
14837KMSN MSN20011120072009611/20/01 07:20:31  5-MIN KMSN 201320Z 00000KT 10SM CLR M03/M06 A3021 600 81 -1400 000/00 RMK AO2
14837KMSN MSN20011120072509611/20/01 07:25:31  5-MIN KMSN 201325Z 00000KT 10SM CLR M03/M06 A3021 600 78 -1400 000/00 RMK AO2
14837KMSN MSN20011120073009611/20/01 07:30:31  5-MIN KMSN 201330Z 28003KT 10SM CLR M03/M06 A3021 600 78 -1400 280/03 RMK AO2
14837KMSN MSN20011120073509611/20/01 07:35:31  5-MIN KMSN 201335Z 00000KT 10SM CLR M03/M06 A3021 600 78 -1300 000/00 RMK AO2
14837KMSN MSN20011120074009611/20/01 07:40:31  5-MIN KMSN 201340Z 00000KT 10SM CLR M02/M06 A3020 600 78 -1300 000/00 RMK AO2
14837KMSN MSN20011120074509611/20/01 07:45:31  5-MIN KMSN 201345Z 00000KT 10SM CLR M03/M05 A3020 610 85 -1300 000/00 RMK AO2
14837KMSN MSN20011120075011311/20/01 07:50:31  5-MIN KMSN 201350Z 00000KT 10SM CLR M02/M06 A3020 600 78 -1300 000/00 RMK AO2 SLP238 T10221056
14837KMSN MSN20011120075509611/20/01 07:55:31  5-MIN KMSN 201355Z 00000KT 10SM CLR M02/M06 A3020 600 75 -1200 000/00 RMK AO2
14837KMSN MSN20011120080009611/20/01 08:00:31  5-MIN KMSN 201400Z 00000KT 10SM CLR M02/M06 A3020 610 75 -1200 000/00 RMK AO2
14837KMSN MSN20011120080509611/20/01 08:05:31  5-MIN KMSN 201405Z 00000KT 10SM CLR M02/M05 A3020 600 81 -1300 000/00 RMK AO2
14837KMSN MSN20011120081009611/20/01 08:10:31  5-MIN KMSN 201410Z 00000KT 10SM CLR M02/M06 A3020 600 75 -1200 000/00 RMK AO2
14837KMSN MSN20011120081509611/20/01 08:15:31  5-MIN KMSN 201415Z 00000KT 10SM CLR M01/M06 A3021 600 72 -1100 000/00 RMK AO2
14837KMSN MSN20011120082009611/20/01 08:20:31  5-MIN KMSN 201420Z 00000KT 10SM CLR M01/M05 A3020 600 75 -1100 000/00 RMK AO2
14837KMSN MSN20011120082509611/20/01 08:25:31  5-MIN KMSN 201425Z 00000KT 10SM CLR M01/M05 A3020 610 75 -1100 000/00 RMK AO2
14837KMSN MSN20011120083009611/20/01 08:30:31  5-MIN KMSN 201430Z 00000KT 10SM CLR M01/M05 A3020 610 72 -1100 000/00 RMK AO2
14837KMSN MSN20011120083509611/20/01 08:35:31  5-MIN KMSN 201435Z 00000KT 10SM CLR M01/M05 A3019 610 72 -1100 000/00 RMK AO2
14837KMSN MSN20011120084009611/20/01 08:40:31  5-MIN KMSN 201440Z VRB03KT 10SM CLR M01/M04 A3019 610 75 -1000 VRB/03 RMK AO2
14837KMSN MSN20011120091009511/20/01 09:10:31  5-MIN KMSN 201510Z 29004KT 10SM CLR 00/M04 A3021 600 72 -1000 290/04 RMK AO2
14837KMSN MSN20011120091509511/20/01 09:15:31  5-MIN KMSN 201515Z 32004KT 10SM CLR 00/M04 A3021 600 72 -1000 320/04 RMK AO2
14837KMSN MSN20011120092009511/20/01 09:20:31  5-MIN KMSN 201520Z 33003KT 10SM CLR 00/M04 A3020 600 75 -1000 330/03 RMK AO2
14837KMSN MSN20011120092509411/20/01 09:25:31  5-MIN KMSN 201525Z 00000KT 10SM CLR 01/M04 A3020 600 72 -900 000/00 RMK AO2
14837KMSN MSN20011120093009411/20/01 09:30:31  5-MIN KMSN 201530Z VRB03KT 10SM CLR 01/M04 A3020 600 69 -900 VRB/03 RMK AO2
14837KMSN MSN20011120093509411/20/01 09:35:31  5-MIN KMSN 201535Z VRB04KT 10SM CLR 01/M04 A3020 610 69 -900 VRB/04 RMK AO2
14837KMSN MSN20011120094009411/20/01 09:40:31  5-MIN KMSN 201540Z VRB05KT 10SM CLR 01/M04 A3020 610 66 -800 VRB/05 RMK AO2
14837KMSN MSN20011120094509411/20/01 09:45:31  5-MIN KMSN 201545Z VRB04KT 10SM CLR 01/M04 A3020 610 66 -800 VRB/04 RMK AO2
14837KMSN MSN20011120095011111/20/01 09:50:31  5-MIN KMSN 201550Z 20006KT 10SM CLR 02/M04 A3019 610 64 -800 200/06 RMK AO2 SLP233 T00171044
14837KMSN MSN20011120095509411/20/01 09:55:31  5-MIN KMSN 201555Z 24006KT 10SM CLR 02/M05 A3020 610 61 -800 240/06 RMK AO2
14837KMSN MSN20011120100009411/20/01 10:00:31  5-MIN KMSN 201600Z 23007KT 10SM CLR 02/M06 A3020 600 56 -800 230/07 RMK AO2
14837KMSN MSN20011120100509411/20/01 10:05:31  5-MIN KMSN 201605Z 21008KT 10SM CLR 02/M06 A3020 610 56 -800 210/08 RMK AO2
14837KMSN MSN20011120101009411/20/01 10:10:31  5-MIN KMSN 201610Z VRB06KT 10SM CLR 02/M06 A3019 610 56 -700 VRB/06 RMK AO2
14837KMSN MSN20011120101509411/20/01 10:15:31  5-MIN KMSN 201615Z 20004KT 10SM CLR 02/M06 A3019 620 56 -800 200/04 RMK AO2
14837KMSN MSN20011120102009411/20/01 10:20:31  5-MIN KMSN 201620Z 21007KT 10SM CLR 02/M05 A3018 620 59 -700 200/07 RMK AO2
14837KMSN MSN20011120102509411/20/01 10:25:31  5-MIN KMSN 201625Z 20006KT 10SM CLR 02/M06 A3018 620 56 -700 200/06 RMK AO2
14837KMSN MSN20011120103011011/20/01 10:30:31  5-MIN KMSN 201630Z 20007KT 180V240 10SM CLR 02/M06 A3018 620 56 -700 200/07 180V240 RMK AO2
14837KMSN MSN20011120103509411/20/01 10:35:31  5-MIN KMSN 201635Z 21005KT 10SM CLR 02/M06 A3019 620 56 -700 210/05 RMK AO2
14837KMSN MSN20011120104009411/20/01 10:40:31  5-MIN KMSN 201640Z 21007KT 10SM CLR 02/M06 A3018 630 56 -700 210/07 RMK AO2
14837KMSN MSN20011120104511011/20/01 10:45:31  5-MIN KMSN 201645Z 22007KT 180V260 10SM CLR 03/M05 A3017 640 56 -600 220/07 180V260 RMK AO2
14837KMSN MSN20011120105011111/20/01 10:50:31  5-MIN KMSN 201650Z 21008KT 10SM CLR 02/M06 A3016 640 56 -700 200/08 RMK AO2 SLP223 T00221056
14837KMSN MSN20011120105509411/20/01 10:55:31  5-MIN KMSN 201655Z 21010KT 10SM CLR 03/M06 A3017 630 54 -600 210/10 RMK AO2
14837KMSN MSN20011120110011011/20/01 11:00:31  5-MIN KMSN 201700Z 22007KT 190V260 10SM CLR 03/M05 A3016 640 54 -500 220/07 190V260 RMK AO2
14837KMSN MSN20011120110509411/20/01 11:05:31  5-MIN KMSN 201705Z 21007KT 10SM CLR 03/M06 A3016 640 54 -600 210/07 RMK AO2
14837KMSN MSN20011120111009411/20/01 11:10:31  5-MIN KMSN 201710Z 24009KT 10SM CLR 03/M05 A3016 640 56 -600 240/09 RMK AO2
14837KMSN MSN20011120111509411/20/01 11:15:31  5-MIN KMSN 201715Z 24007KT 10SM CLR 03/M06 A3016 640 52 -500 240/07 RMK AO2
14837KMSN MSN20011120112009411/20/01 11:20:31  5-MIN KMSN 201720Z VRB06KT 10SM CLR 03/M05 A3016 640 54 -500 VRB/06 RMK AO2
14837KMSN MSN20011120112509411/20/01 11:25:31  5-MIN KMSN 201725Z 24007KT 10SM CLR 04/M05 A3015 650 52 -500 240/07 RMK AO2
14837KMSN MSN20011120113009411/20/01 11:30:31  5-MIN KMSN 201730Z 24007KT 10SM CLR 03/M06 A3015 650 52 -500 240/07 RMK AO2
14837KMSN MSN20011120113509411/20/01 11:35:31  5-MIN KMSN 201735Z 24009KT 10SM CLR 03/M06 A3014 660 52 -500 240/09 RMK AO2
14837KMSN MSN20011120114011011/20/01 11:40:31  5-MIN KMSN 201740Z 24008KT 210V280 10SM CLR 03/M05 A3014 660 54 -500 240/08 210V280 RMK AO2
14837KMSN MSN20011120114509411/20/01 11:45:31  5-MIN KMSN 201745Z 21009KT 10SM CLR 04/M05 A3013 670 52 -400 210/09 RMK AO2
14837KMSN MSN20011120115012911/20/01 11:50:31  5-MIN KMSN 201750Z 22009KT 10SM CLR 03/M06 A3013 670 52 -500 220/09 RMK AO2 SLP212 T00331056 10039 21039 55002
14837KMSN MSN20011120115509411/20/01 11:55:31  5-MIN KMSN 201755Z 22008KT 10SM CLR 04/M06 A3013 670 50 -400 210/08 RMK AO2
14837KMSN MSN20011120120009411/20/01 12:00:31  5-MIN KMSN 201800Z 23007KT 10SM CLR 03/M06 A3013 670 52 -500 230/07 RMK AO2
14837KMSN MSN20011120120509411/20/01 12:05:31  5-MIN KMSN 201805Z 23009KT 10SM CLR 03/M06 A3013 670 52 -500 230/09 RMK AO2
14837KMSN MSN20011120121009411/20/01 12:10:31  5-MIN KMSN 201810Z 22007KT 10SM CLR 04/M06 A3012 680 50 -400 210/07 RMK AO2
14837KMSN MSN20011120121509411/20/01 12:15:31  5-MIN KMSN 201815Z 21007KT 10SM CLR 04/M06 A3012 680 48 -400 210/07 RMK AO2
14837KMSN MSN20011120122009411/20/01 12:20:31  5-MIN KMSN 201820Z 20010KT 10SM CLR 04/M05 A3011 690 52 -400 200/10 RMK AO2
14837KMSN MSN20011120122509411/20/01 12:25:31  5-MIN KMSN 201825Z 21007KT 10SM CLR 04/M06 A3011 690 50 -400 210/07 RMK AO2
14837KMSN MSN20011120123009411/20/01 12:30:31  5-MIN KMSN 201830Z 20008KT 10SM CLR 04/M05 A3010 700 50 -300 190/08 RMK AO2
14837KMSN MSN20011120123509411/20/01 12:35:31  5-MIN KMSN 201835Z 20010KT 10SM CLR 05/M05 A3010 700 48 -300 200/10 RMK AO2
14837KMSN MSN20011120124009411/20/01 12:40:31  5-MIN KMSN 201840Z 20009KT 10SM CLR 04/M06 A3010 700 46 -300 200/09 RMK AO2
14837KMSN MSN20011120124509411/20/01 12:45:31  5-MIN KMSN 201845Z 21007KT 10SM CLR 04/M06 A3010 700 46 -300 210/07 RMK AO2
14837KMSN MSN20011120125011711/20/01 12:50:31  5-MIN KMSN 201850Z 21008G15KT 10SM CLR 04/M06 A3010 700 48 -300 210/08G15 RMK AO2 SLP201 T00441056
14837KMSN MSN20011120125511611/20/01 12:55:31  5-MIN KMSN 201855Z 22007G15KT 190V250 10SM CLR 04/M06 A3009 700 48 -300 220/07G15 190V250 RMK AO2
14837KMSN MSN20011120130009411/20/01 13:00:31  5-MIN KMSN 201900Z 22011KT 10SM CLR 04/M06 A3009 710 46 -300 220/11 RMK AO2
14837KMSN MSN20011120130509411/20/01 13:05:31  5-MIN KMSN 201905Z 22009KT 10SM CLR 04/M06 A3009 710 46 -300 220/09 RMK AO2
14837KMSN MSN20011120131011011/20/01 13:10:31  5-MIN KMSN 201910Z 23008KT 200V270 10SM CLR 05/M06 A3009 710 46 -200 230/08 200V270 RMK AO2
14837KMSN MSN20011120131509411/20/01 13:15:31  5-MIN KMSN 201915Z 20009KT 10SM CLR 05/M06 A3008 710 46 -200 200/09 RMK AO2
14837KMSN MSN20011120132009411/20/01 13:20:31  5-MIN KMSN 201920Z 22007KT 10SM CLR 05/M06 A3008 720 46 -200 210/07 RMK AO2
14837KMSN MSN20011120132509411/20/01 13:25:31  5-MIN KMSN 201925Z 21010KT 10SM CLR 05/M05 A3008 720 48 -200 210/10 RMK AO2
14837KMSN MSN20011120133009411/20/01 13:30:31  5-MIN KMSN 201930Z 19010KT 10SM CLR 04/M06 A3007 720 48 -300 190/10 RMK AO2
14837KMSN MSN20011120133509411/20/01 13:35:31  5-MIN KMSN 201935Z 20009KT 10SM CLR 05/M05 A3007 720 48 -200 200/09 RMK AO2
14837KMSN MSN20011120134009411/20/01 13:40:31  5-MIN KMSN 201940Z 22010KT 10SM CLR 05/M05 A3007 730 48 -200 220/10 RMK AO2
14837KMSN MSN20011120134509411/20/01 13:45:31  5-MIN KMSN 201945Z 20011KT 10SM CLR 05/M05 A3006 730 48 -200 200/11 RMK AO2
14837KMSN MSN20011120135011111/20/01 13:50:31  5-MIN KMSN 201950Z 19011KT 10SM CLR 05/M05 A3006 740 48 -200 190/11 RMK AO2 SLP188 T00501050
14837KMSN MSN20011120135509411/20/01 13:55:31  5-MIN KMSN 201955Z 19010KT 10SM CLR 05/M05 A3005 740 48 -200 190/10 RMK AO2
14837KMSN MSN20011120140009411/20/01 14:00:31  5-MIN KMSN 202000Z 21009KT 10SM CLR 05/M05 A3005 740 48 -200 210/09 RMK AO2
14837KMSN MSN20011120140509411/20/01 14:05:31  5-MIN KMSN 202005Z 22009KT 10SM CLR 05/M05 A3005 750 48 -200 220/09 RMK AO2
14837KMSN MSN20011120141009411/20/01 14:10:31  5-MIN KMSN 202010Z 20009KT 10SM CLR 05/M05 A3005 750 48 -200 190/09 RMK AO2
14837KMSN MSN20011120141509411/20/01 14:15:31  5-MIN KMSN 202015Z 22007KT 10SM CLR 05/M05 A3005 750 48 -200 220/07 RMK AO2
14837KMSN MSN20011120142009711/20/01 14:20:31  5-MIN KMSN 202020Z 22012KT 10SM BKN110 06/M05 A3004 750 46 -100 220/12 RMK AO2
14837KMSN MSN20011120142510311/20/01 14:25:31  5-MIN KMSN 202025Z 20007G15KT 10SM BKN110 05/M06 A3004 750 46 -200 200/07G15 RMK AO2
14837KMSN MSN20011120143010311/20/01 14:30:31  5-MIN KMSN 202030Z 20009G15KT 10SM BKN110 06/M05 A3004 750 46 -100 200/09G15 RMK AO2
14837KMSN MSN20011120143509711/20/01 14:35:31  5-MIN KMSN 202035Z 22009KT 10SM BKN110 05/M06 A3004 760 46 -200 220/09 RMK AO2
14837KMSN MSN20011120144009711/20/01 14:40:31  5-MIN KMSN 202040Z 20009KT 10SM BKN110 05/M06 A3003 760 46 -200 200/09 RMK AO2
14837KMSN MSN20011120144509711/20/01 14:45:31  5-MIN KMSN 202045Z 20008KT 10SM BKN110 05/M06 A3003 770 46 -200 200/08 RMK AO2
14837KMSN MSN20011120145012011/20/01 14:50:31  5-MIN KMSN 202050Z 21010KT 10SM BKN110 05/M06 A3003 770 44 -200 210/10 RMK AO2 SLP177 T00501061 58027
14837KMSN MSN20011120145509711/20/01 14:55:31  5-MIN KMSN 202055Z 19012KT 10SM BKN120 05/M06 A3003 760 44 -200 190/12 RMK AO2
14837KMSN MSN20011120150009711/20/01 15:00:31  5-MIN KMSN 202100Z 20008KT 10SM BKN120 05/M07 A3003 760 42 -200 200/08 RMK AO2
14837KMSN MSN20011120150509711/20/01 15:05:31  5-MIN KMSN 202105Z 19009KT 10SM BKN120 05/M07 A3004 760 42 -200 190/09 RMK AO2
14837KMSN MSN20011120151009711/20/01 15:10:31  5-MIN KMSN 202110Z 21007KT 10SM BKN120 05/M07 A3004 760 42 -200 210/07 RMK AO2
14837KMSN MSN20011120151511311/20/01 15:15:31  5-MIN KMSN 202115Z 22008KT 180V250 10SM BKN120 05/M07 A3003 760 42 -200 210/08 180V250 RMK AO2
14837KMSN MSN20011120152010311/20/01 15:20:31  5-MIN KMSN 202120Z 21008G15KT 10SM BKN120 05/M07 A3003 760 42 -200 210/08G15 RMK AO2
14837KMSN MSN20011120152510311/20/01 15:25:31  5-MIN KMSN 202125Z 21009G16KT 10SM BKN120 05/M07 A3003 760 42 -200 210/09G16 RMK AO2
14837KMSN MSN20011120153010311/20/01 15:30:31  5-MIN KMSN 202130Z 20010G16KT 10SM BKN120 05/M06 A3003 760 44 -200 200/10G16 RMK AO2
14837KMSN MSN20011120153509711/20/01 15:35:31  5-MIN KMSN 202135Z 19009KT 10SM BKN120 05/M06 A3003 760 44 -200 190/09 RMK AO2
14837KMSN MSN20011120154009711/20/01 15:40:31  5-MIN KMSN 202140Z 19009KT 10SM BKN120 05/M06 A3003 760 44 -200 190/09 RMK AO2
14837KMSN MSN20011120154509711/20/01 15:45:31  5-MIN KMSN 202145Z 21008KT 10SM BKN120 05/M06 A3003 770 46 -200 210/08 RMK AO2
14837KMSN MSN20011120155011411/20/01 15:50:31  5-MIN KMSN 202150Z 20007KT 10SM BKN120 05/M06 A3002 770 46 -200 200/07 RMK AO2 SLP175 T00501056
14837KMSN MSN20011120155509411/20/01 15:55:31  5-MIN KMSN 202155Z 19010KT 10SM CLR 05/M06 A3002 780 46 -200 190/10 RMK AO2
14837KMSN MSN20011120160009411/20/01 16:00:31  5-MIN KMSN 202200Z 19011KT 10SM CLR 05/M06 A3001 780 46 -200 190/11 RMK AO2
14837KMSN MSN20011120160510111/20/01 16:05:31  5-MIN KMSN 202205Z 20011KT 10SM CLR 05/M06 A3000 790 46 -100 190/11 RMK AO2 PRESFR
14837KMSN MSN20011120161010111/20/01 16:10:31  5-MIN KMSN 202210Z 20011KT 10SM CLR 05/M06 A3000 790 46 -100 190/11 RMK AO2 PRESFR
14837KMSN MSN20011120161509411/20/01 16:15:31  5-MIN KMSN 202215Z 20012KT 10SM CLR 05/M06 A2999 800 46 -100 190/12 RMK AO2
14837KMSN MSN20011120162009411/20/01 16:20:31  5-MIN KMSN 202220Z 20009KT 10SM CLR 05/M06 A2999 800 46 -100 200/09 RMK AO2
14837KMSN MSN20011120162509411/20/01 16:25:31  5-MIN KMSN 202225Z 20008KT 10SM CLR 04/M06 A2999 800 48 -200 200/08 RMK AO2
14837KMSN MSN20011120163009411/20/01 16:30:31  5-MIN KMSN 202230Z 19009KT 10SM CLR 04/M06 A2999 800 48 -200 190/09 RMK AO2
14837KMSN MSN20011120163509411/20/01 16:35:31  5-MIN KMSN 202235Z 19013KT 10SM CLR 04/M05 A2998 810 50 -200 190/13 RMK AO2
14837KMSN MSN20011120164009411/20/01 16:40:31  5-MIN KMSN 202240Z 19012KT 10SM CLR 04/M05 A2999 800 50 -200 190/12 RMK AO2
14837KMSN MSN20011120164510011/20/01 16:45:31  5-MIN KMSN 202245Z 19012G19KT 10SM CLR 04/M05 A2998 810 50 -200 180/12G19 RMK AO2
14837KMSN MSN20011120165011711/20/01 16:50:31  5-MIN KMSN 202250Z 18014G19KT 10SM CLR 04/M05 A2998 810 50 -200 180/14G19 RMK AO2 SLP159 T00441050
14837KMSN MSN20011120165509411/20/01 16:55:31  5-MIN KMSN 202255Z 19012KT 10SM CLR 04/M05 A2997 820 50 -200 180/12 RMK AO2
14837KMSN MSN20011120170010111/20/01 17:00:31  5-MIN KMSN 202300Z 18012KT 10SM CLR 04/M04 A2996 820 52 -200 180/12 RMK AO2 PRESFR
14837KMSN MSN20011120170510111/20/01 17:05:31  5-MIN KMSN 202305Z 18014KT 10SM CLR 04/M04 A2995 830 52 -200 180/14 RMK AO2 PRESFR
14837KMSN MSN20011120171009411/20/01 17:10:31  5-MIN KMSN 202310Z 18014KT 10SM CLR 04/M04 A2995 840 52 -100 180/14 RMK AO2
14837KMSN MSN20011120171509411/20/01 17:15:31  5-MIN KMSN 202315Z 18012KT 10SM CLR 04/M04 A2995 840 52 -100 180/12 RMK AO2
14837KMSN MSN20011120172009411/20/01 17:20:31  5-MIN KMSN 202320Z 18015KT 10SM CLR 04/M04 A2994 850 52 -100 180/15 RMK AO2
14837KMSN MSN20011120172510111/20/01 17:25:31  5-MIN KMSN 202325Z 18015KT 10SM CLR 04/M04 A2993 850 52 -100 180/15 RMK AO2 PRESFR
14837KMSN MSN20011120173009411/20/01 17:30:31  5-MIN KMSN 202330Z 18015KT 10SM CLR 04/M04 A2993 850 55 -100 180/15 RMK AO2
14837KMSN MSN20011120173510011/20/01 17:35:31  5-MIN KMSN 202335Z 19014G19KT 10SM CLR 04/M04 A2994 850 52 -100 190/14G19 RMK AO2
14837KMSN MSN20011120174010011/20/01 17:40:31  5-MIN KMSN 202340Z 19015G19KT 10SM CLR 04/M04 A2994 850 52 -100 190/15G19 RMK AO2
14837KMSN MSN20011120174510011/20/01 17:45:31  5-MIN KMSN 202345Z 19010G19KT 10SM CLR 04/M04 A2994 840 52 -100 190/10G19 RMK AO2
14837KMSN MSN20011120175013511/20/01 17:50:31  5-MIN KMSN 202350Z 19013G18KT 10SM CLR 04/M04 A2995 840 55 -100 190/13G18 RMK AO2 SLP149 T00441039 10056 20033 56032
14837KMSN MSN20011120175510011/20/01 17:55:31  5-MIN KMSN 202355Z 20012G18KT 10SM CLR 04/M04 A2995 840 52 -100 200/12G18 RMK AO2
14837KMSN MSN20011120180010011/20/01 18:00:31  5-MIN KMSN 210000Z 19013G18KT 10SM CLR 04/M04 A2995 840 52 -100 190/13G18 RMK AO2
14837KMSN MSN20011120180510011/20/01 18:05:31  5-MIN KMSN 210005Z 20011G18KT 10SM CLR 05/M04 A2995 840 50 -100 200/11G18 RMK AO2
14837KMSN MSN20011120181010011/20/01 18:10:31  5-MIN KMSN 210010Z 20012G17KT 10SM CLR 05/M05 A2994 850 48 -100 190/12G17 RMK AO2
14837KMSN MSN20011120181510011/20/01 18:15:31  5-MIN KMSN 210015Z 19012G17KT 10SM CLR 05/M05 A2994 850 48 -100 190/12G17 RMK AO2
14837KMSN MSN20011120182010011/20/01 18:20:31  5-MIN KMSN 210020Z 20014G20KT 10SM CLR 05/M05 A2993 850 48 -100 200/14G20 RMK AO2
14837KMSN MSN20011120182510011/20/01 18:25:31  5-MIN KMSN 210025Z 20010G20KT 10SM CLR 05/M05 A2993 850 48 -100 200/10G20 RMK AO2
14837KMSN MSN20011120183010011/20/01 18:30:31  5-MIN KMSN 210030Z 19014G19KT 10SM CLR 05/M05 A2993 860 48 -100 190/14G19 RMK AO2
14837KMSN MSN20011120183510011/20/01 18:35:31  5-MIN KMSN 210035Z 19014G19KT 10SM CLR 05/M05 A2993 860 48 -100 190/14G19 RMK AO2
14837KMSN MSN20011120184009111/20/01 18:40:31  5-MIN KMSN 210040Z 19013KT 10SM CLR 05/M05 A2992 860 48 0 190/13 RMK AO2
14837KMSN MSN20011120184509111/20/01 18:45:31  5-MIN KMSN 210045Z 20011KT 10SM CLR 05/M05 A2992 860 48 0 200/11 RMK AO2
14837KMSN MSN20011120185010811/20/01 18:50:31  5-MIN KMSN 210050Z 19010KT 10SM CLR 05/M05 A2992 860 48 0 190/10 RMK AO2 SLP140 T00501050
14837KMSN MSN20011120185509111/20/01 18:55:31  5-MIN KMSN 210055Z 19013KT 10SM CLR 05/M05 A2992 870 48 0 190/13 RMK AO2
14837KMSN MSN20011120190009711/20/01 19:00:31  5-MIN KMSN 210100Z 19013G19KT 10SM CLR 05/M05 A2991 870 48 0 190/13G19 RMK AO2
14837KMSN MSN20011120190509111/20/01 19:05:31  5-MIN KMSN 210105Z 19013KT 10SM CLR 05/M05 A2991 870 48 0 190/13 RMK AO2
14837KMSN MSN20011120191009711/20/01 19:10:31  5-MIN KMSN 210110Z 20013G20KT 10SM CLR 05/M05 A2991 870 48 0 190/13G20 RMK AO2
14837KMSN MSN20011120191509711/20/01 19:15:31  5-MIN KMSN 210115Z 19012G20KT 10SM CLR 05/M05 A2991 870 48 0 190/12G20 RMK AO2
14837KMSN MSN20011120192009711/20/01 19:20:31  5-MIN KMSN 210120Z 20012G17KT 10SM CLR 05/M05 A2992 870 48 0 200/12G17 RMK AO2
14837KMSN MSN20011120192509711/20/01 19:25:31  5-MIN KMSN 210125Z 19012G17KT 10SM CLR 05/M05 A2992 870 48 0 190/12G17 RMK AO2
14837KMSN MSN20011120193009111/20/01 19:30:31  5-MIN KMSN 210130Z 19014KT 10SM CLR 05/M05 A2992 870 48 0 190/14 RMK AO2
14837KMSN MSN20011120193509711/20/01 19:35:31  5-MIN KMSN 210135Z 19011G18KT 10SM CLR 05/M05 A2992 870 48 0 190/11G18 RMK AO2
14837KMSN MSN20011120194009711/20/01 19:40:31  5-MIN KMSN 210140Z 20011G21KT 10SM CLR 05/M05 A2992 860 48 0 200/11G21 RMK AO2
14837KMSN MSN20011120194509711/20/01 19:45:31  5-MIN KMSN 210145Z 19009G21KT 10SM CLR 05/M05 A2992 860 48 0 180/09G21 RMK AO2
14837KMSN MSN20011120195011411/20/01 19:50:31  5-MIN KMSN 210150Z 19011G16KT 10SM CLR 05/M05 A2992 860 48 0 190/11G16 RMK AO2 SLP141 T00501050
14837KMSN MSN20011120195509711/20/01 19:55:31  5-MIN KMSN 210155Z 19011G16KT 10SM CLR 05/M05 A2992 860 48 0 190/11G16 RMK AO2
14837KMSN MSN20011120200009111/20/01 20:00:31  5-MIN KMSN 210200Z 19011KT 10SM CLR 05/M05 A2992 860 48 0 190/11 RMK AO2
14837KMSN MSN20011120200509111/20/01 20:05:31  5-MIN KMSN 210205Z 19012KT 10SM CLR 05/M05 A2992 870 48 0 190/12 RMK AO2
14837KMSN MSN20011120201009711/20/01 20:10:31  5-MIN KMSN 210210Z 19012G20KT 10SM CLR 05/M05 A2991 870 48 0 190/12G20 RMK AO2
14837KMSN MSN20011120201509711/20/01 20:15:31  5-MIN KMSN 210215Z 19012G20KT 10SM CLR 05/M04 A2991 880 50 0 190/12G20 RMK AO2
14837KMSN MSN20011120202009111/20/01 20:20:31  5-MIN KMSN 210220Z 19012KT 10SM CLR 05/M04 A2991 880 50 0 190/12 RMK AO2
14837KMSN MSN20011120202509111/20/01 20:25:31  5-MIN KMSN 210225Z 19011KT 10SM CLR 05/M04 A2991 870 50 0 190/11 RMK AO2
14837KMSN MSN20011120203009111/20/01 20:30:31  5-MIN KMSN 210230Z 19013KT 10SM CLR 05/M04 A2991 870 50 0 190/13 RMK AO2
14837KMSN MSN20011120203509111/20/01 20:35:31  5-MIN KMSN 210235Z 19011KT 10SM CLR 05/M04 A2991 880 50 0 190/11 RMK AO2
14837KMSN MSN20011120204009711/20/01 20:40:31  5-MIN KMSN 210240Z 19010G17KT 10SM CLR 05/M04 A2991 880 50 0 190/10G17 RMK AO2
14837KMSN MSN20011120204509711/20/01 20:45:31  5-MIN KMSN 210245Z 19011G17KT 10SM CLR 05/M04 A2990 880 50 0 190/11G17 RMK AO2
14837KMSN MSN20011120205011411/20/01 20:50:31  5-MIN KMSN 210250Z 20009KT 10SM CLR 05/M04 A2991 880 50 0 200/09 RMK AO2 SLP134 T00501044 58027
14837KMSN MSN20011120205509411/20/01 20:55:31  5-MIN KMSN 210255Z 19009KT 10SM CLR 04/M04 A2991 880 52 -100 190/09 RMK AO2
14837KMSN MSN20011120210009111/20/01 21:00:31  5-MIN KMSN 210300Z 20008KT 10SM CLR 05/M04 A2991 880 50 0 200/08 RMK AO2
14837KMSN MSN20011120210509411/20/01 21:05:31  5-MIN KMSN 210305Z 19008KT 10SM CLR 04/M04 A2991 880 52 -100 190/08 RMK AO2
14837KMSN MSN20011120221009411/20/01 22:10:31  5-MIN KMSN 210410Z 19009KT 10SM CLR 04/M04 A2988 900 55 -100 190/09 RMK AO2
14837KMSN MSN20011120221509411/20/01 22:15:31  5-MIN KMSN 210415Z 19008KT 10SM CLR 04/M04 A2987 910 55 -100 190/08 RMK AO2
14837KMSN MSN20011120222009411/20/01 22:20:31  5-MIN KMSN 210420Z 20008KT 10SM CLR 04/M04 A2987 910 55 -100 200/08 RMK AO2
14837KMSN MSN20011120222509111/20/01 22:25:31  5-MIN KMSN 210425Z 20009KT 10SM CLR 04/M04 A2986 920 55 0 200/09 RMK AO2
14837KMSN MSN20011120223010111/20/01 22:30:31  5-MIN KMSN 210430Z 19010KT 10SM CLR 04/M04 A2986 920 57 -100 190/10 RMK AO2 PRESFR
14837KMSN MSN20011120223509711/20/01 22:35:31  5-MIN KMSN 210435Z 19009G15KT 10SM CLR 04/M04 A2985 930 55 0 190/09G15 RMK AO2
14837KMSN MSN20011120224009111/20/01 22:40:31  5-MIN KMSN 210440Z 20009KT 10SM CLR 04/M04 A2985 930 55 0 200/09 RMK AO2
14837KMSN MSN20011120224509411/20/01 22:45:31  5-MIN KMSN 210445Z 20009KT 10SM CLR 04/M04 A2986 920 57 -100 200/09 RMK AO2
14837KMSN MSN20011120225011111/20/01 22:50:31  5-MIN KMSN 210450Z 19010KT 10SM CLR 04/M04 A2985 930 57 -100 190/10 RMK AO2 SLP115 T00391039
14837KMSN MSN20011120225509111/20/01 22:55:31  5-MIN KMSN 210455Z 21009KT 10SM CLR 04/M04 A2985 930 55 0 200/09 RMK AO2
14837KMSN MSN20011120230009411/20/01 23:00:31  5-MIN KMSN 210500Z 19009KT 10SM CLR 04/M04 A2985 930 57 -100 190/09 RMK AO2
14837KMSN MSN20011120230509411/20/01 23:05:31  5-MIN KMSN 210505Z 19010KT 10SM CLR 04/M04 A2985 930 57 -100 190/10 RMK AO2
14837KMSN MSN20011120231009111/20/01 23:10:31  5-MIN KMSN 210510Z 19010KT 10SM CLR 04/M04 A2984 930 55 0 190/10 RMK AO2
14837KMSN MSN20011120231509111/20/01 23:15:31  5-MIN KMSN 210515Z 19010KT 10SM CLR 04/M04 A2984 940 55 0 190/10 RMK AO2
14837KMSN MSN20011120232009411/20/01 23:20:31  5-MIN KMSN 210520Z 20009KT 10SM CLR 04/M04 A2984 940 57 -100 200/09 RMK AO2
14837KMSN MSN20011120232509411/20/01 23:25:31  5-MIN KMSN 210525Z 20008KT 10SM CLR 04/M04 A2984 940 57 -100 200/08 RMK AO2
14837KMSN MSN20011120233009111/20/01 23:30:31  5-MIN KMSN 210530Z 20008KT 10SM CLR 04/M04 A2984 940 55 0 200/08 RMK AO2
14837KMSN MSN20011120233509111/20/01 23:35:31  5-MIN KMSN 210535Z 19009KT 10SM CLR 04/M04 A2984 940 55 0 190/09 RMK AO2
14837KMSN MSN20011120234009711/20/01 23:40:31  5-MIN KMSN 210540Z 20011G15KT 10SM CLR 04/M04 A2984 940 55 0 200/11G15 RMK AO2
14837KMSN MSN20011120234509711/20/01 23:45:31  5-MIN KMSN 210545Z 21009G18KT 10SM CLR 04/M04 A2984 940 55 0 210/09G18 RMK AO2
14837KMSN MSN20011120235014211/20/01 23:50:31  5-MIN KMSN 210550Z 20008G18KT 10SM CLR 04/M04 A2983 950 55 0 200/08G18 RMK AO2 SLP109 T00441039 10056 20039 400561039 56014
14837KMSN MSN20011120235509111/20/01 23:55:31  5-MIN KMSN 210555Z 20008KT 10SM CLR 04/M04 A2983 950 55 0 200/08 RMK AO2
14837KMSN MSN20011121000009111/21/01 00:00:31  5-MIN KMSN 210600Z 20008KT 10SM CLR 04/M04 A2983 950 55 0 200/08 RMK AO2
14837KMSN MSN20011121000509411/21/01 00:05:31  5-MIN KMSN 210605Z 19009KT 10SM CLR 04/M04 A2983 950 57 -100 190/09 RMK AO2
14837KMSN MSN20011121001009111/21/01 00:10:31  5-MIN KMSN 210610Z 21008KT 10SM CLR 04/M04 A2982 960 55 0 210/08 RMK AO2
14837KMSN MSN20011121001509111/21/01 00:15:31  5-MIN KMSN 210615Z 20008KT 10SM CLR 04/M04 A2982 960 52 0 200/08 RMK AO2
14837KMSN MSN20011121002009411/21/01 00:20:31  5-MIN KMSN 210620Z 19008KT 10SM CLR 04/M04 A2982 960 57 -100 190/08 RMK AO2
14837KMSN MSN20011121002510011/21/01 00:25:31  5-MIN KMSN 210625Z 20007G15KT 10SM CLR 04/M04 A2981 960 57 -100 190/07G15 RMK AO2
14837KMSN MSN20011121003010011/21/01 00:30:31  5-MIN KMSN 210630Z 20007G15KT 10SM CLR 04/M04 A2981 960 57 -100 200/07G15 RMK AO2
14837KMSN MSN20011121003509411/21/01 00:35:31  5-MIN KMSN 210635Z 19009KT 10SM CLR 04/M04 A2981 970 57 -100 190/09 RMK AO2
14837KMSN MSN20011121004009411/21/01 00:40:31  5-MIN KMSN 210640Z 20008KT 10SM CLR 04/M04 A2981 970 57 -100 200/08 RMK AO2
14837KMSN MSN20011121004509411/21/01 00:45:31  5-MIN KMSN 210645Z 20006KT 10SM CLR 04/M04 A2981 970 57 -100 200/06 RMK AO2
14837KMSN MSN20011121005011411/21/01 00:50:31  5-MIN KMSN 210650Z 21012G18KT 10SM CLR 04/M04 A2981 970 55 0 210/12G18 RMK AO2 SLP100 T00441039
14837KMSN MSN20011121005510011/21/01 00:55:31  5-MIN KMSN 210655Z 20008G18KT 10SM CLR 04/M04 A2981 970 57 -100 200/08G18 RMK AO2
14837KMSN MSN20011121010009411/21/01 01:00:31  5-MIN KMSN 210700Z 21008KT 10SM CLR 04/M04 A2981 970 57 -100 210/08 RMK AO2
14837KMSN MSN20011121010509711/21/01 01:05:31  5-MIN KMSN 210705Z 21009G15KT 10SM CLR 04/M04 A2981 970 55 0 210/09G15 RMK AO2
14837KMSN MSN20011121011009111/21/01 01:10:31  5-MIN KMSN 210710Z 22009KT 10SM CLR 04/M04 A2981 970 55 0 220/09 RMK AO2
14837KMSN MSN20011121011509111/21/01 01:15:31  5-MIN KMSN 210715Z 21009KT 10SM CLR 04/M04 A2981 970 52 0 210/09 RMK AO2
14837KMSN MSN20011121012009111/21/01 01:20:31  5-MIN KMSN 210720Z 22009KT 10SM CLR 04/M04 A2981 970 52 0 220/09 RMK AO2
14837KMSN MSN20011121012509111/21/01 01:25:31  5-MIN KMSN 210725Z 22007KT 10SM CLR 04/M04 A2981 970 52 0 210/07 RMK AO2
14837KMSN MSN20011121013009111/21/01 01:30:31  5-MIN KMSN 210730Z 22010KT 10SM CLR 04/M04 A2981 970 55 0 220/10 RMK AO2
14837KMSN MSN20011121013509111/21/01 01:35:31  5-MIN KMSN 210735Z 21007KT 10SM CLR 04/M04 A2980 970 52 0 210/07 RMK AO2
14837KMSN MSN20011121014009111/21/01 01:40:31  5-MIN KMSN 210740Z 22010KT 10SM CLR 04/M04 A2980 970 52 0 220/10 RMK AO2
14837KMSN MSN20011121014509111/21/01 01:45:31  5-MIN KMSN 210745Z 22009KT 10SM CLR 04/M04 A2980 970 55 0 220/09 RMK AO2
14837KMSN MSN20011121015010811/21/01 01:50:31  5-MIN KMSN 210750Z 22009KT 10SM CLR 04/M04 A2980 970 52 0 220/09 RMK AO2 SLP099 T00441044
14837KMSN MSN20011121015509111/21/01 01:55:31  5-MIN KMSN 210755Z 22010KT 10SM CLR 04/M04 A2981 970 55 0 220/10 RMK AO2
14837KMSN MSN20011121020009111/21/01 02:00:31  5-MIN KMSN 210800Z 21009KT 10SM CLR 04/M04 A2981 970 55 0 210/09 RMK AO2
14837KMSN MSN20011121020509111/21/01 02:05:31  5-MIN KMSN 210805Z 22012KT 10SM CLR 04/M04 A2981 970 55 0 220/12 RMK AO2
14837KMSN MSN20011121021009711/21/01 02:10:31  5-MIN KMSN 210810Z 22009G16KT 10SM CLR 04/M04 A2980 970 55 0 220/09G16 RMK AO2
14837KMSN MSN20011121021509711/21/01 02:15:31  5-MIN KMSN 210815Z 22009G15KT 10SM CLR 04/M04 A2980 970 52 0 220/09G15 RMK AO2
14837KMSN MSN20011121022009711/21/01 02:20:31  5-MIN KMSN 210820Z 21008G14KT 10SM CLR 04/M04 A2980 970 52 0 210/08G14 RMK AO2
14837KMSN MSN20011121022509711/21/01 02:25:31  5-MIN KMSN 210825Z 21009G15KT 10SM CLR 04/M04 A2981 970 55 0 210/09G15 RMK AO2
14837KMSN MSN20011121023009711/21/01 02:30:31  5-MIN KMSN 210830Z 22011G15KT 10SM CLR 04/M04 A2981 970 52 0 210/11G15 RMK AO2
14837KMSN MSN20011121023509711/21/01 02:35:31  5-MIN KMSN 210835Z 21008G14KT 10SM CLR 04/M04 A2981 970 52 0 210/08G14 RMK AO2
14837KMSN MSN20011121024009111/21/01 02:40:31  5-MIN KMSN 210840Z 20007KT 10SM CLR 04/M04 A2980 970 54 0 200/07 RMK AO2
14837KMSN MSN20011121024509111/21/01 02:45:31  5-MIN KMSN 210845Z 20008KT 10SM CLR 04/M04 A2980 980 57 0 200/08 RMK AO2
14837KMSN MSN20011121025011411/21/01 02:50:31  5-MIN KMSN 210850Z 20007KT 10SM CLR 04/M04 A2980 980 57 0 200/07 RMK AO2 SLP097 T00391039 58025
14837KMSN MSN20011121025509711/21/01 02:55:31  5-MIN KMSN 210855Z 20008G14KT 10SM CLR 04/M04 A2980 980 57 0 200/08G14 RMK AO2
14837KMSN MSN20011121030009111/21/01 03:00:31  5-MIN KMSN 210900Z 21009KT 10SM CLR 04/M04 A2980 980 57 0 210/09 RMK AO2
14837KMSN MSN20011121030509111/21/01 03:05:31  5-MIN KMSN 210905Z 22008KT 10SM CLR 04/M04 A2980 980 57 0 220/08 RMK AO2
14837KMSN MSN20011121031009111/21/01 03:10:31  5-MIN KMSN 210910Z 21006KT 10SM CLR 04/M04 A2979 980 57 0 210/06 RMK AO2
14837KMSN MSN20011121031509111/21/01 03:15:31  5-MIN KMSN 210915Z 21008KT 10SM CLR 04/M04 A2979 990 57 0 210/08 RMK AO2
14837KMSN MSN20011121032009111/21/01 03:20:31  5-MIN KMSN 210920Z 21009KT 10SM CLR 04/M04 A2979 990 57 0 210/09 RMK AO2
14837KMSN MSN20011121032509111/21/01 03:25:31  5-MIN KMSN 210925Z 22009KT 10SM CLR 04/M04 A2979 990 57 0 220/09 RMK AO2
14837KMSN MSN20011121033009111/21/01 03:30:31  5-MIN KMSN 210930Z 21007KT 10SM CLR 04/M04 A2979 990 57 0 210/07 RMK AO2
14837KMSN MSN20011121033509111/21/01 03:35:31  5-MIN KMSN 210935Z 21008KT 10SM CLR 04/M04 A2979 990 57 0 210/08 RMK AO2
14837KMSN MSN20011121034009111/21/01 03:40:31  5-MIN KMSN 210940Z 21007KT 10SM CLR 04/M04 A2978 990 57 0 210/07 RMK AO2
14837KMSN MSN20011121034509511/21/01 03:45:31  5-MIN KMSN 210945Z 21007KT 10SM CLR 03/M04 A2978 1000 59 -100 210/07 RMK AO2
14837KMSN MSN20011121035010811/21/01 03:50:31  5-MIN KMSN 210950Z 21008KT 10SM CLR 04/M04 A2978 990 57 0 210/08 RMK AO2 SLP091 T00391039
14837KMSN MSN20011121035509111/21/01 03:55:31  5-MIN KMSN 210955Z 22007KT 10SM CLR 04/M04 A2978 990 57 0 220/07 RMK AO2
14837KMSN MSN20011121040009111/21/01 04:00:31  5-MIN KMSN 211000Z 22009KT 10SM CLR 04/M04 A2978 990 57 0 220/09 RMK AO2
14837KMSN MSN20011121040509211/21/01 04:05:31  5-MIN KMSN 211005Z 22009KT 10SM CLR 04/M04 A2978 1000 54 0 220/09 RMK AO2
14837KMSN MSN20011121041009111/21/01 04:10:31  5-MIN KMSN 211010Z 22009KT 10SM CLR 04/M04 A2979 990 54 0 220/09 RMK AO2
14837KMSN MSN20011121041509111/21/01 04:15:31  5-MIN KMSN 211015Z 22010KT 10SM CLR 04/M04 A2978 990 54 0 220/10 RMK AO2
14837KMSN MSN20011121042009111/21/01 04:20:31  5-MIN KMSN 211020Z 21007KT 10SM CLR 04/M04 A2978 990 57 0 210/07 RMK AO2
14837KMSN MSN20011121042509111/21/01 04:25:31  5-MIN KMSN 211025Z 22009KT 10SM CLR 04/M04 A2978 990 57 0 220/09 RMK AO2
14837KMSN MSN20011121043010011/21/01 04:30:31  5-MIN KMSN 211030Z 22008G16KT 10SM CLR 03/M04 A2978 990 57 -100 210/08G16 RMK AO2
14837KMSN MSN20011121043510011/21/01 04:35:31  5-MIN KMSN 211035Z 22010G16KT 10SM CLR 03/M04 A2978 990 57 -100 220/10G16 RMK AO2
14837KMSN MSN20011121044009411/21/01 04:40:31  5-MIN KMSN 211040Z 22009KT 10SM CLR 03/M04 A2979 990 59 -100 220/09 RMK AO2
14837KMSN MSN20011121044509411/21/01 04:45:31  5-MIN KMSN 211045Z 22009KT 10SM CLR 03/M04 A2979 990 57 -100 220/09 RMK AO2
14837KMSN MSN20011121045011111/21/01 04:50:31  5-MIN KMSN 211050Z 21009KT 10SM CLR 03/M04 A2979 990 57 -100 210/09 RMK AO2 SLP093 T00331044
14837KMSN MSN20011121045509411/21/01 04:55:31  5-MIN KMSN 211055Z 22007KT 10SM CLR 03/M04 A2979 990 59 -100 220/07 RMK AO2
14837KMSN MSN20011121050009411/21/01 05:00:31  5-MIN KMSN 211100Z 21008KT 10SM CLR 03/M04 A2978 990 59 -100 210/08 RMK AO2
14837KMSN MSN20011121050509411/21/01 05:05:31  5-MIN KMSN 211105Z 21007KT 10SM CLR 03/M04 A2978 990 59 -100 210/07 RMK AO2
14837KMSN MSN20011121051009411/21/01 05:10:31  5-MIN KMSN 211110Z 22006KT 10SM CLR 03/M04 A2978 990 57 -100 210/06 RMK AO2
14837KMSN MSN20011121051509411/21/01 05:15:31  5-MIN KMSN 211115Z VRB05KT 10SM CLR 03/M04 A2978 990 57 -100 VRB/05 RMK AO2
14837KMSN MSN20011121052009411/21/01 05:20:31  5-MIN KMSN 211120Z 23005KT 10SM CLR 03/M04 A2978 990 59 -100 230/05 RMK AO2
14837KMSN MSN20011121052509411/21/01 05:25:31  5-MIN KMSN 211125Z 21007KT 10SM CLR 03/M04 A2978 990 59 -100 210/07 RMK AO2
14837KMSN MSN20011121053009411/21/01 05:30:31  5-MIN KMSN 211130Z 21006KT 10SM CLR 03/M04 A2978 990 59 -100 210/06 RMK AO2
14837KMSN MSN20011121053509411/21/01 05:35:31  5-MIN KMSN 211135Z VRB05KT 10SM CLR 03/M04 A2978 990 61 -200 VRB/05 RMK AO2
14837KMSN MSN20011121054009411/21/01 05:40:31  5-MIN KMSN 211140Z 20005KT 10SM CLR 03/M04 A2978 990 59 -100 200/05 RMK AO2
14837KMSN MSN20011121054509411/21/01 05:45:31  5-MIN KMSN 211145Z 20005KT 10SM CLR 03/M04 A2978 990 59 -100 200/05 RMK AO2
14837KMSN MSN20011121055013011/21/01 05:50:31  5-MIN KMSN 211150Z 19006KT 10SM CLR 03/M04 A2978 1000 59 -100 190/06 RMK AO2 SLP090 T00331039 10044 20028 56011
14837KMSN MSN20011121055509511/21/01 05:55:31  5-MIN KMSN 211155Z 20007KT 10SM CLR 03/M04 A2977 1000 61 -200 200/07 RMK AO2
14837KMSN MSN20011121060009511/21/01 06:00:31  5-MIN KMSN 211200Z 20007KT 10SM CLR 03/M04 A2977 1000 61 -100 200/07 RMK AO2
14837KMSN MSN20011121060509511/21/01 06:05:31  5-MIN KMSN 211205Z 20005KT 10SM CLR 03/M04 A2977 1000 61 -100 200/05 RMK AO2
14837KMSN MSN20011121061009511/21/01 06:10:31  5-MIN KMSN 211210Z 22006KT 10SM CLR 03/M04 A2977 1000 61 -200 210/06 RMK AO2
14837KMSN MSN20011121061509511/21/01 06:15:31  5-MIN KMSN 211215Z 21007KT 10SM CLR 03/M04 A2978 1000 59 -200 210/07 RMK AO2
14837KMSN MSN20011121062009511/21/01 06:20:31  5-MIN KMSN 211220Z 20007KT 10SM CLR 03/M04 A2977 1000 61 -200 200/07 RMK AO2
14837KMSN MSN20011121062509511/21/01 06:25:31  5-MIN KMSN 211225Z 21008KT 10SM CLR 03/M04 A2978 1000 61 -200 210/08 RMK AO2
14837KMSN MSN20011121063009511/21/01 06:30:31  5-MIN KMSN 211230Z 21008KT 10SM CLR 03/M04 A2978 1000 61 -200 210/08 RMK AO2
14837KMSN MSN20011121063509511/21/01 06:35:31  5-MIN KMSN 211235Z 20007KT 10SM CLR 03/M04 A2978 1000 61 -200 200/07 RMK AO2
14837KMSN MSN20011121064009511/21/01 06:40:31  5-MIN KMSN 211240Z 21005KT 10SM CLR 03/M04 A2978 1000 61 -200 210/05 RMK AO2
14837KMSN MSN20011121064509511/21/01 06:45:31  5-MIN KMSN 211245Z 20006KT 10SM CLR 03/M04 A2978 1000 61 -200 200/06 RMK AO2
14837KMSN MSN20011121065011211/21/01 06:50:31  5-MIN KMSN 211250Z 20007KT 10SM CLR 03/M04 A2977 1000 61 -200 200/07 RMK AO2 SLP089 T00281039
14837KMSN MSN20011121065509511/21/01 06:55:31  5-MIN KMSN 211255Z 21006KT 10SM CLR 03/M04 A2978 1000 61 -200 210/06 RMK AO2
14837KMSN MSN20011121070009411/21/01 07:00:31  5-MIN KMSN 211300Z VRB05KT 10SM CLR 03/M04 A2978 990 61 -200 VRB/05 RMK AO2
14837KMSN MSN20011121070509411/21/01 07:05:31  5-MIN KMSN 211305Z 20006KT 10SM CLR 02/M04 A2978 990 64 -200 200/06 RMK AO2
14837KMSN MSN20011121071009511/21/01 07:10:31  5-MIN KMSN 211310Z 20007KT 10SM CLR 02/M04 A2978 1000 64 -200 200/07 RMK AO2
14837KMSN MSN20011121071509511/21/01 07:15:31  5-MIN KMSN 211315Z 21005KT 10SM CLR 03/M04 A2978 1000 61 -200 210/05 RMK AO2
14837KMSN MSN20011121072009411/21/01 07:20:31  5-MIN KMSN 211320Z 22006KT 10SM CLR 03/M04 A2978 990 61 -200 220/06 RMK AO2
14837KMSN MSN20011121072509411/21/01 07:25:31  5-MIN KMSN 211325Z 20006KT 10SM CLR 03/M04 A2978 990 61 -200 200/06 RMK AO2
14837KMSN MSN20011121073009411/21/01 07:30:31  5-MIN KMSN 211330Z VRB05KT 10SM CLR 03/M04 A2978 990 61 -200 VRB/05 RMK AO2
14837KMSN MSN20011121073509411/21/01 07:35:31  5-MIN KMSN 211335Z VRB05KT 10SM CLR 03/M04 A2978 990 61 -200 VRB/05 RMK AO2
14837KMSN MSN20011121074009411/21/01 07:40:31  5-MIN KMSN 211340Z 20005KT 10SM CLR 03/M04 A2978 990 61 -200 200/05 RMK AO2
14837KMSN MSN20011121074509411/21/01 07:45:31  5-MIN KMSN 211345Z VRB06KT 10SM CLR 03/M04 A2979 990 61 -200 VRB/06 RMK AO2
14837KMSN MSN20011121075011111/21/01 07:50:31  5-MIN KMSN 211350Z 21007KT 10SM CLR 03/M04 A2979 990 61 -200 210/07 RMK AO2 SLP094 T00281039
14837KMSN MSN20011121075509411/21/01 07:55:31  5-MIN KMSN 211355Z 21007KT 10SM CLR 03/M04 A2979 990 61 -200 210/07 RMK AO2
14837KMSN MSN20011121080009411/21/01 08:00:31  5-MIN KMSN 211400Z 21008KT 10SM CLR 03/M04 A2979 990 61 -200 210/08 RMK AO2
14837KMSN MSN20011121080509411/21/01 08:05:31  5-MIN KMSN 211405Z 21005KT 10SM CLR 03/M04 A2979 990 59 -100 210/05 RMK AO2
14837KMSN MSN20011121081009411/21/01 08:10:31  5-MIN KMSN 211410Z 21006KT 10SM CLR 03/M04 A2979 990 59 -100 210/06 RMK AO2
14837KMSN MSN20011121081509411/21/01 08:15:31  5-MIN KMSN 211415Z 23005KT 10SM CLR 03/M03 A2979 980 61 -100 230/05 RMK AO2
14837KMSN MSN20011121082009111/21/01 08:20:31  5-MIN KMSN 211420Z 21006KT 10SM CLR 04/M03 A2979 980 59 0 210/06 RMK AO2
14837KMSN MSN20011121082510711/21/01 08:25:31  5-MIN KMSN 211425Z 21007KT 140V240 10SM CLR 04/M03 A2979 990 59 0 210/07 140V240 RMK AO2
14837KMSN MSN20011121083009111/21/01 08:30:31  5-MIN KMSN 211430Z 21007KT 10SM CLR 04/M03 A2979 990 59 0 210/07 RMK AO2
14837KMSN MSN20011121083509111/21/01 08:35:31  5-MIN KMSN 211435Z 22008KT 10SM CLR 04/M03 A2979 990 59 0 220/08 RMK AO2
14837KMSN MSN20011121084009111/21/01 08:40:31  5-MIN KMSN 211440Z 22007KT 10SM CLR 04/M03 A2979 990 59 0 220/07 RMK AO2
14837KMSN MSN20011121084509111/21/01 08:45:31  5-MIN KMSN 211445Z 21007KT 10SM CLR 04/M03 A2979 990 59 0 210/07 RMK AO2
14837KMSN MSN20011121085011411/21/01 08:50:31  5-MIN KMSN 211450Z 23008KT 10SM CLR 04/M03 A2979 990 57 0 220/08 RMK AO2 SLP093 T00441033 56007
14837KMSN MSN20011121085509111/21/01 08:55:31  5-MIN KMSN 211455Z VRB03KT 10SM CLR 04/M03 A2979 990 59 0 VRB/03 RMK AO2
14837KMSN MSN20011121090009311/21/01 09:00:31  5-MIN KMSN 211500Z VRB05KT 10SM CLR 05/M03 A2979 990 57 100 VRB/05 RMK AO2
14837KMSN MSN20011121090509311/21/01 09:05:31  5-MIN KMSN 211505Z 21007KT 10SM CLR 05/M03 A2979 990 57 100 210/07 RMK AO2
14837KMSN MSN20011121091009311/21/01 09:10:31  5-MIN KMSN 211510Z 22007KT 10SM CLR 05/M03 A2978 990 57 100 220/07 RMK AO2
14837KMSN MSN20011121091509311/21/01 09:15:31  5-MIN KMSN 211515Z 23007KT 10SM CLR 05/M03 A2978 990 57 100 220/07 RMK AO2
14837KMSN MSN20011121092009311/21/01 09:20:31  5-MIN KMSN 211520Z 23007KT 10SM CLR 05/M03 A2978 990 57 100 230/07 RMK AO2
14837KMSN MSN20011121092509311/21/01 09:25:31  5-MIN KMSN 211525Z 22008KT 10SM CLR 05/M03 A2978 990 57 100 220/08 RMK AO2
14837KMSN MSN20011121093009311/21/01 09:30:31  5-MIN KMSN 211530Z 21007KT 10SM CLR 06/M02 A2978 990 57 100 210/07 RMK AO2
14837KMSN MSN20011121093509411/21/01 09:35:31  5-MIN KMSN 211535Z 23008KT 10SM CLR 06/M03 A2978 1000 55 100 230/08 RMK AO2
14837KMSN MSN20011121094009311/21/01 09:40:31  5-MIN KMSN 211540Z 24007KT 10SM CLR 06/M03 A2978 990 55 100 240/07 RMK AO2
14837KMSN MSN20011121094509311/21/01 09:45:31  5-MIN KMSN 211545Z VRB06KT 10SM CLR 06/M03 A2978 990 55 100 VRB/06 RMK AO2
14837KMSN MSN20011121095011011/21/01 09:50:31  5-MIN KMSN 211550Z 22007KT 10SM CLR 06/M02 A2978 990 55 200 220/07 RMK AO2 SLP090 T00611022
14837KMSN MSN20011121095510911/21/01 09:55:31  5-MIN KMSN 211555Z 23007KT 200V260 10SM CLR 06/M02 A2978 990 55 200 230/07 200V260 RMK AO2
14837KMSN MSN20011121100009311/21/01 10:00:31  5-MIN KMSN 211600Z 23006KT 10SM CLR 06/M02 A2978 990 55 200 230/06 RMK AO2
14837KMSN MSN20011121100509311/21/01 10:05:31  5-MIN KMSN 211605Z 22008KT 10SM CLR 07/M02 A2978 990 55 300 220/08 RMK AO2
14837KMSN MSN20011121101009311/21/01 10:10:31  5-MIN KMSN 211610Z 24008KT 10SM CLR 07/M03 A2979 990 51 300 240/08 RMK AO2
14837KMSN MSN20011121101509311/21/01 10:15:31  5-MIN KMSN 211615Z 22008KT 10SM CLR 07/M02 A2979 990 53 300 220/08 RMK AO2
14837KMSN MSN20011121102009311/21/01 10:20:31  5-MIN KMSN 211620Z 22008KT 10SM CLR 07/M02 A2979 990 53 300 220/08 RMK AO2
14837KMSN MSN20011121102509311/21/01 10:25:31  5-MIN KMSN 211625Z 23006KT 10SM CLR 07/M02 A2979 980 53 300 230/06 RMK AO2
14837KMSN MSN20011121103009311/21/01 10:30:31  5-MIN KMSN 211630Z 22007KT 10SM CLR 07/M02 A2979 980 53 300 220/07 RMK AO2
14837KMSN MSN20011121103509311/21/01 10:35:31  5-MIN KMSN 211635Z VRB05KT 10SM CLR 07/M02 A2979 980 53 300 VRB/05 RMK AO2
14837KMSN MSN20011121104009311/21/01 10:40:31  5-MIN KMSN 211640Z 21007KT 10SM CLR 08/M01 A2979 990 53 400 210/07 RMK AO2
14837KMSN MSN20011121104510911/21/01 10:45:31  5-MIN KMSN 211645Z 21008KT 190V260 10SM CLR 08/M02 A2979 990 49 400 210/08 190V260 RMK AO2
14837KMSN MSN20011121105011011/21/01 10:50:31  5-MIN KMSN 211650Z 21008KT 10SM CLR 08/M02 A2979 990 49 400 210/08 RMK AO2 SLP091 T00781022
14837KMSN MSN20011121105509311/21/01 10:55:31  5-MIN KMSN 211655Z 21007KT 10SM CLR 08/M02 A2978 990 47 500 210/07 RMK AO2
14837KMSN MSN20011121110009311/21/01 11:00:31  5-MIN KMSN 211700Z 21009KT 10SM CLR 08/M02 A2978 990 47 500 210/09 RMK AO2
14837KMSN MSN20011121110509311/21/01 11:05:31  5-MIN KMSN 211705Z 23009KT 10SM CLR 08/M02 A2978 990 47 500 230/09 RMK AO2
14837KMSN MSN20011121111009311/21/01 11:10:31  5-MIN KMSN 211710Z 23008KT 10SM CLR 08/M02 A2979 990 49 500 230/08 RMK AO2
14837KMSN MSN20011121111509311/21/01 11:15:31  5-MIN KMSN 211715Z 22006KT 10SM CLR 08/M02 A2979 990 49 500 220/06 RMK AO2
14837KMSN MSN20011121112009311/21/01 11:20:31  5-MIN KMSN 211720Z 23008KT 10SM CLR 08/M02 A2979 990 47 500 230/08 RMK AO2
14837KMSN MSN20011121112509311/21/01 11:25:31  5-MIN KMSN 211725Z 23006KT 10SM CLR 09/M02 A2979 990 45 500 230/06 RMK AO2
14837KMSN MSN20011121113009311/21/01 11:30:31  5-MIN KMSN 211730Z 22007KT 10SM CLR 09/M02 A2979 990 47 500 220/07 RMK AO2
14837KMSN MSN20011121113509311/21/01 11:35:31  5-MIN KMSN 211735Z VRB06KT 10SM CLR 09/M01 A2979 990 49 500 VRB/06 RMK AO2
14837KMSN MSN20011121114009311/21/01 11:40:31  5-MIN KMSN 211740Z 21006KT 10SM CLR 09/M02 A2979 990 44 600 210/06 RMK AO2
14837KMSN MSN20011121114509311/21/01 11:45:31  5-MIN KMSN 211745Z VRB06KT 10SM CLR 10/M01 A2979 990 46 700 VRB/06 RMK AO2
14837KMSN MSN20011121115012811/21/01 11:50:31  5-MIN KMSN 211750Z 22007KT 10SM CLR 10/M02 A2979 990 42 700 220/07 RMK AO2 SLP091 T01001022 10100 20022 50004
14837KMSN MSN20011121115509311/21/01 11:55:31  5-MIN KMSN 211755Z 22005KT 10SM CLR 10/M02 A2978 990 44 700 220/05 RMK AO2
14837KMSN MSN20011121120009311/21/01 12:00:31  5-MIN KMSN 211800Z 24006KT 10SM CLR 10/M01 A2979 990 46 700 240/06 RMK AO2
14837KMSN MSN20011121120509311/21/01 12:05:31  5-MIN KMSN 211805Z 24007KT 10SM CLR 11/M02 A2978 990 42 700 240/07 RMK AO2
14837KMSN MSN20011121121009311/21/01 12:10:31  5-MIN KMSN 211810Z VRB06KT 10SM CLR 11/M01 A2978 990 44 700 VRB/06 RMK AO2
14837KMSN MSN20011121121509311/21/01 12:15:31  5-MIN KMSN 211815Z 21005KT 10SM CLR 11/M02 A2978 990 40 700 210/05 RMK AO2
14837KMSN MSN20011121122009311/21/01 12:20:31  5-MIN KMSN 211820Z 21004KT 10SM CLR 11/M01 A2978 990 44 800 210/04 RMK AO2
14837KMSN MSN20011121122509311/21/01 12:25:31  5-MIN KMSN 211825Z 23007KT 10SM CLR 11/M01 A2978 990 42 800 230/07 RMK AO2
14837KMSN MSN20011121123009311/21/01 12:30:31  5-MIN KMSN 211830Z 24008KT 10SM CLR 11/M01 A2978 990 42 800 240/08 RMK AO2
14837KMSN MSN20011121123509411/21/01 12:35:31  5-MIN KMSN 211835Z 25006KT 10SM CLR 12/M01 A2978 1000 42 900 240/06 RMK AO2
14837KMSN MSN20011121124009411/21/01 12:40:31  5-MIN KMSN 211840Z 21006KT 10SM CLR 12/M02 A2978 1000 39 900 210/06 RMK AO2
14837KMSN MSN20011121124509411/21/01 12:45:31  5-MIN KMSN 211845Z 24006KT 10SM CLR 12/M01 A2978 1000 41 900 240/06 RMK AO2
14837KMSN MSN20011121125011111/21/01 12:50:31  5-MIN KMSN 211850Z 21007KT 10SM CLR 12/M02 A2978 1000 39 900 210/07 RMK AO2 SLP087 T01171017
14837KMSN MSN20011121125509411/21/01 12:55:31  5-MIN KMSN 211855Z 21006KT 10SM CLR 12/M01 A2977 1000 41 900 210/06 RMK AO2
14837KMSN MSN20011121130009411/21/01 13:00:31  5-MIN KMSN 211900Z 22007KT 10SM CLR 12/M01 A2977 1000 41 900 220/07 RMK AO2
14837KMSN MSN20011121130509411/21/01 13:05:31  5-MIN KMSN 211905Z 24008KT 10SM CLR 12/M01 A2977 1000 41 900 240/08 RMK AO2
14837KMSN MSN20011121131009411/21/01 13:10:31  5-MIN KMSN 211910Z VRB06KT 10SM CLR 12/M01 A2977 1000 39 900 VRB/06 RMK AO2
14837KMSN MSN20011121131509411/21/01 13:15:31  5-MIN KMSN 211915Z VRB06KT 10SM CLR 12/M01 A2977 1000 41 900 VRB/06 RMK AO2
14837KMSN MSN20011121132009511/21/01 13:20:31  5-MIN KMSN 211920Z 23007KT 10SM CLR 12/M02 A2977 1010 36 1000 230/07 RMK AO2
14837KMSN MSN20011121132509511/21/01 13:25:31  5-MIN KMSN 211925Z 24006KT 10SM CLR 12/M02 A2977 1010 38 1000 240/06 RMK AO2
14837KMSN MSN20011121133009511/21/01 13:30:31  5-MIN KMSN 211930Z 23005KT 10SM CLR 13/M01 A2977 1010 38 1000 230/05 RMK AO2
14837KMSN MSN20011121133509511/21/01 13:35:31  5-MIN KMSN 211935Z 24005KT 10SM CLR 13/M01 A2977 1010 38 1000 240/05 RMK AO2
14837KMSN MSN20011121134009511/21/01 13:40:31  5-MIN KMSN 211940Z 23007KT 10SM CLR 13/M01 A2977 1010 39 1000 230/07 RMK AO2
14837KMSN MSN20011121134509511/21/01 13:45:31  5-MIN KMSN 211945Z VRB05KT 10SM CLR 13/M01 A2976 1010 39 1000 VRB/05 RMK AO2
14837KMSN MSN20011121135011211/21/01 13:50:31  5-MIN KMSN 211950Z 24006KT 10SM CLR 13/M01 A2976 1010 39 1000 230/06 RMK AO2 SLP082 T01281006
14837KMSN MSN20011121135509511/21/01 13:55:31  5-MIN KMSN 211955Z 25005KT 10SM CLR 13/M02 A2976 1010 34 1100 250/05 RMK AO2
14837KMSN MSN20011121140009511/21/01 14:00:31  5-MIN KMSN 212000Z 25005KT 10SM CLR 13/M01 A2976 1010 36 1100 250/05 RMK AO2
14837KMSN MSN20011121140509511/21/01 14:05:31  5-MIN KMSN 212005Z VRB05KT 10SM CLR 13/M01 A2976 1010 38 1100 VRB/05 RMK AO2
14837KMSN MSN20011121141009511/21/01 14:10:31  5-MIN KMSN 212010Z 22006KT 10SM CLR 13/M01 A2976 1010 36 1100 220/06 RMK AO2
14837KMSN MSN20011121141509511/21/01 14:15:31  5-MIN KMSN 212015Z VRB04KT 10SM CLR 13/M01 A2976 1010 38 1100 VRB/04 RMK AO2
14837KMSN MSN20011121142009511/21/01 14:20:31  5-MIN KMSN 212020Z VRB05KT 10SM CLR 13/M01 A2976 1010 36 1100 VRB/05 RMK AO2
14837KMSN MSN20011121142509511/21/01 14:25:31  5-MIN KMSN 212025Z 20006KT 10SM CLR 13/M01 A2976 1020 38 1100 200/06 RMK AO2
14837KMSN MSN20011121143009511/21/01 14:30:31  5-MIN KMSN 212030Z VRB06KT 10SM CLR 13/M01 A2976 1020 38 1100 VRB/06 RMK AO2
14837KMSN MSN20011121143509511/21/01 14:35:31  5-MIN KMSN 212035Z 23006KT 10SM CLR 13/M01 A2976 1020 38 1100 230/06 RMK AO2
14837KMSN MSN20011121144009511/21/01 14:40:31  5-MIN KMSN 212040Z 22005KT 10SM CLR 13/M01 A2976 1020 38 1100 210/05 RMK AO2
14837KMSN MSN20011121144509411/21/01 14:45:31  5-MIN KMSN 212045Z 22005KT 10SM CLR 13/00 A2976 1020 40 1100 220/05 RMK AO2
14837KMSN MSN20011121145011711/21/01 14:50:31  5-MIN KMSN 212050Z 22004KT 10SM CLR 13/01 A2976 1010 41 1100 220/04 RMK AO2 SLP080 T01330006 55001
14837KMSN MSN20011121145509411/21/01 14:55:31  5-MIN KMSN 212055Z VRB06KT 10SM CLR 13/00 A2976 1010 40 1100 VRB/06 RMK AO2
14837KMSN MSN20011121150009411/21/01 15:00:31  5-MIN KMSN 212100Z 22004KT 10SM CLR 13/00 A2976 1010 40 1100 220/04 RMK AO2
14837KMSN MSN20011121150509411/21/01 15:05:31  5-MIN KMSN 212105Z 23004KT 10SM CLR 14/00 A2976 1010 38 1200 230/04 RMK AO2
14837KMSN MSN20011121151009411/21/01 15:10:31  5-MIN KMSN 212110Z 24003KT 10SM CLR 14/00 A2976 1010 38 1200 240/03 RMK AO2
14837KMSN MSN20011121151509411/21/01 15:15:31  5-MIN KMSN 212115Z VRB03KT 10SM CLR 14/00 A2976 1010 38 1200 VRB/03 RMK AO2
14837KMSN MSN20011121152009411/21/01 15:20:31  5-MIN KMSN 212120Z VRB03KT 10SM CLR 14/00 A2976 1010 38 1200 VRB/03 RMK AO2
14837KMSN MSN20011121152509411/21/01 15:25:31  5-MIN KMSN 212125Z VRB04KT 10SM CLR 13/01 A2976 1010 41 1100 VRB/04 RMK AO2
14837KMSN MSN20011121153009411/21/01 15:30:31  5-MIN KMSN 212130Z VRB03KT 10SM CLR 13/01 A2976 1010 41 1100 VRB/03 RMK AO2
14837KMSN MSN20011121153509411/21/01 15:35:31  5-MIN KMSN 212135Z 22007KT 10SM CLR 13/00 A2977 1010 40 1100 220/07 RMK AO2
14837KMSN MSN20011121154009411/21/01 15:40:31  5-MIN KMSN 212140Z 22005KT 10SM CLR 13/00 A2977 1010 40 1100 220/05 RMK AO2
14837KMSN MSN20011121154509411/21/01 15:45:31  5-MIN KMSN 212145Z 19003KT 10SM CLR 13/01 A2977 1010 43 1000 190/03 RMK AO2
14837KMSN MSN20011121155011111/21/01 15:50:31  5-MIN KMSN 212150Z 19005KT 10SM CLR 12/01 A2977 1010 46 1000 190/05 RMK AO2 SLP084 T01220011
14837KMSN MSN20011121155509411/21/01 15:55:31  5-MIN KMSN 212155Z 20005KT 10SM CLR 12/01 A2977 1010 46 1000 190/05 RMK AO2
14837KMSN MSN20011121160009411/21/01 16:00:31  5-MIN KMSN 212200Z 20004KT 10SM CLR 12/01 A2977 1010 46 1000 200/04 RMK AO2
14837KMSN MSN20011121160509411/21/01 16:05:31  5-MIN KMSN 212205Z 20004KT 10SM CLR 12/01 A2977 1000 44 1000 200/04 RMK AO2
14837KMSN MSN20011121161009311/21/01 16:10:31  5-MIN KMSN 212210Z 20005KT 10SM CLR 12/01 A2977 1000 44 900 200/05 RMK AO2
14837KMSN MSN20011121161509311/21/01 16:15:31  5-MIN KMSN 212215Z 20004KT 10SM CLR 12/01 A2977 1000 46 900 200/04 RMK AO2
14837KMSN MSN20011121162009311/21/01 16:20:31  5-MIN KMSN 212220Z 20005KT 10SM CLR 12/01 A2977 1000 46 900 200/05 RMK AO2
14837KMSN MSN20011121162509311/21/01 16:25:31  5-MIN KMSN 212225Z 20006KT 10SM CLR 12/01 A2977 1000 46 900 190/06 RMK AO2
14837KMSN MSN20011121163009311/21/01 16:30:31  5-MIN KMSN 212230Z 19005KT 10SM CLR 12/01 A2977 1000 46 900 190/05 RMK AO2
14837KMSN MSN20011121163509311/21/01 16:35:31  5-MIN KMSN 212235Z 20004KT 10SM CLR 12/01 A2977 1000 46 900 200/04 RMK AO2
14837KMSN MSN20011121164009311/21/01 16:40:31  5-MIN KMSN 212240Z 21003KT 10SM CLR 11/01 A2977 1000 48 800 210/03 RMK AO2
14837KMSN MSN20011121164509311/21/01 16:45:31  5-MIN KMSN 212245Z 22005KT 10SM CLR 11/01 A2977 1000 48 800 210/05 RMK AO2
14837KMSN MSN20011121165011011/21/01 16:50:31  5-MIN KMSN 212250Z 21003KT 10SM CLR 11/01 A2978 1000 50 700 210/03 RMK AO2 SLP087 T01060006
14837KMSN MSN20011121165509311/21/01 16:55:31  5-MIN KMSN 212255Z 19004KT 10SM CLR 11/01 A2978 1000 48 800 190/04 RMK AO2
14837KMSN MSN20011121170009211/21/01 17:00:31  5-MIN KMSN 212300Z 19004KT 10SM CLR 11/01 A2978 990 48 800 190/04 RMK AO2
14837KMSN MSN20011121170509211/21/01 17:05:31  5-MIN KMSN 212305Z 20004KT 10SM CLR 11/01 A2978 990 52 700 200/04 RMK AO2
14837KMSN MSN20011121171009211/21/01 17:10:31  5-MIN KMSN 212310Z 20005KT 10SM CLR 11/01 A2978 990 52 700 200/05 RMK AO2
14837KMSN MSN20011121171509211/21/01 17:15:31  5-MIN KMSN 212315Z 20005KT 10SM CLR 11/01 A2978 990 50 700 200/05 RMK AO2
14837KMSN MSN20011121172009211/21/01 17:20:31  5-MIN KMSN 212320Z 19004KT 10SM CLR 11/01 A2979 990 50 700 190/04 RMK AO2
14837KMSN MSN20011121172509211/21/01 17:25:31  5-MIN KMSN 212325Z 19005KT 10SM CLR 11/01 A2979 990 50 700 190/05 RMK AO2
14837KMSN MSN20011121173009211/21/01 17:30:31  5-MIN KMSN 212330Z 19004KT 10SM CLR 10/01 A2979 990 52 700 180/04 RMK AO2
14837KMSN MSN20011121173509211/21/01 17:35:31  5-MIN KMSN 212335Z 18004KT 10SM CLR 07/01 A2979 990 62 300 180/04 RMK AO2
14837KMSN MSN20011121174009211/21/01 17:40:31  5-MIN KMSN 212340Z 18004KT 10SM CLR 06/01 A2979 990 67 200 180/04 RMK AO2
14837KMSN MSN20011121174509211/21/01 17:45:31  5-MIN KMSN 212345Z 20005KT 10SM CLR 08/01 A2979 980 60 400 200/05 RMK AO2
14837KMSN MSN20011121175012711/21/01 17:50:31  5-MIN KMSN 212350Z 19004KT 10SM CLR 08/01 A2979 980 58 500 190/04 RMK AO2 SLP094 T00830006 10139 20061 56009
14837KMSN MSN20011121175509211/21/01 17:55:31  5-MIN KMSN 212355Z 18003KT 10SM CLR 08/01 A2979 980 58 500 180/03 RMK AO2
14837KMSN MSN20011121180009211/21/01 18:00:31  5-MIN KMSN 220000Z 18006KT 10SM CLR 08/01 A2980 980 60 400 180/06 RMK AO2
14837KMSN MSN20011121180509211/21/01 18:05:31  5-MIN KMSN 220005Z 18006KT 10SM CLR 09/01 A2980 980 58 500 180/06 RMK AO2
14837KMSN MSN20011121181009211/21/01 18:10:31  5-MIN KMSN 220010Z 18006KT 10SM CLR 09/01 A2980 980 58 500 180/06 RMK AO2
14837KMSN MSN20011121181509211/21/01 18:15:31  5-MIN KMSN 220015Z 18007KT 10SM CLR 09/01 A2980 980 56 600 180/07 RMK AO2
14837KMSN MSN20011121182009211/21/01 18:20:31  5-MIN KMSN 220020Z 18007KT 10SM CLR 09/02 A2980 980 60 500 180/07 RMK AO2
14837KMSN MSN20011121182509211/21/01 18:25:31  5-MIN KMSN 220025Z 18007KT 10SM CLR 09/02 A2980 980 60 500 180/07 RMK AO2
14837KMSN MSN20011121183009211/21/01 18:30:31  5-MIN KMSN 220030Z 18007KT 10SM CLR 09/02 A2980 980 60 500 180/07 RMK AO2
14837KMSN MSN20011121183509211/21/01 18:35:31  5-MIN KMSN 220035Z 18006KT 10SM CLR 08/01 A2980 980 60 500 180/06 RMK AO2
14837KMSN MSN20011121184009211/21/01 18:40:31  5-MIN KMSN 220040Z 18006KT 10SM CLR 07/01 A2979 980 65 300 180/06 RMK AO2
14837KMSN MSN20011121184509211/21/01 18:45:31  5-MIN KMSN 220045Z 18005KT 10SM CLR 07/01 A2980 980 67 300 180/05 RMK AO2
14837KMSN MSN20011121185010911/21/01 18:50:31  5-MIN KMSN 220050Z 19005KT 10SM CLR 08/01 A2980 980 62 400 190/05 RMK AO2 SLP095 T00780011
14837KMSN MSN20011121185509211/21/01 18:55:31  5-MIN KMSN 220055Z 19004KT 10SM CLR 07/01 A2980 980 65 300 190/04 RMK AO2
14837KMSN MSN20011121190009211/21/01 19:00:31  5-MIN KMSN 220100Z 19004KT 10SM CLR 07/01 A2980 980 65 300 190/04 RMK AO2
14837KMSN MSN20011121190509211/21/01 19:05:31  5-MIN KMSN 220105Z 19004KT 10SM CLR 07/01 A2980 980 67 200 180/04 RMK AO2
14837KMSN MSN20011121191009211/21/01 19:10:31  5-MIN KMSN 220110Z 18004KT 10SM CLR 06/01 A2980 980 70 200 180/04 RMK AO2
14837KMSN MSN20011121191509211/21/01 19:15:31  5-MIN KMSN 220115Z 18005KT 10SM CLR 06/01 A2980 970 73 100 180/05 RMK AO2
14837KMSN MSN20011121192009211/21/01 19:20:31  5-MIN KMSN 220120Z 18005KT 10SM CLR 06/01 A2980 970 73 100 180/05 RMK AO2
14837KMSN MSN20011121192509211/21/01 19:25:31  5-MIN KMSN 220125Z 18006KT 10SM CLR 06/01 A2980 970 70 200 180/06 RMK AO2
14837KMSN MSN20011121193009211/21/01 19:30:31  5-MIN KMSN 220130Z 18005KT 10SM CLR 06/01 A2980 970 70 200 180/05 RMK AO2
14837KMSN MSN20011121193509211/21/01 19:35:31  5-MIN KMSN 220135Z 18005KT 10SM CLR 06/01 A2980 970 73 100 180/05 RMK AO2
14837KMSN MSN20011121194009211/21/01 19:40:31  5-MIN KMSN 220140Z 18005KT 10SM CLR 06/01 A2980 970 70 200 180/05 RMK AO2
14837KMSN MSN20011121194509211/21/01 19:45:31  5-MIN KMSN 220145Z 18005KT 10SM CLR 06/01 A2980 970 73 100 180/05 RMK AO2
14837KMSN MSN20011121195010911/21/01 19:50:31  5-MIN KMSN 220150Z 18006KT 10SM CLR 06/01 A2980 970 70 200 180/06 RMK AO2 SLP098 T00610011
14837KMSN MSN20011121195509211/21/01 19:55:31  5-MIN KMSN 220155Z 19006KT 10SM CLR 07/01 A2980 970 65 300 190/06 RMK AO2
14837KMSN MSN20011121200009211/21/01 20:00:31  5-MIN KMSN 220200Z 19006KT 10SM CLR 08/01 A2980 970 62 400 190/06 RMK AO2
14837KMSN MSN20011121200509211/21/01 20:05:31  5-MIN KMSN 220205Z 19005KT 10SM CLR 08/01 A2980 970 62 400 190/05 RMK AO2
14837KMSN MSN20011121201009211/21/01 20:10:31  5-MIN KMSN 220210Z 19006KT 10SM CLR 08/01 A2980 970 62 400 190/06 RMK AO2
14837KMSN MSN20011121201509211/21/01 20:15:31  5-MIN KMSN 220215Z 20005KT 10SM CLR 07/01 A2980 970 65 300 200/05 RMK AO2
14837KMSN MSN20011121202009211/21/01 20:20:31  5-MIN KMSN 220220Z 19004KT 10SM CLR 08/01 A2980 970 62 400 190/04 RMK AO2
14837KMSN MSN20011121202509211/21/01 20:25:31  5-MIN KMSN 220225Z 19006KT 10SM CLR 07/01 A2980 970 65 300 190/06 RMK AO2
14837KMSN MSN20011121203009211/21/01 20:30:31  5-MIN KMSN 220230Z 19007KT 10SM CLR 07/01 A2980 970 65 300 190/07 RMK AO2
14837KMSN MSN20011121203509211/21/01 20:35:31  5-MIN KMSN 220235Z 19006KT 10SM CLR 08/01 A2980 970 62 400 190/06 RMK AO2
14837KMSN MSN20011121204009211/21/01 20:40:31  5-MIN KMSN 220240Z 19006KT 10SM CLR 07/01 A2980 970 65 300 190/06 RMK AO2
14837KMSN MSN20011121204509211/21/01 20:45:31  5-MIN KMSN 220245Z 20005KT 10SM CLR 08/01 A2981 970 62 400 200/05 RMK AO2
14837KMSN MSN20011121205011511/21/01 20:50:31  5-MIN KMSN 220250Z 20005KT 10SM CLR 08/01 A2981 970 62 400 200/05 RMK AO2 SLP099 T00780011 53012
14837KMSN MSN20011121205509211/21/01 20:55:31  5-MIN KMSN 220255Z 20005KT 10SM CLR 08/01 A2981 970 62 400 200/05 RMK AO2
14837KMSN MSN20011121210009211/21/01 21:00:31  5-MIN KMSN 220300Z 20006KT 10SM CLR 08/01 A2981 970 62 400 200/06 RMK AO2
14837KMSN MSN20011121210509211/21/01 21:05:31  5-MIN KMSN 220305Z 20005KT 10SM CLR 08/01 A2980 970 62 400 200/05 RMK AO2
14837KMSN MSN20011121211009211/21/01 21:10:31  5-MIN KMSN 220310Z 21005KT 10SM CLR 08/01 A2980 970 62 400 200/05 RMK AO2
14837KMSN MSN20011121211509211/21/01 21:15:31  5-MIN KMSN 220315Z 21005KT 10SM CLR 08/01 A2980 970 62 400 210/05 RMK AO2
14837KMSN MSN20011121212009211/21/01 21:20:31  5-MIN KMSN 220320Z 21004KT 10SM CLR 08/01 A2981 970 62 400 200/04 RMK AO2
14837KMSN MSN20011121212509211/21/01 21:25:31  5-MIN KMSN 220325Z 21004KT 10SM CLR 08/01 A2981 970 62 400 210/04 RMK AO2
14837KMSN MSN20011121213009211/21/01 21:30:31  5-MIN KMSN 220330Z 21004KT 10SM CLR 08/01 A2981 970 62 400 210/04 RMK AO2
14837KMSN MSN20011121213509211/21/01 21:35:31  5-MIN KMSN 220335Z 20004KT 10SM CLR 08/01 A2981 970 62 400 200/04 RMK AO2
14837KMSN MSN20011121214009211/21/01 21:40:31  5-MIN KMSN 220340Z 19004KT 10SM CLR 08/01 A2980 970 62 400 190/04 RMK AO2
14837KMSN MSN20011121214509211/21/01 21:45:31  5-MIN KMSN 220345Z 20004KT 10SM CLR 08/01 A2980 970 62 400 190/04 RMK AO2
14837KMSN MSN20011121215010911/21/01 21:50:31  5-MIN KMSN 220350Z 20004KT 10SM CLR 08/01 A2980 970 62 400 200/04 RMK AO2 SLP096 T00780011
14837KMSN MSN20011121215509211/21/01 21:55:31  5-MIN KMSN 220355Z 20003KT 10SM CLR 07/01 A2980 970 65 300 200/03 RMK AO2
14837KMSN MSN20011121220009211/21/01 22:00:31  5-MIN KMSN 220400Z 20003KT 10SM CLR 07/01 A2980 970 67 200 200/03 RMK AO2
14837KMSN MSN20011121220509211/21/01 22:05:31  5-MIN KMSN 220405Z 21003KT 10SM CLR 07/01 A2980 970 67 200 210/03 RMK AO2
14837KMSN MSN20011121221009211/21/01 22:10:31  5-MIN KMSN 220410Z 00000KT 10SM CLR 07/01 A2980 980 67 200 000/00 RMK AO2
14837KMSN MSN20011121221509211/21/01 22:15:31  5-MIN KMSN 220415Z 21003KT 10SM CLR 06/01 A2980 980 70 200 210/03 RMK AO2
14837KMSN MSN20011121222009211/21/01 22:20:31  5-MIN KMSN 220420Z 20003KT 10SM CLR 06/01 A2980 980 70 200 200/03 RMK AO2
14837KMSN MSN20011121222509211/21/01 22:25:31  5-MIN KMSN 220425Z 20004KT 10SM CLR 06/01 A2980 980 70 200 200/04 RMK AO2
14837KMSN MSN20011121223009211/21/01 22:30:31  5-MIN KMSN 220430Z 21004KT 10SM CLR 07/01 A2980 980 65 300 210/04 RMK AO2
14837KMSN MSN20011121223509211/21/01 22:35:31  5-MIN KMSN 220435Z 21003KT 10SM CLR 07/01 A2980 980 67 200 210/03 RMK AO2
14837KMSN MSN20011121224009211/21/01 22:40:31  5-MIN KMSN 220440Z 20004KT 10SM CLR 06/01 A2980 980 70 200 200/04 RMK AO2
14837KMSN MSN20011121224509011/21/01 22:45:31  5-MIN KMSN 220445Z 18003KT 10SM CLR 05/01 A2980 980 73 0 180/03 RMK AO2
14837KMSN MSN20011121225010711/21/01 22:50:31  5-MIN KMSN 220450Z 18003KT 10SM CLR 05/01 A2980 980 73 0 180/03 RMK AO2 SLP096 T00500006
14837KMSN MSN20011121225509011/21/01 22:55:31  5-MIN KMSN 220455Z 18004KT 10SM CLR 04/01 A2980 980 76 0 180/04 RMK AO2
14837KMSN MSN20011121230009011/21/01 23:00:31  5-MIN KMSN 220500Z 20004KT 10SM CLR 05/01 A2980 980 73 0 200/04 RMK AO2
14837KMSN MSN20011121230509211/21/01 23:05:31  5-MIN KMSN 220505Z 20003KT 10SM CLR 06/01 A2980 980 70 200 200/03 RMK AO2
14837KMSN MSN20011121231009211/21/01 23:10:31  5-MIN KMSN 220510Z 20003KT 10SM CLR 06/01 A2980 980 70 100 200/03 RMK AO2
14837KMSN MSN20011121231509211/21/01 23:15:31  5-MIN KMSN 220515Z 20004KT 10SM CLR 06/01 A2980 980 67 200 200/04 RMK AO2
14837KMSN MSN20011121232009211/21/01 23:20:31  5-MIN KMSN 220520Z 20004KT 10SM CLR 07/01 A2980 980 65 300 200/04 RMK AO2
14837KMSN MSN20011121232509211/21/01 23:25:31  5-MIN KMSN 220525Z 21004KT 10SM CLR 06/01 A2980 980 67 200 210/04 RMK AO2
14837KMSN MSN20011121233009211/21/01 23:30:31  5-MIN KMSN 220530Z 21003KT 10SM CLR 06/01 A2980 980 70 100 210/03 RMK AO2
14837KMSN MSN20011121233509211/21/01 23:35:31  5-MIN KMSN 220535Z 21004KT 10SM CLR 06/01 A2980 980 67 200 210/04 RMK AO2
14837KMSN MSN20011121234009211/21/01 23:40:31  5-MIN KMSN 220540Z 22004KT 10SM CLR 06/01 A2980 980 70 100 210/04 RMK AO2
14837KMSN MSN20011121234509211/21/01 23:45:31  5-MIN KMSN 220545Z 20004KT 10SM CLR 07/01 A2980 980 65 200 200/04 RMK AO2
14837KMSN MSN20011121235013711/21/01 23:50:31  5-MIN KMSN 220550Z 00000KT 10SM CLR 06/01 A2980 980 70 200 000/00 RMK AO2 SLP095 T00610011 10094 20044 401390022 53004
14837KMSN MSN20011121235509211/21/01 23:55:31  5-MIN KMSN 220555Z 17004KT 10SM CLR 06/01 A2980 980 70 200 170/04 RMK AO2
14837KMSN MSN20011122000009011/22/01 00:00:31  5-MIN KMSN 220600Z 18004KT 10SM CLR 05/01 A2980 980 73 0 180/04 RMK AO2
14837KMSN MSN20011122000509211/22/01 00:05:31  5-MIN KMSN 220605Z 18003KT 10SM CLR 06/01 A2980 980 70 100 180/03 RMK AO2
14837KMSN MSN20011122001009211/22/01 00:10:31  5-MIN KMSN 220610Z 17003KT 10SM CLR 06/01 A2980 980 73 100 170/03 RMK AO2
14837KMSN MSN20011122001509211/22/01 00:15:31  5-MIN KMSN 220615Z 16003KT 10SM CLR 06/01 A2980 980 70 100 160/03 RMK AO2
14837KMSN MSN20011122002009011/22/01 00:20:31  5-MIN KMSN 220620Z 15004KT 10SM CLR 05/01 A2980 980 73 0 150/04 RMK AO2
14837KMSN MSN20011122002509011/22/01 00:25:31  5-MIN KMSN 220625Z 17003KT 10SM CLR 04/01 A2980 980 76 0 170/03 RMK AO2
14837KMSN MSN20011122003009011/22/01 00:30:31  5-MIN KMSN 220630Z 16003KT 10SM CLR 05/01 A2980 980 73 0 160/03 RMK AO2
14837KMSN MSN20011122003509011/22/01 00:35:31  5-MIN KMSN 220635Z 00000KT 10SM CLR 04/01 A2980 980 79 0 000/00 RMK AO2
14837KMSN MSN20011122004009311/22/01 00:40:31  5-MIN KMSN 220640Z 00000KT 10SM CLR 03/00 A2980 980 79 -100 000/00 RMK AO2
14837KMSN MSN20011122004509311/22/01 00:45:31  5-MIN KMSN 220645Z 19003KT 10SM CLR 03/00 A2980 980 82 -200 190/03 RMK AO2
14837KMSN MSN20011122005011011/22/01 00:50:31  5-MIN KMSN 220650Z 19004KT 10SM CLR 03/00 A2979 980 82 -200 190/04 RMK AO2 SLP093 T00280000
14837KMSN MSN20011122005509311/22/01 00:55:31  5-MIN KMSN 220655Z 18005KT 10SM CLR 03/00 A2979 980 79 -100 180/05 RMK AO2
14837KMSN MSN20011122010009011/22/01 01:00:31  5-MIN KMSN 220700Z 18005KT 10SM CLR 04/01 A2979 980 76 0 180/05 RMK AO2
14837KMSN MSN20011122010509011/22/01 01:05:31  5-MIN KMSN 220705Z 17005KT 10SM CLR 04/01 A2979 980 76 0 170/05 RMK AO2
14837KMSN MSN20011122011009011/22/01 01:10:31  5-MIN KMSN 220710Z 17005KT 10SM CLR 04/01 A2979 980 76 0 160/05 RMK AO2
14837KMSN MSN20011122011509011/22/01 01:15:31  5-MIN KMSN 220715Z 16005KT 10SM CLR 04/01 A2979 990 79 0 160/05 RMK AO2
14837KMSN MSN20011122012009011/22/01 01:20:31  5-MIN KMSN 220720Z 16004KT 10SM CLR 04/01 A2979 990 76 0 150/04 RMK AO2
14837KMSN MSN20011122012509011/22/01 01:25:31  5-MIN KMSN 220725Z 16004KT 10SM CLR 04/01 A2979 980 76 0 160/04 RMK AO2
14837KMSN MSN20011122013009011/22/01 01:30:31  5-MIN KMSN 220730Z 17003KT 10SM CLR 04/01 A2979 990 76 0 170/03 RMK AO2
14837KMSN MSN20011122013509011/22/01 01:35:31  5-MIN KMSN 220735Z 17004KT 10SM CLR 04/01 A2979 990 79 0 170/04 RMK AO2
14837KMSN MSN20011122014009011/22/01 01:40:31  5-MIN KMSN 220740Z 17005KT 10SM CLR 04/01 A2979 990 79 0 170/05 RMK AO2
14837KMSN MSN20011122014509011/22/01 01:45:31  5-MIN KMSN 220745Z 18004KT 10SM CLR 04/01 A2979 990 79 0 180/04 RMK AO2
14837KMSN MSN20011122015010711/22/01 01:50:31  5-MIN KMSN 220750Z 18004KT 10SM CLR 04/01 A2979 990 79 0 180/04 RMK AO2 SLP091 T00440011
14837KMSN MSN20011122015509011/22/01 01:55:31  5-MIN KMSN 220755Z 17005KT 10SM CLR 04/01 A2979 990 79 0 170/05 RMK AO2
14837KMSN MSN20011122020009011/22/01 02:00:31  5-MIN KMSN 220800Z 17005KT 10SM CLR 04/01 A2979 990 76 0 170/05 RMK AO2
14837KMSN MSN20011122020509011/22/01 02:05:31  5-MIN KMSN 220805Z 17006KT 10SM CLR 04/01 A2979 990 79 0 170/06 RMK AO2
14837KMSN MSN20011122021009011/22/01 02:10:31  5-MIN KMSN 220810Z 17007KT 10SM CLR 04/01 A2979 990 79 0 170/07 RMK AO2
14837KMSN MSN20011122021509011/22/01 02:15:31  5-MIN KMSN 220815Z 18006KT 10SM CLR 04/01 A2979 990 79 0 180/06 RMK AO2
14837KMSN MSN20011122022009011/22/01 02:20:31  5-MIN KMSN 220820Z 18006KT 10SM CLR 04/01 A2979 990 79 0 180/06 RMK AO2
14837KMSN MSN20011122022509011/22/01 02:25:31  5-MIN KMSN 220825Z 17006KT 10SM CLR 04/01 A2979 980 79 0 170/06 RMK AO2
14837KMSN MSN20011122023009011/22/01 02:30:31  5-MIN KMSN 220830Z 18006KT 10SM CLR 04/01 A2979 980 79 0 180/06 RMK AO2
14837KMSN MSN20011122023509011/22/01 02:35:31  5-MIN KMSN 220835Z 17005KT 10SM CLR 04/01 A2979 980 79 0 170/05 RMK AO2
14837KMSN MSN20011122024009011/22/01 02:40:31  5-MIN KMSN 220840Z 16005KT 10SM CLR 04/01 A2979 980 79 0 160/05 RMK AO2
14837KMSN MSN20011122024509011/22/01 02:45:31  5-MIN KMSN 220845Z 16005KT 10SM CLR 04/01 A2979 980 79 0 160/05 RMK AO2
14837KMSN MSN20011122025011311/22/01 02:50:31  5-MIN KMSN 220850Z 16004KT 10SM CLR 04/01 A2979 990 79 0 160/04 RMK AO2 SLP091 T00390006 56003
14837KMSN MSN20011122025509011/22/01 02:55:31  5-MIN KMSN 220855Z 17004KT 10SM CLR 04/01 A2979 990 79 0 160/04 RMK AO2
14837KMSN MSN20011122030009011/22/01 03:00:31  5-MIN KMSN 220900Z 16004KT 10SM CLR 04/01 A2978 990 76 0 160/04 RMK AO2
14837KMSN MSN20011122030509011/22/01 03:05:31  5-MIN KMSN 220905Z 16003KT 10SM CLR 04/01 A2978 990 76 0 160/03 RMK AO2
14837KMSN MSN20011122031009011/22/01 03:10:31  5-MIN KMSN 220910Z 00000KT 10SM CLR 04/01 A2978 990 79 0 000/00 RMK AO2
14837KMSN MSN20011122031509011/22/01 03:15:31  5-MIN KMSN 220915Z 00000KT 10SM CLR 04/01 A2978 990 79 0 000/00 RMK AO2
14837KMSN MSN20011122032009011/22/01 03:20:31  5-MIN KMSN 220920Z 00000KT 10SM CLR 04/01 A2978 990 79 0 000/00 RMK AO2
14837KMSN MSN20011122032509011/22/01 03:25:31  5-MIN KMSN 220925Z 00000KT 10SM CLR 04/01 A2978 990 79 0 000/00 RMK AO2
14837KMSN MSN20011122033009011/22/01 03:30:31  5-MIN KMSN 220930Z 15004KT 10SM CLR 04/01 A2978 990 79 0 150/04 RMK AO2
14837KMSN MSN20011122033509011/22/01 03:35:31  5-MIN KMSN 220935Z 16003KT 10SM CLR 04/01 A2978 990 79 0 160/03 RMK AO2
14837KMSN MSN20011122034009111/22/01 03:40:31  5-MIN KMSN 220940Z 16004KT 10SM CLR 04/01 A2978 1000 79 0 160/04 RMK AO2
14837KMSN MSN20011122034509111/22/01 03:45:31  5-MIN KMSN 220945Z 16005KT 10SM CLR 04/01 A2978 1000 82 0 160/05 RMK AO2
14837KMSN MSN20011122035010711/22/01 03:50:31  5-MIN KMSN 220950Z 17005KT 10SM CLR 04/01 A2978 990 82 0 170/05 RMK AO2 SLP089 T00390011
14837KMSN MSN20011122035509011/22/01 03:55:31  5-MIN KMSN 220955Z 18004KT 10SM CLR 04/01 A2978 990 79 0 180/04 RMK AO2
14837KMSN MSN20011122040009011/22/01 04:00:31  5-MIN KMSN 221000Z 17004KT 10SM CLR 04/01 A2978 990 79 0 170/04 RMK AO2
14837KMSN MSN20011122040509011/22/01 04:05:31  5-MIN KMSN 221005Z 17005KT 10SM CLR 04/01 A2978 990 82 0 170/05 RMK AO2
14837KMSN MSN20011122041009311/22/01 04:10:31  5-MIN KMSN 221010Z 16005KT 10SM CLR 03/01 A2978 990 85 -100 160/05 RMK AO2
14837KMSN MSN20011122041509011/22/01 04:15:31  5-MIN KMSN 221015Z 15004KT 10SM CLR 04/01 A2978 990 82 0 150/04 RMK AO2
14837KMSN MSN20011122042009011/22/01 04:20:31  5-MIN KMSN 221020Z 16004KT 10SM CLR 04/01 A2978 990 82 0 160/04 RMK AO2
14837KMSN MSN20011122042509011/22/01 04:25:31  5-MIN KMSN 221025Z 16004KT 10SM CLR 04/01 A2979 990 79 0 160/04 RMK AO2
14837KMSN MSN20011122043009011/22/01 04:30:31  5-MIN KMSN 221030Z 16004KT 10SM CLR 04/01 A2979 990 82 0 160/04 RMK AO2
14837KMSN MSN20011122043509311/22/01 04:35:31  5-MIN KMSN 221035Z 17005KT 10SM CLR 03/01 A2979 990 85 -200 170/05 RMK AO2
14837KMSN MSN20011122044009311/22/01 04:40:31  5-MIN KMSN 221040Z 17005KT 10SM CLR 03/01 A2979 990 85 -200 170/05 RMK AO2
14837KMSN MSN20011122044509311/22/01 04:45:31  5-MIN KMSN 221045Z 16006KT 10SM CLR 02/01 A2978 990 89 -200 160/06 RMK AO2
14837KMSN MSN20011122045011011/22/01 04:50:31  5-MIN KMSN 221050Z 17006KT 10SM CLR 02/01 A2979 990 89 -200 170/06 RMK AO2 SLP092 T00220006
14837KMSN MSN20011122045509311/22/01 04:55:31  5-MIN KMSN 221055Z 18005KT 10SM CLR 03/01 A2979 990 85 -100 180/05 RMK AO2
14837KMSN MSN20011122050009311/22/01 05:00:31  5-MIN KMSN 221100Z 19004KT 10SM CLR 03/01 A2979 980 85 -100 190/04 RMK AO2
14837KMSN MSN20011122050509311/22/01 05:05:31  5-MIN KMSN 221105Z 17005KT 10SM CLR 03/01 A2979 990 85 -100 170/05 RMK AO2
14837KMSN MSN20011122051009311/22/01 05:10:31  5-MIN KMSN 221110Z 17006KT 10SM CLR 03/01 A2979 990 89 -200 170/06 RMK AO2
14837KMSN MSN20011122051509311/22/01 05:15:31  5-MIN KMSN 221115Z 16006KT 10SM CLR 02/01 A2979 990 89 -200 160/06 RMK AO2
14837KMSN MSN20011122052009311/22/01 05:20:31  5-MIN KMSN 221120Z 18004KT 10SM CLR 03/01 A2979 990 89 -200 180/04 RMK AO2
14837KMSN MSN20011122052509311/22/01 05:25:31  5-MIN KMSN 221125Z 18005KT 10SM CLR 03/01 A2979 990 85 -100 170/05 RMK AO2
14837KMSN MSN20011122053009311/22/01 05:30:31  5-MIN KMSN 221130Z 17004KT 10SM CLR 03/01 A2978 990 85 -100 170/04 RMK AO2
14837KMSN MSN20011122053509011/22/01 05:35:31  5-MIN KMSN 221135Z 17005KT 10SM CLR 04/01 A2978 990 82 0 170/05 RMK AO2
14837KMSN MSN20011122054009011/22/01 05:40:31  5-MIN KMSN 221140Z VRB03KT 10SM CLR 04/01 A2978 990 82 0 VRB/03 RMK AO2
14837KMSN MSN20011122054509011/22/01 05:45:31  5-MIN KMSN 221145Z 20004KT 10SM CLR 04/01 A2979 990 82 0 200/04 RMK AO2
14837KMSN MSN20011122055012511/22/01 05:50:31  5-MIN KMSN 221150Z 19006KT 10SM CLR 04/02 A2979 990 82 0 190/06 RMK AO2 SLP093 T00440017 10061 20022 56003
14837KMSN MSN20011122055509011/22/01 05:55:31  5-MIN KMSN 221155Z 19005KT 10SM CLR 04/02 A2979 990 82 0 180/05 RMK AO2
14837KMSN MSN20011122060009011/22/01 06:00:31  5-MIN KMSN 221200Z 18006KT 10SM CLR 04/01 A2978 990 82 0 180/06 RMK AO2
14837KMSN MSN20011122060509011/22/01 06:05:31  5-MIN KMSN 221205Z 18006KT 10SM CLR 04/02 A2979 990 85 0 180/06 RMK AO2
14837KMSN MSN20011122061009311/22/01 06:10:31  5-MIN KMSN 221210Z 17006KT 10SM CLR 03/01 A2978 990 85 -100 170/06 RMK AO2
14837KMSN MSN20011122061509311/22/01 06:15:31  5-MIN KMSN 221215Z 17005KT 10SM CLR 03/01 A2978 990 85 -100 170/05 RMK AO2
14837KMSN MSN20011122062009311/22/01 06:20:31  5-MIN KMSN 221220Z 17004KT 10SM CLR 03/01 A2978 990 85 -100 170/04 RMK AO2
14837KMSN MSN20011122062509311/22/01 06:25:31  5-MIN KMSN 221225Z 18004KT 10SM CLR 03/01 A2978 990 85 -100 180/04 RMK AO2
14837KMSN MSN20011122063009311/22/01 06:30:31  5-MIN KMSN 221230Z 18005KT 10SM CLR 03/01 A2978 990 89 -200 180/05 RMK AO2
14837KMSN MSN20011122063509311/22/01 06:35:31  5-MIN KMSN 221235Z 18006KT 10SM CLR 03/01 A2978 990 85 -100 180/06 RMK AO2
14837KMSN MSN20011122064009311/22/01 06:40:31  5-MIN KMSN 221240Z 18006KT 10SM CLR 03/01 A2978 990 85 -100 180/06 RMK AO2
14837KMSN MSN20011122064509311/22/01 06:45:31  5-MIN KMSN 221245Z 18006KT 10SM CLR 03/01 A2978 990 85 -100 180/06 RMK AO2
14837KMSN MSN20011122065011311/22/01 06:50:31  5-MIN KMSN 221250Z 18006KT 10SM FEW050 03/01 A2978 990 85 -100 180/06 RMK AO2 SLP091 T00330011
14837KMSN MSN20011122065509311/22/01 06:55:31  5-MIN KMSN 221255Z 18006KT 10SM CLR 03/01 A2978 990 85 -100 180/06 RMK AO2
14837KMSN MSN20011122070009311/22/01 07:00:31  5-MIN KMSN 221300Z 17007KT 10SM CLR 03/01 A2978 990 85 -100 170/07 RMK AO2
14837KMSN MSN20011122070509311/22/01 07:05:31  5-MIN KMSN 221305Z 17005KT 10SM CLR 03/01 A2978 990 85 -100 170/05 RMK AO2
14837KMSN MSN20011122071009311/22/01 07:10:31  5-MIN KMSN 221310Z 17004KT 10SM CLR 03/01 A2978 990 89 -200 170/04 RMK AO2
14837KMSN MSN20011122071509311/22/01 07:15:31  5-MIN KMSN 221315Z 17004KT 10SM CLR 03/01 A2978 990 85 -100 170/04 RMK AO2
14837KMSN MSN20011122072009311/22/01 07:20:31  5-MIN KMSN 221320Z 17004KT 10SM CLR 03/01 A2978 990 85 -100 170/04 RMK AO2
14837KMSN MSN20011122072509311/22/01 07:25:31  5-MIN KMSN 221325Z 00000KT 10SM CLR 03/01 A2978 990 89 -200 000/00 RMK AO2
14837KMSN MSN20011122073009411/22/01 07:30:31  5-MIN KMSN 221330Z 15004KT 10SM CLR 03/01 A2978 1000 89 -200 150/04 RMK AO2
14837KMSN MSN20011122073509411/22/01 07:35:31  5-MIN KMSN 221335Z 16003KT 10SM CLR 03/01 A2978 1000 89 -200 160/03 RMK AO2
14837KMSN MSN20011122074009411/22/01 07:40:31  5-MIN KMSN 221340Z 00000KT 10SM CLR 03/01 A2978 1000 85 -100 000/00 RMK AO2
14837KMSN MSN20011122074509411/22/01 07:45:31  5-MIN KMSN 221345Z 17006KT 10SM CLR 03/01 A2977 1000 85 -100 170/06 RMK AO2
14837KMSN MSN20011122075010811/22/01 07:50:31  5-MIN KMSN 221350Z 18004KT 10SM CLR 04/02 A2978 1000 85 0 180/04 RMK AO2 SLP089 T00390017
14837KMSN MSN20011122075509111/22/01 07:55:31  5-MIN KMSN 221355Z 18004KT 10SM CLR 04/02 A2977 1000 82 0 180/04 RMK AO2
14837KMSN MSN20011122080009111/22/01 08:00:31  5-MIN KMSN 221400Z 18005KT 10SM CLR 04/02 A2977 1000 82 0 180/05 RMK AO2
14837KMSN MSN20011122080509111/22/01 08:05:31  5-MIN KMSN 221405Z 17006KT 10SM CLR 04/02 A2977 1000 82 0 170/06 RMK AO2
14837KMSN MSN20011122081009111/22/01 08:10:31  5-MIN KMSN 221410Z 17008KT 10SM CLR 04/02 A2977 1000 85 0 170/08 RMK AO2
14837KMSN MSN20011122081509311/22/01 08:15:31  5-MIN KMSN 221415Z 18007KT 10SM CLR 05/02 A2977 1000 82 100 180/07 RMK AO2
14837KMSN MSN20011122082009311/22/01 08:20:31  5-MIN KMSN 221420Z 18007KT 10SM CLR 05/02 A2977 1000 82 100 180/07 RMK AO2
14837KMSN MSN20011122082509311/22/01 08:25:31  5-MIN KMSN 221425Z 18008KT 10SM CLR 05/02 A2977 1000 82 100 180/08 RMK AO2
14837KMSN MSN20011122083009311/22/01 08:30:31  5-MIN KMSN 221430Z 17008KT 10SM CLR 06/02 A2977 1010 79 100 170/08 RMK AO2
14837KMSN MSN20011122083509311/22/01 08:35:31  5-MIN KMSN 221435Z 17008KT 10SM CLR 06/02 A2977 1010 79 200 170/08 RMK AO2
14837KMSN MSN20011122084009311/22/01 08:40:31  5-MIN KMSN 221440Z 17010KT 10SM CLR 06/02 A2976 1010 79 200 170/10 RMK AO2
14837KMSN MSN20011122084509311/22/01 08:45:31  5-MIN KMSN 221445Z 17010KT 10SM CLR 06/02 A2976 1010 79 200 170/10 RMK AO2
14837KMSN MSN20011122085011611/22/01 08:50:31  5-MIN KMSN 221450Z 17010KT 10SM CLR 06/02 A2976 1010 79 200 170/10 RMK AO2 SLP083 T00560022 55000
14837KMSN MSN20011122085509311/22/01 08:55:31  5-MIN KMSN 221455Z 17010KT 10SM CLR 06/02 A2976 1010 76 200 170/10 RMK AO2
14837KMSN MSN20011122090009311/22/01 09:00:31  5-MIN KMSN 221500Z 17011KT 10SM CLR 06/02 A2976 1010 76 200 170/11 RMK AO2
14837KMSN MSN20011122090509311/22/01 09:05:31  5-MIN KMSN 221505Z 17013KT 10SM CLR 06/02 A2976 1010 76 200 170/13 RMK AO2
14837KMSN MSN20011122091009311/22/01 09:10:31  5-MIN KMSN 221510Z 17011KT 10SM CLR 06/02 A2976 1010 76 200 170/11 RMK AO2
14837KMSN MSN20011122091509311/22/01 09:15:31  5-MIN KMSN 221515Z 17013KT 10SM CLR 07/02 A2976 1010 70 300 170/13 RMK AO2
14837KMSN MSN20011122092009311/22/01 09:20:31  5-MIN KMSN 221520Z 17012KT 10SM CLR 07/02 A2976 1020 70 300 170/12 RMK AO2
14837KMSN MSN20011122092509311/22/01 09:25:31  5-MIN KMSN 221525Z 17012KT 10SM CLR 07/02 A2976 1020 70 300 170/12 RMK AO2
14837KMSN MSN20011122093009311/22/01 09:30:31  5-MIN KMSN 221530Z 17013KT 10SM CLR 07/02 A2976 1020 70 300 170/13 RMK AO2
14837KMSN MSN20011122093509311/22/01 09:35:31  5-MIN KMSN 221535Z 18012KT 10SM CLR 07/02 A2976 1020 70 300 180/12 RMK AO2
14837KMSN MSN20011122094009311/22/01 09:40:31  5-MIN KMSN 221540Z 18013KT 10SM CLR 07/02 A2976 1020 68 400 180/13 RMK AO2
14837KMSN MSN20011122094509311/22/01 09:45:31  5-MIN KMSN 221545Z 18011KT 10SM CLR 07/02 A2975 1020 68 400 180/11 RMK AO2
14837KMSN MSN20011122095011011/22/01 09:50:31  5-MIN KMSN 221550Z 17013KT 10SM CLR 07/02 A2975 1020 68 400 170/13 RMK AO2 SLP079 T00720017
14837KMSN MSN20011122095509311/22/01 09:55:31  5-MIN KMSN 221555Z 18013KT 10SM CLR 07/02 A2975 1020 68 400 170/13 RMK AO2
14837KMSN MSN20011122100009311/22/01 10:00:31  5-MIN KMSN 221600Z 18013KT 10SM CLR 07/02 A2975 1020 68 400 170/13 RMK AO2
14837KMSN MSN20011122100509311/22/01 10:05:31  5-MIN KMSN 221605Z 18013KT 10SM CLR 07/01 A2976 1020 65 400 170/13 RMK AO2
14837KMSN MSN20011122101009311/22/01 10:10:31  5-MIN KMSN 221610Z 19013KT 10SM CLR 07/02 A2976 1010 68 400 190/13 RMK AO2
14837KMSN MSN20011122101509311/22/01 10:15:31  5-MIN KMSN 221615Z 18010KT 10SM CLR 07/01 A2976 1010 65 400 180/10 RMK AO2
14837KMSN MSN20011122102009311/22/01 10:20:31  5-MIN KMSN 221620Z 18010KT 10SM CLR 08/02 A2976 1010 65 400 180/10 RMK AO2
14837KMSN MSN20011122102509311/22/01 10:25:31  5-MIN KMSN 221625Z 19011KT 10SM CLR 08/01 A2976 1020 62 400 190/11 RMK AO2
14837KMSN MSN20011122103009311/22/01 10:30:31  5-MIN KMSN 221630Z 18010KT 10SM CLR 08/01 A2975 1020 62 400 180/10 RMK AO2
14837KMSN MSN20011122103509311/22/01 10:35:31  5-MIN KMSN 221635Z 19013KT 10SM CLR 08/01 A2975 1020 62 400 190/13 RMK AO2
14837KMSN MSN20011122104009311/22/01 10:40:31  5-MIN KMSN 221640Z 19013KT 10SM CLR 08/01 A2975 1020 60 500 180/13 RMK AO2
14837KMSN MSN20011122104509311/22/01 10:45:31  5-MIN KMSN 221645Z 19011KT 10SM CLR 08/01 A2975 1020 60 500 180/11 RMK AO2
14837KMSN MSN20011122105011011/22/01 10:50:31  5-MIN KMSN 221650Z 19011KT 10SM CLR 09/01 A2975 1030 58 600 190/11 RMK AO2 SLP077 T00890011
14837KMSN MSN20011122105509311/22/01 10:55:31  5-MIN KMSN 221655Z 18011KT 10SM CLR 09/01 A2974 1030 58 600 180/11 RMK AO2
14837KMSN MSN20011122110009311/22/01 11:00:31  5-MIN KMSN 221700Z 19011KT 10SM CLR 09/01 A2974 1030 58 600 190/11 RMK AO2
14837KMSN MSN20011122110509311/22/01 11:05:31  5-MIN KMSN 221705Z 17010KT 10SM CLR 09/01 A2974 1030 58 600 170/10 RMK AO2
14837KMSN MSN20011122111009311/22/01 11:10:31  5-MIN KMSN 221710Z 18011KT 10SM CLR 09/01 A2974 1030 58 600 180/11 RMK AO2
14837KMSN MSN20011122111509311/22/01 11:15:31  5-MIN KMSN 221715Z 17010KT 10SM CLR 09/01 A2974 1040 58 600 170/10 RMK AO2
14837KMSN MSN20011122112009311/22/01 11:20:31  5-MIN KMSN 221720Z 17012KT 10SM CLR 09/01 A2973 1040 56 700 170/12 RMK AO2
14837KMSN MSN20011122112509311/22/01 11:25:31  5-MIN KMSN 221725Z 18011KT 10SM CLR 09/01 A2973 1040 56 700 180/11 RMK AO2
14837KMSN MSN20011122113009311/22/01 11:30:31  5-MIN KMSN 221730Z 18011KT 10SM CLR 09/01 A2973 1040 56 700 180/11 RMK AO2
14837KMSN MSN20011122113509311/22/01 11:35:31  5-MIN KMSN 221735Z 18011KT 10SM CLR 10/01 A2972 1050 54 700 180/11 RMK AO2
14837KMSN MSN20011122114009911/22/01 11:40:31  5-MIN KMSN 221740Z 18010G17KT 10SM CLR 10/01 A2972 1050 54 700 180/10G17 RMK AO2
14837KMSN MSN20011122114509311/22/01 11:45:31  5-MIN KMSN 221745Z 18014KT 10SM CLR 10/01 A2971 1060 54 700 180/14 RMK AO2
14837KMSN MSN20011122115012811/22/01 11:50:31  5-MIN KMSN 221750Z 18011KT 10SM CLR 11/01 A2971 1060 52 800 180/11 RMK AO2 SLP064 T01060011 10106 20028 58008
14837KMSN MSN20011122115509311/22/01 11:55:31  5-MIN KMSN 221755Z 18012KT 10SM CLR 11/01 A2971 1060 52 800 180/12 RMK AO2
14837KMSN MSN20011122120009311/22/01 12:00:31  5-MIN KMSN 221800Z 17014KT 10SM CLR 11/02 A2971 1060 54 800 170/14 RMK AO2
14837KMSN MSN20011122120509911/22/01 12:05:31  5-MIN KMSN 221805Z 18011G19KT 10SM CLR 11/01 A2970 1070 52 800 170/11G19 RMK AO2
14837KMSN MSN20011122121009911/22/01 12:10:31  5-MIN KMSN 221810Z 17013G19KT 10SM CLR 11/01 A2970 1070 52 800 170/13G19 RMK AO2
14837KMSN MSN20011122121509311/22/01 12:15:31  5-MIN KMSN 221815Z 17013KT 10SM CLR 11/01 A2970 1070 52 800 170/13 RMK AO2
14837KMSN MSN20011122122009311/22/01 12:20:31  5-MIN KMSN 221820Z 17014KT 10SM CLR 11/02 A2970 1070 52 900 170/14 RMK AO2
14837KMSN MSN20011122122509311/22/01 12:25:31  5-MIN KMSN 221825Z 16015KT 10SM CLR 11/02 A2970 1070 52 900 160/15 RMK AO2
14837KMSN MSN20011122123009311/22/01 12:30:31  5-MIN KMSN 221830Z 17014KT 10SM CLR 11/01 A2970 1070 50 900 170/14 RMK AO2
14837KMSN MSN20011122123509911/22/01 12:35:31  5-MIN KMSN 221835Z 18013G20KT 10SM CLR 11/01 A2970 1070 50 900 180/13G20 RMK AO2
14837KMSN MSN20011122124009911/22/01 12:40:31  5-MIN KMSN 221840Z 17012G20KT 10SM CLR 11/01 A2969 1070 50 900 170/12G20 RMK AO2
14837KMSN MSN20011122124509311/22/01 12:45:31  5-MIN KMSN 221845Z 18012KT 10SM CLR 11/01 A2970 1070 50 800 180/12 RMK AO2
14837KMSN MSN20011122125011011/22/01 12:50:31  5-MIN KMSN 221850Z 17013KT 10SM CLR 11/01 A2969 1080 52 800 170/13 RMK AO2 SLP060 T01060011
14837KMSN MSN20011122125509311/22/01 12:55:31  5-MIN KMSN 221855Z 18013KT 10SM CLR 11/01 A2969 1080 50 800 180/13 RMK AO2
14837KMSN MSN20011122130009311/22/01 13:00:31  5-MIN KMSN 221900Z 18014KT 10SM CLR 11/01 A2969 1080 50 800 180/14 RMK AO2
14837KMSN MSN20011122130509311/22/01 13:05:31  5-MIN KMSN 221905Z 19013KT 10SM CLR 11/01 A2969 1080 52 800 180/13 RMK AO2
14837KMSN MSN20011122131009311/22/01 13:10:31  5-MIN KMSN 221910Z 19011KT 10SM CLR 11/01 A2969 1080 50 800 180/11 RMK AO2
14837KMSN MSN20011122131509311/22/01 13:15:31  5-MIN KMSN 221915Z 18012KT 10SM CLR 11/01 A2969 1080 52 800 180/12 RMK AO2
14837KMSN MSN20011122132009911/22/01 13:20:31  5-MIN KMSN 221920Z 18009G17KT 10SM CLR 11/01 A2969 1080 52 800 180/09G17 RMK AO2
14837KMSN MSN20011122132509911/22/01 13:25:31  5-MIN KMSN 221925Z 17014G17KT 10SM CLR 11/01 A2969 1080 52 800 170/14G17 RMK AO2
14837KMSN MSN20011122133009311/22/01 13:30:31  5-MIN KMSN 221930Z 18013KT 10SM CLR 11/01 A2969 1080 52 800 180/13 RMK AO2
14837KMSN MSN20011122133509311/22/01 13:35:31  5-MIN KMSN 221935Z 18014KT 10SM CLR 11/01 A2968 1080 52 800 180/14 RMK AO2
14837KMSN MSN20011122134009911/22/01 13:40:31  5-MIN KMSN 221940Z 17014G19KT 10SM CLR 11/01 A2968 1090 50 900 170/14G19 RMK AO2
14837KMSN MSN20011122134509311/22/01 13:45:31  5-MIN KMSN 221945Z 18011KT 10SM CLR 11/02 A2968 1090 54 900 170/11 RMK AO2
14837KMSN MSN20011122135011011/22/01 13:50:31  5-MIN KMSN 221950Z 17013KT 10SM CLR 11/01 A2967 1090 52 900 170/13 RMK AO2 SLP052 T01060011
14837KMSN MSN20011122135509311/22/01 13:55:31  5-MIN KMSN 221955Z 17014KT 10SM CLR 11/02 A2967 1090 52 900 160/14 RMK AO2
14837KMSN MSN20011122140009411/22/01 14:00:31  5-MIN KMSN 222000Z 17012KT 10SM CLR 12/02 A2967 1090 50 1000 170/12 RMK AO2
14837KMSN MSN20011122140509411/22/01 14:05:31  5-MIN KMSN 222005Z 18012KT 10SM CLR 12/02 A2967 1090 50 1000 180/12 RMK AO2
14837KMSN MSN20011122141009911/22/01 14:10:31  5-MIN KMSN 222010Z 17014G18KT 10SM CLR 11/01 A2967 1090 50 900 170/14G18 RMK AO2
14837KMSN MSN20011122141509311/22/01 14:15:31  5-MIN KMSN 222015Z 17013KT 10SM CLR 11/01 A2967 1090 50 900 170/13 RMK AO2
14837KMSN MSN20011122142009311/22/01 14:20:31  5-MIN KMSN 222020Z 18013KT 10SM CLR 11/01 A2967 1090 50 900 170/13 RMK AO2
14837KMSN MSN20011122142509411/22/01 14:25:31  5-MIN KMSN 222025Z 18013KT 10SM CLR 12/01 A2967 1100 48 1000 180/13 RMK AO2
14837KMSN MSN20011122143009411/22/01 14:30:31  5-MIN KMSN 222030Z 17012KT 10SM CLR 12/01 A2967 1100 48 1000 170/12 RMK AO2
14837KMSN MSN20011122143509411/22/01 14:35:31  5-MIN KMSN 222035Z 18014KT 10SM CLR 12/02 A2967 1100 50 1000 180/14 RMK AO2
14837KMSN MSN20011122144010011/22/01 14:40:31  5-MIN KMSN 222040Z 18012G19KT 10SM CLR 12/02 A2967 1100 50 1000 180/12G19 RMK AO2
14837KMSN MSN20011122144510011/22/01 14:45:31  5-MIN KMSN 222045Z 18012G19KT 10SM CLR 12/01 A2967 1100 48 1000 180/12G19 RMK AO2
14837KMSN MSN20011122145011711/22/01 14:50:31  5-MIN KMSN 222050Z 18013KT 10SM CLR 12/01 A2967 1100 48 1000 180/13 RMK AO2 SLP052 T01170011 58018
14837KMSN MSN20011122145509411/22/01 14:55:31  5-MIN KMSN 222055Z 18010KT 10SM CLR 12/01 A2967 1100 48 1000 180/10 RMK AO2
14837KMSN MSN20011122150010011/22/01 15:00:31  5-MIN KMSN 222100Z 18013G19KT 10SM CLR 12/01 A2967 1100 48 1000 180/13G19 RMK AO2
14837KMSN MSN20011122150510011/22/01 15:05:31  5-MIN KMSN 222105Z 18015G22KT 10SM CLR 12/01 A2967 1100 48 1000 170/15G22 RMK AO2
14837KMSN MSN20011122151010011/22/01 15:10:31  5-MIN KMSN 222110Z 18014G22KT 10SM CLR 12/01 A2967 1090 48 1000 180/14G22 RMK AO2
14837KMSN MSN20011122151510011/22/01 15:15:31  5-MIN KMSN 222115Z 18016G22KT 10SM CLR 12/01 A2967 1090 48 1000 180/16G22 RMK AO2
14837KMSN MSN20011122152009411/22/01 15:20:31  5-MIN KMSN 222120Z 18015KT 10SM CLR 12/01 A2967 1090 48 1000 180/15 RMK AO2
14837KMSN MSN20011122152510011/22/01 15:25:31  5-MIN KMSN 222125Z 18016G21KT 10SM CLR 12/01 A2968 1090 48 1000 180/16G21 RMK AO2
14837KMSN MSN20011122153010011/22/01 15:30:31  5-MIN KMSN 222130Z 18014G21KT 10SM CLR 12/01 A2968 1090 48 1000 180/14G21 RMK AO2
14837KMSN MSN20011122153509411/22/01 15:35:31  5-MIN KMSN 222135Z 18010KT 10SM CLR 12/01 A2968 1090 48 1000 180/10 RMK AO2
14837KMSN MSN20011122154009311/22/01 15:40:31  5-MIN KMSN 222140Z 18012KT 10SM CLR 11/01 A2968 1090 50 900 180/12 RMK AO2
14837KMSN MSN20011122154509311/22/01 15:45:31  5-MIN KMSN 222145Z 18012KT 10SM CLR 11/01 A2967 1090 50 900 180/12 RMK AO2
14837KMSN MSN20011122155011011/22/01 15:50:31  5-MIN KMSN 222150Z 17012KT 10SM CLR 11/01 A2967 1090 50 900 170/12 RMK AO2 SLP052 T01110011
14837KMSN MSN20011122155509311/22/01 15:55:31  5-MIN KMSN 222155Z 18010KT 10SM CLR 11/01 A2967 1090 50 900 180/10 RMK AO2
14837KMSN MSN20011122160009311/22/01 16:00:31  5-MIN KMSN 222200Z 18011KT 10SM CLR 11/01 A2967 1090 50 900 180/11 RMK AO2
14837KMSN MSN20011122160509311/22/01 16:05:31  5-MIN KMSN 222205Z 18011KT 10SM CLR 11/01 A2967 1090 50 900 180/11 RMK AO2
14837KMSN MSN20011122161009311/22/01 16:10:31  5-MIN KMSN 222210Z 18009KT 10SM CLR 11/01 A2967 1090 50 900 180/09 RMK AO2
14837KMSN MSN20011122161509311/22/01 16:15:31  5-MIN KMSN 222215Z 18011KT 10SM CLR 11/01 A2967 1090 50 900 170/11 RMK AO2
14837KMSN MSN20011122162009311/22/01 16:20:31  5-MIN KMSN 222220Z 18011KT 10SM CLR 11/01 A2967 1090 50 900 170/11 RMK AO2
14837KMSN MSN20011122162509311/22/01 16:25:31  5-MIN KMSN 222225Z 18011KT 10SM CLR 11/01 A2967 1090 50 900 170/11 RMK AO2
14837KMSN MSN20011122163009311/22/01 16:30:31  5-MIN KMSN 222230Z 17010KT 10SM CLR 11/01 A2967 1090 52 900 170/10 RMK AO2
14837KMSN MSN20011122163509311/22/01 16:35:31  5-MIN KMSN 222235Z 17010KT 10SM CLR 11/01 A2967 1090 52 900 170/10 RMK AO2
14837KMSN MSN20011122164009311/22/01 16:40:31  5-MIN KMSN 222240Z 18010KT 10SM CLR 11/01 A2968 1090 50 900 170/10 RMK AO2
14837KMSN MSN20011122164509311/22/01 16:45:31  5-MIN KMSN 222245Z 17011KT 10SM CLR 11/01 A2967 1090 52 900 170/11 RMK AO2
14837KMSN MSN20011122165011011/22/01 16:50:31  5-MIN KMSN 222250Z 17010KT 10SM CLR 11/01 A2967 1090 52 900 170/10 RMK AO2 SLP053 T01060011
14837KMSN MSN20011122165509311/22/01 16:55:31  5-MIN KMSN 222255Z 17011KT 10SM CLR 11/01 A2967 1090 52 900 170/11 RMK AO2
14837KMSN MSN20011122170009311/22/01 17:00:31  5-MIN KMSN 222300Z 18012KT 10SM CLR 11/01 A2967 1090 50 900 180/12 RMK AO2
14837KMSN MSN20011122170509311/22/01 17:05:31  5-MIN KMSN 222305Z 17012KT 10SM CLR 11/01 A2967 1090 50 900 170/12 RMK AO2
14837KMSN MSN20011122171009311/22/01 17:10:31  5-MIN KMSN 222310Z 18011KT 10SM CLR 11/01 A2967 1090 52 900 180/11 RMK AO2
14837KMSN MSN20011122171509311/22/01 17:15:31  5-MIN KMSN 222315Z 18010KT 10SM CLR 11/01 A2968 1090 52 900 180/10 RMK AO2
14837KMSN MSN20011122172009311/22/01 17:20:31  5-MIN KMSN 222320Z 18011KT 10SM CLR 11/01 A2967 1090 50 900 180/11 RMK AO2
14837KMSN MSN20011122172509311/22/01 17:25:31  5-MIN KMSN 222325Z 18011KT 10SM CLR 11/01 A2968 1090 52 900 180/11 RMK AO2
14837KMSN MSN20011122173009311/22/01 17:30:31  5-MIN KMSN 222330Z 18010KT 10SM CLR 11/01 A2968 1090 52 900 180/10 RMK AO2
14837KMSN MSN20011122173509311/22/01 17:35:31  5-MIN KMSN 222335Z 18011KT 10SM CLR 11/02 A2967 1090 54 900 180/11 RMK AO2
14837KMSN MSN20011122174009311/22/01 17:40:31  5-MIN KMSN 222340Z 18011KT 10SM CLR 11/01 A2967 1090 52 900 180/11 RMK AO2
14837KMSN MSN20011122174509311/22/01 17:45:31  5-MIN KMSN 222345Z 18011KT 10SM CLR 11/01 A2967 1090 52 900 180/11 RMK AO2
14837KMSN MSN20011122175012811/22/01 17:50:31  5-MIN KMSN 222350Z 18012KT 10SM CLR 11/01 A2968 1090 52 900 180/12 RMK AO2 SLP053 T01060011 10117 20100 56012
14837KMSN MSN20011122175509311/22/01 17:55:31  5-MIN KMSN 222355Z 18012KT 10SM CLR 11/02 A2967 1090 54 900 180/12 RMK AO2
14837KMSN MSN20011122180009311/22/01 18:00:31  5-MIN KMSN 230000Z 18012KT 10SM CLR 11/02 A2968 1090 54 900 180/12 RMK AO2
14837KMSN MSN20011122180509311/22/01 18:05:31  5-MIN KMSN 230005Z 18012KT 10SM CLR 11/02 A2968 1090 54 900 180/12 RMK AO2
14837KMSN MSN20011122181009311/22/01 18:10:31  5-MIN KMSN 230010Z 18013KT 10SM CLR 11/01 A2968 1090 52 900 180/13 RMK AO2
14837KMSN MSN20011122181509311/22/01 18:15:31  5-MIN KMSN 230015Z 18012KT 10SM CLR 11/01 A2968 1090 52 900 180/12 RMK AO2
14837KMSN MSN20011122182009311/22/01 18:20:31  5-MIN KMSN 230020Z 18012KT 10SM CLR 11/01 A2968 1090 52 900 180/12 RMK AO2
14837KMSN MSN20011122182509311/22/01 18:25:31  5-MIN KMSN 230025Z 18013KT 10SM CLR 11/01 A2967 1090 52 900 180/13 RMK AO2
14837KMSN MSN20011122183009311/22/01 18:30:31  5-MIN KMSN 230030Z 18012KT 10SM CLR 11/01 A2968 1090 52 900 180/12 RMK AO2
14837KMSN MSN20011122183509311/22/01 18:35:31  5-MIN KMSN 230035Z 18013KT 10SM CLR 11/01 A2968 1090 52 900 180/13 RMK AO2
14837KMSN MSN20011122184009311/22/01 18:40:31  5-MIN KMSN 230040Z 18013KT 10SM CLR 11/01 A2968 1090 52 900 180/13 RMK AO2
14837KMSN MSN20011122184509911/22/01 18:45:31  5-MIN KMSN 230045Z 18013G19KT 10SM CLR 11/01 A2968 1090 52 900 180/13G19 RMK AO2
14837KMSN MSN20011122185011611/22/01 18:50:31  5-MIN KMSN 230050Z 18013G19KT 10SM CLR 11/01 A2968 1090 52 900 180/13G19 RMK AO2 SLP054 T01060011
14837KMSN MSN20011122185509311/22/01 18:55:31  5-MIN KMSN 230055Z 18013KT 10SM CLR 11/01 A2968 1090 52 900 180/13 RMK AO2
14837KMSN MSN20011122190009311/22/01 19:00:31  5-MIN KMSN 230100Z 18013KT 10SM CLR 11/01 A2968 1090 52 900 180/13 RMK AO2
14837KMSN MSN20011122190509311/22/01 19:05:31  5-MIN KMSN 230105Z 18013KT 10SM CLR 11/01 A2968 1090 52 900 180/13 RMK AO2
14837KMSN MSN20011122191009311/22/01 19:10:31  5-MIN KMSN 230110Z 18014KT 10SM CLR 10/01 A2968 1090 54 800 180/14 RMK AO2
14837KMSN MSN20011122191509311/22/01 19:15:31  5-MIN KMSN 230115Z 18013KT 10SM CLR 10/01 A2968 1090 54 800 180/13 RMK AO2
14837KMSN MSN20011122192009311/22/01 19:20:31  5-MIN KMSN 230120Z 18013KT 10SM CLR 10/01 A2968 1090 54 800 180/13 RMK AO2
14837KMSN MSN20011122192509311/22/01 19:25:31  5-MIN KMSN 230125Z 18013KT 10SM CLR 10/01 A2968 1080 54 800 180/13 RMK AO2
14837KMSN MSN20011122193009311/22/01 19:30:31  5-MIN KMSN 230130Z 18014KT 10SM CLR 11/01 A2969 1080 52 800 180/14 RMK AO2
14837KMSN MSN20011122193509311/22/01 19:35:31  5-MIN KMSN 230135Z 18013KT 10SM CLR 10/01 A2969 1080 52 800 180/13 RMK AO2
14837KMSN MSN20011122194009311/22/01 19:40:31  5-MIN KMSN 230140Z 18012KT 10SM CLR 10/01 A2968 1080 54 800 180/12 RMK AO2
14837KMSN MSN20011122194509311/22/01 19:45:31  5-MIN KMSN 230145Z 18011KT 10SM CLR 10/01 A2968 1080 54 800 180/11 RMK AO2
14837KMSN MSN20011122195011011/22/01 19:50:31  5-MIN KMSN 230150Z 19011KT 10SM CLR 10/01 A2969 1080 52 800 180/11 RMK AO2 SLP056 T01000006
14837KMSN MSN20011122195509311/22/01 19:55:31  5-MIN KMSN 230155Z 19011KT 10SM CLR 10/01 A2969 1080 52 800 190/11 RMK AO2
14837KMSN MSN20011122200009311/22/01 20:00:31  5-MIN KMSN 230200Z 18011KT 10SM CLR 10/01 A2969 1080 52 800 180/11 RMK AO2
14837KMSN MSN20011122200509311/22/01 20:05:31  5-MIN KMSN 230205Z 18010KT 10SM CLR 10/01 A2969 1080 52 800 180/10 RMK AO2
14837KMSN MSN20011122201009311/22/01 20:10:31  5-MIN KMSN 230210Z 18010KT 10SM CLR 10/01 A2969 1080 52 800 180/10 RMK AO2
14837KMSN MSN20011122201509311/22/01 20:15:31  5-MIN KMSN 230215Z 17010KT 10SM CLR 10/01 A2969 1080 52 800 170/10 RMK AO2
14837KMSN MSN20011122202009311/22/01 20:20:31  5-MIN KMSN 230220Z 18011KT 10SM CLR 10/01 A2969 1080 52 800 170/11 RMK AO2
14837KMSN MSN20011122202509311/22/01 20:25:31  5-MIN KMSN 230225Z 18009KT 10SM CLR 09/01 A2969 1080 53 700 180/09 RMK AO2
14837KMSN MSN20011122203009311/22/01 20:30:31  5-MIN KMSN 230230Z 18009KT 10SM CLR 09/01 A2969 1080 53 700 180/09 RMK AO2
14837KMSN MSN20011122203509311/22/01 20:35:31  5-MIN KMSN 230235Z 18009KT 10SM CLR 09/01 A2969 1080 56 700 180/09 RMK AO2
14837KMSN MSN20011122204009311/22/01 20:40:31  5-MIN KMSN 230240Z 18008KT 10SM CLR 09/01 A2969 1080 56 700 180/08 RMK AO2
14837KMSN MSN20011122204509311/22/01 20:45:31  5-MIN KMSN 230245Z 18009KT 10SM CLR 09/01 A2969 1080 56 700 180/09 RMK AO2
14837KMSN MSN20011122205011611/22/01 20:50:31  5-MIN KMSN 230250Z 19008KT 10SM CLR 09/01 A2969 1080 56 700 190/08 RMK AO2 SLP059 T00940011 51001
14837KMSN MSN20011122205509311/22/01 20:55:31  5-MIN KMSN 230255Z 18009KT 10SM CLR 09/01 A2969 1070 56 700 180/09 RMK AO2
14837KMSN MSN20011122210009311/22/01 21:00:31  5-MIN KMSN 230300Z 18010KT 10SM CLR 09/01 A2969 1080 53 700 180/10 RMK AO2
14837KMSN MSN20011122210509311/22/01 21:05:31  5-MIN KMSN 230305Z 18009KT 10SM CLR 09/01 A2969 1070 56 700 180/09 RMK AO2
14837KMSN MSN20011122211009311/22/01 21:10:31  5-MIN KMSN 230310Z 19010KT 10SM CLR 09/01 A2969 1080 58 600 180/10 RMK AO2
14837KMSN MSN20011122211509311/22/01 21:15:31  5-MIN KMSN 230315Z 19009KT 10SM CLR 09/01 A2969 1070 53 700 190/09 RMK AO2
14837KMSN MSN20011122212009311/22/01 21:20:31  5-MIN KMSN 230320Z 19010KT 10SM CLR 09/01 A2970 1070 56 700 180/10 RMK AO2
14837KMSN MSN20011122212509311/22/01 21:25:31  5-MIN KMSN 230325Z 19008KT 10SM CLR 09/01 A2970 1070 58 600 190/08 RMK AO2
14837KMSN MSN20011122213009311/22/01 21:30:31  5-MIN KMSN 230330Z 19009KT 10SM CLR 09/01 A2970 1070 56 600 190/09 RMK AO2
14837KMSN MSN20011122213509311/22/01 21:35:31  5-MIN KMSN 230335Z 19010KT 10SM CLR 09/01 A2970 1070 53 700 190/10 RMK AO2
14837KMSN MSN20011122214009311/22/01 21:40:31  5-MIN KMSN 230340Z 19010KT 10SM CLR 09/01 A2970 1070 53 700 190/10 RMK AO2
14837KMSN MSN20011122214509311/22/01 21:45:31  5-MIN KMSN 230345Z 19009KT 10SM CLR 09/01 A2970 1070 53 700 190/09 RMK AO2
14837KMSN MSN20011122215011011/22/01 21:50:31  5-MIN KMSN 230350Z 19011KT 10SM CLR 09/01 A2971 1060 53 700 180/11 RMK AO2 SLP063 T00940006
14837KMSN MSN20011122215509311/22/01 21:55:31  5-MIN KMSN 230355Z 18011KT 10SM CLR 09/01 A2971 1060 53 700 180/11 RMK AO2
14837KMSN MSN20011122220009311/22/01 22:00:31  5-MIN KMSN 230400Z 18009KT 10SM CLR 09/01 A2971 1060 56 600 180/09 RMK AO2
14837KMSN MSN20011122220509311/22/01 22:05:31  5-MIN KMSN 230405Z 18009KT 10SM CLR 09/01 A2970 1070 56 600 180/09 RMK AO2
14837KMSN MSN20011122221009311/22/01 22:10:31  5-MIN KMSN 230410Z 18011KT 10SM CLR 09/01 A2970 1070 56 600 180/11 RMK AO2
14837KMSN MSN20011122221509311/22/01 22:15:31  5-MIN KMSN 230415Z 18011KT 10SM CLR 09/01 A2970 1070 56 600 180/11 RMK AO2
14837KMSN MSN20011122222009311/22/01 22:20:31  5-MIN KMSN 230420Z 18011KT 10SM CLR 09/01 A2970 1070 56 600 180/11 RMK AO2
14837KMSN MSN20011122222509311/22/01 22:25:31  5-MIN KMSN 230425Z 18010KT 10SM CLR 09/01 A2970 1070 56 600 180/10 RMK AO2
14837KMSN MSN20011122223009311/22/01 22:30:31  5-MIN KMSN 230430Z 18012KT 10SM CLR 09/00 A2970 1070 53 600 180/12 RMK AO2
14837KMSN MSN20011122223509311/22/01 22:35:31  5-MIN KMSN 230435Z 18010KT 10SM CLR 09/00 A2970 1070 53 600 180/10 RMK AO2
14837KMSN MSN20011122224009311/22/01 22:40:31  5-MIN KMSN 230440Z 18010KT 10SM CLR 09/00 A2970 1070 51 700 180/10 RMK AO2
14837KMSN MSN20011122224509311/22/01 22:45:31  5-MIN KMSN 230445Z 18013KT 10SM CLR 09/00 A2970 1070 53 600 180/13 RMK AO2
14837KMSN MSN20011122225011611/22/01 22:50:31  5-MIN KMSN 230450Z 19010G18KT 10SM CLR 09/00 A2970 1070 51 700 190/10G18 RMK AO2 SLP061 T00940000
14837KMSN MSN20011122225509311/22/01 22:55:31  5-MIN KMSN 230455Z 18013KT 10SM CLR 09/00 A2970 1070 53 600 180/13 RMK AO2
14837KMSN MSN20011122230009311/22/01 23:00:31  5-MIN KMSN 230500Z 19014KT 10SM CLR 09/00 A2970 1070 51 700 190/14 RMK AO2
14837KMSN MSN20011122230509311/22/01 23:05:31  5-MIN KMSN 230505Z 19012KT 10SM CLR 09/00 A2971 1060 53 600 190/12 RMK AO2
14837KMSN MSN20011122231009311/22/01 23:10:31  5-MIN KMSN 230510Z 19011KT 10SM CLR 09/00 A2971 1060 53 600 190/11 RMK AO2
14837KMSN MSN20011122231509311/22/01 23:15:31  5-MIN KMSN 230515Z 19012KT 10SM CLR 09/00 A2971 1060 53 600 190/12 RMK AO2
14837KMSN MSN20011122232009311/22/01 23:20:31  5-MIN KMSN 230520Z 19010KT 10SM CLR 09/00 A2971 1060 53 600 190/10 RMK AO2
14837KMSN MSN20011122232509311/22/01 23:25:31  5-MIN KMSN 230525Z 19010KT 10SM CLR 09/00 A2971 1060 53 600 180/10 RMK AO2
14837KMSN MSN20011122233009311/22/01 23:30:31  5-MIN KMSN 230530Z 19009KT 10SM CLR 09/00 A2971 1060 53 600 180/09 RMK AO2
14837KMSN MSN20011122233509311/22/01 23:35:31  5-MIN KMSN 230535Z 19011KT 10SM CLR 09/00 A2971 1060 53 600 190/11 RMK AO2
14837KMSN MSN20011122234009311/22/01 23:40:31  5-MIN KMSN 230540Z 19009KT 10SM CLR 08/00 A2971 1060 55 600 190/09 RMK AO2
14837KMSN MSN20011122234509311/22/01 23:45:31  5-MIN KMSN 230545Z 19009KT 10SM CLR 08/00 A2971 1060 55 600 190/09 RMK AO2
14837KMSN MSN20011122235013811/22/01 23:50:31  5-MIN KMSN 230550Z 19008KT 10SM CLR 08/00 A2971 1060 55 600 190/08 RMK AO2 SLP064 T00830000 10106 20083 401170022 53006
14837KMSN MSN20011122235509311/22/01 23:55:31  5-MIN KMSN 230555Z 19009KT 10SM CLR 08/00 A2971 1060 55 600 190/09 RMK AO2
14837KMSN MSN20011123000009311/23/01 00:00:31  5-MIN KMSN 230600Z 19010KT 10SM CLR 08/00 A2971 1060 55 600 190/10 RMK AO2
14837KMSN MSN20011123000509311/23/01 00:05:31  5-MIN KMSN 230605Z 18010KT 10SM CLR 08/00 A2971 1060 55 600 180/10 RMK AO2
14837KMSN MSN20011123001009311/23/01 00:10:31  5-MIN KMSN 230610Z 19009KT 10SM CLR 08/00 A2971 1060 55 600 180/09 RMK AO2
14837KMSN MSN20011123001509311/23/01 00:15:31  5-MIN KMSN 230615Z 19010KT 10SM CLR 08/00 A2971 1060 55 600 190/10 RMK AO2
14837KMSN MSN20011123002009311/23/01 00:20:31  5-MIN KMSN 230620Z 19009KT 10SM CLR 08/00 A2971 1060 55 500 190/09 RMK AO2
14837KMSN MSN20011123002509311/23/01 00:25:31  5-MIN KMSN 230625Z 19009KT 10SM CLR 08/00 A2971 1060 55 500 190/09 RMK AO2
14837KMSN MSN20011123003009311/23/01 00:30:31  5-MIN KMSN 230630Z 19010KT 10SM CLR 08/00 A2971 1060 55 500 190/10 RMK AO2
14837KMSN MSN20011123003509311/23/01 00:35:31  5-MIN KMSN 230635Z 19009KT 10SM CLR 08/00 A2971 1050 55 500 190/09 RMK AO2
14837KMSN MSN20011123004009611/23/01 00:40:31  5-MIN KMSN 230640Z 19008KT 10SM FEW050 08/00 A2972 1050 58 500 190/08 RMK AO2
14837KMSN MSN20011123004509611/23/01 00:45:31  5-MIN KMSN 230645Z 19009KT 10SM SCT050 08/00 A2972 1050 55 500 190/09 RMK AO2
14837KMSN MSN20011123005011311/23/01 00:50:31  5-MIN KMSN 230650Z 19009KT 10SM SCT050 08/00 A2972 1050 55 500 190/09 RMK AO2 SLP065 T00830000
14837KMSN MSN20011123005509611/23/01 00:55:31  5-MIN KMSN 230655Z 19009KT 10SM SCT055 08/00 A2972 1050 55 500 190/09 RMK AO2
14837KMSN MSN20011123010009611/23/01 01:00:31  5-MIN KMSN 230700Z 19010KT 10SM SCT055 08/00 A2972 1050 55 500 190/10 RMK AO2
14837KMSN MSN20011123010509611/23/01 01:05:31  5-MIN KMSN 230705Z 19008KT 10SM SCT055 08/00 A2972 1050 55 500 190/08 RMK AO2
14837KMSN MSN20011123011009611/23/01 01:10:31  5-MIN KMSN 230710Z 19009KT 10SM OVC055 08/00 A2972 1050 55 500 190/09 RMK AO2
14837KMSN MSN20011123011509611/23/01 01:15:31  5-MIN KMSN 230715Z 19008KT 10SM BKN055 08/00 A2972 1050 55 500 190/08 RMK AO2
14837KMSN MSN20011123012009611/23/01 01:20:31  5-MIN KMSN 230720Z 19009KT 10SM BKN055 08/00 A2972 1050 55 500 190/09 RMK AO2
14837KMSN MSN20011123012509611/23/01 01:25:31  5-MIN KMSN 230725Z 19009KT 10SM BKN055 08/00 A2972 1050 55 500 190/09 RMK AO2
14837KMSN MSN20011123013009611/23/01 01:30:31  5-MIN KMSN 230730Z 20008KT 10SM SCT055 08/00 A2973 1040 55 500 190/08 RMK AO2
14837KMSN MSN20011123013509611/23/01 01:35:31  5-MIN KMSN 230735Z 21005KT 10SM SCT055 08/00 A2973 1040 58 500 200/05 RMK AO2
14837KMSN MSN20011123014009611/23/01 01:40:31  5-MIN KMSN 230740Z VRB04KT 10SM SCT055 08/00 A2973 1040 58 500 VRB/04 RMK AO2
14837KMSN MSN20011123014509611/23/01 01:45:31  5-MIN KMSN 230745Z 21004KT 10SM SCT055 08/00 A2973 1040 58 500 210/04 RMK AO2
14837KMSN MSN20011123015011311/23/01 01:50:31  5-MIN KMSN 230750Z VRB05KT 10SM FEW055 08/00 A2973 1040 58 500 VRB/05 RMK AO2 SLP071 T00780000
14837KMSN MSN20011123015509611/23/01 01:55:31  5-MIN KMSN 230755Z 19006KT 10SM FEW055 08/00 A2973 1040 58 500 190/06 RMK AO2
14837KMSN MSN20011123020009611/23/01 02:00:31  5-MIN KMSN 230800Z 20006KT 10SM FEW055 08/00 A2973 1040 55 500 190/06 RMK AO2
14837KMSN MSN20011123020509611/23/01 02:05:31  5-MIN KMSN 230805Z 19006KT 10SM FEW055 08/00 A2973 1040 58 500 190/06 RMK AO2
14837KMSN MSN20011123021009611/23/01 02:10:31  5-MIN KMSN 230810Z 19008KT 10SM FEW055 08/00 A2973 1040 58 500 190/08 RMK AO2
14837KMSN MSN20011123021509611/23/01 02:15:31  5-MIN KMSN 230815Z 19007KT 10SM FEW055 08/00 A2974 1030 58 500 190/07 RMK AO2
14837KMSN MSN20011123022009611/23/01 02:20:31  5-MIN KMSN 230820Z 19007KT 10SM FEW055 08/00 A2974 1030 58 500 190/07 RMK AO2
14837KMSN MSN20011123022509611/23/01 02:25:31  5-MIN KMSN 230825Z 19008KT 10SM FEW055 08/00 A2974 1030 58 500 190/08 RMK AO2
14837KMSN MSN20011123023009311/23/01 02:30:31  5-MIN KMSN 230830Z 19008KT 10SM CLR 08/00 A2974 1030 58 500 190/08 RMK AO2
14837KMSN MSN20011123023509311/23/01 02:35:31  5-MIN KMSN 230835Z 19008KT 10SM CLR 08/00 A2974 1030 58 500 190/08 RMK AO2
14837KMSN MSN20011123024009311/23/01 02:40:31  5-MIN KMSN 230840Z 19007KT 10SM CLR 07/00 A2974 1030 60 400 190/07 RMK AO2
14837KMSN MSN20011123024509311/23/01 02:45:31  5-MIN KMSN 230845Z 19009KT 10SM CLR 07/00 A2974 1030 60 400 180/09 RMK AO2
14837KMSN MSN20011123025011611/23/01 02:50:31  5-MIN KMSN 230850Z 18009KT 10SM CLR 08/00 A2974 1030 58 400 180/09 RMK AO2 SLP073 T00780000 51006
14837KMSN MSN20011123025509311/23/01 02:55:31  5-MIN KMSN 230855Z 18009KT 10SM CLR 07/01 A2974 1030 62 400 180/09 RMK AO2
14837KMSN MSN20011123030009311/23/01 03:00:31  5-MIN KMSN 230900Z 18010KT 10SM CLR 07/00 A2974 1030 60 400 180/10 RMK AO2
14837KMSN MSN20011123030509311/23/01 03:05:31  5-MIN KMSN 230905Z 18010KT 10SM CLR 07/00 A2974 1030 60 400 180/10 RMK AO2
14837KMSN MSN20011123031009311/23/01 03:10:31  5-MIN KMSN 230910Z 18010KT 10SM CLR 07/00 A2974 1030 60 400 180/10 RMK AO2
14837KMSN MSN20011123031509311/23/01 03:15:31  5-MIN KMSN 230915Z 18010KT 10SM CLR 07/00 A2974 1030 60 400 180/10 RMK AO2
14837KMSN MSN20011123032009311/23/01 03:20:31  5-MIN KMSN 230920Z 19010KT 10SM CLR 07/00 A2974 1030 60 400 180/10 RMK AO2
14837KMSN MSN20011123032509311/23/01 03:25:31  5-MIN KMSN 230925Z 18009KT 10SM CLR 07/00 A2974 1030 62 300 180/09 RMK AO2
14837KMSN MSN20011123033009311/23/01 03:30:31  5-MIN KMSN 230930Z 18010KT 10SM CLR 07/00 A2974 1030 62 300 180/10 RMK AO2
14837KMSN MSN20011123033509611/23/01 03:35:31  5-MIN KMSN 230935Z 18009KT 10SM FEW070 07/00 A2974 1030 62 300 180/09 RMK AO2
14837KMSN MSN20011123034009611/23/01 03:40:31  5-MIN KMSN 230940Z 18009KT 10SM SCT070 07/00 A2974 1030 60 400 180/09 RMK AO2
14837KMSN MSN20011123034509611/23/01 03:45:31  5-MIN KMSN 230945Z 18009KT 10SM BKN070 07/01 A2974 1030 62 400 180/09 RMK AO2
14837KMSN MSN20011123035011311/23/01 03:50:31  5-MIN KMSN 230950Z 18009KT 10SM SCT070 07/01 A2974 1030 62 400 180/09 RMK AO2 SLP075 T00720006
14837KMSN MSN20011123035509611/23/01 03:55:31  5-MIN KMSN 230955Z 18008KT 10SM BKN070 07/01 A2974 1030 62 400 180/08 RMK AO2
14837KMSN MSN20011123040009611/23/01 04:00:31  5-MIN KMSN 231000Z 18009KT 10SM BKN070 07/01 A2974 1030 62 400 180/09 RMK AO2
14837KMSN MSN20011123040509611/23/01 04:05:31  5-MIN KMSN 231005Z 18009KT 10SM OVC070 07/01 A2974 1030 62 400 180/09 RMK AO2
14837KMSN MSN20011123041010311/23/01 04:10:31  5-MIN KMSN 231010Z 18009KT 10SM FEW060 OVC070 07/01 A2974 1030 62 400 170/09 RMK AO2
14837KMSN MSN20011123041510311/23/01 04:15:31  5-MIN KMSN 231015Z 18009KT 10SM SCT055 OVC075 07/01 A2974 1030 62 400 180/09 RMK AO2
14837KMSN MSN20011123042010311/23/01 04:20:31  5-MIN KMSN 231020Z 18010KT 10SM BKN055 BKN075 07/01 A2974 1030 62 400 180/10 RMK AO2
14837KMSN MSN20011123042510311/23/01 04:25:31  5-MIN KMSN 231025Z 17009KT 10SM BKN055 BKN075 07/01 A2974 1030 62 400 170/09 RMK AO2
14837KMSN MSN20011123043010311/23/01 04:30:31  5-MIN KMSN 231030Z 17009KT 10SM BKN055 BKN075 07/01 A2974 1030 62 400 170/09 RMK AO2
14837KMSN MSN20011123043510311/23/01 04:35:31  5-MIN KMSN 231035Z 18010KT 10SM BKN055 BKN075 07/01 A2975 1030 62 400 180/10 RMK AO2
14837KMSN MSN20011123044010311/23/01 04:40:31  5-MIN KMSN 231040Z 18010KT 10SM BKN055 BKN075 08/01 A2974 1030 60 400 180/10 RMK AO2
14837KMSN MSN20011123044510311/23/01 04:45:31  5-MIN KMSN 231045Z 18010KT 10SM BKN055 BKN075 08/01 A2975 1030 60 400 170/10 RMK AO2
14837KMSN MSN20011123045012011/23/01 04:50:31  5-MIN KMSN 231050Z 17009KT 10SM BKN055 BKN075 08/01 A2975 1030 60 400 170/09 RMK AO2 SLP076 T00780006
14837KMSN MSN20011123045509611/23/01 04:55:31  5-MIN KMSN 231055Z 18010KT 10SM OVC050 08/01 A2975 1020 60 400 180/10 RMK AO2
14837KMSN MSN20011123050009611/23/01 05:00:31  5-MIN KMSN 231100Z 18011KT 10SM OVC050 08/01 A2975 1020 60 400 180/11 RMK AO2
14837KMSN MSN20011123050509611/23/01 05:05:31  5-MIN KMSN 231105Z 18010KT 10SM BKN050 08/01 A2975 1020 60 400 180/10 RMK AO2
14837KMSN MSN20011123051009611/23/01 05:10:31  5-MIN KMSN 231110Z 18009KT 10SM BKN050 08/01 A2975 1020 60 400 180/09 RMK AO2
14837KMSN MSN20011123051509611/23/01 05:15:31  5-MIN KMSN 231115Z 18009KT 10SM BKN050 08/01 A2975 1020 60 400 180/09 RMK AO2
14837KMSN MSN20011123052009611/23/01 05:20:31  5-MIN KMSN 231120Z 18009KT 10SM BKN050 08/01 A2975 1030 60 400 180/09 RMK AO2
14837KMSN MSN20011123052509611/23/01 05:25:31  5-MIN KMSN 231125Z 18008KT 10SM BKN050 08/01 A2975 1020 60 400 180/08 RMK AO2
14837KMSN MSN20011123053009611/23/01 05:30:31  5-MIN KMSN 231130Z 18009KT 10SM BKN050 07/01 A2975 1020 62 400 180/09 RMK AO2
14837KMSN MSN20011123053510311/23/01 05:35:31  5-MIN KMSN 231135Z 18009KT 10SM SCT050 SCT090 08/01 A2975 1020 60 400 180/09 RMK AO2
14837KMSN MSN20011123054010311/23/01 05:40:31  5-MIN KMSN 231140Z 18008KT 10SM SCT050 SCT090 07/01 A2975 1020 62 400 180/08 RMK AO2
14837KMSN MSN20011123054510311/23/01 05:45:31  5-MIN KMSN 231145Z 17007KT 10SM SCT050 SCT090 07/01 A2975 1030 62 400 170/07 RMK AO2
14837KMSN MSN20011123055013811/23/01 05:50:31  5-MIN KMSN 231150Z 17007KT 10SM SCT050 SCT090 07/01 A2975 1020 65 300 170/07 RMK AO2 SLP077 T00670006 10083 20067 53010
14837KMSN MSN20011123055510311/23/01 05:55:31  5-MIN KMSN 231155Z 17006KT 10SM FEW047 SCT090 06/01 A2975 1020 67 200 170/06 RMK AO2
14837KMSN MSN20011123060010311/23/01 06:00:31  5-MIN KMSN 231200Z 17008KT 10SM FEW047 SCT090 06/01 A2975 1020 67 200 170/08 RMK AO2
14837KMSN MSN20011123060510311/23/01 06:05:31  5-MIN KMSN 231205Z 18007KT 10SM FEW047 SCT090 07/01 A2976 1020 65 300 180/07 RMK AO2
14837KMSN MSN20011123061010311/23/01 06:10:31  5-MIN KMSN 231210Z 18009KT 10SM FEW047 SCT090 07/01 A2976 1010 62 400 180/09 RMK AO2
14837KMSN MSN20011123061510311/23/01 06:15:31  5-MIN KMSN 231215Z 18008KT 10SM FEW047 SCT090 07/01 A2976 1010 62 400 180/08 RMK AO2
14837KMSN MSN20011123062009611/23/01 06:20:31  5-MIN KMSN 231220Z 18010KT 10SM FEW090 07/01 A2976 1010 62 400 180/10 RMK AO2
14837KMSN MSN20011123062509611/23/01 06:25:31  5-MIN KMSN 231225Z 18009KT 10SM FEW090 07/01 A2977 1010 62 400 180/09 RMK AO2
14837KMSN MSN20011123063009611/23/01 06:30:31  5-MIN KMSN 231230Z 18008KT 10SM FEW090 07/01 A2977 1010 62 400 180/08 RMK AO2
14837KMSN MSN20011123063509611/23/01 06:35:31  5-MIN KMSN 231235Z 17006KT 10SM FEW090 07/01 A2977 1010 65 300 170/06 RMK AO2
14837KMSN MSN20011123064009311/23/01 06:40:31  5-MIN KMSN 231240Z 16007KT 10SM CLR 07/01 A2977 1000 65 300 160/07 RMK AO2
14837KMSN MSN20011123064509311/23/01 06:45:31  5-MIN KMSN 231245Z 16008KT 10SM CLR 06/01 A2977 1010 70 100 160/08 RMK AO2
14837KMSN MSN20011123065011311/23/01 06:50:31  5-MIN KMSN 231250Z 16009KT 10SM FEW090 05/01 A2977 1000 73 100 160/09 RMK AO2 SLP085 T00500006
14837KMSN MSN20011123065509611/23/01 06:55:31  5-MIN KMSN 231255Z 17008KT 10SM FEW090 06/01 A2977 1000 70 100 170/08 RMK AO2
14837KMSN MSN20011123070009611/23/01 07:00:31  5-MIN KMSN 231300Z 16008KT 10SM FEW090 06/01 A2977 1000 70 100 160/08 RMK AO2
14837KMSN MSN20011123070509611/23/01 07:05:31  5-MIN KMSN 231305Z 16008KT 10SM FEW090 06/01 A2977 1000 70 100 160/08 RMK AO2
14837KMSN MSN20011123071009611/23/01 07:10:31  5-MIN KMSN 231310Z 16007KT 10SM FEW024 06/01 A2977 1000 70 100 160/07 RMK AO2
14837KMSN MSN20011123071509611/23/01 07:15:31  5-MIN KMSN 231315Z 16007KT 10SM FEW045 06/01 A2977 1000 70 100 160/07 RMK AO2
14837KMSN MSN20011123072009611/23/01 07:20:31  5-MIN KMSN 231320Z 16008KT 10SM FEW045 06/01 A2977 1000 70 100 160/08 RMK AO2
14837KMSN MSN20011123072509311/23/01 07:25:31  5-MIN KMSN 231325Z 16007KT 10SM CLR 06/01 A2977 1000 67 200 160/07 RMK AO2
14837KMSN MSN20011123073009311/23/01 07:30:31  5-MIN KMSN 231330Z 16010KT 10SM CLR 06/01 A2977 1000 70 200 160/10 RMK AO2
14837KMSN MSN20011123073509311/23/01 07:35:31  5-MIN KMSN 231335Z 17007KT 10SM CLR 06/01 A2978 1000 70 200 170/07 RMK AO2
14837KMSN MSN20011123074009311/23/01 07:40:31  5-MIN KMSN 231340Z 17008KT 10SM CLR 06/01 A2977 1000 70 200 160/08 RMK AO2
14837KMSN MSN20011123074509311/23/01 07:45:31  5-MIN KMSN 231345Z 17008KT 10SM CLR 07/01 A2977 1000 67 300 160/08 RMK AO2
14837KMSN MSN20011123075011011/23/01 07:50:31  5-MIN KMSN 231350Z 17009KT 10SM CLR 07/01 A2977 1000 67 300 170/09 RMK AO2 SLP086 T00670011
14837KMSN MSN20011123075509311/23/01 07:55:31  5-MIN KMSN 231355Z 18008KT 10SM CLR 07/01 A2977 1000 67 300 170/08 RMK AO2
14837KMSN MSN20011123080009311/23/01 08:00:31  5-MIN KMSN 231400Z 17010KT 10SM CLR 07/01 A2977 1010 65 400 170/10 RMK AO2
14837KMSN MSN20011123080509311/23/01 08:05:31  5-MIN KMSN 231405Z 18009KT 10SM CLR 07/01 A2977 1000 65 300 180/09 RMK AO2
14837KMSN MSN20011123081009311/23/01 08:10:31  5-MIN KMSN 231410Z 18009KT 10SM CLR 07/01 A2977 1000 65 300 170/09 RMK AO2
14837KMSN MSN20011123081509311/23/01 08:15:31  5-MIN KMSN 231415Z 18012KT 10SM CLR 07/01 A2977 1010 65 400 170/12 RMK AO2
14837KMSN MSN20011123082009311/23/01 08:20:31  5-MIN KMSN 231420Z 18011KT 10SM CLR 07/01 A2977 1010 65 400 180/11 RMK AO2
14837KMSN MSN20011123082509311/23/01 08:25:31  5-MIN KMSN 231425Z 18011KT 10SM CLR 07/01 A2976 1010 65 400 180/11 RMK AO2
14837KMSN MSN20011123083009311/23/01 08:30:31  5-MIN KMSN 231430Z 18011KT 10SM CLR 07/01 A2976 1010 65 400 180/11 RMK AO2
14837KMSN MSN20011123083509311/23/01 08:35:31  5-MIN KMSN 231435Z 18011KT 10SM CLR 08/01 A2976 1010 62 400 180/11 RMK AO2
14837KMSN MSN20011123084009311/23/01 08:40:31  5-MIN KMSN 231440Z 18011KT 10SM CLR 08/01 A2976 1010 62 400 180/11 RMK AO2
14837KMSN MSN20011123084509311/23/01 08:45:31  5-MIN KMSN 231445Z 17010KT 10SM CLR 08/02 A2976 1010 65 400 170/10 RMK AO2
14837KMSN MSN20011123085011611/23/01 08:50:31  5-MIN KMSN 231450Z 17011KT 10SM CLR 08/02 A2976 1010 63 500 170/11 RMK AO2 SLP081 T00830017 53002
14837KMSN MSN20011123085509311/23/01 08:55:31  5-MIN KMSN 231455Z 18009KT 10SM CLR 08/02 A2976 1010 63 500 180/09 RMK AO2
14837KMSN MSN20011123090009311/23/01 09:00:31  5-MIN KMSN 231500Z 17011KT 10SM CLR 08/02 A2976 1010 63 500 170/11 RMK AO2
14837KMSN MSN20011123090509311/23/01 09:05:31  5-MIN KMSN 231505Z 16011KT 10SM CLR 09/02 A2976 1020 60 600 160/11 RMK AO2
14837KMSN MSN20011123091009311/23/01 09:10:31  5-MIN KMSN 231510Z 17013KT 10SM CLR 09/02 A2975 1020 60 600 170/13 RMK AO2
14837KMSN MSN20011123091509311/23/01 09:15:31  5-MIN KMSN 231515Z 18012KT 10SM CLR 09/02 A2975 1020 60 600 180/12 RMK AO2
14837KMSN MSN20011123092009311/23/01 09:20:31  5-MIN KMSN 231520Z 17011KT 10SM CLR 09/02 A2975 1020 60 600 170/11 RMK AO2
14837KMSN MSN20011123092509311/23/01 09:25:31  5-MIN KMSN 231525Z 18009KT 10SM CLR 09/02 A2975 1020 58 600 180/09 RMK AO2
14837KMSN MSN20011123093009311/23/01 09:30:31  5-MIN KMSN 231530Z 18009KT 10SM CLR 09/02 A2975 1020 60 600 180/09 RMK AO2
14837KMSN MSN20011123093509311/23/01 09:35:31  5-MIN KMSN 231535Z 17010KT 10SM CLR 10/02 A2975 1020 58 700 170/10 RMK AO2
14837KMSN MSN20011123094009311/23/01 09:40:31  5-MIN KMSN 231540Z 17008KT 10SM CLR 10/02 A2975 1020 58 700 170/08 RMK AO2
14837KMSN MSN20011123094509311/23/01 09:45:31  5-MIN KMSN 231545Z 18009KT 10SM CLR 09/02 A2975 1020 60 600 180/09 RMK AO2
14837KMSN MSN20011123095011011/23/01 09:50:31  5-MIN KMSN 231550Z 18007KT 10SM CLR 09/02 A2976 1020 60 600 180/07 RMK AO2 SLP080 T00940022
14837KMSN MSN20011123095509311/23/01 09:55:31  5-MIN KMSN 231555Z 18008KT 10SM CLR 10/02 A2976 1020 58 700 180/08 RMK AO2
14837KMSN MSN20011123100009311/23/01 10:00:31  5-MIN KMSN 231600Z 18011KT 10SM CLR 10/03 A2976 1010 60 700 180/11 RMK AO2
14837KMSN MSN20011123100509311/23/01 10:05:31  5-MIN KMSN 231605Z 18010KT 10SM CLR 10/02 A2976 1010 58 700 180/10 RMK AO2
14837KMSN MSN20011123101009311/23/01 10:10:31  5-MIN KMSN 231610Z 18011KT 10SM CLR 10/03 A2977 1010 60 700 180/11 RMK AO2
14837KMSN MSN20011123101509311/23/01 10:15:31  5-MIN KMSN 231615Z 18011KT 10SM CLR 10/03 A2977 1010 60 700 180/11 RMK AO2
14837KMSN MSN20011123102009311/23/01 10:20:31  5-MIN KMSN 231620Z 18011KT 10SM CLR 10/03 A2977 1000 60 700 180/11 RMK AO2
14837KMSN MSN20011123102509311/23/01 10:25:31  5-MIN KMSN 231625Z 18009KT 10SM CLR 10/03 A2977 1010 60 700 180/09 RMK AO2
14837KMSN MSN20011123103009311/23/01 10:30:31  5-MIN KMSN 231630Z 18010KT 10SM CLR 10/03 A2977 1010 60 700 180/10 RMK AO2
14837KMSN MSN20011123103509311/23/01 10:35:31  5-MIN KMSN 231635Z 17008KT 10SM CLR 10/03 A2976 1010 60 700 170/08 RMK AO2
14837KMSN MSN20011123104009311/23/01 10:40:31  5-MIN KMSN 231640Z 18010KT 10SM CLR 11/03 A2976 1010 58 800 170/10 RMK AO2
14837KMSN MSN20011123104509311/23/01 10:45:31  5-MIN KMSN 231645Z 17009KT 10SM CLR 11/03 A2976 1010 58 800 170/09 RMK AO2
14837KMSN MSN20011123105011011/23/01 10:50:31  5-MIN KMSN 231650Z 16009KT 10SM CLR 11/03 A2976 1010 61 800 160/09 RMK AO2 SLP080 T01060033
14837KMSN MSN20011123105509211/23/01 10:55:31  5-MIN KMSN 231655Z 17009KT 8SM CLR 11/03 A2976 1010 61 800 170/09 RMK AO2
14837KMSN MSN20011123110009511/23/01 11:00:31  5-MIN KMSN 231700Z 17010KT 10SM CLR 11/03 A2976 1010 58 800 170/10 RMK AO2 $
14837KMSN MSN20011123110509511/23/01 11:05:31  5-MIN KMSN 231705Z 17011KT 10SM CLR 11/03 A2976 1010 58 800 170/11 RMK AO2 $
14837KMSN MSN20011123111009511/23/01 11:10:31  5-MIN KMSN 231710Z 18010KT 10SM CLR 11/03 A2976 1010 58 800 170/10 RMK AO2 $
14837KMSN MSN20011123111509511/23/01 11:15:31  5-MIN KMSN 231715Z 16010KT 10SM CLR 11/03 A2975 1020 58 800 160/10 RMK AO2 $
14837KMSN MSN20011123112009511/23/01 11:20:31  5-MIN KMSN 231720Z 17010KT 10SM CLR 11/03 A2975 1020 58 800 170/10 RMK AO2 $
14837KMSN MSN20011123112509511/23/01 11:25:31  5-MIN KMSN 231725Z 16010KT 10SM CLR 11/03 A2975 1020 58 800 160/10 RMK AO2 $
14837KMSN MSN20011123113009511/23/01 11:30:31  5-MIN KMSN 231730Z 16010KT 10SM CLR 11/03 A2975 1030 58 800 160/10 RMK AO2 $
14837KMSN MSN20011123113510111/23/01 11:35:31  5-MIN KMSN 231735Z 17011KT 10SM CLR 11/03 A2974 1030 58 800 170/11 RMK AO2 P0004 $
14837KMSN MSN20011123114010111/23/01 11:40:31  5-MIN KMSN 231740Z 17010KT 10SM CLR 11/03 A2974 1030 58 800 160/10 RMK AO2 P0004 $
14837KMSN MSN20011123114510111/23/01 11:45:31  5-MIN KMSN 231745Z 17010KT 10SM CLR 12/03 A2974 1030 56 900 170/10 RMK AO2 P0004 $
14837KMSN MSN20011123115013011/23/01 11:50:31  5-MIN KMSN 231750Z 17011KT 10SM CLR 12/04 A2974 1030 58 900 170/11 RMK AO2 SLP073 T01170039 10117 20050 50004 $
14837KMSN MSN20011123115509611/23/01 11:55:31  5-MIN KMSN 231755Z 17011KT 10SM CLR 12/04 A2974 1030 56 1000 170/11 RMK AO2 $
14837KMSN MSN20011123120009511/23/01 12:00:31  5-MIN KMSN 231800Z 17011KT 10SM CLR 12/03 A2974 1040 56 900 170/11 RMK AO2 $
14837KMSN MSN20011123120509511/23/01 12:05:31  5-MIN KMSN 231805Z 18010KT 10SM CLR 12/03 A2973 1040 56 900 170/10 RMK AO2 $
14837KMSN MSN20011123121009511/23/01 12:10:31  5-MIN KMSN 231810Z 15010KT 10SM CLR 12/03 A2973 1040 56 900 150/10 RMK AO2 $
14837KMSN MSN20011123121509611/23/01 12:15:31  5-MIN KMSN 231815Z 15010KT 10SM CLR 12/04 A2973 1040 56 1000 150/10 RMK AO2 $
14837KMSN MSN20011123122009611/23/01 12:20:31  5-MIN KMSN 231820Z 16011KT 10SM CLR 12/04 A2973 1040 56 1000 160/11 RMK AO2 $
14837KMSN MSN20011123122509611/23/01 12:25:31  5-MIN KMSN 231825Z 16010KT 10SM CLR 12/04 A2973 1040 56 1000 150/10 RMK AO2 $
14837KMSN MSN20011123123009311/23/01 12:30:31  5-MIN KMSN 231830Z 15011KT 10SM CLR 12/04 A2973 1040 58 900 150/11 RMK AO2
14837KMSN MSN20011123123509411/23/01 12:35:31  5-MIN KMSN 231835Z 16009KT 10SM CLR 12/04 A2973 1040 56 1000 160/09 RMK AO2
14837KMSN MSN20011123124009411/23/01 12:40:31  5-MIN KMSN 231840Z 16011KT 10SM CLR 12/04 A2973 1040 56 1000 160/11 RMK AO2
14837KMSN MSN20011123124509411/23/01 12:45:31  5-MIN KMSN 231845Z 16010KT 10SM CLR 12/04 A2973 1040 56 1000 160/10 RMK AO2
14837KMSN MSN20011123125011111/23/01 12:50:31  5-MIN KMSN 231850Z 16011KT 10SM CLR 12/04 A2973 1040 56 1000 160/11 RMK AO2 SLP069 T01220039
14837KMSN MSN20011123125509411/23/01 12:55:31  5-MIN KMSN 231855Z 16011KT 10SM CLR 12/04 A2973 1050 56 1000 160/11 RMK AO2
14837KMSN MSN20011123130009411/23/01 13:00:31  5-MIN KMSN 231900Z 16010KT 10SM CLR 12/04 A2972 1050 56 1000 160/10 RMK AO2
14837KMSN MSN20011123130509411/23/01 13:05:31  5-MIN KMSN 231905Z 16010KT 10SM CLR 13/04 A2972 1050 56 1100 160/10 RMK AO2
14837KMSN MSN20011123131009411/23/01 13:10:31  5-MIN KMSN 231910Z 16009KT 10SM CLR 13/04 A2972 1050 56 1100 150/09 RMK AO2
14837KMSN MSN20011123131509411/23/01 13:15:31  5-MIN KMSN 231915Z 15012KT 10SM CLR 13/04 A2972 1050 56 1100 150/12 RMK AO2
14837KMSN MSN20011123132009411/23/01 13:20:31  5-MIN KMSN 231920Z 15010KT 10SM CLR 13/04 A2972 1050 56 1100 150/10 RMK AO2
14837KMSN MSN20011123132509411/23/01 13:25:31  5-MIN KMSN 231925Z 15011KT 10SM CLR 13/04 A2972 1050 56 1100 150/11 RMK AO2
14837KMSN MSN20011123133009411/23/01 13:30:31  5-MIN KMSN 231930Z 14011KT 10SM CLR 13/04 A2972 1050 56 1100 140/11 RMK AO2
14837KMSN MSN20011123133509411/23/01 13:35:31  5-MIN KMSN 231935Z 15010KT 10SM CLR 13/04 A2971 1060 56 1100 150/10 RMK AO2
14837KMSN MSN20011123134009411/23/01 13:40:31  5-MIN KMSN 231940Z 15008KT 10SM CLR 13/04 A2971 1060 56 1100 150/08 RMK AO2
14837KMSN MSN20011123134509411/23/01 13:45:31  5-MIN KMSN 231945Z 14010KT 10SM CLR 13/04 A2971 1060 56 1100 140/10 RMK AO2
14837KMSN MSN20011123135011111/23/01 13:50:31  5-MIN KMSN 231950Z 14008KT 10SM CLR 13/04 A2971 1060 56 1100 140/08 RMK AO2 SLP061 T01280044
14837KMSN MSN20011123135509411/23/01 13:55:31  5-MIN KMSN 231955Z 14009KT 10SM CLR 13/04 A2971 1060 54 1200 140/09 RMK AO2
14837KMSN MSN20011123140009411/23/01 14:00:31  5-MIN KMSN 232000Z 14009KT 10SM CLR 13/04 A2970 1070 54 1200 140/09 RMK AO2
14837KMSN MSN20011123140509411/23/01 14:05:31  5-MIN KMSN 232005Z 14009KT 10SM CLR 13/04 A2970 1070 54 1200 130/09 RMK AO2
14837KMSN MSN20011123141009711/23/01 14:10:31  5-MIN KMSN 232010Z 12012KT 10SM FEW085 13/04 A2970 1070 54 1200 120/12 RMK AO2
14837KMSN MSN20011123141509711/23/01 14:15:31  5-MIN KMSN 232015Z 14009KT 10SM FEW085 13/04 A2970 1070 54 1200 140/09 RMK AO2
14837KMSN MSN20011123142009711/23/01 14:20:31  5-MIN KMSN 232020Z 13009KT 10SM BKN085 13/04 A2970 1070 54 1200 130/09 RMK AO2
14837KMSN MSN20011123142509711/23/01 14:25:31  5-MIN KMSN 232025Z 13009KT 10SM BKN085 13/04 A2970 1070 54 1200 130/09 RMK AO2
14837KMSN MSN20011123143009711/23/01 14:30:31  5-MIN KMSN 232030Z 14010KT 10SM BKN085 13/04 A2970 1070 54 1200 140/10 RMK AO2
14837KMSN MSN20011123143509711/23/01 14:35:31  5-MIN KMSN 232035Z 14011KT 10SM OVC085 13/04 A2970 1070 52 1200 140/11 RMK AO2
14837KMSN MSN20011123144010411/23/01 14:40:31  5-MIN KMSN 232040Z 14012KT 10SM FEW026 BKN085 13/04 A2970 1070 52 1200 140/12 RMK AO2
14837KMSN MSN20011123144510411/23/01 14:45:31  5-MIN KMSN 232045Z 14010KT 10SM FEW026 BKN085 13/04 A2970 1070 52 1200 140/10 RMK AO2
14837KMSN MSN20011123145012711/23/01 14:50:31  5-MIN KMSN 232050Z 14010KT 10SM FEW026 BKN085 13/04 A2970 1070 52 1200 140/10 RMK AO2 SLP060 T01330039 58007
14837KMSN MSN20011123145510411/23/01 14:55:31  5-MIN KMSN 232055Z 14009KT 10SM SCT026 BKN090 13/04 A2971 1060 52 1200 130/09 RMK AO2
14837KMSN MSN20011123150010411/23/01 15:00:31  5-MIN KMSN 232100Z 14011KT 10SM BKN026 BKN090 13/04 A2971 1060 52 1200 140/11 RMK AO2
14837KMSN MSN20011123150510411/23/01 15:05:31  5-MIN KMSN 232105Z 14012KT 10SM BKN026 BKN085 13/04 A2971 1060 52 1200 140/12 RMK AO2
14837KMSN MSN20011123151010411/23/01 15:10:31  5-MIN KMSN 232110Z 14009KT 10SM SCT026 BKN090 13/04 A2971 1060 52 1200 140/09 RMK AO2
14837KMSN MSN20011123151510411/23/01 15:15:31  5-MIN KMSN 232115Z 14014KT 10SM FEW026 SCT090 13/04 A2971 1060 56 1100 140/14 RMK AO2
14837KMSN MSN20011123152010411/23/01 15:20:31  5-MIN KMSN 232120Z 14010KT 10SM FEW026 SCT090 13/04 A2971 1060 56 1100 140/10 RMK AO2
14837KMSN MSN20011123152510411/23/01 15:25:31  5-MIN KMSN 232125Z 14010KT 10SM FEW024 SCT085 13/04 A2971 1060 56 1100 140/10 RMK AO2
14837KMSN MSN20011123153010411/23/01 15:30:31  5-MIN KMSN 232130Z 13009KT 10SM SCT022 SCT090 13/04 A2971 1060 56 1100 130/09 RMK AO2
14837KMSN MSN20011123153509711/23/01 15:35:31  5-MIN KMSN 232135Z 13009KT 10SM BKN022 13/04 A2971 1060 56 1100 130/09 RMK AO2
14837KMSN MSN20011123154009711/23/01 15:40:31  5-MIN KMSN 232140Z 14010KT 10SM BKN022 13/05 A2971 1060 59 1100 140/10 RMK AO2
14837KMSN MSN20011123154509711/23/01 15:45:31  5-MIN KMSN 232145Z 14010KT 10SM BKN022 13/05 A2971 1060 59 1100 140/10 RMK AO2
14837KMSN MSN20011123155011411/23/01 15:50:31  5-MIN KMSN 232150Z 14013KT 10SM OVC022 13/05 A2971 1060 59 1100 140/13 RMK AO2 SLP062 T01280050
14837KMSN MSN20011123155509711/23/01 15:55:31  5-MIN KMSN 232155Z 14011KT 10SM BKN022 13/06 A2971 1060 61 1100 140/11 RMK AO2
14837KMSN MSN20011123160009711/23/01 16:00:31  5-MIN KMSN 232200Z 14011KT 10SM BKN022 13/06 A2971 1060 61 1100 140/11 RMK AO2
14837KMSN MSN20011123160509711/23/01 16:05:31  5-MIN KMSN 232205Z 14011KT 10SM BKN022 13/06 A2971 1060 61 1100 140/11 RMK AO2
14837KMSN MSN20011123161011111/23/01 16:10:31  5-MIN KMSN 232210Z 14010KT 10SM SCT022 BKN060 OVC080 13/06 A2971 1060 61 1100 140/10 RMK AO2
14837KMSN MSN20011123161510411/23/01 16:15:31  5-MIN KMSN 232215Z 14010KT 10SM BKN022 OVC060 13/06 A2971 1060 61 1100 130/10 RMK AO2
14837KMSN MSN20011123162010411/23/01 16:20:31  5-MIN KMSN 232220Z 14011KT 10SM BKN022 OVC060 13/06 A2971 1060 61 1100 140/11 RMK AO2
14837KMSN MSN20011123162510411/23/01 16:25:31  5-MIN KMSN 232225Z 13010KT 10SM BKN022 OVC060 13/06 A2971 1060 61 1100 130/10 RMK AO2
14837KMSN MSN20011123163011111/23/01 16:30:31  5-MIN KMSN 232230Z 12009KT 10SM BKN022 BKN042 OVC060 13/06 A2970 1070 61 1100 120/09 RMK AO2
14837KMSN MSN20011123163511111/23/01 16:35:31  5-MIN KMSN 232235Z 12008KT 10SM BKN022 BKN040 OVC060 12/06 A2971 1060 63 1000 120/08 RMK AO2
14837KMSN MSN20011123164010411/23/01 16:40:31  5-MIN KMSN 232240Z 13010KT 10SM BKN024 OVC040 12/06 A2971 1060 63 1000 130/10 RMK AO2
14837KMSN MSN20011123164510411/23/01 16:45:31  5-MIN KMSN 232245Z 14012KT 10SM BKN024 OVC040 13/06 A2971 1060 61 1100 140/12 RMK AO2
14837KMSN MSN20011123165012711/23/01 16:50:31  5-MIN KMSN 232250Z 14012G19KT 10SM BKN024 OVC040 13/06 A2971 1060 63 1100 140/12G19 RMK AO2 SLP062 T01280061
14837KMSN MSN20011123165511011/23/01 16:55:31  5-MIN KMSN 232255Z 14015G19KT 10SM BKN024 OVC040 13/06 A2971 1060 63 1100 140/15G19 RMK AO2
14837KMSN MSN20011123170009711/23/01 17:00:31  5-MIN KMSN 232300Z 15010KT 10SM OVC024 13/07 A2971 1060 66 1100 150/10 RMK AO2
14837KMSN MSN20011123170509711/23/01 17:05:31  5-MIN KMSN 232305Z 15012KT 10SM OVC024 13/07 A2971 1060 66 1100 150/12 RMK AO2
14837KMSN MSN20011123171009711/23/01 17:10:31  5-MIN KMSN 232310Z 14016KT 10SM OVC024 12/07 A2971 1060 71 1000 140/16 RMK AO2
14837KMSN MSN20011123171509711/23/01 17:15:31  5-MIN KMSN 232315Z 15014KT 10SM OVC024 12/08 A2972 1050 74 1000 150/14 RMK AO2
14837KMSN MSN20011123172009711/23/01 17:20:31  5-MIN KMSN 232320Z 14012KT 10SM OVC024 12/08 A2971 1060 74 1000 140/12 RMK AO2
14837KMSN MSN20011123172509611/23/01 17:25:31  5-MIN KMSN 232325Z 15011KT 10SM OVC026 12/08 A2972 1050 77 900 150/11 RMK AO2
14837KMSN MSN20011123173009611/23/01 17:30:31  5-MIN KMSN 232330Z 15010KT 10SM OVC026 12/08 A2971 1050 80 900 150/10 RMK AO2
14837KMSN MSN20011123173509611/23/01 17:35:31  5-MIN KMSN 232335Z 14010KT 10SM OVC026 12/08 A2971 1060 80 900 140/10 RMK AO2
14837KMSN MSN20011123174009611/23/01 17:40:31  5-MIN KMSN 232340Z 14009KT 10SM OVC028 12/08 A2971 1060 80 900 140/09 RMK AO2
14837KMSN MSN20011123174509711/23/01 17:45:31  5-MIN KMSN 232345Z 14012KT 10SM OVC028 12/08 A2971 1060 80 1000 130/12 RMK AO2
14837KMSN MSN20011123175013911/23/01 17:50:31  5-MIN KMSN 232350Z 13012KT 10SM FEW015 OVC028 12/08 A2971 1060 80 1000 130/12 RMK AO2 SLP063 T01170083 10133 20117 56011
14837KMSN MSN20011123175510411/23/01 17:55:31  5-MIN KMSN 232355Z 14010KT 10SM FEW015 OVC028 12/09 A2971 1060 83 1000 140/10 RMK AO2
14837KMSN MSN20011123180010311/23/01 18:00:31  5-MIN KMSN 240000Z 14014G19KT 10SM OVC028 12/09 A2971 1060 83 1000 140/14G19 RMK AO2
14837KMSN MSN20011123180512411/23/01 18:05:31  5-MIN KMSN 240005Z 14013G19KT 7SM -RA BKN028 OVC060 11/09 A2971 1060 89 900 140/13G19 RMK AO2 RAB01 P0000
14837KMSN MSN20011123181012811/23/01 18:10:31  5-MIN KMSN 240010Z 14011KT 6SM -RA BR FEW016 BKN028 OVC060 11/09 A2971 1060 89 900 140/11 RMK AO2 RAB01 P0000
14837KMSN MSN20011123181512511/23/01 18:15:31  5-MIN KMSN 240015Z 14012KT 8SM -RA FEW016 BKN026 OVC055 11/09 A2971 1060 89 900 140/12 RMK AO2 RAB01 P0000
14837KMSN MSN20011123182011711/23/01 18:20:31  5-MIN KMSN 240020Z 13011KT 9SM BKN026 OVC060 11/09 A2971 1060 89 900 130/11 RMK AO2 RAB01E17 P0000
14837KMSN MSN20011123182511011/23/01 18:25:31  5-MIN KMSN 240025Z 14009KT 8SM BKN028 11/09 A2971 1060 89 900 130/09 RMK AO2 RAB01E17 P0000
14837KMSN MSN20011123183011011/23/01 18:30:31  5-MIN KMSN 240030Z 13010KT 8SM OVC028 11/09 A2971 1060 89 900 130/10 RMK AO2 RAB01E17 P0000
14837KMSN MSN20011123183511711/23/01 18:35:31  5-MIN KMSN 240035Z 13009KT 8SM BKN028 OVC039 11/09 A2971 1060 89 900 130/09 RMK AO2 RAB01E17 P0000
14837KMSN MSN20011123184011711/23/01 18:40:31  5-MIN KMSN 240040Z 13011KT 8SM BKN030 OVC036 11/09 A2971 1060 89 900 130/11 RMK AO2 RAB01E17 P0000
14837KMSN MSN20011123184511111/23/01 18:45:31  5-MIN KMSN 240045Z 13010KT 10SM OVC033 11/09 A2970 1070 89 900 130/10 RMK AO2 RAB01E17 P0000
14837KMSN MSN20011123185014411/23/01 18:50:31  5-MIN KMSN 240050Z 13011KT 6SM -RA BR SCT030 OVC038 11/09 A2970 1070 89 900 130/11 RMK AO2 RAB01E17B50 SLP062 P0001 T01110094
14837KMSN MSN20011123185511511/23/01 18:55:31  5-MIN KMSN 240055Z 14011KT 6SM -RA BR BKN034 OVC043 11/09 A2971 1060 93 800 140/11 RMK AO2 P0000
14837KMSN MSN20011123190011411/23/01 19:00:31  5-MIN KMSN 240100Z 14010KT 8SM BKN034 OVC043 11/09 A2970 1060 93 800 140/10 RMK AO2 RAE00 P0000
14837KMSN MSN20011123190511411/23/01 19:05:31  5-MIN KMSN 240105Z 14011KT 7SM BKN036 OVC043 11/09 A2970 1060 93 800 140/11 RMK AO2 RAE00 P0000
14837KMSN MSN20011123191010711/23/01 19:10:31  5-MIN KMSN 240110Z 14009KT 7SM OVC041 11/09 A2971 1060 93 800 140/09 RMK AO2 RAE00 P0000
14837KMSN MSN20011123191510811/23/01 19:15:31  5-MIN KMSN 240115Z 14010KT 5SM -RA BR OVC041 11/09 A2971 1060 89 900 130/10 RMK AO2 P0001
14837KMSN MSN20011123192011511/23/01 19:20:31  5-MIN KMSN 240120Z 14009KT 5SM -RA BR BKN037 OVC044 11/09 A2971 1060 89 900 140/09 RMK AO2 P0001
14837KMSN MSN20011123192510811/23/01 19:25:31  5-MIN KMSN 240125Z 15008KT 5SM -RA BR OVC037 11/09 A2971 1060 89 900 150/08 RMK AO2 P0002
14837KMSN MSN20011123193010811/23/01 19:30:31  5-MIN KMSN 240130Z 15011KT 6SM -RA BR OVC035 11/09 A2971 1060 89 900 150/11 RMK AO2 P0002
14837KMSN MSN20011123193510811/23/01 19:35:31  5-MIN KMSN 240135Z 14010KT 6SM -RA BR OVC035 11/09 A2971 1060 89 900 140/10 RMK AO2 P0002
14837KMSN MSN20011123194010511/23/01 19:40:31  5-MIN KMSN 240140Z 14011KT 8SM -RA OVC035 11/09 A2971 1060 89 900 140/11 RMK AO2 P0002
14837KMSN MSN20011123194510711/23/01 19:45:31  5-MIN KMSN 240145Z 14009KT 9SM OVC035 11/09 A2971 1060 89 900 140/09 RMK AO2 RAE43 P0002
14837KMSN MSN20011123195012411/23/01 19:50:31  5-MIN KMSN 240150Z 15010KT 9SM OVC035 11/09 A2970 1070 89 900 150/10 RMK AO2 RAE43 SLP062 P0002 T01110094
14837KMSN MSN20011123195509511/23/01 19:55:31  5-MIN KMSN 240155Z 14010KT 9SM OVC035 11/09 A2970 1070 89 900 140/10 RMK AO2
14837KMSN MSN20011123200009511/23/01 20:00:31  5-MIN KMSN 240200Z 14011KT 9SM OVC033 11/09 A2970 1070 89 900 140/11 RMK AO2
14837KMSN MSN20011123200509511/23/01 20:05:31  5-MIN KMSN 240205Z 15011KT 9SM OVC033 11/09 A2970 1070 89 900 140/11 RMK AO2
14837KMSN MSN20011123201009511/23/01 20:10:31  5-MIN KMSN 240210Z 14009KT 9SM OVC033 11/09 A2970 1070 89 900 140/09 RMK AO2
14837KMSN MSN20011123201509511/23/01 20:15:31  5-MIN KMSN 240215Z 14011KT 9SM OVC033 11/09 A2970 1070 89 900 140/11 RMK AO2
14837KMSN MSN20011123202009511/23/01 20:20:31  5-MIN KMSN 240220Z 14009KT 9SM OVC033 11/09 A2970 1070 89 900 140/09 RMK AO2
14837KMSN MSN20011123202509511/23/01 20:25:31  5-MIN KMSN 240225Z 14009KT 9SM OVC033 11/09 A2969 1070 89 900 140/09 RMK AO2
14837KMSN MSN20011123203009511/23/01 20:30:31  5-MIN KMSN 240230Z 14010KT 9SM OVC033 11/09 A2969 1080 86 900 140/10 RMK AO2
14837KMSN MSN20011123203509511/23/01 20:35:31  5-MIN KMSN 240235Z 14009KT 9SM OVC033 11/09 A2969 1080 86 900 140/09 RMK AO2
14837KMSN MSN20011123204009611/23/01 20:40:31  5-MIN KMSN 240240Z 14010KT 10SM OVC033 11/09 A2969 1080 86 900 140/10 RMK AO2
14837KMSN MSN20011123204509711/23/01 20:45:31  5-MIN KMSN 240245Z 15011KT 10SM OVC033 12/09 A2969 1080 83 1000 140/11 RMK AO2
14837KMSN MSN20011123205012511/23/01 20:50:31  5-MIN KMSN 240250Z 14010KT 10SM OVC033 11/09 A2969 1080 86 900 140/10 RMK AO2 SLP055 60003 T01110089 51001
14837KMSN MSN20011123205509711/23/01 20:55:31  5-MIN KMSN 240255Z 15012KT 10SM OVC035 12/09 A2969 1080 83 1000 150/12 RMK AO2
14837KMSN MSN20011123210009611/23/01 21:00:31  5-MIN KMSN 240300Z 15010KT 10SM OVC033 11/09 A2969 1080 86 900 150/10 RMK AO2
14837KMSN MSN20011123210510411/23/01 21:05:31  5-MIN KMSN 240305Z 15011KT 10SM BKN031 OVC038 12/09 A2969 1080 83 1000 150/11 RMK AO2
14837KMSN MSN20011123211009711/23/01 21:10:31  5-MIN KMSN 240310Z 15010KT 10SM OVC033 12/09 A2969 1080 83 1000 140/10 RMK AO2
14837KMSN MSN20011123211509611/23/01 21:15:31  5-MIN KMSN 240315Z 14012KT 10SM OVC033 11/09 A2969 1080 86 900 140/12 RMK AO2
14837KMSN MSN20011123212009711/23/01 21:20:31  5-MIN KMSN 240320Z 15011KT 10SM OVC035 12/09 A2969 1080 83 1000 150/11 RMK AO2
14837KMSN MSN20011123212509711/23/01 21:25:31  5-MIN KMSN 240325Z 14010KT 10SM OVC035 12/09 A2969 1080 83 1000 140/10 RMK AO2
14837KMSN MSN20011123213009711/23/01 21:30:31  5-MIN KMSN 240330Z 14010KT 10SM OVC037 12/09 A2969 1080 83 1000 140/10 RMK AO2
14837KMSN MSN20011123213511111/23/01 21:35:31  5-MIN KMSN 240335Z 14011KT 10SM BKN037 BKN050 OVC060 12/09 A2969 1080 83 1000 140/11 RMK AO2
14837KMSN MSN20011123214010411/23/01 21:40:31  5-MIN KMSN 240340Z 14009KT 10SM BKN039 OVC055 12/09 A2969 1080 83 1000 140/09 RMK AO2
14837KMSN MSN20011123214510311/23/01 21:45:31  5-MIN KMSN 240345Z 14008KT 10SM BKN039 OVC060 11/09 A2969 1080 86 900 140/08 RMK AO2
14837KMSN MSN20011123215012111/23/01 21:50:31  5-MIN KMSN 240350Z 15010KT 10SM BKN037 OVC055 12/09 A2969 1080 83 1000 150/10 RMK AO2 SLP055 T01170089
14837KMSN MSN20011123215510411/23/01 21:55:31  5-MIN KMSN 240355Z 15008KT 10SM BKN037 OVC050 12/09 A2969 1080 83 1000 150/08 RMK AO2
14837KMSN MSN20011123220010411/23/01 22:00:31  5-MIN KMSN 240400Z 15008KT 10SM BKN035 OVC055 12/09 A2969 1080 83 1000 150/08 RMK AO2
14837KMSN MSN20011123220510411/23/01 22:05:31  5-MIN KMSN 240405Z 14009KT 10SM BKN035 OVC042 12/09 A2968 1090 83 1000 140/09 RMK AO2
14837KMSN MSN20011123221009711/23/01 22:10:31  5-MIN KMSN 240410Z 14010KT 10SM OVC035 12/09 A2968 1090 83 1000 140/10 RMK AO2
14837KMSN MSN20011123221510411/23/01 22:15:31  5-MIN KMSN 240415Z 14011KT 10SM BKN035 OVC110 12/09 A2968 1090 83 1000 140/11 RMK AO2
14837KMSN MSN20011123222011111/23/01 22:20:31  5-MIN KMSN 240420Z 14012KT 10SM FEW025 BKN033 BKN110 12/09 A2968 1090 83 1000 140/12 RMK AO2
14837KMSN MSN20011123222511111/23/01 22:25:31  5-MIN KMSN 240425Z 15010KT 10SM SCT025 BKN033 BKN110 12/09 A2968 1090 83 1000 140/10 RMK AO2
14837KMSN MSN20011123223011111/23/01 22:30:31  5-MIN KMSN 240430Z 14009KT 10SM BKN025 BKN033 OVC110 12/09 A2968 1090 83 1000 140/09 RMK AO2
14837KMSN MSN20011123223511111/23/01 22:35:31  5-MIN KMSN 240435Z 15011KT 10SM BKN025 BKN033 OVC110 12/09 A2968 1090 83 1000 150/11 RMK AO2
14837KMSN MSN20011123224011911/23/01 22:40:31  5-MIN KMSN 240440Z 16010KT 9SM -RA BKN025 OVC110 12/09 A2968 1090 83 1000 150/10 RMK AO2 RAB37 P0000
14837KMSN MSN20011123224511211/23/01 22:45:31  5-MIN KMSN 240445Z 15009KT 9SM -RA OVC025 12/09 A2968 1090 83 1000 150/09 RMK AO2 RAB37 P0001
14837KMSN MSN20011123225012911/23/01 22:50:31  5-MIN KMSN 240450Z 15011KT 9SM -RA OVC023 12/09 A2967 1090 83 1000 150/11 RMK AO2 RAB37 SLP050 P0001 T01170089
14837KMSN MSN20011123225510711/23/01 22:55:31  5-MIN KMSN 240455Z 14009KT 10SM -RA OVC023 12/09 A2967 1090 83 1000 140/09 RMK AO2 P0000
14837KMSN MSN20011123230011111/23/01 23:00:31  5-MIN KMSN 240500Z 15009KT 10SM OVC023 12/09 A2967 1090 83 1000 140/09 RMK AO2 RAE0458 P0000
14837KMSN MSN20011123230511111/23/01 23:05:31  5-MIN KMSN 240505Z 14009KT 10SM OVC023 12/09 A2967 1100 83 1000 140/09 RMK AO2 RAE0458 P0000
14837KMSN MSN20011123231011011/23/01 23:10:31  5-MIN KMSN 240510Z 15011KT 8SM OVC023 12/09 A2967 1100 83 1000 150/11 RMK AO2 RAE0458 P0000
14837KMSN MSN20011123231510811/23/01 23:15:31  5-MIN KMSN 240515Z 15011KT 6SM -RA BR OVC023 11/09 A2967 1100 86 900 150/11 RMK AO2 P0001
14837KMSN MSN20011123232010611/23/01 23:20:31  5-MIN KMSN 240520Z 15010KT 6SM -RA OVC023 12/09 A2967 1100 83 1000 150/10 RMK AO2 P0001
14837KMSN MSN20011123232510511/23/01 23:25:31  5-MIN KMSN 240525Z 15010KT 8SM -RA OVC023 11/09 A2967 1100 89 900 140/10 RMK AO2 P0001
14837KMSN MSN20011123233010911/23/01 23:30:31  5-MIN KMSN 240530Z 14010KT 10SM OVC023 12/09 A2967 1100 83 1000 140/10 RMK AO2 RAE29 P0001
14837KMSN MSN20011123233510811/23/01 23:35:31  5-MIN KMSN 240535Z 14011KT 9SM OVC023 12/09 A2966 1100 86 1000 140/11 RMK AO2 RAE29 P0001
14837KMSN MSN20011123234011511/23/01 23:40:31  5-MIN KMSN 240540Z 15010KT 9SM BKN023 OVC029 12/09 A2966 1100 86 1000 140/10 RMK AO2 RAE29 P0001
14837KMSN MSN20011123234511511/23/01 23:45:31  5-MIN KMSN 240545Z 14010KT 8SM BKN023 OVC029 12/09 A2966 1110 86 1000 140/10 RMK AO2 RAE29 P0001
14837KMSN MSN20011123235015911/23/01 23:50:31  5-MIN KMSN 240550Z 14010KT 8SM OVC025 12/09 A2966 1110 86 1000 140/10 RMK AO2 RAE29 SLP044 P0001 60005 T01170094 10117 20106 401330050 58007
14837KMSN MSN20011123235509611/23/01 23:55:31  5-MIN KMSN 240555Z 14010KT 9SM OVC025 12/09 A2965 1110 86 1000 140/10 RMK AO2
14837KMSN MSN20011124000009611/24/01 00:00:31  5-MIN KMSN 240600Z 14012KT 8SM OVC025 12/09 A2965 1110 86 1000 140/12 RMK AO2
14837KMSN MSN20011124000511211/24/01 00:05:31  5-MIN KMSN 240605Z 14011KT 8SM -RA OVC025 12/09 A2965 1110 86 1000 140/11 RMK AO2 RAB05 P0000
14837KMSN MSN20011124001011211/24/01 00:10:31  5-MIN KMSN 240610Z 14010KT 8SM -RA OVC023 12/09 A2965 1120 86 1000 140/10 RMK AO2 RAB05 P0000
14837KMSN MSN20011124001511211/24/01 00:15:31  5-MIN KMSN 240615Z 14008KT 8SM -RA OVC023 12/09 A2965 1120 86 1000 140/08 RMK AO2 RAB05 P0000
14837KMSN MSN20011124002011211/24/01 00:20:31  5-MIN KMSN 240620Z 15010KT 8SM -RA OVC021 12/09 A2965 1120 86 1000 140/10 RMK AO2 RAB05 P0000
14837KMSN MSN20011124002511211/24/01 00:25:31  5-MIN KMSN 240625Z 15009KT 8SM -RA OVC021 12/09 A2964 1120 86 1000 150/09 RMK AO2 RAB05 P0000
14837KMSN MSN20011124003011111/24/01 00:30:31  5-MIN KMSN 240630Z 15009KT 8SM OVC021 12/09 A2964 1120 86 1000 140/09 RMK AO2 RAB05E28 P0000
14837KMSN MSN20011124003511111/24/01 00:35:31  5-MIN KMSN 240635Z 15011KT 8SM OVC021 12/09 A2964 1120 86 1000 150/11 RMK AO2 RAB05E28 P0001
14837KMSN MSN20011124004011111/24/01 00:40:31  5-MIN KMSN 240640Z 15011KT 8SM OVC021 12/09 A2964 1130 86 1000 150/11 RMK AO2 RAB05E28 P0001
14837KMSN MSN20011124004511111/24/01 00:45:31  5-MIN KMSN 240645Z 15009KT 8SM OVC021 12/09 A2963 1130 86 1000 140/09 RMK AO2 RAB05E28 P0001
14837KMSN MSN20011124005013511/24/01 00:50:31  5-MIN KMSN 240650Z 15010KT 8SM -RA OVC021 12/09 A2963 1130 86 1000 150/10 RMK AO2 RAB05E28B46 SLP036 P0001 T01170094
14837KMSN MSN20011124005510611/24/01 00:55:31  5-MIN KMSN 240655Z 15009KT 8SM -RA OVC021 12/09 A2963 1130 86 1000 150/09 RMK AO2 P0000
14837KMSN MSN20011124010010611/24/01 01:00:31  5-MIN KMSN 240700Z 14010KT 8SM -RA OVC021 12/10 A2963 1140 89 1000 140/10 RMK AO2 P0000
14837KMSN MSN20011124010510811/24/01 01:05:31  5-MIN KMSN 240705Z 14009KT 8SM OVC021 12/10 A2962 1140 86 1100 140/09 RMK AO2 RAE04 P0000
14837KMSN MSN20011124011010811/24/01 01:10:31  5-MIN KMSN 240710Z 14010KT 8SM OVC021 12/10 A2962 1140 89 1100 140/10 RMK AO2 RAE04 P0000
14837KMSN MSN20011124011510811/24/01 01:15:31  5-MIN KMSN 240715Z 13011KT 8SM OVC021 12/10 A2962 1150 89 1100 130/11 RMK AO2 RAE04 P0000
14837KMSN MSN20011124012010811/24/01 01:20:31  5-MIN KMSN 240720Z 14011KT 8SM OVC021 12/10 A2961 1150 86 1100 130/11 RMK AO2 RAE04 P0000
14837KMSN MSN20011124012510811/24/01 01:25:31  5-MIN KMSN 240725Z 14010KT 8SM OVC021 12/10 A2961 1150 86 1100 140/10 RMK AO2 RAE04 P0000
14837KMSN MSN20011124013010811/24/01 01:30:31  5-MIN KMSN 240730Z 14010KT 8SM OVC021 12/10 A2961 1150 86 1100 140/10 RMK AO2 RAE04 P0000
14837KMSN MSN20011124013510811/24/01 01:35:31  5-MIN KMSN 240735Z 15012KT 8SM OVC021 12/10 A2962 1150 86 1100 150/12 RMK AO2 RAE04 P0000
14837KMSN MSN20011124014010811/24/01 01:40:31  5-MIN KMSN 240740Z 14011KT 8SM OVC021 12/10 A2961 1150 86 1100 140/11 RMK AO2 RAE04 P0000
14837KMSN MSN20011124014510811/24/01 01:45:31  5-MIN KMSN 240745Z 15012KT 8SM OVC021 12/10 A2961 1150 86 1100 140/12 RMK AO2 RAE04 P0000
14837KMSN MSN20011124015012511/24/01 01:50:31  5-MIN KMSN 240750Z 14012KT 8SM OVC021 12/10 A2961 1150 86 1100 140/12 RMK AO2 RAE04 SLP029 P0000 T01220100
14837KMSN MSN20011124015509611/24/01 01:55:31  5-MIN KMSN 240755Z 15011KT 8SM OVC021 13/10 A2961 1150 83 1200 140/11 RMK AO2
14837KMSN MSN20011124020009611/24/01 02:00:31  5-MIN KMSN 240800Z 15011KT 8SM OVC021 13/10 A2962 1150 83 1200 140/11 RMK AO2
14837KMSN MSN20011124020509611/24/01 02:05:31  5-MIN KMSN 240805Z 14010KT 8SM OVC021 12/10 A2962 1150 86 1100 140/10 RMK AO2
14837KMSN MSN20011124021009611/24/01 02:10:31  5-MIN KMSN 240810Z 14012KT 9SM OVC021 13/10 A2961 1150 83 1200 140/12 RMK AO2
14837KMSN MSN20011124021509611/24/01 02:15:31  5-MIN KMSN 240815Z 15011KT 9SM OVC021 13/10 A2961 1150 83 1200 140/11 RMK AO2
14837KMSN MSN20011124022009611/24/01 02:20:31  5-MIN KMSN 240820Z 14012KT 9SM OVC021 13/10 A2961 1150 83 1200 140/12 RMK AO2
14837KMSN MSN20011124022509611/24/01 02:25:31  5-MIN KMSN 240825Z 14013KT 9SM OVC021 13/10 A2961 1160 83 1200 140/13 RMK AO2
14837KMSN MSN20011124023009611/24/01 02:30:31  5-MIN KMSN 240830Z 14011KT 9SM OVC021 13/10 A2961 1160 83 1200 140/11 RMK AO2
14837KMSN MSN20011124023509611/24/01 02:35:31  5-MIN KMSN 240835Z 14012KT 9SM OVC021 13/10 A2960 1160 83 1200 140/12 RMK AO2
14837KMSN MSN20011124024009611/24/01 02:40:31  5-MIN KMSN 240840Z 14010KT 9SM OVC021 13/10 A2960 1160 83 1200 140/10 RMK AO2
14837KMSN MSN20011124024510211/24/01 02:45:31  5-MIN KMSN 240845Z 14010G17KT 9SM OVC021 13/10 A2960 1160 83 1200 140/10G17 RMK AO2
14837KMSN MSN20011124025013111/24/01 02:50:31  5-MIN KMSN 240850Z 14012G17KT 9SM OVC019 13/10 A2960 1160 83 1200 140/12G17 RMK AO2 SLP024 60001 T01280100 58011
14837KMSN MSN20011124025509611/24/01 02:55:31  5-MIN KMSN 240855Z 14012KT 9SM OVC019 13/11 A2960 1160 86 1200 140/12 RMK AO2
14837KMSN MSN20011124030009611/24/01 03:00:31  5-MIN KMSN 240900Z 14014KT 9SM OVC019 13/11 A2960 1160 86 1200 140/14 RMK AO2
14837KMSN MSN20011124030509711/24/01 03:05:31  5-MIN KMSN 240905Z 14012KT 10SM OVC019 13/11 A2960 1160 83 1300 140/12 RMK AO2
14837KMSN MSN20011124031009711/24/01 03:10:31  5-MIN KMSN 240910Z 15010KT 10SM OVC019 13/11 A2960 1160 86 1200 140/10 RMK AO2
14837KMSN MSN20011124031509611/24/01 03:15:31  5-MIN KMSN 240915Z 14013KT 9SM OVC019 13/11 A2960 1160 86 1200 140/13 RMK AO2
14837KMSN MSN20011124032009611/24/01 03:20:31  5-MIN KMSN 240920Z 15012KT 9SM OVC019 13/11 A2960 1160 86 1200 150/12 RMK AO2
14837KMSN MSN20011124032509611/24/01 03:25:31  5-MIN KMSN 240925Z 15013KT 9SM OVC019 13/11 A2960 1160 83 1300 150/13 RMK AO2
14837KMSN MSN20011124033009611/24/01 03:30:31  5-MIN KMSN 240930Z 15010KT 9SM OVC019 13/11 A2960 1170 83 1300 140/10 RMK AO2
14837KMSN MSN20011124033509611/24/01 03:35:31  5-MIN KMSN 240935Z 15012KT 9SM OVC017 13/11 A2959 1170 83 1300 150/12 RMK AO2
14837KMSN MSN20011124034011211/24/01 03:40:31  5-MIN KMSN 240940Z 15013KT 9SM -RA OVC017 13/11 A2959 1170 83 1300 150/13 RMK AO2 RAB39 P0000
14837KMSN MSN20011124034511811/24/01 03:45:31  5-MIN KMSN 240945Z 15015G19KT 9SM -RA OVC017 13/11 A2959 1170 83 1300 150/15G19 RMK AO2 RAB39 P0000
14837KMSN MSN20011124035013511/24/01 03:50:31  5-MIN KMSN 240950Z 15013G19KT 9SM -RA OVC017 13/11 A2959 1170 86 1200 150/13G19 RMK AO2 RAB39 SLP022 P0000 T01280106
14837KMSN MSN20011124035510611/24/01 03:55:31  5-MIN KMSN 240955Z 15013KT 9SM -RA OVC017 13/11 A2959 1170 83 1300 140/13 RMK AO2 P0000
14837KMSN MSN20011124040010611/24/01 04:00:31  5-MIN KMSN 241000Z 15013KT 9SM -RA OVC017 13/11 A2959 1170 86 1200 140/13 RMK AO2 P0000
14837KMSN MSN20011124040510611/24/01 04:05:31  5-MIN KMSN 241005Z 15011KT 9SM -RA OVC017 13/11 A2959 1170 89 1200 150/11 RMK AO2 P0000
14837KMSN MSN20011124041010611/24/01 04:10:31  5-MIN KMSN 241010Z 14012KT 9SM -RA OVC017 13/11 A2959 1170 89 1200 140/12 RMK AO2 P0000
14837KMSN MSN20011124041510611/24/01 04:15:31  5-MIN KMSN 241015Z 15012KT 9SM -RA OVC017 13/11 A2959 1180 89 1200 150/12 RMK AO2 P0000
14837KMSN MSN20011124042010611/24/01 04:20:31  5-MIN KMSN 241020Z 14011KT 9SM -RA OVC017 13/11 A2958 1180 86 1300 140/11 RMK AO2 P0000
14837KMSN MSN20011124042510611/24/01 04:25:31  5-MIN KMSN 241025Z 15011KT 9SM -RA OVC017 13/11 A2958 1180 89 1200 150/11 RMK AO2 P0000
14837KMSN MSN20011124043010611/24/01 04:30:31  5-MIN KMSN 241030Z 15011KT 9SM -RA OVC017 13/11 A2958 1180 86 1300 140/11 RMK AO2 P0000
14837KMSN MSN20011124043510611/24/01 04:35:31  5-MIN KMSN 241035Z 15012KT 9SM -RA OVC017 13/11 A2958 1180 86 1300 150/12 RMK AO2 P0000
14837KMSN MSN20011124044010611/24/01 04:40:31  5-MIN KMSN 241040Z 15010KT 9SM -RA OVC017 13/11 A2958 1180 86 1300 150/10 RMK AO2 P0000
14837KMSN MSN20011124044510611/24/01 04:45:31  5-MIN KMSN 241045Z 15012KT 8SM -RA OVC017 13/11 A2958 1180 86 1300 150/12 RMK AO2 P0000
14837KMSN MSN20011124045012911/24/01 04:50:31  5-MIN KMSN 241050Z 15013G18KT 8SM -RA OVC017 13/11 A2958 1180 86 1300 150/13G18 RMK AO2 SLP017 P0000 T01330111
14837KMSN MSN20011124045510611/24/01 04:55:31  5-MIN KMSN 241055Z 15011KT 7SM -RA OVC017 13/11 A2958 1180 86 1300 150/11 RMK AO2 P0000
14837KMSN MSN20011124050010611/24/01 05:00:31  5-MIN KMSN 241100Z 14012KT 7SM -RA OVC017 13/11 A2958 1180 89 1200 140/12 RMK AO2 P0001
14837KMSN MSN20011124050510611/24/01 05:05:31  5-MIN KMSN 241105Z 15013KT 8SM -RA OVC017 13/11 A2958 1180 89 1200 150/13 RMK AO2 P0001
14837KMSN MSN20011124051010611/24/01 05:10:31  5-MIN KMSN 241110Z 15012KT 8SM -RA OVC017 13/11 A2958 1180 89 1200 150/12 RMK AO2 P0001
14837KMSN MSN20011124051510611/24/01 05:15:31  5-MIN KMSN 241115Z 15012KT 8SM -RA OVC015 13/11 A2957 1190 86 1300 140/12 RMK AO2 P0001
14837KMSN MSN20011124052010611/24/01 05:20:31  5-MIN KMSN 241120Z 14012KT 8SM -RA OVC015 13/11 A2957 1190 89 1200 140/12 RMK AO2 P0001
14837KMSN MSN20011124052510611/24/01 05:25:31  5-MIN KMSN 241125Z 14013KT 8SM -RA OVC015 13/11 A2957 1190 89 1200 140/13 RMK AO2 P0001
14837KMSN MSN20011124053010611/24/01 05:30:31  5-MIN KMSN 241130Z 14010KT 7SM -RA OVC015 13/11 A2956 1200 89 1300 140/10 RMK AO2 P0001
14837KMSN MSN20011124053510911/24/01 05:35:31  5-MIN KMSN 241135Z 14013KT 5SM -RA BR OVC015 13/11 A2956 1200 89 1300 140/13 RMK AO2 P0002
14837KMSN MSN20011124054010811/24/01 05:40:31  5-MIN KMSN 241140Z 14012KT 5SM RA BR OVC015 13/11 A2956 1200 89 1300 140/12 RMK AO2 P0004
14837KMSN MSN20011124054510811/24/01 05:45:31  5-MIN KMSN 241145Z 14011KT 5SM RA BR OVC015 13/12 A2956 1200 93 1300 140/11 RMK AO2 P0006
14837KMSN MSN20011124055015611/24/01 05:50:31  5-MIN KMSN 241150Z 14012KT 5SM -RA BR OVC015 13/12 A2955 1200 93 1300 140/12 RMK AO2 SLP009 P0006 60007 70012 T01280117 10133 20111 56017
14837KMSN MSN20011124055510911/24/01 05:55:31  5-MIN KMSN 241155Z 14010KT 6SM -RA BR OVC015 13/12 A2955 1210 93 1300 140/10 RMK AO2 P0000
14837KMSN MSN20011124060010911/24/01 06:00:31  5-MIN KMSN 241200Z 13008KT 5SM -RA BR OVC015 13/12 A2955 1210 93 1300 130/08 RMK AO2 P0000
14837KMSN MSN20011124060510911/24/01 06:05:31  5-MIN KMSN 241205Z 12009KT 5SM -RA BR OVC015 13/12 A2955 1210 93 1300 120/09 RMK AO2 P0000
14837KMSN MSN20011124061010911/24/01 06:10:31  5-MIN KMSN 241210Z 13009KT 5SM -RA BR OVC015 13/12 A2955 1210 93 1300 130/09 RMK AO2 P0000
14837KMSN MSN20011124061510911/24/01 06:15:31  5-MIN KMSN 241215Z 13011KT 5SM -RA BR OVC013 13/12 A2955 1210 93 1300 130/11 RMK AO2 P0000
14837KMSN MSN20011124062010911/24/01 06:20:31  5-MIN KMSN 241220Z 13010KT 4SM -RA BR OVC013 13/12 A2955 1210 93 1300 130/10 RMK AO2 P0001
14837KMSN MSN20011124062510911/24/01 06:25:31  5-MIN KMSN 241225Z 13011KT 4SM -RA BR OVC013 13/12 A2954 1210 93 1300 130/11 RMK AO2 P0001
14837KMSN MSN20011124063010911/24/01 06:30:31  5-MIN KMSN 241230Z 13010KT 4SM -RA BR OVC013 13/12 A2954 1220 93 1300 130/10 RMK AO2 P0002
14837KMSN MSN20011124063510911/24/01 06:35:31  5-MIN KMSN 241235Z 13010KT 4SM -RA BR OVC013 13/12 A2954 1220 93 1300 130/10 RMK AO2 P0002
14837KMSN MSN20011124064010911/24/01 06:40:31  5-MIN KMSN 241240Z 13010KT 4SM -RA BR OVC015 13/12 A2953 1230 93 1300 130/10 RMK AO2 P0003
14837KMSN MSN20011124064510911/24/01 06:45:31  5-MIN KMSN 241245Z 13009KT 4SM -RA BR OVC015 13/12 A2953 1230 93 1300 130/09 RMK AO2 P0003
14837KMSN MSN20011124065012611/24/01 06:50:31  5-MIN KMSN 241250Z 13010KT 3SM -RA BR OVC015 13/12 A2952 1230 93 1300 130/10 RMK AO2 SLP999 P0004 T01280117
14837KMSN MSN20011124065510911/24/01 06:55:31  5-MIN KMSN 241255Z 12011KT 3SM -RA BR OVC015 13/12 A2952 1230 93 1300 120/11 RMK AO2 P0000
14837KMSN MSN20011124070011611/24/01 07:00:31  5-MIN KMSN 241300Z 12010KT 3SM -RA BR BKN015 OVC020 13/12 A2952 1240 93 1300 120/10 RMK AO2 P0001
14837KMSN MSN20011124070511611/24/01 07:05:31  5-MIN KMSN 241305Z 12009KT 3SM -RA BR BKN015 OVC020 13/12 A2952 1240 93 1300 120/09 RMK AO2 P0001
14837KMSN MSN20011124071010911/24/01 07:10:31  5-MIN KMSN 241310Z 12009KT 3SM -RA BR OVC015 13/12 A2951 1240 93 1300 120/09 RMK AO2 P0002
14837KMSN MSN20011124071512611/24/01 07:15:31  5-MIN KMSN 241315Z 12009KT 2SM -RA BR BKN015 OVC037 13/12 A2951 1250 93 1300 110/09 RMK AO2 SFC VIS 3 P0002
14837KMSN MSN20011124072012911/24/01 07:20:31  5-MIN KMSN 241320Z 11010KT 2SM RA BR BKN015 OVC025 13/12 A2950 1250 93 1300 110/10 RMK AO2 SFC VIS 2 1/2 P0004
14837KMSN MSN20011124072513611/24/01 07:25:31  5-MIN KMSN 241325Z 11010KT 2SM RA BR BKN015 OVC028 13/12 A2949 1260 93 1300 110/10 RMK AO2 SFC VIS 2 1/2 PRESFR P0005
14837KMSN MSN20011124073012911/24/01 07:30:31  5-MIN KMSN 241330Z 12010KT 2SM RA BR BKN015 OVC030 13/12 A2950 1260 93 1300 120/10 RMK AO2 SFC VIS 2 1/2 P0006
14837KMSN MSN20011124073512911/24/01 07:35:31  5-MIN KMSN 241335Z 12012KT 2SM RA BR BKN015 OVC030 13/12 A2950 1260 93 1300 120/12 RMK AO2 SFC VIS 2 1/2 P0007
14837KMSN MSN20011124074013011/24/01 07:40:31  5-MIN KMSN 241340Z 12009KT 2SM -RA BR BKN015 OVC028 13/12 A2949 1260 93 1300 120/09 RMK AO2 SFC VIS 2 1/2 P0008
14837KMSN MSN20011124074513711/24/01 07:45:31  5-MIN KMSN 241345Z 12011KT 2SM -RA BR FEW011 BKN015 OVC028 13/12 A2949 1260 93 1300 120/11 RMK AO2 SFC VIS 2 1/2 P0009
14837KMSN MSN20011124075013211/24/01 07:50:31  5-MIN KMSN 241350Z 13009KT 2SM RA BR BKN015 OVC030 13/12 A2949 1260 93 1300 130/09 RMK AO2 SLP987 P0010 T01280117
14837KMSN MSN20011124075511511/24/01 07:55:31  5-MIN KMSN 241355Z 13010KT 2SM RA BR BKN015 OVC030 13/12 A2949 1260 93 1300 130/10 RMK AO2 P0000
14837KMSN MSN20011124080011511/24/01 08:00:31  5-MIN KMSN 241400Z 12011KT 2SM RA BR FEW008 OVC015 13/12 A2949 1260 93 1300 120/11 RMK AO2 P0003
14837KMSN MSN20011124080511511/24/01 08:05:31  5-MIN KMSN 241405Z 11009KT 2SM RA BR SCT010 OVC015 12/12 A2949 1260 96 1300 100/09 RMK AO2 P0005
14837KMSN MSN20011124081011511/24/01 08:10:31  5-MIN KMSN 241410Z 10012KT 2SM RA BR SCT006 OVC015 12/12 A2949 1260 96 1300 100/12 RMK AO2 P0007
14837KMSN MSN20011124081511511/24/01 08:15:31  5-MIN KMSN 241415Z 10011KT 2SM RA BR SCT006 OVC015 12/11 A2948 1270 93 1300 100/11 RMK AO2 P0009
14837KMSN MSN20011124082011511/24/01 08:20:31  5-MIN KMSN 241420Z 10015KT 2SM RA BR SCT006 OVC013 12/11 A2948 1280 96 1200 100/15 RMK AO2 P0011
14837KMSN MSN20011124082512911/24/01 08:25:31  5-MIN KMSN 241425Z 09016KT 2SM RA BR SCT006 BKN013 OVC019 12/11 A2946 1290 96 1200 090/16 RMK AO2 PRESFR P0013
14837KMSN MSN20011124083012911/24/01 08:30:31  5-MIN KMSN 241430Z 09017KT 2SM RA BR SCT006 BKN013 OVC019 12/11 A2946 1300 96 1200 090/17 RMK AO2 PRESFR P0015
14837KMSN MSN20011124083512211/24/01 08:35:31  5-MIN KMSN 241435Z 09016KT 2SM RA BR SCT006 BKN013 OVC019 12/11 A2945 1300 96 1200 090/16 RMK AO2 P0017
14837KMSN MSN20011124084012311/24/01 08:40:31  5-MIN KMSN 241440Z 10015KT 2SM -RA BR SCT006 BKN011 OVC019 12/11 A2945 1300 96 1300 100/15 RMK AO2 P0018
14837KMSN MSN20011124084511611/24/01 08:45:31  5-MIN KMSN 241445Z 10018KT 2SM -RA BR BKN008 OVC019 12/11 A2945 1300 96 1300 100/18 RMK AO2 P0019
14837KMSN MSN20011124085014511/24/01 08:50:31  5-MIN KMSN 241450Z 10018KT 2SM -RA BR BKN008 OVC019 12/11 A2944 1310 96 1300 100/18 RMK AO2 SLP970 P0020 60035 T01170111 58017
14837KMSN MSN20011124085513711/24/01 08:55:31  5-MIN KMSN 241455Z 10017KT 2SM -RA BR BKN008 BKN011 OVC019 12/11 A2944 1320 96 1300 100/17 RMK AO2 SFC VIS 2 1/2 P0000
14837KMSN MSN20011124090013311/24/01 09:00:31  5-MIN KMSN 241500Z 10019KT 2SM -RA BR BKN008 BKN016 OVC036 12/11 A2943 1320 96 1300 100/19 RMK AO2 SFC VIS 3 P0001
14837KMSN MSN20011124090514011/24/01 09:05:31  5-MIN KMSN 241505Z 10017KT 2SM -RA BR BKN008 BKN012 OVC036 12/11 A2942 1330 96 1300 100/17 RMK AO2 SFC VIS 3 PRESFR P0002
14837KMSN MSN20011124091013811/24/01 09:10:31  5-MIN KMSN 241510Z 10018G24KT 2SM RA BR BKN008 OVC014 12/11 A2942 1330 96 1300 100/18G24 RMK AO2 SFC VIS 3 PRESFR P0003
14837KMSN MSN20011124091514511/24/01 09:15:31  5-MIN KMSN 241515Z 09019G24KT 2SM RA BR BKN008 BKN013 OVC019 12/11 A2940 1350 96 1300 090/19G24 RMK AO2 SFC VIS 3 PRESFR P0004
14837KMSN MSN20011124092013211/24/01 09:20:31  5-MIN KMSN 241520Z 12017KT 2SM RA BR SCT008 BKN011 OVC017 12/11 A2941 1340 96 1300 120/17 RMK AO2 SFC VIS 3 P0005
14837KMSN MSN20011124092513311/24/01 09:25:31  5-MIN KMSN 241525Z 11020KT 2SM -RA BR BKN006 BKN011 OVC017 12/11 A2940 1350 96 1300 110/20 RMK AO2 SFC VIS 3 P0005
14837KMSN MSN20011124093013311/24/01 09:30:31  5-MIN KMSN 241530Z 10018KT 2SM -RA BR SCT006 BKN011 OVC019 12/11 A2940 1350 93 1400 100/18 RMK AO2 SFC VIS 4 P0006
14837KMSN MSN20011124093513211/24/01 09:35:31  5-MIN KMSN 241535Z 11020G24KT 2SM -RA BR BKN009 OVC014 12/11 A2941 1340 93 1400 110/20G24 RMK AO2 SFC VIS 4 P0006
14837KMSN MSN20011124094013911/24/01 09:40:31  5-MIN KMSN 241540Z 11017G24KT 2SM -RA BR SCT007 BKN012 OVC018 12/11 A2940 1340 93 1400 110/17G24 RMK AO2 SFC VIS 5 P0007
14837KMSN MSN20011124094513911/24/01 09:45:31  5-MIN KMSN 241545Z 12018G24KT 2SM -RA BR FEW007 BKN013 OVC018 12/12 A2940 1350 96 1400 120/18G24 RMK AO2 SFC VIS 3 P0007
14837KMSN MSN20011124095014911/24/01 09:50:31  5-MIN KMSN 241550Z 12019G24KT 2SM -RA BR SCT007 OVC013 12/12 A2940 1350 96 1400 120/19G24 RMK AO2 SFC VIS 5 SLP957 P0007 T01220117
14837KMSN MSN20011124095511911/24/01 09:55:31  5-MIN KMSN 241555Z 12018KT 2SM -RA BR OVC013 13/12 A2940 1350 93 1400 120/18 RMK AO2 SFC VIS 6 P0000
14837KMSN MSN20011124100013811/24/01 10:00:31  5-MIN KMSN 241600Z 12018KT 2SM -RA BR BKN010 OVC016 13/12 A2939 1360 93 1500 120/18 RMK AO2 SFC VIS 6 CIG 008V014 P0000
14837KMSN MSN20011124100512611/24/01 10:05:31  5-MIN KMSN 241605Z 12017KT 2SM -RA BR SCT010 OVC016 13/12 A2939 1360 93 1500 120/17 RMK AO2 SFC VIS 4 P0001
14837KMSN MSN20011124101010911/24/01 10:10:31  5-MIN KMSN 241610Z 12016KT 4SM -RA BR OVC012 13/12 A2939 1360 93 1400 120/16 RMK AO2 P0001
14837KMSN MSN20011124101512811/24/01 10:15:31  5-MIN KMSN 241615Z 13018KT 4SM -RA BR BKN010 OVC017 13/12 A2939 1360 93 1400 130/18 RMK AO2 CIG 008V013 P0001
14837KMSN MSN20011124102013411/24/01 10:20:31  5-MIN KMSN 241620Z 12017G22KT 4SM -RA BR BKN010 OVC017 13/12 A2939 1360 93 1500 120/17G22 RMK AO2 CIG 008V013 P0002
14837KMSN MSN20011124102511511/24/01 10:25:31  5-MIN KMSN 241625Z 12018G24KT 4SM -RA BR OVC012 13/12 A2939 1360 93 1500 120/18G24 RMK AO2 P0002
14837KMSN MSN20011124103014011/24/01 10:30:31  5-MIN KMSN 241630Z 13021G26KT 4SM -RA BR BKN012 OVC017 13/12 A2939 1360 93 1500 130/21G26 RMK AO2 PK WND 13026/1629 P0003
14837KMSN MSN20011124103513311/24/01 10:35:31  5-MIN KMSN 241635Z 13016G26KT 5SM -RA BR OVC012 13/12 A2938 1370 93 1500 130/16G26 RMK AO2 PK WND 13026/1629 P0003
14837KMSN MSN20011124104013311/24/01 10:40:31  5-MIN KMSN 241640Z 13017G21KT 6SM -RA BR OVC012 13/12 A2938 1370 93 1500 130/17G21 RMK AO2 PK WND 13026/1629 P0004
14837KMSN MSN20011124104513311/24/01 10:45:31  5-MIN KMSN 241645Z 13017G21KT 6SM -RA BR OVC012 13/12 A2937 1370 93 1500 130/17G21 RMK AO2 PK WND 13026/1629 P0004
14837KMSN MSN20011124105015111/24/01 10:50:31  5-MIN KMSN 241650Z 12016KT 6SM -RA BR OVC012 13/12 A2936 1390 93 1600 120/16 RMK AO2 PK WND 13026/1629 PRESFR SLP942 P0004 T01330122
14837KMSN MSN20011124105511611/24/01 10:55:31  5-MIN KMSN 241655Z 11019KT 6SM -RA BR OVC012 13/12 A2934 1400 96 1500 110/19 RMK AO2 PRESFR P0001
14837KMSN MSN20011124110012311/24/01 11:00:31  5-MIN KMSN 241700Z 11018KT 6SM -RA BR BKN010 OVC016 13/12 A2934 1410 96 1500 110/18 RMK AO2 PRESFR P0001
14837KMSN MSN20011124110512611/24/01 11:05:31  5-MIN KMSN 241705Z 11017G22KT 7SM -RA BKN010 OVC016 13/12 A2932 1420 96 1500 110/17G22 RMK AO2 PRESFR P0001
14837KMSN MSN20011124111012711/24/01 11:10:31  5-MIN KMSN 241710Z 10018KT 7SM -RA SCT008 BKN014 OVC030 13/12 A2929 1450 96 1600 100/18 RMK AO2 PRESFR P0002
14837KMSN MSN20011124111513711/24/01 11:15:31  5-MIN KMSN 241715Z 10019G27KT 7SM -RA BKN010 BKN030 13/12 A2929 1450 93 1600 100/19G27 RMK AO2 PK WND 10027/1713 P0002
14837KMSN MSN20011124112013711/24/01 11:20:31  5-MIN KMSN 241720Z 10020G27KT 9SM -RA BKN010 BKN030 13/12 A2929 1450 93 1600 100/20G27 RMK AO2 PK WND 10027/1713 P0002
14837KMSN MSN20011124112514011/24/01 11:25:31  5-MIN KMSN 241725Z 11018G25KT 10SM BKN010 OVC030 13/12 A2929 1460 93 1600 110/18G25 RMK AO2 PK WND 10027/1713 RAE22 P0002
14837KMSN MSN20011124113014011/24/01 11:30:31  5-MIN KMSN 241730Z 12022G27KT 10SM BKN010 OVC030 13/12 A2930 1440 93 1600 120/22G27 RMK AO2 PK WND 12027/1730 RAE22 P0002
14837KMSN MSN20011124113514011/24/01 11:35:31  5-MIN KMSN 241735Z 12021G27KT 10SM BKN010 OVC030 14/12 A2930 1440 90 1700 120/21G27 RMK AO2 PK WND 12027/1730 RAE22 P0002
14837KMSN MSN20011124114013911/24/01 11:40:31  5-MIN KMSN 241740Z 13017KT 10SM OVC010 13/12 A2931 1440 93 1600 130/17 RMK AO2 PK WND 12027/1730 RAE22 CIG 007V014 P0002
14837KMSN MSN20011124114513911/24/01 11:45:31  5-MIN KMSN 241745Z 13016KT 10SM OVC010 13/12 A2930 1440 93 1600 130/16 RMK AO2 PK WND 12027/1730 RAE22 CIG 007V014 P0002
14837KMSN MSN20011124115018611/24/01 11:50:31  5-MIN KMSN 241750Z 13021G26KT 10SM OVC010 14/12 A2931 1440 90 1700 130/21G26 RMK AO2 PK WND 12027/1730 RAE22 CIG 007V014 SLP924 P0002 60048 T01390122 10139 20117 58037
14837KMSN MSN20011124115511511/24/01 11:55:31  5-MIN KMSN 241755Z 14018G26KT 10SM OVC010 14/13 A2931 1440 93 1700 140/18G26 RMK AO2 CIG 007V012
14837KMSN MSN20011124120010311/24/01 12:00:31  5-MIN KMSN 241800Z 14017G24KT 10SM OVC010 14/13 A2930 1440 93 1700 140/17G24 RMK AO2
14837KMSN MSN20011124120511011/24/01 12:05:31  5-MIN KMSN 241805Z 13018G25KT 10SM SCT010 OVC013 14/13 A2930 1440 90 1700 130/18G25 RMK AO2
14837KMSN MSN20011124121011711/24/01 12:10:31  5-MIN KMSN 241810Z 13017G25KT 10SM FEW008 BKN013 OVC029 14/13 A2930 1440 93 1800 130/17G25 RMK AO2
14837KMSN MSN20011124121511711/24/01 12:15:31  5-MIN KMSN 241815Z 14016G25KT 10SM BKN013 BKN024 OVC034 14/13 A2930 1440 90 1800 140/16G25 RMK AO2
14837KMSN MSN20011124122011711/24/01 12:20:31  5-MIN KMSN 241820Z 14016G25KT 10SM BKN013 BKN024 OVC039 14/13 A2930 1440 93 1800 140/16G25 RMK AO2
14837KMSN MSN20011124122511711/24/01 12:25:31  5-MIN KMSN 241825Z 14018G23KT 10SM SCT013 BKN024 OVC046 15/13 A2930 1440 90 1800 140/18G23 RMK AO2
14837KMSN MSN20011124123011711/24/01 12:30:31  5-MIN KMSN 241830Z 14018G23KT 10SM FEW013 BKN030 OVC050 15/13 A2930 1450 90 1800 140/18G23 RMK AO2
14837KMSN MSN20011124123511711/24/01 12:35:31  5-MIN KMSN 241835Z 15018G24KT 10SM FEW013 BKN046 OVC060 15/13 A2930 1450 90 1800 150/18G24 RMK AO2
14837KMSN MSN20011124124011711/24/01 12:40:31  5-MIN KMSN 241840Z 15015G24KT 10SM FEW013 BKN046 OVC060 15/13 A2929 1450 90 1800 150/15G24 RMK AO2
14837KMSN MSN20011124124511111/24/01 12:45:31  5-MIN KMSN 241845Z 15015KT 10SM FEW029 BKN055 OVC070 15/13 A2929 1450 90 1800 150/15 RMK AO2
14837KMSN MSN20011124125012811/24/01 12:50:31  5-MIN KMSN 241850Z 15014KT 10SM FEW024 BKN050 OVC065 16/13 A2929 1460 86 1900 150/14 RMK AO2 SLP917 T01560133
14837KMSN MSN20011124125511111/24/01 12:55:31  5-MIN KMSN 241855Z 16013KT 10SM SCT023 BKN049 OVC065 16/13 A2929 1450 86 1900 160/13 RMK AO2
14837KMSN MSN20011124130011711/24/01 13:00:31  5-MIN KMSN 241900Z 16019G23KT 10SM SCT023 BKN047 OVC070 16/13 A2929 1450 86 1900 160/19G23 RMK AO2
14837KMSN MSN20011124130511711/24/01 13:05:31  5-MIN KMSN 241905Z 17019G24KT 10SM FEW024 SCT050 OVC070 16/13 A2929 1450 83 1900 160/19G24 RMK AO2
14837KMSN MSN20011124131011011/24/01 13:10:31  5-MIN KMSN 241910Z 16017G24KT 10SM FEW024 OVC065 16/13 A2929 1450 83 1900 160/17G24 RMK AO2
14837KMSN MSN20011124131512011/24/01 13:15:31  5-MIN KMSN 241915Z 16016KT 10SM -RA FEW023 OVC060 16/13 A2928 1460 83 1900 160/16 RMK AO2 RAB11 P0000
14837KMSN MSN20011124132011911/24/01 13:20:31  5-MIN KMSN 241920Z 16015KT 10SM FEW023 OVC065 16/13 A2928 1460 83 1900 160/15 RMK AO2 RAB11E17 P0000
14837KMSN MSN20011124132512511/24/01 13:25:31  5-MIN KMSN 241925Z 16017G20KT 10SM BKN060 OVC075 16/13 A2928 1460 83 1900 160/17G20 RMK AO2 RAB11E17 P0000
14837KMSN MSN20011124133012511/24/01 13:30:31  5-MIN KMSN 241930Z 17017G23KT 10SM BKN060 OVC075 16/13 A2928 1460 83 1900 160/17G23 RMK AO2 RAB11E17 P0000
14837KMSN MSN20011124133512511/24/01 13:35:31  5-MIN KMSN 241935Z 16016G24KT 10SM BKN060 OVC075 16/12 A2928 1460 80 1900 160/16G24 RMK AO2 RAB11E17 P0000
14837KMSN MSN20011124134013211/24/01 13:40:31  5-MIN KMSN 241940Z 16018G24KT 10SM FEW032 BKN060 OVC075 16/12 A2928 1460 80 1900 160/18G24 RMK AO2 RAB11E17 P0000
14837KMSN MSN20011124134513211/24/01 13:45:31  5-MIN KMSN 241945Z 16016G23KT 10SM FEW032 BKN060 OVC075 16/12 A2928 1460 80 1900 160/16G23 RMK AO2 RAB11E17 P0000
14837KMSN MSN20011124135014911/24/01 13:50:31  5-MIN KMSN 241950Z 16016G22KT 10SM SCT043 BKN060 OVC075 16/12 A2928 1460 80 1900 160/16G22 RMK AO2 RAB11E17 SLP915 P0000 T01560122
14837KMSN MSN20011124135511011/24/01 13:55:31  5-MIN KMSN 241955Z 16018G23KT 10SM BKN043 OVC060 16/12 A2928 1460 80 1900 160/18G23 RMK AO2
14837KMSN MSN20011124140011711/24/01 14:00:31  5-MIN KMSN 242000Z 17020G24KT 10SM FEW032 BKN045 OVC060 15/12 A2928 1460 83 1800 160/20G24 RMK AO2
14837KMSN MSN20011124140511711/24/01 14:05:31  5-MIN KMSN 242005Z 17014G22KT 10SM FEW032 BKN041 OVC060 15/12 A2928 1460 83 1800 170/14G22 RMK AO2
14837KMSN MSN20011124141013211/24/01 14:10:31  5-MIN KMSN 242010Z 17014G22KT 9SM -RA FEW032 BKN041 BKN060 15/12 A2928 1460 83 1800 170/14G22 RMK AO2 RAB06 P0000
14837KMSN MSN20011124141512711/24/01 14:15:31  5-MIN KMSN 242015Z 17019KT 10SM -RA FEW032 BKN041 BKN060 15/12 A2928 1460 80 1800 170/19 RMK AO2 RAB06 P0000
14837KMSN MSN20011124142011311/24/01 14:20:31  5-MIN KMSN 242020Z 17017KT 10SM -RA OVC043 14/12 A2928 1460 83 1800 170/17 RMK AO2 RAB06 P0000
14837KMSN MSN20011124142511811/24/01 14:25:31  5-MIN KMSN 242025Z 17020G24KT 5SM -RA OVC043 14/11 A2928 1460 83 1700 170/20G24 RMK AO2 RAB06 P0002
14837KMSN MSN20011124143012511/24/01 14:30:31  5-MIN KMSN 242030Z 17019G25KT 8SM -RA FEW018 OVC043 13/11 A2928 1460 86 1600 170/19G25 RMK AO2 RAB06 P0006
14837KMSN MSN20011124143513211/24/01 14:35:31  5-MIN KMSN 242035Z 17016G25KT 8SM -RA FEW018 SCT035 OVC043 14/11 A2928 1460 83 1700 170/16G25 RMK AO2 RAB06 P0006
14837KMSN MSN20011124144013311/24/01 14:40:31  5-MIN KMSN 242040Z 18013G23KT 10SM -RA FEW018 SCT035 BKN043 14/12 A2928 1460 86 1700 180/13G23 RMK AO2 RAB06 P0006
14837KMSN MSN20011124144512611/24/01 14:45:31  5-MIN KMSN 242045Z 18012KT 10SM FEW024 BKN045 BKN055 14/12 A2928 1470 83 1800 180/12 RMK AO2 RAB06E42 P0006
14837KMSN MSN20011124145015511/24/01 14:50:31  5-MIN KMSN 242050Z 18013KT 10SM FEW024 BKN045 BKN055 15/12 A2928 1470 80 1800 180/13 RMK AO2 RAB06E42 SLP913 P0006 60006 T01500117 56045
14837KMSN MSN20011124145511111/24/01 14:55:31  5-MIN KMSN 242055Z 17014KT 10SM FEW034 SCT045 BKN065 15/12 A2928 1470 83 1800 170/14 RMK AO2
14837KMSN MSN20011124150010411/24/01 15:00:31  5-MIN KMSN 242100Z 17014KT 10SM FEW033 OVC070 16/12 A2927 1470 80 1900 170/14 RMK AO2
14837KMSN MSN20011124150510311/24/01 15:05:31  5-MIN KMSN 242105Z 17016G19KT 10SM BKN070 16/12 A2928 1460 77 1900 170/16G19 RMK AO2
14837KMSN MSN20011124151009711/24/01 15:10:31  5-MIN KMSN 242110Z 17014KT 10SM BKN070 16/12 A2928 1470 77 1900 170/14 RMK AO2
14837KMSN MSN20011124151509711/24/01 15:15:31  5-MIN KMSN 242115Z 18014KT 10SM BKN070 16/12 A2928 1470 77 1900 180/14 RMK AO2
14837KMSN MSN20011124152009711/24/01 15:20:31  5-MIN KMSN 242120Z 18012KT 10SM BKN070 16/12 A2928 1470 77 1900 170/12 RMK AO2
14837KMSN MSN20011124152510411/24/01 15:25:31  5-MIN KMSN 242125Z 18012KT 10SM FEW027 BKN070 16/11 A2928 1470 74 1900 180/12 RMK AO2
14837KMSN MSN20011124153011111/24/01 15:30:31  5-MIN KMSN 242130Z 18009KT 10SM FEW027 SCT033 BKN070 16/11 A2928 1470 74 1900 170/09 RMK AO2
14837KMSN MSN20011124153511111/24/01 15:35:31  5-MIN KMSN 242135Z 16010KT 10SM FEW025 BKN036 OVC070 16/12 A2927 1470 77 1900 160/10 RMK AO2
14837KMSN MSN20011124154011111/24/01 15:40:31  5-MIN KMSN 242140Z 16010KT 10SM SCT027 BKN034 OVC070 16/12 A2927 1470 77 1900 160/10 RMK AO2
14837KMSN MSN20011124154511111/24/01 15:45:31  5-MIN KMSN 242145Z 17011KT 10SM FEW027 BKN034 BKN070 15/11 A2927 1470 77 1800 170/11 RMK AO2
14837KMSN MSN20011124155012811/24/01 15:50:31  5-MIN KMSN 242150Z 16011KT 10SM FEW027 SCT034 SCT070 15/11 A2928 1470 77 1800 160/11 RMK AO2 SLP913 T01500111
14837KMSN MSN20011124155510411/24/01 15:55:31  5-MIN KMSN 242155Z 16012KT 10SM FEW027 SCT034 14/11 A2927 1470 80 1800 160/12 RMK AO2
14837KMSN MSN20011124160010411/24/01 16:00:31  5-MIN KMSN 242200Z 17013KT 10SM FEW029 SCT034 14/11 A2927 1470 77 1800 170/13 RMK AO2
14837KMSN MSN20011124160509711/24/01 16:05:31  5-MIN KMSN 242205Z 16012KT 10SM FEW030 14/11 A2927 1470 80 1700 160/12 RMK AO2
14837KMSN MSN20011124161009411/24/01 16:10:31  5-MIN KMSN 242210Z 16010KT 10SM CLR 14/11 A2927 1470 80 1700 160/10 RMK AO2
14837KMSN MSN20011124161509711/24/01 16:15:31  5-MIN KMSN 242215Z 16011KT 10SM FEW030 14/11 A2927 1470 80 1700 160/11 RMK AO2
14837KMSN MSN20011124162009711/24/01 16:20:31  5-MIN KMSN 242220Z 16012KT 10SM FEW030 14/10 A2928 1470 77 1700 160/12 RMK AO2
14837KMSN MSN20011124162509711/24/01 16:25:31  5-MIN KMSN 242225Z 16011KT 10SM FEW030 13/10 A2928 1460 80 1600 160/11 RMK AO2
14837KMSN MSN20011124163009711/24/01 16:30:31  5-MIN KMSN 242230Z 16010KT 10SM FEW030 13/10 A2928 1460 80 1600 150/10 RMK AO2
14837KMSN MSN20011124163509711/24/01 16:35:31  5-MIN KMSN 242235Z 16013KT 10SM FEW030 13/10 A2928 1460 80 1600 160/13 RMK AO2
14837KMSN MSN20011124164010311/24/01 16:40:31  5-MIN KMSN 242240Z 17014G18KT 10SM FEW030 14/10 A2928 1460 77 1700 160/14G18 RMK AO2
14837KMSN MSN20011124164509711/24/01 16:45:31  5-MIN KMSN 242245Z 17012KT 10SM FEW030 14/09 A2928 1460 74 1700 170/12 RMK AO2
14837KMSN MSN20011124165011411/24/01 16:50:31  5-MIN KMSN 242250Z 17012KT 10SM SCT020 13/09 A2929 1460 77 1600 170/12 RMK AO2 SLP917 T01330094
14837KMSN MSN20011124165509711/24/01 16:55:31  5-MIN KMSN 242255Z 17010KT 10SM SCT037 13/09 A2928 1460 77 1600 160/10 RMK AO2
14837KMSN MSN20011124170009711/24/01 17:00:31  5-MIN KMSN 242300Z 16011KT 10SM SCT037 13/09 A2928 1460 80 1600 160/11 RMK AO2
14837KMSN MSN20011124170509711/24/01 17:05:31  5-MIN KMSN 242305Z 16010KT 10SM SCT037 13/09 A2928 1460 80 1600 160/10 RMK AO2
14837KMSN MSN20011124171010311/24/01 17:10:31  5-MIN KMSN 242310Z 16014G19KT 10SM SCT037 13/09 A2929 1450 77 1600 160/14G19 RMK AO2
14837KMSN MSN20011124171509711/24/01 17:15:31  5-MIN KMSN 242315Z 16013KT 10SM SCT037 13/09 A2929 1450 77 1600 160/13 RMK AO2
14837KMSN MSN20011124172009711/24/01 17:20:31  5-MIN KMSN 242320Z 16013KT 10SM SCT037 13/10 A2929 1450 80 1600 150/13 RMK AO2
14837KMSN MSN20011124172511111/24/01 17:25:31  5-MIN KMSN 242325Z 16013KT 10SM FEW037 BKN065 BKN075 13/10 A2929 1450 80 1600 160/13 RMK AO2
14837KMSN MSN20011124173011111/24/01 17:30:31  5-MIN KMSN 242330Z 16013KT 10SM FEW037 BKN065 BKN075 13/10 A2929 1450 80 1600 160/13 RMK AO2
14837KMSN MSN20011124173511711/24/01 17:35:31  5-MIN KMSN 242335Z 16016G20KT 10SM FEW037 BKN065 BKN075 13/10 A2929 1450 80 1600 160/16G20 RMK AO2
14837KMSN MSN20011124174011111/24/01 17:40:31  5-MIN KMSN 242340Z 16018KT 10SM FEW037 BKN065 BKN075 13/09 A2929 1450 77 1600 160/18 RMK AO2
14837KMSN MSN20011124174511011/24/01 17:45:31  5-MIN KMSN 242345Z 16021G25KT 10SM FEW044 OVC060 13/09 A2929 1450 77 1600 160/21G25 RMK AO2
14837KMSN MSN20011124175019111/24/01 17:50:31  5-MIN KMSN 242350Z 16017G25KT 9SM -RA FEW036 SCT046 OVC060 13/09 A2929 1450 77 1600 160/17G25 RMK AO2 PK WND 16026/2346 RAB49 SLP919 P0000 60006 T01330094 10156 20128 56009
14837KMSN MSN20011124175512611/24/01 17:55:31  5-MIN KMSN 242355Z 16018G24KT 7SM -RA FEW036 SCT046 OVC060 13/10 A2929 1450 83 1600 160/18G24 RMK AO2 P0000
14837KMSN MSN20011124180012611/24/01 18:00:31  5-MIN KMSN 250000Z 17017G23KT 7SM -RA FEW035 BKN045 OVC060 13/10 A2929 1450 83 1600 170/17G23 RMK AO2 P0000
14837KMSN MSN20011124180512611/24/01 18:05:31  5-MIN KMSN 250005Z 20015G21KT 6SM -RA FEW022 BKN045 OVC060 13/10 A2931 1440 83 1500 200/15G21 RMK AO2 P0002
14837KMSN MSN20011124181014311/24/01 18:10:31  5-MIN KMSN 250010Z 19018G28KT 4SM RA FEW022 BKN045 OVC065 12/09 A2931 1430 83 1400 190/18G28 RMK AO2 PK WND 21028/0006 P0003
14837KMSN MSN20011124181514411/24/01 18:15:31  5-MIN KMSN 250015Z 19012G28KT 5SM -RA FEW022 SCT036 OVC055 12/09 A2931 1430 83 1400 190/12G28 RMK AO2 PK WND 21028/0006 P0004
14837KMSN MSN20011124182014111/24/01 18:20:31  5-MIN KMSN 250020Z 18013KT 5SM -RA BR FEW022 SCT043 OVC060 11/09 A2931 1430 89 1300 180/13 RMK AO2 PK WND 21028/0006 P0004
14837KMSN MSN20011124182514111/24/01 18:25:31  5-MIN KMSN 250025Z 18014KT 5SM -RA BR FEW018 BKN043 OVC060 11/09 A2931 1430 89 1300 180/14 RMK AO2 PK WND 21028/0006 P0005
14837KMSN MSN20011124183014111/24/01 18:30:31  5-MIN KMSN 250030Z 18013KT 5SM -RA BR SCT015 BKN022 OVC055 11/09 A2932 1430 89 1300 180/13 RMK AO2 PK WND 21028/0006 P0005
14837KMSN MSN20011124183514111/24/01 18:35:31  5-MIN KMSN 250035Z 19016KT 5SM -RA BR SCT017 BKN030 OVC060 11/09 A2932 1420 89 1300 190/16 RMK AO2 PK WND 21028/0006 P0005
14837KMSN MSN20011124184014411/24/01 18:40:31  5-MIN KMSN 250040Z 20015G22KT 7SM -RA SCT017 BKN042 OVC060 11/09 A2932 1430 89 1300 190/15G22 RMK AO2 PK WND 21028/0006 P0005
14837KMSN MSN20011124184514411/24/01 18:45:31  5-MIN KMSN 250045Z 19012G22KT 8SM -RA SCT015 BKN042 OVC065 11/09 A2932 1420 89 1300 190/12G22 RMK AO2 PK WND 21028/0006 P0005
14837KMSN MSN20011124185016211/24/01 18:50:31  5-MIN KMSN 250050Z 19014G19KT 10SM -RA SCT015 BKN041 OVC060 11/09 A2932 1420 86 1300 190/14G19 RMK AO2 PK WND 21028/0006 SLP929 P0006 T01110089
14837KMSN MSN20011124185512711/24/01 18:55:31  5-MIN KMSN 250055Z 19012G19KT 10SM -RA SCT015 BKN055 OVC065 11/09 A2932 1420 86 1300 190/12G19 RMK AO2 P0000
14837KMSN MSN20011124190012511/24/01 19:00:31  5-MIN KMSN 250100Z 19014KT 10SM SCT015 BKN055 OVC065 11/08 A2932 1420 83 1300 190/14 RMK AO2 RAE0056 P0000
14837KMSN MSN20011124190512111/24/01 19:05:31  5-MIN KMSN 250105Z 19011KT 10SM -RA SCT015 BKN055 OVC065 11/08 A2932 1430 86 1300 190/11 RMK AO2 P0000
14837KMSN MSN20011124191012111/24/01 19:10:31  5-MIN KMSN 250110Z 18012KT 10SM -RA SCT015 BKN055 OVC065 11/08 A2932 1430 86 1300 180/12 RMK AO2 P0000
14837KMSN MSN20011124191512111/24/01 19:15:31  5-MIN KMSN 250115Z 18009KT 10SM -RA SCT015 BKN055 OVC065 11/08 A2932 1430 86 1300 180/09 RMK AO2 P0000
14837KMSN MSN20011124192012111/24/01 19:20:31  5-MIN KMSN 250120Z 18014KT 10SM -RA FEW015 BKN050 OVC065 11/08 A2932 1420 86 1300 180/14 RMK AO2 P0000
14837KMSN MSN20011124192512311/24/01 19:25:31  5-MIN KMSN 250125Z 19012KT 10SM FEW015 BKN050 OVC065 11/08 A2933 1420 86 1300 190/12 RMK AO2 RAE23 P0000
14837KMSN MSN20011124193012311/24/01 19:30:31  5-MIN KMSN 250130Z 18012KT 10SM FEW015 BKN050 OVC065 11/08 A2933 1420 86 1300 180/12 RMK AO2 RAE23 P0000
14837KMSN MSN20011124193512311/24/01 19:35:31  5-MIN KMSN 250135Z 18013KT 10SM FEW015 BKN050 OVC065 11/08 A2933 1410 86 1300 180/13 RMK AO2 RAE23 P0000
14837KMSN MSN20011124194012311/24/01 19:40:31  5-MIN KMSN 250140Z 18012KT 10SM FEW015 BKN050 OVC065 11/08 A2933 1420 86 1300 180/12 RMK AO2 RAE23 P0000
14837KMSN MSN20011124194512911/24/01 19:45:31  5-MIN KMSN 250145Z 19011G18KT 10SM -RA FEW015 OVC050 11/08 A2933 1420 83 1300 190/11G18 RMK AO2 RAE23B43 P0000
14837KMSN MSN20011124195014011/24/01 19:50:31  5-MIN KMSN 250150Z 19009KT 10SM -RA FEW015 OVC050 11/08 A2933 1410 86 1300 190/09 RMK AO2 RAE23B43 SLP932 P0000 T01060083
14837KMSN MSN20011124195511111/24/01 19:55:31  5-MIN KMSN 250155Z 18012KT 10SM FEW015 BKN050 OVC060 10/08 A2933 1410 89 1200 180/12 RMK AO2
14837KMSN MSN20011124200011111/24/01 20:00:31  5-MIN KMSN 250200Z 19012KT 10SM FEW015 BKN050 OVC060 10/08 A2933 1410 89 1200 190/12 RMK AO2
14837KMSN MSN20011124200511711/24/01 20:05:31  5-MIN KMSN 250205Z 19010G17KT 10SM FEW015 BKN050 OVC060 10/08 A2933 1410 89 1200 180/10G17 RMK AO2
14837KMSN MSN20011124201011111/24/01 20:10:31  5-MIN KMSN 250210Z 18009KT 10SM FEW015 BKN050 OVC060 10/08 A2933 1410 89 1200 180/09 RMK AO2
14837KMSN MSN20011124201511111/24/01 20:15:31  5-MIN KMSN 250215Z 18009KT 10SM FEW015 BKN050 OVC060 10/08 A2933 1410 89 1200 180/09 RMK AO2
14837KMSN MSN20011124202011111/24/01 20:20:31  5-MIN KMSN 250220Z 18010KT 10SM FEW015 BKN060 OVC075 10/08 A2933 1420 89 1200 180/10 RMK AO2
14837KMSN MSN20011124202511111/24/01 20:25:31  5-MIN KMSN 250225Z 18009KT 10SM FEW015 BKN060 OVC075 10/08 A2933 1410 86 1200 180/09 RMK AO2
14837KMSN MSN20011124203011111/24/01 20:30:31  5-MIN KMSN 250230Z 18010KT 10SM FEW015 BKN060 OVC075 10/08 A2933 1410 89 1200 180/10 RMK AO2
14837KMSN MSN20011124203511111/24/01 20:35:31  5-MIN KMSN 250235Z 18011KT 10SM FEW015 BKN060 OVC075 10/08 A2933 1410 86 1200 180/11 RMK AO2
14837KMSN MSN20011124204011111/24/01 20:40:31  5-MIN KMSN 250240Z 18010KT 10SM FEW015 BKN060 OVC075 10/08 A2933 1410 86 1200 180/10 RMK AO2
14837KMSN MSN20011124204511111/24/01 20:45:31  5-MIN KMSN 250245Z 18011KT 10SM FEW015 BKN060 OVC075 10/08 A2933 1410 86 1200 180/11 RMK AO2
14837KMSN MSN20011124205015611/24/01 20:50:31  5-MIN KMSN 250250Z 18011KT 10SM -RA SCT019 BKN026 OVC033 10/08 A2933 1410 86 1200 180/11 RMK AO2 RAB46 SLP935 P0000 60006 T01000078 53006
14837KMSN MSN20011124205512111/24/01 20:55:31  5-MIN KMSN 250255Z 19012KT 10SM -RA SCT019 BKN026 OVC033 10/08 A2933 1410 86 1200 190/12 RMK AO2 P0000
14837KMSN MSN20011124210012511/24/01 21:00:31  5-MIN KMSN 250300Z 19010KT 10SM FEW019 SCT026 OVC035 10/07 A2933 1410 83 1200 190/10 RMK AO2 RAE0257 P0000
14837KMSN MSN20011124210513111/24/01 21:05:31  5-MIN KMSN 250305Z 19009G17KT 10SM SCT019 BKN024 OVC037 10/08 A2933 1410 86 1200 190/09G17 RMK AO2 RAE0257 P0000
14837KMSN MSN20011124211013111/24/01 21:10:31  5-MIN KMSN 250310Z 19012G16KT 10SM SCT019 BKN024 OVC037 10/07 A2933 1410 83 1200 190/12G16 RMK AO2 RAE0257 P0000
14837KMSN MSN20011124211512511/24/01 21:15:31  5-MIN KMSN 250315Z 18011KT 10SM BKN019 BKN027 OVC037 10/07 A2933 1410 83 1200 180/11 RMK AO2 RAE0257 P0000
14837KMSN MSN20011124212012511/24/01 21:20:31  5-MIN KMSN 250320Z 19011KT 10SM SCT019 BKN038 OVC049 10/07 A2933 1410 83 1200 190/11 RMK AO2 RAE0257 P0000
14837KMSN MSN20011124212512511/24/01 21:25:31  5-MIN KMSN 250325Z 19011KT 10SM SCT019 BKN035 OVC049 10/07 A2934 1410 83 1200 190/11 RMK AO2 RAE0257 P0000
14837KMSN MSN20011124213012511/24/01 21:30:31  5-MIN KMSN 250330Z 19010KT 10SM SCT019 BKN027 OVC049 10/07 A2934 1410 80 1200 190/10 RMK AO2 RAE0257 P0000
14837KMSN MSN20011124213512511/24/01 21:35:31  5-MIN KMSN 250335Z 19010KT 10SM FEW019 BKN029 OVC049 10/07 A2933 1410 80 1200 190/10 RMK AO2 RAE0257 P0000
14837KMSN MSN20011124214012511/24/01 21:40:31  5-MIN KMSN 250340Z 19012KT 10SM FEW019 BKN029 OVC049 10/07 A2933 1410 80 1200 190/12 RMK AO2 RAE0257 P0000
14837KMSN MSN20011124214511811/24/01 21:45:31  5-MIN KMSN 250345Z 19010KT 10SM BKN033 OVC049 10/07 A2933 1410 80 1200 190/10 RMK AO2 RAE0257 P0000
14837KMSN MSN20011124215014911/24/01 21:50:31  5-MIN KMSN 250350Z 19012KT 10SM -RA FEW027 BKN035 OVC046 10/07 A2933 1410 80 1200 190/12 RMK AO2 RAE0257B49 SLP934 P0000 T01000067
14837KMSN MSN20011124215512711/24/01 21:55:31  5-MIN KMSN 250355Z 19007G16KT 10SM -RA SCT030 BKN036 OVC065 09/07 A2933 1410 83 1100 190/07G16 RMK AO2 P0000
14837KMSN MSN20011124220012111/24/01 22:00:31  5-MIN KMSN 250400Z 19011KT 10SM -RA FEW023 BKN033 OVC048 09/07 A2933 1410 83 1100 190/11 RMK AO2 P0000
14837KMSN MSN20011124220512111/24/01 22:05:31  5-MIN KMSN 250405Z 18009KT 10SM -RA FEW023 BKN042 OVC048 09/07 A2933 1410 83 1100 180/09 RMK AO2 P0000
14837KMSN MSN20011124221012111/24/01 22:10:31  5-MIN KMSN 250410Z 18007KT 10SM -RA FEW025 BKN035 OVC043 09/07 A2933 1420 83 1100 180/07 RMK AO2 P0000
14837KMSN MSN20011124221512711/24/01 22:15:31  5-MIN KMSN 250415Z 18012G16KT 10SM -RA SCT025 BKN039 OVC047 09/07 A2933 1420 83 1100 180/12G16 RMK AO2 P0000
14837KMSN MSN20011124222012111/24/01 22:20:31  5-MIN KMSN 250420Z 19009KT 10SM -RA SCT020 BKN028 OVC047 09/07 A2933 1420 83 1100 190/09 RMK AO2 P0000
14837KMSN MSN20011124222512111/24/01 22:25:31  5-MIN KMSN 250425Z 18010KT 10SM -RA SCT022 BKN028 OVC041 09/07 A2933 1420 83 1100 180/10 RMK AO2 P0000
14837KMSN MSN20011124223012711/24/01 22:30:31  5-MIN KMSN 250430Z 18010G16KT 10SM -RA SCT020 BKN026 OVC041 09/07 A2933 1420 83 1100 180/10G16 RMK AO2 P0000
14837KMSN MSN20011124223511411/24/01 22:35:31  5-MIN KMSN 250435Z 17010KT 10SM -RA BKN024 OVC039 09/07 A2933 1420 83 1100 170/10 RMK AO2 P0000
14837KMSN MSN20011124224011411/24/01 22:40:31  5-MIN KMSN 250440Z 18010KT 10SM -RA BKN021 OVC027 09/07 A2933 1420 86 1100 180/10 RMK AO2 P0000
14837KMSN MSN20011124224510711/24/01 22:45:31  5-MIN KMSN 250445Z 18009KT 10SM -RA OVC021 09/07 A2932 1420 86 1100 180/09 RMK AO2 P0000
14837KMSN MSN20011124225012411/24/01 22:50:31  5-MIN KMSN 250450Z 18011KT 10SM -RA OVC019 09/07 A2933 1420 86 1100 180/11 RMK AO2 SLP931 P0000 T00940072
14837KMSN MSN20011124225510711/24/01 22:55:31  5-MIN KMSN 250455Z 18009KT 10SM -RA OVC019 09/07 A2932 1420 89 1100 180/09 RMK AO2 P0000
14837KMSN MSN20011124230010711/24/01 23:00:31  5-MIN KMSN 250500Z 18012KT 10SM -RA OVC019 09/07 A2932 1420 86 1100 180/12 RMK AO2 P0000
14837KMSN MSN20011124230510711/24/01 23:05:31  5-MIN KMSN 250505Z 19012KT 10SM -RA OVC017 09/07 A2932 1420 86 1100 190/12 RMK AO2 P0000
14837KMSN MSN20011124231011311/24/01 23:10:31  5-MIN KMSN 250510Z 18012G19KT 10SM -RA OVC017 09/07 A2932 1420 86 1100 180/12G19 RMK AO2 P0000
14837KMSN MSN20011124231511311/24/01 23:15:31  5-MIN KMSN 250515Z 18012G19KT 10SM -RA OVC017 09/07 A2932 1420 89 1100 180/12G19 RMK AO2 P0001
14837KMSN MSN20011124232010711/24/01 23:20:31  5-MIN KMSN 250520Z 18011KT 10SM -RA OVC019 09/07 A2933 1420 89 1100 180/11 RMK AO2 P0001
14837KMSN MSN20011124232511411/24/01 23:25:31  5-MIN KMSN 250525Z 19011KT 10SM -RA BKN019 OVC024 09/07 A2933 1420 89 1100 190/11 RMK AO2 P0001
14837KMSN MSN20011124233011411/24/01 23:30:31  5-MIN KMSN 250530Z 18013KT 10SM -RA BKN019 OVC024 09/07 A2932 1420 89 1100 180/13 RMK AO2 P0001
14837KMSN MSN20011124233511411/24/01 23:35:31  5-MIN KMSN 250535Z 18013KT 10SM -RA BKN019 OVC031 09/07 A2932 1420 89 1100 180/13 RMK AO2 P0001
14837KMSN MSN20011124234012711/24/01 23:40:31  5-MIN KMSN 250540Z 18011G18KT 10SM -RA BKN019 BKN026 OVC031 09/07 A2932 1420 89 1100 180/11G18 RMK AO2 P0001
14837KMSN MSN20011124234511411/24/01 23:45:31  5-MIN KMSN 250545Z 18013KT 10SM -RA BKN019 OVC031 09/07 A2932 1420 89 1100 180/13 RMK AO2 P0001
14837KMSN MSN20011124235017211/24/01 23:50:31  5-MIN KMSN 250550Z 18011KT 10SM -RA BKN019 BKN027 OVC032 09/07 A2933 1420 89 1100 180/11 RMK AO2 SLP931 P0001 60007 T00890072 10128 20089 401560089 51013
14837KMSN MSN20011124235512111/24/01 23:55:31  5-MIN KMSN 250555Z 18012KT 10SM -RA BKN015 BKN022 OVC031 09/07 A2933 1420 89 1100 180/12 RMK AO2 P0000
14837KMSN MSN20011125000012111/25/01 00:00:31  5-MIN KMSN 250600Z 18011KT 10SM -RA BKN015 BKN022 OVC029 09/07 A2933 1420 89 1100 180/11 RMK AO2 P0000
14837KMSN MSN20011125000512111/25/01 00:05:31  5-MIN KMSN 250605Z 18012KT 10SM -RA SCT017 BKN023 OVC031 09/07 A2933 1420 89 1100 180/12 RMK AO2 P0000
14837KMSN MSN20011125001011311/25/01 00:10:31  5-MIN KMSN 250610Z 18012KT 9SM -RA BKN017 OVC031 09/07 A2933 1420 89 1100 180/12 RMK AO2 P0000
14837KMSN MSN20011125001512111/25/01 00:15:31  5-MIN KMSN 250615Z 18013KT 10SM -RA SCT017 SCT023 OVC031 09/07 A2933 1420 89 1100 180/13 RMK AO2 P0000
14837KMSN MSN20011125002012111/25/01 00:20:31  5-MIN KMSN 250620Z 18011KT 10SM -RA SCT017 BKN021 OVC031 09/07 A2933 1410 89 1100 180/11 RMK AO2 P0001
14837KMSN MSN20011125002511411/25/01 00:25:31  5-MIN KMSN 250625Z 18014KT 10SM -RA BKN017 OVC031 09/07 A2933 1420 89 1100 180/14 RMK AO2 P0001
14837KMSN MSN20011125003011411/25/01 00:30:31  5-MIN KMSN 250630Z 18011KT 10SM -RA SCT015 OVC031 08/07 A2933 1410 93 1000 180/11 RMK AO2 P0001
14837KMSN MSN20011125003511411/25/01 00:35:31  5-MIN KMSN 250635Z 18010KT 10SM -RA SCT015 OVC031 08/07 A2933 1410 93 1000 180/10 RMK AO2 P0001
14837KMSN MSN20011125004012111/25/01 00:40:31  5-MIN KMSN 250640Z 18012KT 10SM -RA SCT014 BKN019 OVC031 08/07 A2933 1410 93 1000 180/12 RMK AO2 P0001
14837KMSN MSN20011125004511411/25/01 00:45:31  5-MIN KMSN 250645Z 18013KT 10SM -RA BKN017 OVC031 08/07 A2933 1410 93 1000 180/13 RMK AO2 P0001
14837KMSN MSN20011125005013111/25/01 00:50:31  5-MIN KMSN 250650Z 18010KT 10SM -RA BKN017 OVC029 08/07 A2934 1410 93 1000 180/10 RMK AO2 SLP934 P0001 T00830072
14837KMSN MSN20011125005512011/25/01 00:55:31  5-MIN KMSN 250655Z 18009KT 9SM -RA BKN017 BKN023 OVC031 08/07 A2934 1410 93 1000 180/09 RMK AO2 P0000
14837KMSN MSN20011125010011411/25/01 01:00:31  5-MIN KMSN 250700Z 18009KT 10SM -RA BKN017 OVC023 08/07 A2934 1410 93 1000 180/09 RMK AO2 P0001
14837KMSN MSN20011125010511411/25/01 01:05:31  5-MIN KMSN 250705Z 18009KT 10SM -RA BKN017 OVC023 08/07 A2934 1410 93 1000 180/09 RMK AO2 P0001
14837KMSN MSN20011125011011411/25/01 01:10:31  5-MIN KMSN 250710Z 19010KT 10SM -RA BKN017 OVC023 08/07 A2934 1410 93 1000 190/10 RMK AO2 P0001
14837KMSN MSN20011125011511411/25/01 01:15:31  5-MIN KMSN 250715Z 18011KT 10SM -RA BKN015 OVC023 08/07 A2934 1400 93 1000 180/11 RMK AO2 P0001
14837KMSN MSN20011125012011411/25/01 01:20:31  5-MIN KMSN 250720Z 19009KT 10SM -RA BKN015 OVC023 08/07 A2934 1400 93 1000 190/09 RMK AO2 P0001
14837KMSN MSN20011125012511411/25/01 01:25:31  5-MIN KMSN 250725Z 19011KT 10SM -RA BKN013 OVC020 08/07 A2935 1400 93 1000 180/11 RMK AO2 P0001
14837KMSN MSN20011125013012711/25/01 01:30:31  5-MIN KMSN 250730Z 19008KT 6SM -DZ BR BKN011 OVC018 08/07 A2935 1400 93 1000 190/08 RMK AO2 RAE26DZB26 P0001
14837KMSN MSN20011125013512711/25/01 01:35:31  5-MIN KMSN 250735Z 19010KT 6SM -DZ BR SCT009 OVC015 08/07 A2935 1400 93 1000 190/10 RMK AO2 RAE26DZB26 P0001
14837KMSN MSN20011125014012011/25/01 01:40:31  5-MIN KMSN 250740Z 19011KT 4SM -DZ BR OVC014 08/07 A2935 1400 93 1000 190/11 RMK AO2 RAE26DZB26 P0001
14837KMSN MSN20011125014512711/25/01 01:45:31  5-MIN KMSN 250745Z 19009KT 4SM -DZ BR BKN012 OVC017 08/07 A2935 1400 93 1000 190/09 RMK AO2 RAE26DZB26 P0001
14837KMSN MSN20011125015014411/25/01 01:50:31  5-MIN KMSN 250750Z 19010KT 3SM -DZ BR BKN012 OVC017 08/07 A2935 1390 93 1000 190/10 RMK AO2 RAE26DZB26 SLP940 P0001 T00830072
14837KMSN MSN20011125015511611/25/01 01:55:31  5-MIN KMSN 250755Z 19009KT 3SM -DZ BR SCT010 OVC017 08/07 A2935 1390 93 1000 190/09 RMK AO2 P0000
14837KMSN MSN20011125020011611/25/01 02:00:31  5-MIN KMSN 250800Z 19010KT 3SM -DZ BR BKN012 OVC017 08/07 A2936 1390 93 1000 190/10 RMK AO2 P0000
14837KMSN MSN20011125020512811/25/01 02:05:31  5-MIN KMSN 250805Z 19006KT 3SM -DZ BR BKN010 OVC015 08/07 A2936 1390 93 1000 190/06 RMK AO2 CIG 006V012 P0000
14837KMSN MSN20011125021012811/25/01 02:10:31  5-MIN KMSN 250810Z 20007KT 3SM -DZ BR BKN010 OVC015 08/07 A2936 1390 93 1000 200/07 RMK AO2 CIG 006V013 P0000
14837KMSN MSN20011125021512811/25/01 02:15:31  5-MIN KMSN 250815Z 20007KT 3SM -DZ BR BKN010 OVC015 08/07 A2936 1390 93 1000 200/07 RMK AO2 CIG 006V012 P0000
14837KMSN MSN20011125022012811/25/01 02:20:31  5-MIN KMSN 250820Z 20007KT 3SM -DZ BR BKN008 OVC013 08/07 A2936 1380 93 1000 200/07 RMK AO2 CIG 006V012 P0000
14837KMSN MSN20011125022512111/25/01 02:25:31  5-MIN KMSN 250825Z 20009KT 3SM -DZ BR OVC008 08/07 A2936 1380 93 1000 200/09 RMK AO2 CIG 006V012 P0000
14837KMSN MSN20011125023012811/25/01 02:30:31  5-MIN KMSN 250830Z 20008KT 3SM -DZ BR BKN008 OVC012 08/07 A2937 1380 93 1000 190/08 RMK AO2 CIG 006V011 P0000
14837KMSN MSN20011125023512011/25/01 02:35:31  5-MIN KMSN 250835Z 20007KT 3SM -DZ BR OVC010 08/07 A2937 1380 93 900 200/07 RMK AO2 CIG 006V013 P0000
14837KMSN MSN20011125024012011/25/01 02:40:31  5-MIN KMSN 250840Z 21010KT 3SM -DZ BR OVC010 08/07 A2937 1380 93 900 210/10 RMK AO2 CIG 006V012 P0000
14837KMSN MSN20011125024512211/25/01 02:45:31  5-MIN KMSN 250845Z 21009KT 5SM BR OVC010 08/07 A2937 1380 93 900 200/09 RMK AO2 DZE43 CIG 006V015 P0000
14837KMSN MSN20011125025014811/25/01 02:50:31  5-MIN KMSN 250850Z 21008KT 7SM OVC010 08/07 A2937 1370 93 900 200/08 RMK AO2 DZE43 CIG 007V015 SLP947 P0000 60002 T00830072 55002
14837KMSN MSN20011125025510711/25/01 02:55:31  5-MIN KMSN 250855Z 20009KT 9SM OVC010 08/07 A2938 1370 89 900 200/09 RMK AO2 CIG 009V015
14837KMSN MSN20011125030009511/25/01 03:00:31  5-MIN KMSN 250900Z 20008KT 9SM OVC010 08/07 A2938 1370 89 900 200/08 RMK AO2
14837KMSN MSN20011125030510711/25/01 03:05:31  5-MIN KMSN 250905Z 21009KT 9SM OVC010 08/07 A2938 1370 89 900 210/09 RMK AO2 CIG 009V014
14837KMSN MSN20011125031010711/25/01 03:10:31  5-MIN KMSN 250910Z 20010KT 9SM OVC010 08/07 A2938 1370 89 900 200/10 RMK AO2 CIG 009V014
14837KMSN MSN20011125031511611/25/01 03:15:31  5-MIN KMSN 250915Z 20008G16KT 6SM BR OVC010 08/07 A2938 1370 89 900 200/08G16 RMK AO2 CIG 008V014
14837KMSN MSN20011125032014211/25/01 03:20:31  5-MIN KMSN 250920Z 21007KT 150V240 5SM -DZ BR OVC010 08/07 A2938 1370 93 900 210/07 150V240 RMK AO2 DZB17 CIG 008V014 P0000
14837KMSN MSN20011125032512611/25/01 03:25:31  5-MIN KMSN 250925Z 20008KT 4SM -DZ BR OVC010 08/07 A2939 1360 93 900 200/08 RMK AO2 DZB17 CIG 008V012 P0000
14837KMSN MSN20011125033012611/25/01 03:30:31  5-MIN KMSN 250930Z 20008KT 4SM -DZ BR OVC010 08/07 A2939 1360 93 900 190/08 RMK AO2 DZB17 CIG 008V012 P0000
14837KMSN MSN20011125033512611/25/01 03:35:31  5-MIN KMSN 250935Z 21007KT 4SM -DZ BR OVC010 08/07 A2939 1360 93 900 210/07 RMK AO2 DZB17 CIG 008V012 P0000
14837KMSN MSN20011125034012611/25/01 03:40:31  5-MIN KMSN 250940Z 20007KT 4SM -DZ BR OVC010 08/07 A2939 1360 93 900 200/07 RMK AO2 DZB17 CIG 008V012 P0000
14837KMSN MSN20011125034512311/25/01 03:45:31  5-MIN KMSN 250945Z 19008KT 7SM -DZ OVC010 08/07 A2939 1360 93 900 190/08 RMK AO2 DZB17 CIG 008V012 P0000
14837KMSN MSN20011125035014011/25/01 03:50:31  5-MIN KMSN 250950Z 21006KT 7SM -DZ OVC010 08/07 A2939 1360 93 900 210/06 RMK AO2 DZB17 CIG 008V012 SLP952 P0000 T00830072
14837KMSN MSN20011125035511711/25/01 03:55:31  5-MIN KMSN 250955Z 20006KT 7SM -DZ OVC010 08/07 A2939 1360 93 900 200/06 RMK AO2 CIG 008V012 P0000
14837KMSN MSN20011125040011711/25/01 04:00:31  5-MIN KMSN 251000Z 20007KT 8SM -DZ OVC010 08/07 A2939 1360 93 900 200/07 RMK AO2 CIG 008V012 P0000
14837KMSN MSN20011125040511711/25/01 04:05:31  5-MIN KMSN 251005Z 20006KT 8SM -DZ OVC008 08/07 A2939 1360 93 900 200/06 RMK AO2 CIG 007V012 P0000
14837KMSN MSN20011125041011711/25/01 04:10:31  5-MIN KMSN 251010Z 20009KT 8SM -DZ OVC008 08/07 A2940 1350 93 900 200/09 RMK AO2 CIG 007V012 P0000
14837KMSN MSN20011125041511711/25/01 04:15:31  5-MIN KMSN 251015Z 20007KT 8SM -DZ OVC008 08/07 A2940 1350 93 900 200/07 RMK AO2 CIG 007V011 P0000
14837KMSN MSN20011125042010511/25/01 04:20:31  5-MIN KMSN 251020Z 20006KT 8SM -DZ OVC008 08/07 A2940 1350 93 900 200/06 RMK AO2 P0000
14837KMSN MSN20011125042510511/25/01 04:25:31  5-MIN KMSN 251025Z 21007KT 8SM -DZ OVC008 08/07 A2941 1340 93 900 210/07 RMK AO2 P0000
14837KMSN MSN20011125043010711/25/01 04:30:31  5-MIN KMSN 251030Z 21007KT 8SM OVC008 08/07 A2941 1340 93 900 210/07 RMK AO2 DZE26 P0000
14837KMSN MSN20011125043510711/25/01 04:35:31  5-MIN KMSN 251035Z 21006KT 9SM OVC008 08/07 A2941 1340 93 900 210/06 RMK AO2 DZE26 P0000
14837KMSN MSN20011125044012311/25/01 04:40:31  5-MIN KMSN 251040Z 20007KT 170V240 9SM OVC008 08/07 A2942 1330 93 900 200/07 170V240 RMK AO2 DZE26 P0000
14837KMSN MSN20011125044510711/25/01 04:45:31  5-MIN KMSN 251045Z 21007KT 8SM OVC008 08/07 A2942 1330 93 900 210/07 RMK AO2 DZE26 P0000
14837KMSN MSN20011125045012411/25/01 04:50:31  5-MIN KMSN 251050Z 21008KT 8SM OVC008 08/07 A2942 1330 93 900 210/08 RMK AO2 DZE26 SLP964 P0000 T00830072
14837KMSN MSN20011125045509511/25/01 04:55:31  5-MIN KMSN 251055Z 20007KT 7SM OVC008 08/07 A2942 1330 93 900 200/07 RMK AO2
14837KMSN MSN20011125050010211/25/01 05:00:31  5-MIN KMSN 251100Z 20008KT 7SM BKN008 OVC013 08/07 A2942 1330 93 900 200/08 RMK AO2
14837KMSN MSN20011125050511411/25/01 05:05:31  5-MIN KMSN 251105Z 19010KT 7SM BKN008 OVC013 08/07 A2943 1320 93 900 190/10 RMK AO2 CIG 006V010
14837KMSN MSN20011125051011411/25/01 05:10:31  5-MIN KMSN 251110Z 19011KT 8SM BKN008 OVC013 08/07 A2943 1320 93 900 190/11 RMK AO2 CIG 006V011
14837KMSN MSN20011125051511411/25/01 05:15:31  5-MIN KMSN 251115Z 19008KT 7SM BKN008 OVC013 08/07 A2944 1320 93 900 190/08 RMK AO2 CIG 006V011
14837KMSN MSN20011125052011711/25/01 05:20:31  5-MIN KMSN 251120Z 19009KT 6SM BR BKN008 OVC013 08/07 A2944 1310 93 900 190/09 RMK AO2 CIG 006V011
14837KMSN MSN20011125052511711/25/01 05:25:31  5-MIN KMSN 251125Z 19011KT 5SM BR BKN006 OVC013 08/07 A2944 1310 93 900 190/11 RMK AO2 CIG 006V011
14837KMSN MSN20011125053011711/25/01 05:30:31  5-MIN KMSN 251130Z 19010KT 5SM BR BKN006 OVC013 08/07 A2945 1300 93 900 190/10 RMK AO2 CIG 006V010
14837KMSN MSN20011125053512611/25/01 05:35:31  5-MIN KMSN 251135Z 20008KT 4SM -DZ BR OVC008 08/07 A2946 1300 93 800 200/08 RMK AO2 DZB31 CIG 006V010 P0000
14837KMSN MSN20011125054012611/25/01 05:40:31  5-MIN KMSN 251140Z 20011KT 4SM -DZ BR OVC006 08/07 A2946 1290 93 800 200/11 RMK AO2 DZB31 CIG 006V012 P0000
14837KMSN MSN20011125054513211/25/01 05:45:31  5-MIN KMSN 251145Z 21013G20KT 4SM -DZ BR OVC008 08/07 A2946 1290 93 800 210/13G20 RMK AO2 DZB31 CIG 006V011 P0000
14837KMSN MSN20011125055017911/25/01 05:50:31  5-MIN KMSN 251150Z 22011G20KT 4SM -DZ BR OVC008 08/07 A2947 1280 89 800 220/11G20 RMK AO2 DZB31 CIG 006V013 SLP981 P0001 60003 70064 T00830067 10089 20083 53016
14837KMSN MSN20011125055511311/25/01 05:55:31  5-MIN KMSN 251155Z 23010G18KT 7SM OVC008 08/07 A2947 1280 93 800 220/10G18 RMK AO2 CIG 006V010
14837KMSN MSN20011125060011311/25/01 06:00:31  5-MIN KMSN 251200Z 22013G18KT 7SM OVC008 08/06 A2948 1280 89 800 220/13G18 RMK AO2 CIG 006V013
14837KMSN MSN20011125060511311/25/01 06:05:31  5-MIN KMSN 251205Z 22012G17KT 7SM OVC008 07/06 A2949 1270 93 700 220/12G17 RMK AO2 CIG 007V013
14837KMSN MSN20011125061012011/25/01 06:10:31  5-MIN KMSN 251210Z 23010G20KT 7SM OVC008 07/06 A2949 1260 89 700 230/10G20 RMK AO2 CIG 007V013 PRESRR
14837KMSN MSN20011125061510111/25/01 06:15:31  5-MIN KMSN 251215Z 21014G20KT 7SM OVC008 07/06 A2949 1260 93 600 210/14G20 RMK AO2
14837KMSN MSN20011125062010111/25/01 06:20:31  5-MIN KMSN 251220Z 22012G19KT 7SM OVC008 07/06 A2950 1260 93 600 220/12G19 RMK AO2
14837KMSN MSN20011125062510111/25/01 06:25:31  5-MIN KMSN 251225Z 22012G20KT 7SM OVC008 07/06 A2950 1250 93 600 220/12G20 RMK AO2
14837KMSN MSN20011125063010211/25/01 06:30:31  5-MIN KMSN 251230Z 23013G20KT 10SM OVC008 07/06 A2951 1250 93 600 230/13G20 RMK AO2
14837KMSN MSN20011125063510211/25/01 06:35:31  5-MIN KMSN 251235Z 24014G21KT 10SM OVC008 07/05 A2951 1250 89 600 240/14G21 RMK AO2
14837KMSN MSN20011125064010211/25/01 06:40:31  5-MIN KMSN 251240Z 22012G21KT 10SM OVC008 07/06 A2951 1240 93 600 220/12G21 RMK AO2
14837KMSN MSN20011125064510211/25/01 06:45:31  5-MIN KMSN 251245Z 22010G18KT 10SM OVC008 06/05 A2952 1240 93 500 220/10G18 RMK AO2
14837KMSN MSN20011125065011911/25/01 06:50:31  5-MIN KMSN 251250Z 22011G17KT 10SM OVC008 06/05 A2953 1230 93 500 220/11G17 RMK AO2 SLP001 T00610050
14837KMSN MSN20011125065510111/25/01 06:55:31  5-MIN KMSN 251255Z 23012G18KT 8SM OVC008 06/05 A2953 1230 93 500 230/12G18 RMK AO2
14837KMSN MSN20011125070010111/25/01 07:00:31  5-MIN KMSN 251300Z 23014G19KT 8SM OVC008 06/05 A2953 1230 93 500 230/14G19 RMK AO2
14837KMSN MSN20011125070511311/25/01 07:05:31  5-MIN KMSN 251305Z 23014G20KT 8SM OVC008 06/04 A2954 1220 89 500 230/14G20 RMK AO2 CIG 006V011
14837KMSN MSN20011125071010111/25/01 07:10:31  5-MIN KMSN 251310Z 23011G20KT 8SM OVC008 06/04 A2954 1220 89 500 230/11G20 RMK AO2
14837KMSN MSN20011125071510111/25/01 07:15:31  5-MIN KMSN 251315Z 23013G19KT 8SM OVC008 06/04 A2955 1210 89 500 230/13G19 RMK AO2
14837KMSN MSN20011125072010211/25/01 07:20:31  5-MIN KMSN 251320Z 24012G19KT 10SM OVC008 06/04 A2955 1210 89 500 240/12G19 RMK AO2
14837KMSN MSN20011125072511411/25/01 07:25:31  5-MIN KMSN 251325Z 23011G20KT 10SM OVC010 06/04 A2955 1210 86 500 230/11G20 RMK AO2 CIG 008V015
14837KMSN MSN20011125073011411/25/01 07:30:31  5-MIN KMSN 251330Z 24012G20KT 10SM OVC010 06/04 A2956 1200 86 500 240/12G20 RMK AO2 CIG 008V015
14837KMSN MSN20011125073510211/25/01 07:35:31  5-MIN KMSN 251335Z 23010G19KT 10SM OVC010 06/04 A2956 1200 86 500 230/10G19 RMK AO2
14837KMSN MSN20011125074010211/25/01 07:40:31  5-MIN KMSN 251340Z 23009G19KT 10SM OVC010 06/04 A2957 1190 86 400 230/09G19 RMK AO2
14837KMSN MSN20011125074510911/25/01 07:45:31  5-MIN KMSN 251345Z 23011G22KT 10SM OVC010 06/04 A2957 1190 89 400 230/11G22 RMK AO2 PRESRR
14837KMSN MSN20011125075013111/25/01 07:50:31  5-MIN KMSN 251350Z 24013G22KT 10SM OVC010 06/04 A2958 1180 89 400 240/13G22 RMK AO2 CIG 009V014 SLP020 T00560039
14837KMSN MSN20011125075511411/25/01 07:55:31  5-MIN KMSN 251355Z 23012G18KT 10SM OVC010 06/04 A2958 1180 89 400 230/12G18 RMK AO2 CIG 009V014
14837KMSN MSN20011125080011411/25/01 08:00:31  5-MIN KMSN 251400Z 22011G16KT 10SM OVC010 06/04 A2958 1180 89 400 220/11G16 RMK AO2 CIG 009V014
14837KMSN MSN20011125080510811/25/01 08:05:31  5-MIN KMSN 251405Z 23010KT 10SM OVC010 06/04 A2959 1170 89 400 230/10 RMK AO2 CIG 009V014
14837KMSN MSN20011125081011811/25/01 08:10:31  5-MIN KMSN 251410Z 24011G17KT 200V260 10SM OVC012 06/04 A2959 1170 89 400 240/11G17 200V260 RMK AO2
14837KMSN MSN20011125081511811/25/01 08:15:31  5-MIN KMSN 251415Z 24012G22KT 210V270 10SM OVC012 06/03 A2960 1160 85 300 240/12G22 210V270 RMK AO2
14837KMSN MSN20011125082010211/25/01 08:20:31  5-MIN KMSN 251420Z 24010G22KT 10SM OVC012 06/03 A2960 1160 85 300 240/10G22 RMK AO2
14837KMSN MSN20011125082510311/25/01 08:25:31  5-MIN KMSN 251425Z 23012KT 10SM OVC014 06/03 A2961 1150 85 300 230/12 RMK AO2 PRESRR
14837KMSN MSN20011125083012511/25/01 08:30:31  5-MIN KMSN 251430Z 23010G18KT 200V260 10SM OVC014 06/03 A2962 1140 85 300 230/10G18 200V260 RMK AO2 PRESRR
14837KMSN MSN20011125083510211/25/01 08:35:31  5-MIN KMSN 251435Z 23012G18KT 10SM OVC014 06/03 A2962 1140 85 300 230/12G18 RMK AO2
14837KMSN MSN20011125084010211/25/01 08:40:31  5-MIN KMSN 251440Z 22009G18KT 10SM OVC014 06/03 A2962 1140 85 300 220/09G18 RMK AO2
14837KMSN MSN20011125084511211/25/01 08:45:31  5-MIN KMSN 251445Z 24008KT 190V270 10SM OVC012 06/03 A2963 1140 85 300 240/08 190V270 RMK AO2
14837KMSN MSN20011125085012511/25/01 08:50:31  5-MIN KMSN 251450Z 24011G18KT 10SM OVC012 06/03 A2963 1140 85 300 240/11G18 RMK AO2 SLP037 T00560033 53033
14837KMSN MSN20011125085510211/25/01 08:55:31  5-MIN KMSN 251455Z 24011G18KT 10SM OVC012 06/03 A2963 1130 85 300 240/11G18 RMK AO2
14837KMSN MSN20011125090010211/25/01 09:00:31  5-MIN KMSN 251500Z 25013G17KT 10SM OVC012 06/03 A2963 1130 85 300 250/13G17 RMK AO2
14837KMSN MSN20011125090511811/25/01 09:05:31  5-MIN KMSN 251505Z 25010G17KT 220V290 10SM OVC012 06/03 A2964 1130 85 300 250/10G17 220V290 RMK AO2
14837KMSN MSN20011125091010211/25/01 09:10:31  5-MIN KMSN 251510Z 24010G18KT 10SM OVC012 06/03 A2964 1130 85 300 240/10G18 RMK AO2
14837KMSN MSN20011125091510211/25/01 09:15:31  5-MIN KMSN 251515Z 25010G18KT 10SM OVC012 06/03 A2964 1130 85 300 250/10G18 RMK AO2
14837KMSN MSN20011125092010211/25/01 09:20:31  5-MIN KMSN 251520Z 25012G19KT 10SM OVC012 06/03 A2964 1120 85 300 250/12G19 RMK AO2
14837KMSN MSN20011125092510211/25/01 09:25:31  5-MIN KMSN 251525Z 25010G19KT 10SM OVC012 06/03 A2965 1120 85 300 250/10G19 RMK AO2
14837KMSN MSN20011125093010211/25/01 09:30:31  5-MIN KMSN 251530Z 25010G18KT 10SM OVC012 06/03 A2965 1110 85 300 250/10G18 RMK AO2
14837KMSN MSN20011125093510911/25/01 09:35:31  5-MIN KMSN 251535Z 24011G16KT 10SM OVC012 06/03 A2966 1110 85 300 240/11G16 RMK AO2 PRESRR
14837KMSN MSN20011125094011811/25/01 09:40:31  5-MIN KMSN 251540Z 25011G18KT 200V270 10SM OVC012 06/03 A2966 1100 82 300 250/11G18 200V270 RMK AO2
14837KMSN MSN20011125094510211/25/01 09:45:31  5-MIN KMSN 251545Z 24009G18KT 10SM OVC014 06/03 A2967 1100 82 300 240/09G18 RMK AO2
14837KMSN MSN20011125095011911/25/01 09:50:31  5-MIN KMSN 251550Z 25013G20KT 10SM OVC014 06/03 A2968 1090 82 300 250/13G20 RMK AO2 SLP053 T00560028
14837KMSN MSN20011125095511811/25/01 09:55:31  5-MIN KMSN 251555Z 26014G21KT 230V290 10SM OVC014 05/03 A2968 1090 85 200 260/14G21 230V290 RMK AO2
14837KMSN MSN20011125100011811/25/01 10:00:31  5-MIN KMSN 251600Z 25009G21KT 220V290 10SM OVC014 06/03 A2968 1080 82 200 250/09G21 220V290 RMK AO2
14837KMSN MSN20011125100511811/25/01 10:05:31  5-MIN KMSN 251605Z 26008G16KT 230V300 10SM OVC014 06/03 A2969 1080 82 200 260/08G16 230V300 RMK AO2
14837KMSN MSN20011125101010211/25/01 10:10:31  5-MIN KMSN 251610Z 25012G19KT 10SM OVC014 06/02 A2969 1080 79 200 250/12G19 RMK AO2
14837KMSN MSN20011125101510211/25/01 10:15:31  5-MIN KMSN 251615Z 25011G20KT 10SM OVC014 05/02 A2970 1070 82 200 240/11G20 RMK AO2
14837KMSN MSN20011125102010211/25/01 10:20:31  5-MIN KMSN 251620Z 24012G20KT 10SM OVC016 06/02 A2970 1070 79 200 240/12G20 RMK AO2
14837KMSN MSN20011125102511811/25/01 10:25:31  5-MIN KMSN 251625Z 25010G20KT 220V290 10SM OVC016 06/02 A2970 1060 79 200 250/10G20 220V290 RMK AO2
14837KMSN MSN20011125103010211/25/01 10:30:31  5-MIN KMSN 251630Z 24012G19KT 10SM OVC016 06/02 A2971 1060 79 200 240/12G19 RMK AO2
14837KMSN MSN20011125103510211/25/01 10:35:31  5-MIN KMSN 251635Z 24010G19KT 10SM OVC016 05/02 A2971 1060 82 100 240/10G19 RMK AO2
14837KMSN MSN20011125104011811/25/01 10:40:31  5-MIN KMSN 251640Z 26008G15KT 220V290 10SM OVC016 05/02 A2972 1050 82 100 260/08G15 220V290 RMK AO2
14837KMSN MSN20011125104510211/25/01 10:45:31  5-MIN KMSN 251645Z 26012G17KT 10SM OVC014 05/02 A2972 1050 82 100 260/12G17 RMK AO2
14837KMSN MSN20011125105011911/25/01 10:50:31  5-MIN KMSN 251650Z 25011G18KT 10SM OVC014 05/02 A2972 1050 82 100 250/11G18 RMK AO2 SLP069 T00500022
14837KMSN MSN20011125105510211/25/01 10:55:31  5-MIN KMSN 251655Z 24011G18KT 10SM OVC014 05/02 A2972 1050 82 100 240/11G18 RMK AO2
14837KMSN MSN20011125110010211/25/01 11:00:31  5-MIN KMSN 251700Z 24011G18KT 10SM OVC014 05/02 A2972 1050 82 100 240/11G18 RMK AO2
14837KMSN MSN20011125110511811/25/01 11:05:31  5-MIN KMSN 251705Z 26011G20KT 230V290 10SM OVC014 05/02 A2973 1040 82 100 260/11G20 230V290 RMK AO2
14837KMSN MSN20011125111010211/25/01 11:10:31  5-MIN KMSN 251710Z 24011G20KT 10SM OVC014 05/02 A2973 1040 82 100 240/11G20 RMK AO2
14837KMSN MSN20011125111511811/25/01 11:15:31  5-MIN KMSN 251715Z 26010G15KT 220V280 10SM OVC014 05/02 A2973 1040 82 100 260/10G15 220V280 RMK AO2
14837KMSN MSN20011125112011811/25/01 11:20:31  5-MIN KMSN 251720Z 25012G22KT 210V280 10SM OVC014 05/02 A2974 1040 79 100 250/12G22 210V280 RMK AO2
14837KMSN MSN20011125112510211/25/01 11:25:31  5-MIN KMSN 251725Z 25010G22KT 10SM OVC016 05/02 A2974 1030 79 100 250/10G22 RMK AO2
14837KMSN MSN20011125113010211/25/01 11:30:31  5-MIN KMSN 251730Z 26013G22KT 10SM OVC016 05/02 A2975 1030 79 100 260/13G22 RMK AO2
14837KMSN MSN20011125113510211/25/01 11:35:31  5-MIN KMSN 251735Z 25012G20KT 10SM OVC016 05/02 A2975 1020 79 100 240/12G20 RMK AO2
14837KMSN MSN20011125114011811/25/01 11:40:31  5-MIN KMSN 251740Z 26012G20KT 230V290 10SM OVC016 05/02 A2975 1020 79 100 260/12G20 230V290 RMK AO2
14837KMSN MSN20011125114510211/25/01 11:45:31  5-MIN KMSN 251745Z 26010G18KT 10SM OVC016 05/02 A2975 1020 79 100 260/10G18 RMK AO2
14837KMSN MSN20011125115015311/25/01 11:50:31  5-MIN KMSN 251750Z 26011G18KT 220V280 10SM OVC016 05/02 A2975 1020 79 100 250/11G18 220V280 RMK AO2 SLP079 T00500017 10078 20050 51050
14837KMSN MSN20011125115510211/25/01 11:55:31  5-MIN KMSN 251755Z 24012G22KT 10SM OVC016 05/02 A2976 1020 79 100 240/12G22 RMK AO2
14837KMSN MSN20011125120011611/25/01 12:00:31  5-MIN KMSN 251800Z 24013G22KT 220V280 10SM OVC016 04/02 A2976 1010 82 0 240/13G22 220V280 RMK AO2
14837KMSN MSN20011125120511611/25/01 12:05:31  5-MIN KMSN 251805Z 25012G21KT 220V280 10SM OVC016 04/02 A2976 1010 82 0 250/12G21 220V280 RMK AO2
14837KMSN MSN20011125121011611/25/01 12:10:31  5-MIN KMSN 251810Z 25011G21KT 220V280 10SM OVC016 04/02 A2976 1010 82 0 250/11G21 220V280 RMK AO2
14837KMSN MSN20011125121510211/25/01 12:15:31  5-MIN KMSN 251815Z 27012G20KT 10SM OVC016 05/02 A2977 1010 79 100 270/12G20 RMK AO2
14837KMSN MSN20011125122010911/25/01 12:20:31  5-MIN KMSN 251820Z 27012G24KT 10SM BKN016 OVC021 05/01 A2976 1010 76 100 270/12G24 RMK AO2
14837KMSN MSN20011125122510211/25/01 12:25:31  5-MIN KMSN 251825Z 26010G24KT 10SM OVC018 05/01 A2977 1010 76 100 260/10G24 RMK AO2
14837KMSN MSN20011125123011611/25/01 12:30:31  5-MIN KMSN 251830Z 26009G18KT 230V290 10SM OVC018 04/01 A2976 1010 79 0 260/09G18 230V290 RMK AO2
14837KMSN MSN20011125123511611/25/01 12:35:31  5-MIN KMSN 251835Z 26009G18KT 210V290 10SM OVC018 04/01 A2977 1010 79 0 260/09G18 210V290 RMK AO2
14837KMSN MSN20011125124010011/25/01 12:40:31  5-MIN KMSN 251840Z 26014G18KT 10SM OVC018 04/01 A2977 1000 79 0 260/14G18 RMK AO2
14837KMSN MSN20011125124511611/25/01 12:45:31  5-MIN KMSN 251845Z 26009G18KT 220V300 10SM OVC018 04/01 A2978 1000 79 0 260/09G18 220V300 RMK AO2
14837KMSN MSN20011125125011611/25/01 12:50:31  5-MIN KMSN 251850Z 27013G20KT 10SM OVC018 04/01 A2978 990 76 0 270/13G20 RMK AO2 SLP090 T00440006
14837KMSN MSN20011125125511511/25/01 12:55:31  5-MIN KMSN 251855Z 26010G20KT 230V300 10SM OVC018 04/01 A2979 990 76 0 260/10G20 230V300 RMK AO2
14837KMSN MSN20011125130009911/25/01 13:00:31  5-MIN KMSN 251900Z 26008G18KT 10SM OVC018 04/01 A2979 980 79 0 260/08G18 RMK AO2
14837KMSN MSN20011125130510611/25/01 13:05:31  5-MIN KMSN 251905Z 27013G19KT 10SM OVC018 04/01 A2980 980 79 0 270/13G19 RMK AO2 PRESRR
14837KMSN MSN20011125131009911/25/01 13:10:31  5-MIN KMSN 251910Z 26009G19KT 10SM OVC018 04/01 A2980 980 76 0 260/09G19 RMK AO2
14837KMSN MSN20011125131509911/25/01 13:15:31  5-MIN KMSN 251915Z 26012G18KT 10SM OVC018 04/01 A2980 980 76 0 260/12G18 RMK AO2
14837KMSN MSN20011125132009911/25/01 13:20:31  5-MIN KMSN 251920Z 25011G18KT 10SM OVC018 04/01 A2980 970 76 0 250/11G18 RMK AO2
14837KMSN MSN20011125132511511/25/01 13:25:31  5-MIN KMSN 251925Z 25010G18KT 210V280 10SM OVC018 04/01 A2981 970 76 0 250/10G18 210V280 RMK AO2
14837KMSN MSN20011125133011511/25/01 13:30:31  5-MIN KMSN 251930Z 24009G18KT 200V260 10SM OVC018 04/01 A2981 960 76 0 240/09G18 200V260 RMK AO2
14837KMSN MSN20011125133510211/25/01 13:35:31  5-MIN KMSN 251935Z 24011G20KT 10SM OVC018 04/01 A2982 960 79 -100 240/11G20 RMK AO2
14837KMSN MSN20011125134009911/25/01 13:40:31  5-MIN KMSN 251940Z 26011G20KT 10SM OVC018 04/01 A2982 960 76 0 260/11G20 RMK AO2
14837KMSN MSN20011125134511811/25/01 13:45:31  5-MIN KMSN 251945Z 27011G18KT 240V300 10SM OVC018 04/01 A2982 960 79 -100 270/11G18 240V300 RMK AO2
14837KMSN MSN20011125135011611/25/01 13:50:31  5-MIN KMSN 251950Z 25009G22KT 10SM OVC020 04/00 A2983 950 73 0 250/09G22 RMK AO2 SLP105 T00440000
14837KMSN MSN20011125135509911/25/01 13:55:31  5-MIN KMSN 251955Z 26012G22KT 10SM OVC020 04/00 A2982 950 73 0 260/12G22 RMK AO2
14837KMSN MSN20011125140010611/25/01 14:00:31  5-MIN KMSN 252000Z 26014G22KT 10SM SCT018 OVC022 04/00 A2983 950 73 0 260/14G22 RMK AO2
14837KMSN MSN20011125140511511/25/01 14:05:31  5-MIN KMSN 252005Z 26009G20KT 220V300 10SM OVC022 04/00 A2983 950 73 0 260/09G20 220V300 RMK AO2
14837KMSN MSN20011125141011511/25/01 14:10:31  5-MIN KMSN 252010Z 26009G19KT 220V300 10SM OVC022 04/00 A2983 940 73 0 260/09G19 220V300 RMK AO2
14837KMSN MSN20011125141509911/25/01 14:15:31  5-MIN KMSN 252015Z 25009G16KT 10SM OVC022 04/00 A2984 940 73 0 250/09G16 RMK AO2
14837KMSN MSN20011125142010211/25/01 14:20:31  5-MIN KMSN 252020Z 26008G15KT 10SM OVC022 04/00 A2984 940 76 -100 260/08G15 RMK AO2
14837KMSN MSN20011125142511211/25/01 14:25:31  5-MIN KMSN 252025Z 27007KT 240V300 10SM OVC022 04/00 A2985 930 76 -100 270/07 240V300 RMK AO2
14837KMSN MSN20011125143011811/25/01 14:30:31  5-MIN KMSN 252030Z 25011G18KT 220V280 10SM OVC022 04/00 A2985 930 76 -100 250/11G18 220V280 RMK AO2
14837KMSN MSN20011125143510211/25/01 14:35:31  5-MIN KMSN 252035Z 26010G18KT 10SM OVC022 04/00 A2985 930 76 -100 260/10G18 RMK AO2
14837KMSN MSN20011125144011811/25/01 14:40:31  5-MIN KMSN 252040Z 26010G19KT 240V300 10SM OVC022 04/00 A2986 920 76 -100 260/10G19 240V300 RMK AO2
14837KMSN MSN20011125144510211/25/01 14:45:31  5-MIN KMSN 252045Z 27010G19KT 10SM OVC022 04/00 A2986 920 76 -100 270/10G19 RMK AO2
14837KMSN MSN20011125145014111/25/01 14:50:31  5-MIN KMSN 252050Z 26012G17KT 230V290 10SM OVC022 04/00 A2986 920 76 -100 260/12G17 230V290 RMK AO2 SLP116 T00390000 51043
14837KMSN MSN20011125145510211/25/01 14:55:31  5-MIN KMSN 252055Z 25010G17KT 10SM OVC022 04/00 A2986 920 76 -100 250/10G17 RMK AO2
14837KMSN MSN20011125150010211/25/01 15:00:31  5-MIN KMSN 252100Z 27009G15KT 10SM OVC022 04/00 A2986 920 76 -100 270/09G15 RMK AO2
14837KMSN MSN20011125150511811/25/01 15:05:31  5-MIN KMSN 252105Z 25010G16KT 220V290 10SM OVC022 04/00 A2987 910 76 -100 250/10G16 220V290 RMK AO2
14837KMSN MSN20011125151011811/25/01 15:10:31  5-MIN KMSN 252110Z 25007G16KT 210V270 10SM OVC022 04/00 A2987 910 76 -100 250/07G16 210V270 RMK AO2
14837KMSN MSN20011125151511811/25/01 15:15:31  5-MIN KMSN 252115Z 27008G15KT 240V310 10SM OVC022 04/00 A2987 910 76 -100 270/08G15 240V310 RMK AO2
14837KMSN MSN20011125152009611/25/01 15:20:31  5-MIN KMSN 252120Z 28006KT 10SM OVC022 04/00 A2988 910 76 -100 280/06 RMK AO2
14837KMSN MSN20011125152510211/25/01 15:25:31  5-MIN KMSN 252125Z 27011G15KT 10SM OVC022 04/00 A2988 900 76 -100 270/11G15 RMK AO2
14837KMSN MSN20011125153011811/25/01 15:30:31  5-MIN KMSN 252130Z 26007G15KT 220V300 10SM OVC022 04/00 A2988 900 76 -100 260/07G15 220V300 RMK AO2
14837KMSN MSN20011125153509611/25/01 15:35:31  5-MIN KMSN 252135Z 27009KT 10SM OVC022 04/00 A2988 900 76 -100 270/09 RMK AO2
14837KMSN MSN20011125154009711/25/01 15:40:31  5-MIN KMSN 252140Z 26008KT 10SM OVC022 04/M01 A2989 890 73 -200 260/08 RMK AO2
14837KMSN MSN20011125154510311/25/01 15:45:31  5-MIN KMSN 252145Z 28010G16KT 10SM OVC022 04/M01 A2989 890 73 -100 280/10G16 RMK AO2
14837KMSN MSN20011125155012011/25/01 15:50:31  5-MIN KMSN 252150Z 28008G16KT 10SM OVC022 04/M01 A2989 890 73 -200 270/08G16 RMK AO2 SLP128 T00391006
14837KMSN MSN20011125155510211/25/01 15:55:31  5-MIN KMSN 252155Z VRB06G16KT 10SM OVC022 04/00 A2990 880 76 -200 VRB/06G16 RMK AO2
14837KMSN MSN20011125160011211/25/01 16:00:31  5-MIN KMSN 252200Z 26007KT 240V300 10SM OVC022 04/00 A2990 880 76 -200 260/07 240V300 RMK AO2
14837KMSN MSN20011125160511211/25/01 16:05:31  5-MIN KMSN 252205Z 26008KT 230V300 10SM OVC022 04/00 A2991 880 76 -200 260/08 230V300 RMK AO2
14837KMSN MSN20011125161010311/25/01 16:10:31  5-MIN KMSN 252210Z 25008KT 10SM OVC022 04/00 A2992 870 76 -200 250/08 RMK AO2 PRESRR
14837KMSN MSN20011125161512511/25/01 16:15:31  5-MIN KMSN 252215Z 25010G14KT 210V270 10SM OVC022 04/00 A2993 860 76 -200 250/10G14 210V270 RMK AO2 PRESRR
14837KMSN MSN20011125162010311/25/01 16:20:31  5-MIN KMSN 252220Z 24009KT 10SM OVC022 04/00 A2993 850 76 -200 240/09 RMK AO2 PRESRR
14837KMSN MSN20011125162511011/25/01 16:25:31  5-MIN KMSN 252225Z 26007G15KT 10SM OVC022 04/M01 A2994 850 73 -200 250/07G15 RMK AO2 PRESRR
14837KMSN MSN20011125163012511/25/01 16:30:31  5-MIN KMSN 252230Z 25007G15KT 210V290 10SM OVC022 04/00 A2995 840 76 -200 250/07G15 210V290 RMK AO2 PRESRR
14837KMSN MSN20011125163511911/25/01 16:35:31  5-MIN KMSN 252235Z 25007G14KT 210V270 10SM OVC022 04/M01 A2994 840 73 -200 250/07G14 210V270 RMK AO2
14837KMSN MSN20011125164009711/25/01 16:40:31  5-MIN KMSN 252240Z 25006KT 10SM OVC022 04/M01 A2994 840 73 -200 250/06 RMK AO2
14837KMSN MSN20011125164509611/25/01 16:45:31  5-MIN KMSN 252245Z 25007KT 10SM OVC022 04/00 A2995 840 76 -200 250/07 RMK AO2
14837KMSN MSN20011125165012011/25/01 16:50:31  5-MIN KMSN 252250Z 26010G15KT 10SM OVC022 04/M01 A2995 830 73 -200 260/10G15 RMK AO2 SLP149 T00391006
14837KMSN MSN20011125165510211/25/01 16:55:31  5-MIN KMSN 252255Z 25010G15KT 10SM OVC022 04/00 A2996 830 76 -200 250/10G15 RMK AO2
14837KMSN MSN20011125170009611/25/01 17:00:31  5-MIN KMSN 252300Z 25005KT 10SM OVC022 04/00 A2996 830 76 -200 240/05 RMK AO2
14837KMSN MSN20011125170509611/25/01 17:05:31  5-MIN KMSN 252305Z 26008KT 10SM OVC022 04/00 A2996 830 76 -200 260/08 RMK AO2
14837KMSN MSN20011125171009611/25/01 17:10:31  5-MIN KMSN 252310Z 26008KT 10SM OVC022 04/00 A2996 820 76 -200 260/08 RMK AO2
14837KMSN MSN20011125171509611/25/01 17:15:31  5-MIN KMSN 252315Z 25009KT 10SM OVC022 04/00 A2997 820 76 -200 250/09 RMK AO2
14837KMSN MSN20011125172009611/25/01 17:20:31  5-MIN KMSN 252320Z 26007KT 10SM OVC022 04/00 A2997 810 76 -200 260/07 RMK AO2
14837KMSN MSN20011125172509611/25/01 17:25:31  5-MIN KMSN 252325Z 25007KT 10SM OVC020 04/00 A2998 810 76 -200 250/07 RMK AO2
14837KMSN MSN20011125173009611/25/01 17:30:31  5-MIN KMSN 252330Z VRB05KT 10SM OVC020 04/00 A2998 810 76 -300 VRB/05 RMK AO2
14837KMSN MSN20011125173510211/25/01 17:35:31  5-MIN KMSN 252335Z 25010G16KT 10SM OVC020 04/00 A2998 810 76 -300 250/10G16 RMK AO2
14837KMSN MSN20011125174010211/25/01 17:40:31  5-MIN KMSN 252340Z 26007G16KT 10SM OVC020 04/00 A2999 800 76 -300 260/07G16 RMK AO2
14837KMSN MSN20011125174509611/25/01 17:45:31  5-MIN KMSN 252345Z 26008KT 10SM OVC020 04/00 A2999 800 76 -300 260/08 RMK AO2
14837KMSN MSN20011125175013111/25/01 17:50:31  5-MIN KMSN 252350Z VRB05KT 10SM OVC020 04/00 A2999 800 76 -300 VRB/05 RMK AO2 SLP162 T00390000 10050 20039 53034
14837KMSN MSN20011125175509611/25/01 17:55:31  5-MIN KMSN 252355Z 26009KT 10SM OVC020 04/00 A2999 800 76 -300 260/09 RMK AO2
14837KMSN MSN20011125180009611/25/01 18:00:31  5-MIN KMSN 260000Z VRB06KT 10SM OVC022 04/00 A2999 800 76 -300 VRB/06 RMK AO2
14837KMSN MSN20011125180509611/25/01 18:05:31  5-MIN KMSN 260005Z VRB06KT 10SM OVC022 04/00 A2999 800 76 -300 VRB/06 RMK AO2
14837KMSN MSN20011125181011311/25/01 18:10:31  5-MIN KMSN 260010Z 26008KT 210V280 10SM OVC022 04/M01 A3000 790 73 -300 260/08 210V280 RMK AO2
14837KMSN MSN20011125181509611/25/01 18:15:31  5-MIN KMSN 260015Z VRB06KT 10SM OVC022 04/00 A3000 790 76 -300 VRB/06 RMK AO2
14837KMSN MSN20011125182009611/25/01 18:20:31  5-MIN KMSN 260020Z VRB06KT 10SM OVC022 04/00 A3000 790 76 -300 VRB/06 RMK AO2
14837KMSN MSN20011125182509711/25/01 18:25:31  5-MIN KMSN 260025Z 25009KT 10SM OVC022 04/M01 A3000 790 73 -300 250/09 RMK AO2
14837KMSN MSN20011125183009611/25/01 18:30:31  5-MIN KMSN 260030Z 26005KT 10SM OVC022 04/00 A3000 790 76 -300 260/05 RMK AO2
14837KMSN MSN20011125183509611/25/01 18:35:31  5-MIN KMSN 260035Z 24008KT 10SM OVC022 04/00 A3000 790 76 -300 240/08 RMK AO2
14837KMSN MSN20011125184009611/25/01 18:40:31  5-MIN KMSN 260040Z 25009KT 10SM OVC022 04/00 A3000 790 76 -300 250/09 RMK AO2
14837KMSN MSN20011125184509611/25/01 18:45:31  5-MIN KMSN 260045Z 25007KT 10SM OVC022 04/00 A3000 790 76 -300 250/07 RMK AO2
14837KMSN MSN20011125185011311/25/01 18:50:31  5-MIN KMSN 260050Z VRB05KT 10SM OVC022 04/00 A3000 790 76 -300 VRB/05 RMK AO2 SLP166 T00390000
14837KMSN MSN20011125185509711/25/01 18:55:31  5-MIN KMSN 260055Z 26007KT 10SM OVC022 04/M01 A3000 790 73 -300 260/07 RMK AO2
14837KMSN MSN20011125190009711/25/01 19:00:31  5-MIN KMSN 260100Z 27005KT 10SM OVC022 04/M01 A3000 790 73 -300 270/05 RMK AO2
14837KMSN MSN20011125190509711/25/01 19:05:31  5-MIN KMSN 260105Z 27005KT 10SM OVC022 04/M01 A2999 800 73 -300 270/05 RMK AO2
14837KMSN MSN20011125191009711/25/01 19:10:31  5-MIN KMSN 260110Z 26006KT 10SM OVC022 04/M01 A3000 800 73 -300 260/06 RMK AO2
14837KMSN MSN20011125191509611/25/01 19:15:31  5-MIN KMSN 260115Z VRB04KT 10SM OVC022 04/00 A3000 790 76 -300 VRB/04 RMK AO2
14837KMSN MSN20011125192009611/25/01 19:20:31  5-MIN KMSN 260120Z VRB05KT 10SM OVC022 04/00 A2999 800 76 -300 VRB/05 RMK AO2
14837KMSN MSN20011125192509611/25/01 19:25:31  5-MIN KMSN 260125Z VRB05KT 10SM OVC022 04/00 A2999 800 76 -300 VRB/05 RMK AO2
14837KMSN MSN20011125193009711/25/01 19:30:31  5-MIN KMSN 260130Z VRB04KT 10SM OVC022 04/M01 A3000 790 73 -300 VRB/04 RMK AO2
14837KMSN MSN20011125193509611/25/01 19:35:31  5-MIN KMSN 260135Z 26006KT 10SM OVC022 03/00 A3000 790 79 -300 260/06 RMK AO2
14837KMSN MSN20011125194009611/25/01 19:40:31  5-MIN KMSN 260140Z VRB05KT 10SM OVC022 03/00 A3000 790 79 -300 VRB/05 RMK AO2
14837KMSN MSN20011125194509611/25/01 19:45:31  5-MIN KMSN 260145Z VRB06KT 10SM OVC020 03/00 A3001 790 79 -300 VRB/06 RMK AO2
14837KMSN MSN20011125195011311/25/01 19:50:31  5-MIN KMSN 260150Z VRB06KT 10SM OVC020 03/00 A3001 790 79 -300 VRB/06 RMK AO2 SLP167 T00330000
14837KMSN MSN20011125195509611/25/01 19:55:31  5-MIN KMSN 260155Z 26004KT 10SM OVC020 03/00 A3001 780 79 -400 260/04 RMK AO2
14837KMSN MSN20011125200009611/25/01 20:00:31  5-MIN KMSN 260200Z VRB04KT 10SM OVC020 03/00 A3001 780 79 -400 VRB/04 RMK AO2
14837KMSN MSN20011125200509711/25/01 20:05:31  5-MIN KMSN 260205Z VRB04KT 10SM OVC020 03/M01 A3001 780 76 -400 VRB/04 RMK AO2
14837KMSN MSN20011125201009711/25/01 20:10:31  5-MIN KMSN 260210Z VRB04KT 10SM OVC020 03/M01 A3000 790 76 -300 VRB/04 RMK AO2
14837KMSN MSN20011125201509711/25/01 20:15:31  5-MIN KMSN 260215Z 26006KT 10SM OVC020 03/M01 A3000 790 76 -300 260/06 RMK AO2
14837KMSN MSN20011125202009711/25/01 20:20:31  5-MIN KMSN 260220Z 26006KT 10SM OVC020 03/M01 A3001 780 76 -400 260/06 RMK AO2
14837KMSN MSN20011125202509711/25/01 20:25:31  5-MIN KMSN 260225Z 25005KT 10SM OVC020 03/M01 A3002 770 76 -400 250/05 RMK AO2
14837KMSN MSN20011125203009711/25/01 20:30:31  5-MIN KMSN 260230Z 26007KT 10SM OVC020 03/M01 A3002 770 76 -400 260/07 RMK AO2
14837KMSN MSN20011125203509711/25/01 20:35:31  5-MIN KMSN 260235Z VRB04KT 10SM OVC020 03/M01 A3003 770 76 -400 VRB/04 RMK AO2
14837KMSN MSN20011125204009711/25/01 20:40:31  5-MIN KMSN 260240Z VRB06KT 10SM OVC020 03/M01 A3003 770 76 -400 VRB/06 RMK AO2
14837KMSN MSN20011125204509711/25/01 20:45:31  5-MIN KMSN 260245Z 28006KT 10SM OVC020 03/M01 A3002 770 76 -400 270/06 RMK AO2
14837KMSN MSN20011125205012011/25/01 20:50:31  5-MIN KMSN 260250Z VRB04KT 10SM OVC020 03/M01 A3003 770 76 -400 VRB/04 RMK AO2 SLP175 T00331006 51045
14837KMSN MSN20011125205509611/25/01 20:55:31  5-MIN KMSN 260255Z VRB03KT 10SM OVC020 03/00 A3003 770 79 -400 VRB/03 RMK AO2
14837KMSN MSN20011125210009711/25/01 21:00:31  5-MIN KMSN 260300Z 27006KT 10SM OVC022 03/M01 A3003 760 76 -400 270/06 RMK AO2
14837KMSN MSN20011125210509711/25/01 21:05:31  5-MIN KMSN 260305Z VRB04KT 10SM OVC022 03/M01 A3003 760 76 -400 VRB/04 RMK AO2
14837KMSN MSN20011125211509711/25/01 21:15:31  5-MIN KMSN 260315Z VRB03KT 10SM OVC022 03/M01 A3002 770 76 -400 VRB/03 RMK AO2
14837KMSN MSN20011125212009711/25/01 21:20:31  5-MIN KMSN 260320Z 00000KT 10SM OVC022 03/M01 A3002 770 76 -400 000/00 RMK AO2
14837KMSN MSN20011125212509711/25/01 21:25:31  5-MIN KMSN 260325Z 28003KT 10SM OVC022 03/M01 A3002 770 76 -400 280/03 RMK AO2
14837KMSN MSN20011125213009711/25/01 21:30:31  5-MIN KMSN 260330Z 25005KT 10SM OVC022 03/M01 A3003 760 76 -400 250/05 RMK AO2
14837KMSN MSN20011125213509711/25/01 21:35:31  5-MIN KMSN 260335Z VRB04KT 10SM OVC022 03/M01 A3004 750 76 -400 VRB/04 RMK AO2
14837KMSN MSN20011125214010411/25/01 21:40:31  5-MIN KMSN 260340Z VRB03KT 10SM OVC022 03/M01 A3005 750 76 -400 VRB/03 RMK AO2 PRESRR
14837KMSN MSN20011125214509611/25/01 21:45:31  5-MIN KMSN 260345Z 24005KT 10SM OVC022 03/00 A3005 750 79 -400 240/05 RMK AO2
14837KMSN MSN20011125215011411/25/01 21:50:31  5-MIN KMSN 260350Z VRB05KT 10SM OVC022 03/M01 A3004 750 76 -400 VRB/05 RMK AO2 SLP180 T00331006
14837KMSN MSN20011125215509711/25/01 21:55:31  5-MIN KMSN 260355Z VRB03KT 10SM OVC022 03/M01 A3004 750 76 -400 VRB/03 RMK AO2
14837KMSN MSN20011125220009711/25/01 22:00:31  5-MIN KMSN 260400Z 23005KT 10SM OVC022 03/M01 A3005 740 76 -400 230/05 RMK AO2
14837KMSN MSN20011125220509711/25/01 22:05:31  5-MIN KMSN 260405Z 24006KT 10SM OVC022 03/M01 A3006 740 76 -400 240/06 RMK AO2
14837KMSN MSN20011125221009711/25/01 22:10:31  5-MIN KMSN 260410Z VRB03KT 10SM OVC022 03/M01 A3005 740 76 -400 VRB/03 RMK AO2
14837KMSN MSN20011125221509711/25/01 22:15:31  5-MIN KMSN 260415Z 27004KT 10SM OVC022 03/M01 A3005 740 76 -400 270/04 RMK AO2
14837KMSN MSN20011125222009711/25/01 22:20:31  5-MIN KMSN 260420Z 27005KT 10SM OVC022 03/M01 A3006 740 76 -400 270/05 RMK AO2
14837KMSN MSN20011125222509711/25/01 22:25:31  5-MIN KMSN 260425Z 25005KT 10SM OVC022 03/M01 A3006 730 76 -400 250/05 RMK AO2
14837KMSN MSN20011125223009711/25/01 22:30:31  5-MIN KMSN 260430Z 26005KT 10SM OVC022 03/M01 A3007 720 76 -400 260/05 RMK AO2
14837KMSN MSN20011125223509711/25/01 22:35:31  5-MIN KMSN 260435Z 26005KT 10SM OVC022 03/M01 A3007 720 76 -400 260/05 RMK AO2
14837KMSN MSN20011125224009711/25/01 22:40:31  5-MIN KMSN 260440Z 28006KT 10SM OVC022 03/M01 A3007 720 76 -400 270/06 RMK AO2
14837KMSN MSN20011125224509711/25/01 22:45:31  5-MIN KMSN 260445Z 27005KT 10SM OVC022 03/M01 A3007 720 76 -400 270/05 RMK AO2
14837KMSN MSN20011125225011411/25/01 22:50:31  5-MIN KMSN 260450Z VRB04KT 10SM OVC022 03/M01 A3008 720 76 -400 VRB/04 RMK AO2 SLP191 T00331006
14837KMSN MSN20011125225509711/25/01 22:55:31  5-MIN KMSN 260455Z VRB03KT 10SM OVC022 03/M01 A3007 720 76 -400 VRB/03 RMK AO2
14837KMSN MSN20011125230009711/25/01 23:00:31  5-MIN KMSN 260500Z 30003KT 10SM OVC022 03/M01 A3007 730 76 -400 290/03 RMK AO2
14837KMSN MSN20011125230509711/25/01 23:05:31  5-MIN KMSN 260505Z VRB03KT 10SM OVC022 03/M01 A3008 720 76 -400 VRB/03 RMK AO2
14837KMSN MSN20011125231009611/25/01 23:10:31  5-MIN KMSN 260510Z VRB03KT 10SM OVC022 03/00 A3007 720 79 -400 VRB/03 RMK AO2
14837KMSN MSN20011125231509611/25/01 23:15:31  5-MIN KMSN 260515Z 26003KT 10SM OVC022 03/00 A3007 720 79 -400 260/03 RMK AO2
14837KMSN MSN20011125232009711/25/01 23:20:31  5-MIN KMSN 260520Z 25003KT 10SM OVC022 03/M01 A3008 720 76 -400 250/03 RMK AO2
14837KMSN MSN20011125232509711/25/01 23:25:31  5-MIN KMSN 260525Z VRB03KT 10SM OVC022 03/M01 A3008 720 76 -400 VRB/03 RMK AO2
14837KMSN MSN20011125233009711/25/01 23:30:31  5-MIN KMSN 260530Z VRB03KT 10SM OVC022 03/M01 A3008 720 76 -400 VRB/03 RMK AO2
14837KMSN MSN20011125233509611/25/01 23:35:31  5-MIN KMSN 260535Z VRB03KT 10SM OVC022 03/00 A3008 720 79 -400 VRB/03 RMK AO2
14837KMSN MSN20011125234009711/25/01 23:40:31  5-MIN KMSN 260540Z 29003KT 10SM OVC022 03/M01 A3008 720 76 -400 290/03 RMK AO2
14837KMSN MSN20011125234509611/25/01 23:45:31  5-MIN KMSN 260545Z 27003KT 10SM OVC022 03/00 A3008 720 79 -400 270/03 RMK AO2
14837KMSN MSN20011125235014211/25/01 23:50:31  5-MIN KMSN 260550Z 28004KT 10SM OVC022 03/M01 A3009 710 76 -400 270/04 RMK AO2 SLP196 T00331006 10039 20033 400890033 53011
14837KMSN MSN20011125235509611/25/01 23:55:31  5-MIN KMSN 260555Z 27003KT 10SM OVC022 03/00 A3010 700 79 -500 270/03 RMK AO2
14837KMSN MSN20011126000009611/26/01 00:00:31  5-MIN KMSN 260600Z 26004KT 10SM OVC020 03/00 A3009 700 79 -500 260/04 RMK AO2
14837KMSN MSN20011126000509611/26/01 00:05:31  5-MIN KMSN 260605Z 28003KT 10SM OVC020 03/00 A3009 710 79 -400 280/03 RMK AO2
14837KMSN MSN20011126001009611/26/01 00:10:31  5-MIN KMSN 260610Z 00000KT 10SM OVC020 03/00 A3009 710 79 -400 000/00 RMK AO2
14837KMSN MSN20011126001509611/26/01 00:15:31  5-MIN KMSN 260615Z 25003KT 10SM OVC020 03/00 A3010 700 79 -500 250/03 RMK AO2
14837KMSN MSN20011126002009611/26/01 00:20:31  5-MIN KMSN 260620Z 26004KT 10SM OVC020 03/00 A3010 700 79 -500 260/04 RMK AO2
14837KMSN MSN20011126002509611/26/01 00:25:31  5-MIN KMSN 260625Z 27004KT 10SM OVC020 03/00 A3011 690 79 -500 270/04 RMK AO2
14837KMSN MSN20011126003009611/26/01 00:30:31  5-MIN KMSN 260630Z VRB04KT 10SM OVC020 03/00 A3011 690 79 -500 VRB/04 RMK AO2
14837KMSN MSN20011126003509611/26/01 00:35:31  5-MIN KMSN 260635Z 28004KT 10SM OVC020 03/00 A3010 700 79 -500 270/04 RMK AO2
14837KMSN MSN20011126004009611/26/01 00:40:31  5-MIN KMSN 260640Z VRB03KT 10SM OVC020 03/00 A3010 690 79 -500 VRB/03 RMK AO2
14837KMSN MSN20011126004509611/26/01 00:45:31  5-MIN KMSN 260645Z VRB03KT 10SM OVC020 03/00 A3010 690 79 -500 VRB/03 RMK AO2
14837KMSN MSN20011126005011311/26/01 00:50:31  5-MIN KMSN 260650Z 27005KT 10SM OVC020 03/00 A3011 690 79 -500 270/05 RMK AO2 SLP202 T00330000
14837KMSN MSN20011126005509611/26/01 00:55:31  5-MIN KMSN 260655Z 24003KT 10SM OVC020 03/00 A3010 700 79 -500 240/03 RMK AO2
14837KMSN MSN20011126010009611/26/01 01:00:31  5-MIN KMSN 260700Z VRB03KT 10SM OVC020 03/00 A3011 690 79 -500 VRB/03 RMK AO2
14837KMSN MSN20011126010509611/26/01 01:05:31  5-MIN KMSN 260705Z 00000KT 10SM OVC020 03/00 A3011 690 79 -500 000/00 RMK AO2
14837KMSN MSN20011126011009611/26/01 01:10:31  5-MIN KMSN 260710Z 27003KT 10SM OVC020 03/00 A3011 690 79 -500 270/03 RMK AO2
14837KMSN MSN20011126011509611/26/01 01:15:31  5-MIN KMSN 260715Z 00000KT 10SM OVC020 03/00 A3011 690 79 -500 000/00 RMK AO2
14837KMSN MSN20011126012009611/26/01 01:20:31  5-MIN KMSN 260720Z 00000KT 10SM OVC020 03/00 A3011 690 79 -500 000/00 RMK AO2
14837KMSN MSN20011126012509611/26/01 01:25:31  5-MIN KMSN 260725Z 28004KT 10SM OVC020 03/00 A3012 680 82 -500 280/04 RMK AO2
14837KMSN MSN20011126013009611/26/01 01:30:31  5-MIN KMSN 260730Z 29004KT 10SM OVC020 03/00 A3012 680 82 -500 290/04 RMK AO2
14837KMSN MSN20011126013509611/26/01 01:35:31  5-MIN KMSN 260735Z 29004KT 10SM OVC022 03/00 A3011 690 82 -500 290/04 RMK AO2
14837KMSN MSN20011126014009611/26/01 01:40:31  5-MIN KMSN 260740Z 32003KT 10SM OVC022 03/00 A3011 690 82 -500 320/03 RMK AO2
14837KMSN MSN20011126014509611/26/01 01:45:31  5-MIN KMSN 260745Z 29004KT 10SM OVC022 03/00 A3011 690 82 -500 290/04 RMK AO2
14837KMSN MSN20011126015011311/26/01 01:50:31  5-MIN KMSN 260750Z 00000KT 10SM OVC022 03/00 A3011 690 82 -500 000/00 RMK AO2 SLP203 T00280000
14837KMSN MSN20011126015509611/26/01 01:55:31  5-MIN KMSN 260755Z 00000KT 10SM OVC022 03/00 A3011 690 82 -500 000/00 RMK AO2
14837KMSN MSN20011126020009611/26/01 02:00:31  5-MIN KMSN 260800Z VRB03KT 10SM OVC022 03/00 A3011 690 82 -500 VRB/03 RMK AO2
14837KMSN MSN20011126020509611/26/01 02:05:31  5-MIN KMSN 260805Z 22003KT 10SM OVC022 03/00 A3011 690 82 -500 220/03 RMK AO2
14837KMSN MSN20011126021009611/26/01 02:10:31  5-MIN KMSN 260810Z 00000KT 10SM OVC022 03/00 A3011 690 82 -500 000/00 RMK AO2
14837KMSN MSN20011126021509611/26/01 02:15:31  5-MIN KMSN 260815Z 00000KT 10SM OVC022 03/00 A3011 690 79 -500 000/00 RMK AO2
14837KMSN MSN20011126022009611/26/01 02:20:31  5-MIN KMSN 260820Z 00000KT 10SM OVC022 03/00 A3011 690 82 -500 000/00 RMK AO2
14837KMSN MSN20011126022509611/26/01 02:25:31  5-MIN KMSN 260825Z 00000KT 10SM OVC022 03/00 A3011 690 82 -500 000/00 RMK AO2
14837KMSN MSN20011126023009611/26/01 02:30:31  5-MIN KMSN 260830Z 00000KT 10SM OVC022 03/00 A3011 690 79 -500 000/00 RMK AO2
14837KMSN MSN20011126023509611/26/01 02:35:31  5-MIN KMSN 260835Z 00000KT 10SM OVC022 03/00 A3012 680 82 -500 000/00 RMK AO2
14837KMSN MSN20011126024009611/26/01 02:40:31  5-MIN KMSN 260840Z 00000KT 10SM OVC022 03/00 A3012 680 82 -600 000/00 RMK AO2
14837KMSN MSN20011126024509611/26/01 02:45:31  5-MIN KMSN 260845Z 00000KT 10SM OVC022 03/00 A3012 680 82 -600 000/00 RMK AO2
14837KMSN MSN20011126025011911/26/01 02:50:31  5-MIN KMSN 260850Z 00000KT 10SM OVC022 03/00 A3012 680 82 -600 000/00 RMK AO2 SLP208 T00280000 53023
14837KMSN MSN20011126025509611/26/01 02:55:31  5-MIN KMSN 260855Z 00000KT 10SM OVC022 03/00 A3012 680 82 -600 000/00 RMK AO2
14837KMSN MSN20011126030009611/26/01 03:00:31  5-MIN KMSN 260900Z 00000KT 10SM OVC022 03/00 A3011 690 82 -500 000/00 RMK AO2
14837KMSN MSN20011126030509611/26/01 03:05:31  5-MIN KMSN 260905Z 00000KT 10SM OVC022 03/00 A3012 680 82 -500 000/00 RMK AO2
14837KMSN MSN20011126031009611/26/01 03:10:31  5-MIN KMSN 260910Z 00000KT 10SM OVC022 03/01 A3013 670 85 -600 000/00 RMK AO2
14837KMSN MSN20011126031509611/26/01 03:15:31  5-MIN KMSN 260915Z 30003KT 10SM OVC022 03/00 A3012 680 82 -600 300/03 RMK AO2
14837KMSN MSN20011126032009611/26/01 03:20:31  5-MIN KMSN 260920Z 00000KT 10SM OVC022 03/00 A3012 680 82 -500 000/00 RMK AO2
14837KMSN MSN20011126032509611/26/01 03:25:31  5-MIN KMSN 260925Z 00000KT 10SM OVC020 03/01 A3011 690 85 -500 000/00 RMK AO2
14837KMSN MSN20011126033009611/26/01 03:30:31  5-MIN KMSN 260930Z 00000KT 10SM OVC020 03/00 A3012 680 82 -500 000/00 RMK AO2
14837KMSN MSN20011126033509611/26/01 03:35:31  5-MIN KMSN 260935Z 00000KT 10SM OVC020 03/00 A3012 680 82 -500 000/00 RMK AO2
14837KMSN MSN20011126034009611/26/01 03:40:31  5-MIN KMSN 260940Z 00000KT 10SM OVC020 03/00 A3012 680 82 -600 000/00 RMK AO2
14837KMSN MSN20011126034509611/26/01 03:45:31  5-MIN KMSN 260945Z 00000KT 10SM OVC020 03/00 A3012 680 82 -500 000/00 RMK AO2
14837KMSN MSN20011126035011311/26/01 03:50:31  5-MIN KMSN 260950Z 00000KT 10SM OVC020 03/00 A3012 680 82 -500 000/00 RMK AO2 SLP206 T00280000
14837KMSN MSN20011126035509611/26/01 03:55:31  5-MIN KMSN 260955Z 00000KT 10SM OVC020 03/00 A3012 680 82 -500 000/00 RMK AO2
14837KMSN MSN20011126040009611/26/01 04:00:31  5-MIN KMSN 261000Z 00000KT 10SM OVC018 03/00 A3012 680 82 -500 000/00 RMK AO2
14837KMSN MSN20011126040509611/26/01 04:05:31  5-MIN KMSN 261005Z 00000KT 10SM OVC018 03/00 A3012 680 82 -500 000/00 RMK AO2
14837KMSN MSN20011126041009611/26/01 04:10:31  5-MIN KMSN 261010Z 00000KT 10SM OVC018 03/01 A3012 680 85 -500 000/00 RMK AO2
14837KMSN MSN20011126041509611/26/01 04:15:31  5-MIN KMSN 261015Z 00000KT 10SM OVC018 03/01 A3012 680 85 -600 000/00 RMK AO2
14837KMSN MSN20011126042009611/26/01 04:20:31  5-MIN KMSN 261020Z 00000KT 10SM OVC016 03/01 A3013 680 85 -600 000/00 RMK AO2
14837KMSN MSN20011126042509611/26/01 04:25:31  5-MIN KMSN 261025Z 00000KT 10SM OVC016 03/01 A3012 680 85 -500 000/00 RMK AO2
14837KMSN MSN20011126043009611/26/01 04:30:31  5-MIN KMSN 261030Z 07003KT 10SM OVC016 03/01 A3012 680 85 -600 070/03 RMK AO2
14837KMSN MSN20011126043509611/26/01 04:35:31  5-MIN KMSN 261035Z 05004KT 10SM OVC016 03/01 A3012 680 85 -500 050/04 RMK AO2
14837KMSN MSN20011126044009611/26/01 04:40:31  5-MIN KMSN 261040Z 05004KT 10SM OVC016 03/01 A3012 680 85 -500 050/04 RMK AO2
14837KMSN MSN20011126044509611/26/01 04:45:31  5-MIN KMSN 261045Z 04005KT 10SM OVC016 03/01 A3012 680 85 -500 040/05 RMK AO2
14837KMSN MSN20011126045011311/26/01 04:50:31  5-MIN KMSN 261050Z 04005KT 10SM OVC016 03/01 A3011 690 89 -500 040/05 RMK AO2 SLP205 T00280011
14837KMSN MSN20011126045509611/26/01 04:55:31  5-MIN KMSN 261055Z 04005KT 10SM OVC016 03/01 A3011 690 85 -500 040/05 RMK AO2
14837KMSN MSN20011126050009611/26/01 05:00:31  5-MIN KMSN 261100Z 04006KT 10SM OVC016 03/01 A3011 690 85 -500 040/06 RMK AO2
14837KMSN MSN20011126050509611/26/01 05:05:31  5-MIN KMSN 261105Z 04006KT 10SM BKN016 02/01 A3010 700 89 -600 040/06 RMK AO2
14837KMSN MSN20011126051009611/26/01 05:10:31  5-MIN KMSN 261110Z 04007KT 10SM BKN016 02/01 A3010 700 92 -700 040/07 RMK AO2
14837KMSN MSN20011126051509611/26/01 05:15:31  5-MIN KMSN 261115Z 06006KT 10SM SCT016 02/01 A3011 690 92 -700 060/06 RMK AO2
14837KMSN MSN20011126052009611/26/01 05:20:31  5-MIN KMSN 261120Z 07004KT 10SM FEW016 02/01 A3011 690 92 -700 070/04 RMK AO2
14837KMSN MSN20011126052509611/26/01 05:25:31  5-MIN KMSN 261125Z 07004KT 10SM FEW016 02/00 A3011 690 89 -700 070/04 RMK AO2
14837KMSN MSN20011126053009311/26/01 05:30:31  5-MIN KMSN 261130Z 08005KT 10SM CLR 01/00 A3012 680 92 -800 080/05 RMK AO2
14837KMSN MSN20011126053509311/26/01 05:35:31  5-MIN KMSN 261135Z 08006KT 10SM CLR 01/00 A3011 690 92 -800 080/06 RMK AO2
14837KMSN MSN20011126054009311/26/01 05:40:31  5-MIN KMSN 261140Z 08006KT 10SM CLR 01/00 A3011 690 92 -700 080/06 RMK AO2
14837KMSN MSN20011126054509311/26/01 05:45:31  5-MIN KMSN 261145Z 08006KT 10SM CLR 01/00 A3011 690 92 -700 080/06 RMK AO2
14837KMSN MSN20011126055013111/26/01 05:50:31  5-MIN KMSN 261150Z 08005KT 10SM FEW015 01/00 A3011 690 92 -700 070/05 RMK AO2 SLP205 T00110000 10033 20011 53007
14837KMSN MSN20011126055509311/26/01 05:55:31  5-MIN KMSN 261155Z 07005KT 10SM CLR 01/00 A3011 690 92 -700 070/05 RMK AO2
14837KMSN MSN20011126060009311/26/01 06:00:31  5-MIN KMSN 261200Z 04003KT 10SM CLR 01/00 A3012 680 92 -800 040/03 RMK AO2
14837KMSN MSN20011126060509311/26/01 06:05:31  5-MIN KMSN 261205Z 05003KT 10SM CLR 01/00 A3012 680 92 -800 050/03 RMK AO2
14837KMSN MSN20011126061009311/26/01 06:10:31  5-MIN KMSN 261210Z 05004KT 10SM CLR 01/00 A3011 690 92 -700 050/04 RMK AO2
14837KMSN MSN20011126061509311/26/01 06:15:31  5-MIN KMSN 261215Z 05007KT 10SM CLR 01/00 A3011 690 92 -700 050/07 RMK AO2
14837KMSN MSN20011126062009311/26/01 06:20:31  5-MIN KMSN 261220Z 05007KT 10SM CLR 02/00 A3011 690 89 -700 050/07 RMK AO2
14837KMSN MSN20011126062509311/26/01 06:25:31  5-MIN KMSN 261225Z 05007KT 10SM CLR 02/01 A3011 690 92 -700 050/07 RMK AO2
14837KMSN MSN20011126063009311/26/01 06:30:31  5-MIN KMSN 261230Z 05008KT 10SM CLR 02/00 A3011 690 85 -600 050/08 RMK AO2
14837KMSN MSN20011126063509311/26/01 06:35:31  5-MIN KMSN 261235Z 05009KT 10SM CLR 02/00 A3011 690 85 -600 050/09 RMK AO2
14837KMSN MSN20011126064009311/26/01 06:40:31  5-MIN KMSN 261240Z 05009KT 10SM CLR 02/00 A3011 690 85 -600 050/09 RMK AO2
14837KMSN MSN20011126064509711/26/01 06:45:31  5-MIN KMSN 261245Z 05010KT 10SM FEW017 02/M01 A3011 690 82 -600 050/10 RMK AO2
14837KMSN MSN20011126065011411/26/01 06:50:31  5-MIN KMSN 261250Z 05009KT 10SM FEW017 02/M01 A3011 690 85 -700 050/09 RMK AO2 SLP204 T00171006
14837KMSN MSN20011126065509711/26/01 06:55:31  5-MIN KMSN 261255Z 06009KT 10SM FEW017 02/M01 A3011 690 85 -700 060/09 RMK AO2
14837KMSN MSN20011126070009611/26/01 07:00:31  5-MIN KMSN 261300Z 07007KT 10SM FEW017 02/00 A3011 690 89 -700 060/07 RMK AO2
14837KMSN MSN20011126070509611/26/01 07:05:31  5-MIN KMSN 261305Z 07007KT 10SM FEW017 02/00 A3011 690 89 -700 070/07 RMK AO2
14837KMSN MSN20011126071009711/26/01 07:10:31  5-MIN KMSN 261310Z 07008KT 10SM FEW017 01/M01 A3011 690 89 -700 070/08 RMK AO2
14837KMSN MSN20011126071509311/26/01 07:15:31  5-MIN KMSN 261315Z 07007KT 10SM CLR 01/00 A3011 690 92 -700 070/07 RMK AO2
14837KMSN MSN20011126072009311/26/01 07:20:31  5-MIN KMSN 261320Z 07008KT 10SM CLR 02/00 A3011 690 89 -700 060/08 RMK AO2
14837KMSN MSN20011126072509311/26/01 07:25:31  5-MIN KMSN 261325Z 06005KT 10SM CLR 02/00 A3011 690 89 -700 060/05 RMK AO2
14837KMSN MSN20011126073009311/26/01 07:30:31  5-MIN KMSN 261330Z 07006KT 10SM CLR 02/00 A3011 690 89 -700 070/06 RMK AO2
14837KMSN MSN20011126073509311/26/01 07:35:31  5-MIN KMSN 261335Z 07007KT 10SM CLR 02/00 A3011 690 89 -700 070/07 RMK AO2
14837KMSN MSN20011126074009611/26/01 07:40:31  5-MIN KMSN 261340Z 08008KT 10SM FEW019 02/00 A3011 690 89 -700 080/08 RMK AO2
14837KMSN MSN20011126074509611/26/01 07:45:31  5-MIN KMSN 261345Z 08008KT 10SM FEW019 02/00 A3011 690 85 -600 080/08 RMK AO2
14837KMSN MSN20011126075011311/26/01 07:50:31  5-MIN KMSN 261350Z 08009KT 10SM FEW019 02/00 A3011 690 85 -600 080/09 RMK AO2 SLP204 T00220000
14837KMSN MSN20011126075509611/26/01 07:55:31  5-MIN KMSN 261355Z 08008KT 10SM SCT019 02/00 A3011 690 85 -600 080/08 RMK AO2
14837KMSN MSN20011126080009611/26/01 08:00:31  5-MIN KMSN 261400Z 08006KT 10SM SCT019 02/00 A3012 680 85 -600 070/06 RMK AO2
14837KMSN MSN20011126080509611/26/01 08:05:31  5-MIN KMSN 261405Z 07007KT 10SM SCT017 02/00 A3012 680 85 -600 070/07 RMK AO2
14837KMSN MSN20011126081009611/26/01 08:10:31  5-MIN KMSN 261410Z 06007KT 10SM BKN017 02/00 A3013 680 85 -600 060/07 RMK AO2
14837KMSN MSN20011126081509611/26/01 08:15:31  5-MIN KMSN 261415Z 07007KT 10SM OVC017 02/00 A3013 670 85 -600 070/07 RMK AO2
14837KMSN MSN20011126082009611/26/01 08:20:31  5-MIN KMSN 261420Z 06006KT 10SM BKN017 02/00 A3013 670 85 -600 060/06 RMK AO2
14837KMSN MSN20011126082509611/26/01 08:25:31  5-MIN KMSN 261425Z 07007KT 10SM OVC017 02/00 A3012 680 85 -600 070/07 RMK AO2
14837KMSN MSN20011126083009611/26/01 08:30:31  5-MIN KMSN 261430Z 07008KT 10SM BKN017 02/01 A3012 680 89 -600 070/08 RMK AO2
14837KMSN MSN20011126083509611/26/01 08:35:31  5-MIN KMSN 261435Z 07008KT 10SM BKN017 03/00 A3012 680 82 -500 070/08 RMK AO2
14837KMSN MSN20011126084009611/26/01 08:40:31  5-MIN KMSN 261440Z 07008KT 10SM BKN017 03/00 A3011 690 82 -500 070/08 RMK AO2
14837KMSN MSN20011126084509611/26/01 08:45:31  5-MIN KMSN 261445Z 07009KT 10SM BKN017 03/00 A3011 690 82 -500 070/09 RMK AO2
14837KMSN MSN20011126085011911/26/01 08:50:31  5-MIN KMSN 261450Z 07009KT 10SM OVC017 03/01 A3011 690 85 -500 070/09 RMK AO2 SLP203 T00280006 56003
14837KMSN MSN20011126085509611/26/01 08:55:31  5-MIN KMSN 261455Z 08011KT 10SM OVC017 03/01 A3011 690 85 -500 080/11 RMK AO2
14837KMSN MSN20011126090009611/26/01 09:00:31  5-MIN KMSN 261500Z 08011KT 10SM OVC017 03/01 A3011 690 85 -500 080/11 RMK AO2
14837KMSN MSN20011126090509611/26/01 09:05:31  5-MIN KMSN 261505Z 08010KT 10SM OVC017 03/01 A3011 690 82 -500 080/10 RMK AO2
14837KMSN MSN20011126091009611/26/01 09:10:31  5-MIN KMSN 261510Z 10009KT 10SM OVC015 03/01 A3012 680 82 -500 090/09 RMK AO2
14837KMSN MSN20011126102509611/26/01 10:25:31  5-MIN KMSN 261625Z 10011KT 10SM OVC013 04/01 A3013 670 82 -400 100/11 RMK AO2
14837KMSN MSN20011126103009611/26/01 10:30:31  5-MIN KMSN 261630Z 11012KT 10SM OVC013 04/01 A3013 670 82 -400 110/12 RMK AO2
14837KMSN MSN20011126103509611/26/01 10:35:31  5-MIN KMSN 261635Z 11009KT 10SM OVC013 04/01 A3013 670 82 -400 110/09 RMK AO2
14837KMSN MSN20011126104009611/26/01 10:40:31  5-MIN KMSN 261640Z 10010KT 10SM OVC013 04/01 A3012 680 82 -400 100/10 RMK AO2
14837KMSN MSN20011126104509611/26/01 10:45:31  5-MIN KMSN 261645Z 10010KT 10SM OVC013 04/01 A3012 680 82 -400 100/10 RMK AO2
14837KMSN MSN20011126105011311/26/01 10:50:31  5-MIN KMSN 261650Z 10013KT 10SM BKN013 04/01 A3012 680 82 -400 100/13 RMK AO2 SLP206 T00390011
14837KMSN MSN20011126105511011/26/01 10:55:31  5-MIN KMSN 261655Z 10011KT 10SM BKN013 BKN024 BKN120 04/01 A3012 680 82 -400 100/11 RMK AO2
14837KMSN MSN20011126110011011/26/01 11:00:31  5-MIN KMSN 261700Z 09013KT 10SM SCT015 BKN022 BKN120 04/01 A3011 690 82 -400 090/13 RMK AO2
14837KMSN MSN20011126110511011/26/01 11:05:31  5-MIN KMSN 261705Z 09012KT 10SM BKN017 BKN024 BKN120 04/01 A3011 690 82 -400 090/12 RMK AO2
14837KMSN MSN20011126111011011/26/01 11:10:31  5-MIN KMSN 261710Z 09014KT 10SM BKN019 BKN024 BKN120 04/01 A3010 700 82 -400 090/14 RMK AO2
14837KMSN MSN20011126111511011/26/01 11:15:31  5-MIN KMSN 261715Z 09010KT 10SM BKN019 BKN024 BKN120 04/01 A3010 700 79 -300 090/10 RMK AO2
14837KMSN MSN20011126112009611/26/01 11:20:31  5-MIN KMSN 261720Z 08014KT 10SM BKN019 04/01 A3009 700 79 -300 080/14 RMK AO2
14837KMSN MSN20011126112510311/26/01 11:25:31  5-MIN KMSN 261725Z 07015KT 10SM OVC019 04/01 A3008 710 79 -300 070/15 RMK AO2 PRESFR
14837KMSN MSN20011126113010311/26/01 11:30:31  5-MIN KMSN 261730Z 07013KT 10SM BKN019 04/01 A3008 720 82 -400 070/13 RMK AO2 PRESFR
14837KMSN MSN20011126113509511/26/01 11:35:31  5-MIN KMSN 261735Z 08012KT 9SM BKN019 04/01 A3008 720 79 -300 080/12 RMK AO2
14837KMSN MSN20011126114009611/26/01 11:40:31  5-MIN KMSN 261740Z 09011KT 10SM OVC019 04/01 A3008 720 79 -300 090/11 RMK AO2
14837KMSN MSN20011126114510211/26/01 11:45:31  5-MIN KMSN 261745Z 08013G19KT 10SM OVC019 04/01 A3006 730 79 -300 080/13G19 RMK AO2
14837KMSN MSN20011126115013111/26/01 11:50:31  5-MIN KMSN 261750Z 08014KT 10SM OVC019 04/01 A3006 740 79 -300 080/14 RMK AO2 SLP187 T00440011 10044 20011 58001
14837KMSN MSN20011126115509611/26/01 11:55:31  5-MIN KMSN 261755Z 08012KT 10SM OVC019 04/02 A3005 740 82 -300 080/12 RMK AO2
14837KMSN MSN20011126120009611/26/01 12:00:31  5-MIN KMSN 261800Z 09013KT 10SM OVC017 04/02 A3006 740 82 -300 090/13 RMK AO2
14837KMSN MSN20011126120509611/26/01 12:05:31  5-MIN KMSN 261805Z 09013KT 10SM OVC017 04/01 A3006 740 79 -300 090/13 RMK AO2
14837KMSN MSN20011126121010211/26/01 12:10:31  5-MIN KMSN 261810Z 10016G19KT 10SM OVC017 04/02 A3006 740 82 -300 100/16G19 RMK AO2
14837KMSN MSN20011126121510211/26/01 12:15:31  5-MIN KMSN 261815Z 10013G19KT 10SM OVC017 04/02 A3006 740 82 -300 100/13G19 RMK AO2
14837KMSN MSN20011126122009611/26/01 12:20:31  5-MIN KMSN 261820Z 09014KT 10SM OVC017 04/01 A3005 750 79 -300 090/14 RMK AO2
14837KMSN MSN20011126122509611/26/01 12:25:31  5-MIN KMSN 261825Z 09014KT 10SM OVC017 04/02 A3004 750 82 -300 090/14 RMK AO2
14837KMSN MSN20011126123009611/26/01 12:30:31  5-MIN KMSN 261830Z 09011KT 10SM OVC017 04/02 A3004 760 82 -200 090/11 RMK AO2
14837KMSN MSN20011126123509611/26/01 12:35:31  5-MIN KMSN 261835Z 08009KT 10SM OVC017 04/02 A3003 760 82 -200 080/09 RMK AO2
14837KMSN MSN20011126124009611/26/01 12:40:31  5-MIN KMSN 261840Z 09010KT 10SM OVC017 04/02 A3004 760 82 -200 090/10 RMK AO2
14837KMSN MSN20011126124509611/26/01 12:45:31  5-MIN KMSN 261845Z 09012KT 10SM OVC017 04/02 A3003 760 82 -200 090/12 RMK AO2
14837KMSN MSN20011126125011311/26/01 12:50:31  5-MIN KMSN 261850Z 07011KT 10SM OVC017 04/02 A3002 770 82 -200 070/11 RMK AO2 SLP174 T00440017
14837KMSN MSN20011126125509611/26/01 12:55:31  5-MIN KMSN 261855Z 09011KT 10SM OVC017 04/02 A3002 770 82 -200 090/11 RMK AO2
14837KMSN MSN20011126130010311/26/01 13:00:31  5-MIN KMSN 261900Z 08012KT 10SM OVC017 05/02 A3000 790 79 -100 070/12 RMK AO2 PRESFR
14837KMSN MSN20011126130509611/26/01 13:05:31  5-MIN KMSN 261905Z 08013KT 10SM OVC017 05/02 A3000 790 79 -100 080/13 RMK AO2
14837KMSN MSN20011126131009611/26/01 13:10:31  5-MIN KMSN 261910Z 09008KT 10SM OVC017 05/02 A3002 770 79 -200 090/08 RMK AO2
14837KMSN MSN20011126131509611/26/01 13:15:31  5-MIN KMSN 261915Z 09008KT 10SM OVC017 05/02 A3003 770 79 -200 090/08 RMK AO2
14837KMSN MSN20011126132011211/26/01 13:20:31  5-MIN KMSN 261920Z 07009KT 10SM -RA OVC017 05/02 A3001 780 79 -100 070/09 RMK AO2 RAB20 P0000
14837KMSN MSN20011126132511211/26/01 13:25:31  5-MIN KMSN 261925Z 08010KT 10SM -RA OVC017 05/02 A3001 790 82 -100 080/10 RMK AO2 RAB20 P0000
14837KMSN MSN20011126133011211/26/01 13:30:31  5-MIN KMSN 261930Z 08008KT 10SM -RA OVC017 05/02 A3001 780 82 -100 080/08 RMK AO2 RAB20 P0000
14837KMSN MSN20011126133511111/26/01 13:35:31  5-MIN KMSN 261935Z 07010KT 10SM OVC017 05/02 A3001 780 82 -200 070/10 RMK AO2 RAB20E31 P0000
14837KMSN MSN20011126134011111/26/01 13:40:31  5-MIN KMSN 261940Z 08007KT 10SM OVC017 05/02 A3001 780 82 -200 080/07 RMK AO2 RAB20E31 P0000
14837KMSN MSN20011126134511111/26/01 13:45:31  5-MIN KMSN 261945Z 07006KT 10SM OVC017 05/02 A3002 780 82 -200 070/06 RMK AO2 RAB20E31 P0000
14837KMSN MSN20011126135013511/26/01 13:50:31  5-MIN KMSN 261950Z 08005KT 10SM OVC017 05/02 A3003 760 82 -200 080/05 RMK AO2 RAB20E31 PRESRR SLP178 P0000 T00500022
14837KMSN MSN20011126135509611/26/01 13:55:31  5-MIN KMSN 261955Z 09009KT 10SM OVC017 05/02 A3003 760 82 -200 090/09 RMK AO2
14837KMSN MSN20011126140009611/26/01 14:00:31  5-MIN KMSN 262000Z 09008KT 10SM OVC017 06/02 A3002 770 79 -100 090/08 RMK AO2
14837KMSN MSN20011126140509611/26/01 14:05:31  5-MIN KMSN 262005Z 07009KT 10SM OVC017 06/02 A3001 780 79 -100 070/09 RMK AO2
14837KMSN MSN20011126141009611/26/01 14:10:31  5-MIN KMSN 262010Z 08012KT 10SM OVC017 06/02 A3001 780 79 -100 080/12 RMK AO2
14837KMSN MSN20011126141509611/26/01 14:15:31  5-MIN KMSN 262015Z 09012KT 10SM OVC017 06/02 A3002 770 79 -100 090/12 RMK AO2
14837KMSN MSN20011126142009611/26/01 14:20:31  5-MIN KMSN 262020Z 06008KT 10SM OVC017 06/02 A3001 780 79 -100 060/08 RMK AO2
14837KMSN MSN20011126142509611/26/01 14:25:31  5-MIN KMSN 262025Z 07011KT 10SM OVC017 05/02 A3001 790 82 -100 070/11 RMK AO2
14837KMSN MSN20011126143009611/26/01 14:30:31  5-MIN KMSN 262030Z 07011KT 10SM OVC017 06/02 A3001 780 79 -100 070/11 RMK AO2
14837KMSN MSN20011126143509611/26/01 14:35:31  5-MIN KMSN 262035Z 09008KT 10SM OVC017 06/02 A3003 770 79 -100 090/08 RMK AO2
14837KMSN MSN20011126144009611/26/01 14:40:31  5-MIN KMSN 262040Z 09008KT 10SM OVC017 06/03 A3003 760 82 -100 090/08 RMK AO2
14837KMSN MSN20011126144509611/26/01 14:45:31  5-MIN KMSN 262045Z 07011KT 10SM OVC017 06/02 A3002 770 79 -100 070/11 RMK AO2
14837KMSN MSN20011126145014111/26/01 14:50:31  5-MIN KMSN 262050Z 07009KT 10SM -RA OVC017 06/03 A3002 780 82 -100 070/09 RMK AO2 RAB47 SLP171 P0000 60000 T00560028 58017
14837KMSN MSN20011126145509611/26/01 14:55:31  5-MIN KMSN 262055Z 08009KT 10SM OVC017 06/03 A3002 770 82 -100 080/09 RMK AO2
14837KMSN MSN20011126150009611/26/01 15:00:31  5-MIN KMSN 262100Z 07009KT 10SM OVC017 06/03 A3002 770 82 -100 070/09 RMK AO2
14837KMSN MSN20011126150509611/26/01 15:05:31  5-MIN KMSN 262105Z 07009KT 10SM OVC017 06/03 A3002 770 82 -100 070/09 RMK AO2
14837KMSN MSN20011126151009611/26/01 15:10:31  5-MIN KMSN 262110Z 08011KT 10SM OVC017 06/03 A3002 780 82 -100 070/11 RMK AO2
14837KMSN MSN20011126151509611/26/01 15:15:31  5-MIN KMSN 262115Z 07012KT 10SM OVC017 06/03 A3001 780 82 -100 070/12 RMK AO2
14837KMSN MSN20011126152009611/26/01 15:20:31  5-MIN KMSN 262120Z 07013KT 10SM OVC017 06/03 A3001 780 82 -100 070/13 RMK AO2
14837KMSN MSN20011126152509611/26/01 15:25:31  5-MIN KMSN 262125Z 08011KT 10SM OVC017 05/03 A3001 780 85 -100 080/11 RMK AO2
14837KMSN MSN20011126153010311/26/01 15:30:31  5-MIN KMSN 262130Z 08013KT 10SM OVC017 05/03 A2999 800 85 -100 080/13 RMK AO2 PRESFR
14837KMSN MSN20011126153509611/26/01 15:35:31  5-MIN KMSN 262135Z 07013KT 10SM OVC017 05/03 A2999 800 85 -100 070/13 RMK AO2
14837KMSN MSN20011126154009611/26/01 15:40:31  5-MIN KMSN 262140Z 07013KT 10SM OVC017 05/03 A2998 800 85 -100 070/13 RMK AO2
14837KMSN MSN20011126154510911/26/01 15:45:31  5-MIN KMSN 262145Z 07014G20KT 10SM OVC017 05/03 A2997 820 85 -100 070/14G20 RMK AO2 PRESFR
14837KMSN MSN20011126155012611/26/01 15:50:31  5-MIN KMSN 262150Z 07015G20KT 10SM OVC017 05/03 A2996 830 85 -100 070/15G20 RMK AO2 PRESFR SLP154 T00500028
14837KMSN MSN20011126155510211/26/01 15:55:31  5-MIN KMSN 262155Z 07015G20KT 10SM OVC017 05/03 A2997 820 85 -100 070/15G20 RMK AO2
14837KMSN MSN20011126160010211/26/01 16:00:31  5-MIN KMSN 262200Z 07015G20KT 10SM OVC017 05/03 A2996 830 85 -100 070/15G20 RMK AO2
14837KMSN MSN20011126160509611/26/01 16:05:31  5-MIN KMSN 262205Z 07015KT 10SM OVC017 05/03 A2996 830 85 -100 060/15 RMK AO2
14837KMSN MSN20011126161010211/26/01 16:10:31  5-MIN KMSN 262210Z 08014G19KT 10SM OVC017 05/03 A2998 810 85 -100 080/14G19 RMK AO2
14837KMSN MSN20011126161510911/26/01 16:15:31  5-MIN KMSN 262215Z 08014G19KT 10SM OVC015 05/03 A2999 800 85 -100 080/14G19 RMK AO2 PRESRR
14837KMSN MSN20011126162009611/26/01 16:20:31  5-MIN KMSN 262220Z 08011KT 10SM OVC015 05/03 A2999 800 85 -100 080/11 RMK AO2
14837KMSN MSN20011126162509611/26/01 16:25:31  5-MIN KMSN 262225Z 07014KT 10SM OVC015 05/03 A2998 810 85 -100 070/14 RMK AO2
14837KMSN MSN20011126163009611/26/01 16:30:31  5-MIN KMSN 262230Z 07015KT 10SM OVC015 05/03 A2996 830 85 -100 070/15 RMK AO2
14837KMSN MSN20011126163510211/26/01 16:35:31  5-MIN KMSN 262235Z 07016G22KT 10SM OVC013 05/03 A2996 830 85 -100 070/16G22 RMK AO2
14837KMSN MSN20011126164010911/26/01 16:40:31  5-MIN KMSN 262240Z 07019G25KT 10SM OVC013 05/03 A2994 840 85 -100 070/19G25 RMK AO2 PRESFR
14837KMSN MSN20011126164510211/26/01 16:45:31  5-MIN KMSN 262245Z 07019G25KT 10SM OVC013 05/03 A2994 840 85 -100 070/19G25 RMK AO2
14837KMSN MSN20011126165011311/26/01 16:50:31  5-MIN KMSN 262250Z 08018KT 10SM OVC013 05/03 A2995 840 85 -100 080/18 RMK AO2 SLP150 T00500028
14837KMSN MSN20011126165510211/26/01 16:55:31  5-MIN KMSN 262255Z 08015G23KT 10SM OVC013 05/03 A2995 830 85 -100 070/15G23 RMK AO2
14837KMSN MSN20011126170009611/26/01 17:00:31  5-MIN KMSN 262300Z 07015KT 10SM OVC013 05/03 A2996 830 85 -100 070/15 RMK AO2
14837KMSN MSN20011126170510311/26/01 17:05:31  5-MIN KMSN 262305Z 07018KT 10SM OVC013 04/02 A2997 820 85 -200 070/18 RMK AO2 PRESRR
14837KMSN MSN20011126171010911/26/01 17:10:31  5-MIN KMSN 262310Z 08016G21KT 10SM OVC013 04/02 A2998 810 85 -200 080/16G21 RMK AO2 PRESRR
14837KMSN MSN20011126171512511/26/01 17:15:31  5-MIN KMSN 262315Z 08013G21KT 10SM -RA OVC013 04/03 A2999 800 89 -200 080/13G21 RMK AO2 RAB11 PRESRR P0000
14837KMSN MSN20011126172011211/26/01 17:20:31  5-MIN KMSN 262320Z 09011KT 10SM -RA OVC011 04/03 A2999 800 89 -200 090/11 RMK AO2 RAB11 P0000
14837KMSN MSN20011126172511111/26/01 17:25:31  5-MIN KMSN 262325Z 07012KT 9SM -RA OVC011 04/03 A2998 810 89 -200 070/12 RMK AO2 RAB11 P0000
14837KMSN MSN20011126173011111/26/01 17:30:31  5-MIN KMSN 262330Z 06012KT 8SM -RA OVC011 04/03 A2996 830 89 -200 060/12 RMK AO2 RAB11 P0000
14837KMSN MSN20011126173512411/26/01 17:35:31  5-MIN KMSN 262335Z 07017G21KT 9SM -RA OVC011 04/03 A2994 850 89 -100 070/17G21 RMK AO2 RAB11 PRESFR P0000
14837KMSN MSN20011126174011811/26/01 17:40:31  5-MIN KMSN 262340Z 07014G21KT 10SM -RA OVC011 04/03 A2995 840 92 -200 070/14G21 RMK AO2 RAB11 P0000
14837KMSN MSN20011126174511111/26/01 17:45:31  5-MIN KMSN 262345Z 07011KT 9SM -RA OVC011 04/03 A2997 820 92 -200 070/11 RMK AO2 RAB11 P0000
14837KMSN MSN20011126175015211/26/01 17:50:31  5-MIN KMSN 262350Z 07015KT 9SM -RA OVC011 04/03 A2995 840 92 -200 070/15 RMK AO2 RAB11 SLP148 P0000 60000 T00390028 10056 20039 56013
14837KMSN MSN20011126175511211/26/01 17:55:31  5-MIN KMSN 262355Z 08018G21KT 10SM -RA OVC011 04/03 A2994 840 92 -200 080/18G21 RMK AO2 P0000
14837KMSN MSN20011126180011211/26/01 18:00:31  5-MIN KMSN 270000Z 07015G22KT 10SM -RA OVC011 04/03 A2994 850 92 -200 070/15G22 RMK AO2 P0000
14837KMSN MSN20011126180511211/26/01 18:05:31  5-MIN KMSN 270005Z 08013G22KT 10SM -RA OVC011 04/03 A2996 830 92 -200 080/13G22 RMK AO2 P0000
14837KMSN MSN20011126181012111/26/01 18:10:31  5-MIN KMSN 270010Z 08012G18KT 10SM OVC011 04/03 A2999 800 89 -200 070/12G18 RMK AO2 RAE07 PRESRR P0000
14837KMSN MSN20011126181511411/26/01 18:15:31  5-MIN KMSN 270015Z 08011G18KT 10SM OVC011 04/03 A2998 810 89 -200 080/11G18 RMK AO2 RAE07 P0000
14837KMSN MSN20011126182011111/26/01 18:20:31  5-MIN KMSN 270020Z 08015G18KT 9SM -RA OVC011 04/03 A2997 820 89 -200 080/15G18 RMK AO2 P0000
14837KMSN MSN20011126182510511/26/01 18:25:31  5-MIN KMSN 270025Z 08013KT 7SM -RA OVC011 04/03 A2996 820 89 -200 070/13 RMK AO2 P0001
14837KMSN MSN20011126183010511/26/01 18:30:31  5-MIN KMSN 270030Z 08014KT 7SM -RA OVC011 04/03 A2996 830 89 -200 080/14 RMK AO2 P0001
14837KMSN MSN20011126183512111/26/01 18:35:31  5-MIN KMSN 270035Z 08018G22KT 6SM -RA BR OVC011 04/03 A2994 850 89 -100 080/18G22 RMK AO2 PRESFR P0001
14837KMSN MSN20011126184012111/26/01 18:40:31  5-MIN KMSN 270040Z 08016G22KT 5SM -RA BR OVC011 04/03 A2993 860 92 -200 080/16G22 RMK AO2 PRESFR P0002
14837KMSN MSN20011126184512111/26/01 18:45:31  5-MIN KMSN 270045Z 09019G24KT 5SM -RA BR BKN011 OVC041 04/03 A2993 860 92 -200 090/19G24 RMK AO2 P0002
14837KMSN MSN20011126185013911/26/01 18:50:31  5-MIN KMSN 270050Z 09018KT 6SM -RA BR BKN011 BKN035 OVC050 04/03 A2993 850 92 -200 090/18 RMK AO2 SLP143 P0002 T00390028
14837KMSN MSN20011126185512511/26/01 18:55:31  5-MIN KMSN 270055Z 09016G22KT 7SM -RA SCT010 BKN013 OVC047 04/03 A2994 850 92 -200 090/16G22 RMK AO2 P0000
14837KMSN MSN20011126190011811/26/01 19:00:31  5-MIN KMSN 270100Z 08015G22KT 7SM -RA BKN013 OVC039 04/03 A2994 850 92 -200 080/15G22 RMK AO2 P0000
14837KMSN MSN20011126190511811/26/01 19:05:31  5-MIN KMSN 270105Z 08014G19KT 7SM -RA BKN013 OVC039 04/03 A2994 840 92 -200 080/14G19 RMK AO2 P0000
14837KMSN MSN20011126191011211/26/01 19:10:31  5-MIN KMSN 270110Z 09014KT 8SM -RA BKN013 OVC042 04/03 A2994 840 92 -200 090/14 RMK AO2 P0000
14837KMSN MSN20011126191510711/26/01 19:15:31  5-MIN KMSN 270115Z 08013KT 8SM OVC013 04/03 A2994 850 92 -200 080/13 RMK AO2 RAE11 P0000
14837KMSN MSN20011126192010711/26/01 19:20:31  5-MIN KMSN 270120Z 08015KT 8SM OVC013 04/03 A2994 850 92 -200 080/15 RMK AO2 RAE11 P0000
14837KMSN MSN20011126192510711/26/01 19:25:31  5-MIN KMSN 270125Z 07013KT 8SM OVC011 04/03 A2994 850 92 -200 070/13 RMK AO2 RAE11 P0000
14837KMSN MSN20011126193011411/26/01 19:30:31  5-MIN KMSN 270130Z 07014KT 8SM -RA OVC011 04/03 A2993 850 92 -200 070/14 RMK AO2 RAE11B27 P0000
14837KMSN MSN20011126193512111/26/01 19:35:31  5-MIN KMSN 270135Z 08013KT 8SM -RA BKN011 OVC021 04/03 A2993 850 92 -200 080/13 RMK AO2 RAE11B27 P0000
14837KMSN MSN20011126194011311/26/01 19:40:31  5-MIN KMSN 270140Z 08014KT 8SM OVC011 04/03 A2994 850 92 -200 080/14 RMK AO2 RAE11B27E38 P0000
14837KMSN MSN20011126194512511/26/01 19:45:31  5-MIN KMSN 270145Z 08013KT 8SM OVC011 04/03 A2993 850 92 -200 080/13 RMK AO2 RAE11B27E38 CIG 008V014 P0000
14837KMSN MSN20011126195013711/26/01 19:50:31  5-MIN KMSN 270150Z 08012KT 8SM BKN011 OVC014 04/03 A2992 860 92 -200 080/12 RMK AO2 RAE11B27E38 SLP141 P0000 T00390028
14837KMSN MSN20011126195511411/26/01 19:55:31  5-MIN KMSN 270155Z 07013KT 7SM BKN009 OVC016 04/03 A2991 870 96 -200 070/13 RMK AO2 CIG 008V013
14837KMSN MSN20011126200010711/26/01 20:00:31  5-MIN KMSN 270200Z 07012KT 7SM OVC009 04/03 A2991 870 96 -200 070/12 RMK AO2 CIG 007V013
14837KMSN MSN20011126200510711/26/01 20:05:31  5-MIN KMSN 270205Z 08013KT 7SM OVC009 04/03 A2991 870 96 -200 070/13 RMK AO2 CIG 007V013
14837KMSN MSN20011126201010711/26/01 20:10:31  5-MIN KMSN 270210Z 08013KT 7SM OVC009 04/03 A2991 870 96 -200 080/13 RMK AO2 CIG 007V012
14837KMSN MSN20011126201509511/26/01 20:15:31  5-MIN KMSN 270215Z 08014KT 7SM OVC009 04/03 A2991 880 92 -100 070/14 RMK AO2
14837KMSN MSN20011126202009511/26/01 20:20:31  5-MIN KMSN 270220Z 08014KT 7SM OVC009 04/03 A2991 870 92 -100 080/14 RMK AO2
14837KMSN MSN20011126202511411/26/01 20:25:31  5-MIN KMSN 270225Z 08014KT 6SM -RA BR OVC007 04/03 A2990 880 92 -100 080/14 RMK AO2 RAB25 P0000
14837KMSN MSN20011126203011411/26/01 20:30:31  5-MIN KMSN 270230Z 08016KT 5SM -RA BR OVC007 04/03 A2990 880 92 -100 080/16 RMK AO2 RAB25 P0001
14837KMSN MSN20011126203511411/26/01 20:35:31  5-MIN KMSN 270235Z 09015KT 5SM -RA BR OVC007 04/03 A2990 890 92 -100 090/15 RMK AO2 RAB25 P0001
14837KMSN MSN20011126204011411/26/01 20:40:31  5-MIN KMSN 270240Z 09015KT 6SM -RA BR OVC007 04/04 A2989 890 96 -100 090/15 RMK AO2 RAB25 P0001
14837KMSN MSN20011126204511411/26/01 20:45:31  5-MIN KMSN 270245Z 08016KT 5SM -RA BR OVC007 04/04 A2989 900 96 -100 080/16 RMK AO2 RAB25 P0001
14837KMSN MSN20011126205015511/26/01 20:50:31  5-MIN KMSN 270250Z 08017KT 6SM -RA BR OVC007 04/04 A2988 900 96 -100 080/17 RMK AO2 RAB25 CIG 006V010 SLP125 P0002 60004 T00440039 56024
14837KMSN MSN20011126205511311/26/01 20:55:31  5-MIN KMSN 270255Z 08014KT 7SM OVC007 04/04 A2988 900 96 -100 080/14 RMK AO2 RAE54 CIG 006V012
14837KMSN MSN20011126210011811/26/01 21:00:31  5-MIN KMSN 270300Z 08015KT 6SM BR OVC007 04/04 A2988 910 96 -100 080/15 RMK AO2 RAE0254 CIG 006V012
14837KMSN MSN20011126210510311/26/01 21:05:31  5-MIN KMSN 270305Z 08015KT 6SM BR OVC007 05/04 A2987 910 92 0 080/15 RMK AO2 RAE0254
14837KMSN MSN20011126211012211/26/01 21:10:31  5-MIN KMSN 270310Z 08014KT 6SM BR BKN007 OVC012 05/04 A2987 910 92 0 080/14 RMK AO2 RAE0254 CIG 006V010
14837KMSN MSN20011126211512111/26/01 21:15:31  5-MIN KMSN 270315Z 08017G22KT 6SM BR OVC009 05/04 A2986 920 92 0 080/17G22 RMK AO2 RAE0254 CIG 006V013
14837KMSN MSN20011126212012111/26/01 21:20:31  5-MIN KMSN 270320Z 08014G22KT 6SM BR OVC009 05/04 A2986 920 92 0 080/14G22 RMK AO2 RAE0254 CIG 007V013
14837KMSN MSN20011126212511511/26/01 21:25:31  5-MIN KMSN 270325Z 08014KT 6SM BR OVC009 05/04 A2985 930 92 0 080/14 RMK AO2 RAE0254 CIG 007V013
14837KMSN MSN20011126213011511/26/01 21:30:31  5-MIN KMSN 270330Z 08013KT 6SM BR OVC009 05/04 A2985 930 92 0 080/13 RMK AO2 RAE0254 CIG 007V013
14837KMSN MSN20011126213511511/26/01 21:35:31  5-MIN KMSN 270335Z 08013KT 6SM BR OVC009 05/04 A2985 930 92 0 080/13 RMK AO2 RAE0254 CIG 007V012
14837KMSN MSN20011126214011511/26/01 21:40:31  5-MIN KMSN 270340Z 07014KT 6SM BR OVC009 05/04 A2984 940 96 0 070/14 RMK AO2 RAE0254 CIG 007V012
14837KMSN MSN20011126214511511/26/01 21:45:31  5-MIN KMSN 270345Z 08013KT 6SM BR OVC009 05/04 A2984 930 96 0 080/13 RMK AO2 RAE0254 CIG 007V012
14837KMSN MSN20011126215013111/26/01 21:50:31  5-MIN KMSN 270350Z 08013KT 7SM OVC009 06/04 A2984 940 92 100 080/13 RMK AO2 RAE0254 CIG 007V012 SLP112 T00560044
14837KMSN MSN20011126215510611/26/01 21:55:31  5-MIN KMSN 270355Z 08014KT 7SM OVC009 06/04 A2984 940 92 100 080/14 RMK AO2 CIG 007V012
14837KMSN MSN20011126220010111/26/01 22:00:31  5-MIN KMSN 270400Z 08013KT 7SM BKN009 OVC013 06/04 A2984 940 92 100 080/13 RMK AO2
14837KMSN MSN20011126220511611/26/01 22:05:31  5-MIN KMSN 270405Z 08014KT 6SM BR BKN009 OVC013 06/04 A2984 940 92 100 080/14 RMK AO2 CIG 008V011
14837KMSN MSN20011126221009411/26/01 22:10:31  5-MIN KMSN 270410Z 08016KT 7SM OVC009 06/04 A2984 940 92 100 080/16 RMK AO2
14837KMSN MSN20011126221509411/26/01 22:15:31  5-MIN KMSN 270415Z 08010KT 7SM OVC009 06/04 A2984 940 92 100 080/10 RMK AO2
14837KMSN MSN20011126222009411/26/01 22:20:31  5-MIN KMSN 270420Z 09012KT 7SM OVC009 06/04 A2984 940 89 100 090/12 RMK AO2
14837KMSN MSN20011126222510611/26/01 22:25:31  5-MIN KMSN 270425Z 08012KT 7SM OVC009 06/05 A2984 940 93 100 080/12 RMK AO2 CIG 008V013
14837KMSN MSN20011126223010611/26/01 22:30:31  5-MIN KMSN 270430Z 09013KT 7SM OVC009 06/05 A2983 950 93 100 080/13 RMK AO2 CIG 008V013
14837KMSN MSN20011126223509711/26/01 22:35:31  5-MIN KMSN 270435Z 08011KT 6SM BR OVC009 06/05 A2982 950 93 200 080/11 RMK AO2
14837KMSN MSN20011126224010411/26/01 22:40:31  5-MIN KMSN 270440Z 08013KT 6SM BR OVC009 06/05 A2982 960 93 200 080/13 RMK AO2 PRESFR
14837KMSN MSN20011126224509711/26/01 22:45:31  5-MIN KMSN 270445Z 08013KT 6SM BR OVC009 06/05 A2982 960 93 200 080/13 RMK AO2
14837KMSN MSN20011126225012611/26/01 22:50:31  5-MIN KMSN 270450Z 09014KT 6SM BR OVC009 06/05 A2982 960 93 200 090/14 RMK AO2 CIG 008V013 SLP103 T00610050
14837KMSN MSN20011126225509711/26/01 22:55:31  5-MIN KMSN 270455Z 09014KT 6SM BR OVC009 06/05 A2981 960 93 200 090/14 RMK AO2
14837KMSN MSN20011126230011511/26/01 23:00:31  5-MIN KMSN 270500Z 09014G20KT 6SM BR OVC009 07/05 A2981 960 89 200 090/14G20 RMK AO2 CIG 008V014
14837KMSN MSN20011126230511511/26/01 23:05:31  5-MIN KMSN 270505Z 09015G20KT 6SM BR OVC009 07/05 A2981 970 89 200 090/15G20 RMK AO2 CIG 008V014
14837KMSN MSN20011126231009711/26/01 23:10:31  5-MIN KMSN 270510Z 09016KT 6SM BR OVC009 07/05 A2981 970 89 200 090/16 RMK AO2
14837KMSN MSN20011126231512511/26/01 23:15:31  5-MIN KMSN 270515Z 09015KT 5SM -DZ BR OVC009 07/05 A2980 970 86 300 080/15 RMK AO2 DZB15 CIG 008V013 P0000
14837KMSN MSN20011126232011311/26/01 23:20:31  5-MIN KMSN 270520Z 09011KT 5SM -DZ BR OVC009 07/06 A2980 970 93 200 090/11 RMK AO2 DZB15 P0000
14837KMSN MSN20011126232511311/26/01 23:25:31  5-MIN KMSN 270525Z 09013KT 5SM -DZ BR OVC009 07/06 A2980 980 93 200 090/13 RMK AO2 DZB15 P0000
14837KMSN MSN20011126233011311/26/01 23:30:31  5-MIN KMSN 270530Z 10014KT 6SM -DZ BR OVC009 07/06 A2980 980 93 200 100/14 RMK AO2 DZB15 P0000
14837KMSN MSN20011126233511311/26/01 23:35:31  5-MIN KMSN 270535Z 10013KT 4SM -DZ BR OVC009 07/06 A2980 970 93 200 100/13 RMK AO2 DZB15 P0000
14837KMSN MSN20011126234011911/26/01 23:40:31  5-MIN KMSN 270540Z 10015G18KT 4SM -DZ BR OVC009 07/06 A2979 980 93 300 100/15G18 RMK AO2 DZB15 P0000
14837KMSN MSN20011126234511911/26/01 23:45:31  5-MIN KMSN 270545Z 10015G20KT 4SM -DZ BR OVC009 07/06 A2979 990 93 300 100/15G20 RMK AO2 DZB15 P0000
14837KMSN MSN20011126235017011/26/01 23:50:31  5-MIN KMSN 270550Z 10014G20KT 4SM -DZ BR OVC009 07/06 A2978 990 93 300 100/14G20 RMK AO2 DZB15 SLP091 P0000 60004 T00670056 10072 20039 400720011 58023
14837KMSN MSN20011126235510711/26/01 23:55:31  5-MIN KMSN 270555Z 10013KT 5SM -DZ BR OVC009 07/06 A2978 990 89 300 100/13 RMK AO2 P0000
14837KMSN MSN20011127000010711/27/01 00:00:31  5-MIN KMSN 270600Z 10012KT 5SM -DZ BR OVC009 07/06 A2978 990 89 300 100/12 RMK AO2 P0000
14837KMSN MSN20011127000510811/27/01 00:05:31  5-MIN KMSN 270605Z 10012KT 5SM -DZ BR OVC009 07/06 A2978 1000 89 300 100/12 RMK AO2 P0000
14837KMSN MSN20011127001010811/27/01 00:10:31  5-MIN KMSN 270610Z 10012KT 5SM -DZ BR OVC009 07/06 A2977 1000 89 300 100/12 RMK AO2 P0000
14837KMSN MSN20011127001510811/27/01 00:15:31  5-MIN KMSN 270615Z 10016KT 5SM -DZ BR OVC009 07/06 A2976 1010 93 400 100/16 RMK AO2 P0000
14837KMSN MSN20011127002011011/27/01 00:20:31  5-MIN KMSN 270620Z 10014KT 4SM BR OVC009 07/06 A2976 1010 93 400 100/14 RMK AO2 DZE18 P0000
14837KMSN MSN20011127002511611/27/01 00:25:31  5-MIN KMSN 270625Z 10015G20KT 4SM BR OVC009 07/06 A2976 1020 93 400 100/15G20 RMK AO2 DZE18 P0000
14837KMSN MSN20011127003011011/27/01 00:30:31  5-MIN KMSN 270630Z 10014KT 4SM BR OVC009 07/06 A2976 1020 93 400 100/14 RMK AO2 DZE18 P0000
14837KMSN MSN20011127003511011/27/01 00:35:31  5-MIN KMSN 270635Z 11013KT 4SM BR OVC009 07/06 A2975 1020 93 400 110/13 RMK AO2 DZE18 P0000
14837KMSN MSN20011127004011011/27/01 00:40:31  5-MIN KMSN 270640Z 10013KT 4SM BR OVC009 07/06 A2975 1020 93 400 100/13 RMK AO2 DZE18 P0000
14837KMSN MSN20011127004511011/27/01 00:45:31  5-MIN KMSN 270645Z 10013KT 4SM BR OVC009 07/06 A2975 1030 93 400 100/13 RMK AO2 DZE18 P0000
14837KMSN MSN20011127005012711/27/01 00:50:31  5-MIN KMSN 270650Z 10013KT 4SM BR OVC009 07/06 A2975 1020 93 400 100/13 RMK AO2 DZE18 SLP078 P0000 T00720061
14837KMSN MSN20011127005509811/27/01 00:55:31  5-MIN KMSN 270655Z 10013KT 5SM BR OVC009 07/06 A2975 1030 93 400 100/13 RMK AO2
14837KMSN MSN20011127010009811/27/01 01:00:31  5-MIN KMSN 270700Z 10014KT 5SM BR OVC009 07/06 A2974 1030 93 400 100/14 RMK AO2
14837KMSN MSN20011127010509811/27/01 01:05:31  5-MIN KMSN 270705Z 11013KT 5SM BR OVC009 07/06 A2974 1030 93 400 100/13 RMK AO2
14837KMSN MSN20011127011009811/27/01 01:10:31  5-MIN KMSN 270710Z 11014KT 5SM BR OVC009 07/06 A2974 1030 93 400 110/14 RMK AO2
14837KMSN MSN20011127011509811/27/01 01:15:31  5-MIN KMSN 270715Z 11014KT 4SM BR OVC009 07/06 A2974 1030 93 400 110/14 RMK AO2
14837KMSN MSN20011127012009811/27/01 01:20:31  5-MIN KMSN 270720Z 11014KT 4SM BR OVC009 07/06 A2974 1030 93 400 110/14 RMK AO2
14837KMSN MSN20011127012509811/27/01 01:25:31  5-MIN KMSN 270725Z 11013KT 4SM BR OVC009 07/06 A2973 1040 93 400 110/13 RMK AO2
14837KMSN MSN20011127013009811/27/01 01:30:31  5-MIN KMSN 270730Z 11014KT 4SM BR OVC009 07/06 A2973 1040 93 400 110/14 RMK AO2
14837KMSN MSN20011127013511411/27/01 01:35:31  5-MIN KMSN 270735Z 11015KT 4SM -RA BR OVC009 07/06 A2973 1040 93 400 110/15 RMK AO2 RAB32 P0000
14837KMSN MSN20011127014011411/27/01 01:40:31  5-MIN KMSN 270740Z 11016KT 4SM -RA BR OVC009 07/07 A2973 1040 96 400 110/16 RMK AO2 RAB32 P0000
14837KMSN MSN20011127014511411/27/01 01:45:31  5-MIN KMSN 270745Z 11015KT 4SM -RA BR OVC009 07/07 A2973 1040 96 400 110/15 RMK AO2 RAB32 P0000
14837KMSN MSN20011127015013111/27/01 01:50:31  5-MIN KMSN 270750Z 11014KT 3SM -RA BR OVC009 07/07 A2973 1040 96 400 110/14 RMK AO2 RAB32 SLP074 P0001 T00720067
14837KMSN MSN20011127015510811/27/01 01:55:31  5-MIN KMSN 270755Z 11014KT 3SM -RA BR OVC009 07/07 A2973 1040 96 400 110/14 RMK AO2 P0000
14837KMSN MSN20011127020010811/27/01 02:00:31  5-MIN KMSN 270800Z 11012KT 4SM -RA BR OVC009 07/07 A2974 1040 96 400 110/12 RMK AO2 P0000
14837KMSN MSN20011127020510811/27/01 02:05:31  5-MIN KMSN 270805Z 11012KT 3SM -RA BR OVC007 07/07 A2974 1040 96 400 110/12 RMK AO2 P0000
14837KMSN MSN20011127021010811/27/01 02:10:31  5-MIN KMSN 270810Z 12012KT 3SM -RA BR OVC007 07/07 A2974 1040 96 400 120/12 RMK AO2 P0000
14837KMSN MSN20011127021510811/27/01 02:15:31  5-MIN KMSN 270815Z 12010KT 3SM -RA BR OVC007 07/07 A2974 1030 96 400 120/10 RMK AO2 P0001
14837KMSN MSN20011127022012011/27/01 02:20:31  5-MIN KMSN 270820Z 12010KT 3SM -RA BR OVC007 07/07 A2974 1040 96 400 120/10 RMK AO2 CIG 004V009 P0001
14837KMSN MSN20011127022512611/27/01 02:25:31  5-MIN KMSN 270825Z 12011KT 2 1/2SM BR OVC007 07/07 A2973 1040 96 400 120/11 RMK AO2 RAE22 CIG 004V009 P0001
14837KMSN MSN20011127023012411/27/01 02:30:31  5-MIN KMSN 270830Z 12012KT 2 1/2SM -RA BR OVC007 07/07 A2973 1040 96 400 110/12 RMK AO2 CIG 004V009 P0001
14837KMSN MSN20011127023512011/27/01 02:35:31  5-MIN KMSN 270835Z 12011KT 3SM -RA BR OVC007 07/07 A2973 1040 96 400 120/11 RMK AO2 CIG 004V009 P0001
14837KMSN MSN20011127024012411/27/01 02:40:31  5-MIN KMSN 270840Z 12010KT 2 1/2SM -RA BR OVC005 07/07 A2973 1040 96 400 120/10 RMK AO2 CIG 004V009 P0001
14837KMSN MSN20011127024512411/27/01 02:45:31  5-MIN KMSN 270845Z 11010KT 2 1/2SM -RA BR OVC005 07/07 A2973 1040 96 400 110/10 RMK AO2 CIG 004V009 P0001
14837KMSN MSN20011127025014311/27/01 02:50:31  5-MIN KMSN 270850Z 12008KT 2 1/2SM BR OVC005 07/07 A2973 1040 96 400 120/08 RMK AO2 RAE46 SLP072 P0001 60002 T00720067 56031
14837KMSN MSN20011127025511811/27/01 02:55:31  5-MIN KMSN 270855Z 13007KT 2 1/2SM -RA BR OVC005 07/07 A2973 1040 96 400 130/07 RMK AO2 RAB54 P0000
14837KMSN MSN20011127030012011/27/01 03:00:31  5-MIN KMSN 270900Z 13006KT 2 1/2SM -RA BR OVC005 08/07 A2973 1040 96 500 120/06 RMK AO2 RAB0854 P0000
14837KMSN MSN20011127030511211/27/01 03:05:31  5-MIN KMSN 270905Z 13007KT 2 1/2SM -RA BR OVC005 08/07 A2973 1040 96 500 130/07 RMK AO2 P0000
14837KMSN MSN20011127031011211/27/01 03:10:31  5-MIN KMSN 270910Z 12006KT 2 1/2SM -RA BR OVC005 08/07 A2973 1040 96 500 120/06 RMK AO2 P0001
14837KMSN MSN20011127031511211/27/01 03:15:31  5-MIN KMSN 270915Z 13006KT 2 1/2SM -RA BR OVC005 08/07 A2973 1040 96 500 130/06 RMK AO2 P0001
14837KMSN MSN20011127032010811/27/01 03:20:31  5-MIN KMSN 270920Z 15005KT 2 1/2SM BR OVC005 08/07 A2973 1040 96 500 150/05 RMK AO2 P0001
14837KMSN MSN20011127032510811/27/01 03:25:31  5-MIN KMSN 270925Z 14005KT 2 1/2SM BR OVC005 08/07 A2973 1050 96 500 140/05 RMK AO2 P0001
14837KMSN MSN20011127033011911/27/01 03:30:31  5-MIN KMSN 270930Z 12008KT 4SM -DZ BR OVC005 08/07 A2972 1050 96 500 120/08 RMK AO2 RAE22DZB22 P0001
14837KMSN MSN20011127033511911/27/01 03:35:31  5-MIN KMSN 270935Z 12008KT 4SM -DZ BR OVC005 08/07 A2972 1050 96 500 120/08 RMK AO2 RAE22DZB22 P0001
14837KMSN MSN20011127034011911/27/01 03:40:31  5-MIN KMSN 270940Z 12007KT 4SM -DZ BR OVC005 08/07 A2972 1050 96 500 120/07 RMK AO2 RAE22DZB22 P0001
14837KMSN MSN20011127034511911/27/01 03:45:31  5-MIN KMSN 270945Z 14007KT 4SM -DZ BR OVC005 08/07 A2972 1050 96 500 140/07 RMK AO2 RAE22DZB22 P0001
14837KMSN MSN20011127035013811/27/01 03:50:31  5-MIN KMSN 270950Z 13005KT 5SM BR OVC005 08/07 A2972 1050 96 500 130/05 RMK AO2 SLP070 RAE22B40DZB22E40 P0001 T00780072
14837KMSN MSN20011127035510811/27/01 03:55:31  5-MIN KMSN 270955Z 15005KT 5SM -RA BR OVC005 08/07 A2972 1050 96 500 150/05 RMK AO2 P0000
14837KMSN MSN20011127040010811/27/01 04:00:31  5-MIN KMSN 271000Z 13005KT 5SM -RA BR OVC005 08/07 A2972 1050 96 500 130/05 RMK AO2 P0000
14837KMSN MSN20011127040511011/27/01 04:05:31  5-MIN KMSN 271005Z 13006KT 5SM BR OVC005 08/07 A2972 1050 96 500 120/06 RMK AO2 RAE01 P0000
14837KMSN MSN20011127041011011/27/01 04:10:31  5-MIN KMSN 271010Z 13005KT 5SM BR OVC005 08/07 A2972 1050 96 500 130/05 RMK AO2 RAE01 P0000
14837KMSN MSN20011127041511011/27/01 04:15:31  5-MIN KMSN 271015Z 14006KT 5SM BR OVC005 08/07 A2972 1050 96 500 140/06 RMK AO2 RAE01 P0000
14837KMSN MSN20011127042011011/27/01 04:20:31  5-MIN KMSN 271020Z 13008KT 5SM BR OVC005 08/07 A2972 1050 96 500 130/08 RMK AO2 RAE01 P0000
14837KMSN MSN20011127042511011/27/01 04:25:31  5-MIN KMSN 271025Z 12008KT 5SM BR OVC005 08/07 A2972 1050 96 500 120/08 RMK AO2 RAE01 P0000
14837KMSN MSN20011127043011011/27/01 04:30:31  5-MIN KMSN 271030Z 12010KT 5SM BR OVC005 08/07 A2972 1050 96 500 120/10 RMK AO2 RAE01 P0000
14837KMSN MSN20011127043511111/27/01 04:35:31  5-MIN KMSN 271035Z 13009KT 5SM BR OVC005 08/08 A2972 1050 100 500 130/09 RMK AO2 RAE01 P0000
14837KMSN MSN20011127044011011/27/01 04:40:31  5-MIN KMSN 271040Z 13010KT 5SM BR OVC005 08/08 A2972 1050 96 500 130/10 RMK AO2 RAE01 P0000
14837KMSN MSN20011127044511011/27/01 04:45:31  5-MIN KMSN 271045Z 13007KT 4SM BR OVC005 08/08 A2972 1050 96 500 130/07 RMK AO2 RAE01 P0000
14837KMSN MSN20011127045012711/27/01 04:50:31  5-MIN KMSN 271050Z 14007KT 4SM BR OVC005 08/08 A2972 1050 96 500 140/07 RMK AO2 RAE01 SLP070 P0000 T00830078
14837KMSN MSN20011127045509811/27/01 04:55:31  5-MIN KMSN 271055Z 13006KT 4SM BR OVC005 08/08 A2972 1050 96 500 130/06 RMK AO2
14837KMSN MSN20011127050009811/27/01 05:00:31  5-MIN KMSN 271100Z 12006KT 4SM BR OVC005 08/08 A2972 1050 96 500 120/06 RMK AO2
14837KMSN MSN20011127050509811/27/01 05:05:31  5-MIN KMSN 271105Z 12007KT 4SM BR OVC005 08/08 A2972 1050 96 500 120/07 RMK AO2
14837KMSN MSN20011127051009811/27/01 05:10:31  5-MIN KMSN 271110Z 12006KT 4SM BR OVC005 08/08 A2972 1050 96 500 120/06 RMK AO2
14837KMSN MSN20011127051509811/27/01 05:15:31  5-MIN KMSN 271115Z 13006KT 4SM BR OVC005 08/08 A2972 1050 96 500 130/06 RMK AO2
14837KMSN MSN20011127052009811/27/01 05:20:31  5-MIN KMSN 271120Z 13006KT 4SM BR OVC005 08/08 A2972 1050 96 500 120/06 RMK AO2
14837KMSN MSN20011127052511011/27/01 05:25:31  5-MIN KMSN 271125Z 13006KT 3SM BR OVC005 08/08 A2972 1050 96 500 120/06 RMK AO2 CIG 003V008
14837KMSN MSN20011127053009811/27/01 05:30:31  5-MIN KMSN 271130Z 12004KT 3SM BR OVC005 08/08 A2972 1050 96 500 110/04 RMK AO2
14837KMSN MSN20011127053509811/27/01 05:35:31  5-MIN KMSN 271135Z 12004KT 3SM BR OVC005 08/08 A2972 1050 96 500 120/04 RMK AO2
14837KMSN MSN20011127054009811/27/01 05:40:31  5-MIN KMSN 271140Z 13005KT 3SM BR OVC005 08/08 A2972 1050 96 500 130/05 RMK AO2
14837KMSN MSN20011127054509811/27/01 05:45:31  5-MIN KMSN 271145Z 14004KT 4SM BR OVC005 08/08 A2972 1050 96 500 140/04 RMK AO2
14837KMSN MSN20011127055014611/27/01 05:50:31  5-MIN KMSN 271150Z 14004KT 4SM BR OVC005 08/08 A2972 1050 100 500 140/04 RMK AO2 SLP070 60004 70008 T00830083 10083 20072 56017
14837KMSN MSN20011127055509911/27/01 05:55:31  5-MIN KMSN 271155Z 14004KT 3SM BR OVC005 08/08 A2972 1050 100 500 140/04 RMK AO2
14837KMSN MSN20011127060011711/27/01 06:00:31  5-MIN KMSN 271200Z 15006KT 3SM BR BKN005 OVC009 09/08 A2972 1050 96 600 150/06 RMK AO2 CIG 004V008
14837KMSN MSN20011127060511011/27/01 06:05:31  5-MIN KMSN 271205Z 15005KT 4SM BR OVC007 09/08 A2972 1050 96 600 150/05 RMK AO2 CIG 004V011
14837KMSN MSN20011127061011711/27/01 06:10:31  5-MIN KMSN 271210Z 15004KT 4SM BR BKN007 OVC011 09/08 A2972 1050 96 600 150/04 RMK AO2 CIG 004V009
14837KMSN MSN20011127061511011/27/01 06:15:31  5-MIN KMSN 271215Z 17004KT 4SM BR OVC007 09/08 A2973 1040 96 600 170/04 RMK AO2 CIG 004V009
14837KMSN MSN20011127062011711/27/01 06:20:31  5-MIN KMSN 271220Z 16005KT 4SM BR BKN007 OVC011 09/08 A2973 1040 96 600 160/05 RMK AO2 CIG 004V009
14837KMSN MSN20011127062512411/27/01 06:25:31  5-MIN KMSN 271225Z 16004KT 4SM BR BKN007 BKN011 OVC018 09/08 A2973 1040 96 600 160/04 RMK AO2 CIG 005V009
14837KMSN MSN20011127063012411/27/01 06:30:31  5-MIN KMSN 271230Z 16005KT 4SM BR BKN007 BKN011 OVC018 09/08 A2973 1040 96 600 160/05 RMK AO2 CIG 005V009
14837KMSN MSN20011127063511811/27/01 06:35:31  5-MIN KMSN 271235Z 14005KT 3SM BR BKN007 OVC018 08/08 A2973 1040 100 500 140/05 RMK AO2 CIG 005V012
14837KMSN MSN20011127064011711/27/01 06:40:31  5-MIN KMSN 271240Z 15006KT 3SM BR BKN007 OVC018 09/08 A2973 1040 93 600 150/06 RMK AO2 CIG 005V012
14837KMSN MSN20011127064512411/27/01 06:45:31  5-MIN KMSN 271245Z 16005KT 4SM BR BKN007 BKN012 OVC018 09/08 A2973 1040 96 600 160/05 RMK AO2 CIG 005V009
14837KMSN MSN20011127065012911/27/01 06:50:31  5-MIN KMSN 271250Z 16004KT 3SM BR BKN005 BKN009 OVC018 09/08 A2974 1040 96 600 160/04 RMK AO2 SLP074 T00890083
14837KMSN MSN20011127065511711/27/01 06:55:31  5-MIN KMSN 271255Z 15005KT 3SM BR BKN007 OVC014 09/08 A2973 1040 96 600 150/05 RMK AO2 CIG 005V010
14837KMSN MSN20011127070011711/27/01 07:00:31  5-MIN KMSN 271300Z 16004KT 3SM BR BKN007 OVC013 09/08 A2973 1040 96 600 160/04 RMK AO2 CIG 005V010
14837KMSN MSN20011127070512411/27/01 07:05:31  5-MIN KMSN 271305Z 16004KT 3SM BR BKN007 BKN010 OVC013 09/08 A2974 1030 96 600 160/04 RMK AO2 CIG 005V008
14837KMSN MSN20011127071011711/27/01 07:10:31  5-MIN KMSN 271310Z 19004KT 3SM BR BKN007 OVC013 09/08 A2974 1030 96 600 190/04 RMK AO2 CIG 005V008
14837KMSN MSN20011127071511711/27/01 07:15:31  5-MIN KMSN 271315Z 19005KT 2SM BR BKN007 OVC013 09/08 A2974 1030 93 600 190/05 RMK AO2 CIG 004V008
14837KMSN MSN20011127072011211/27/01 07:20:31  5-MIN KMSN 271320Z 18005KT 2SM BR SCT007 BKN013 BKN018 08/08 A2974 1030 96 500 180/05 RMK AO2
14837KMSN MSN20011127072510511/27/01 07:25:31  5-MIN KMSN 271325Z 18006KT 2SM BR SCT007 BKN014 09/08 A2974 1030 93 600 180/06 RMK AO2
14837KMSN MSN20011127073010511/27/01 07:30:31  5-MIN KMSN 271330Z 20006KT 2SM BR SCT007 BKN014 09/08 A2974 1030 93 600 200/06 RMK AO2
14837KMSN MSN20011127073510511/27/01 07:35:31  5-MIN KMSN 271335Z 20008KT 2SM BR SCT007 BKN014 09/07 A2975 1030 89 600 190/08 RMK AO2
14837KMSN MSN20011127074010511/27/01 07:40:31  5-MIN KMSN 271340Z 20008KT 2SM BR SCT007 BKN014 09/07 A2975 1020 89 600 200/08 RMK AO2
14837KMSN MSN20011127074512211/27/01 07:45:31  5-MIN KMSN 271345Z 22007KT 2SM BR BKN014 BKN019 OVC025 09/07 A2975 1020 86 600 220/07 RMK AO2 SFC VIS 4
14837KMSN MSN20011127075013911/27/01 07:50:31  5-MIN KMSN 271350Z 21009KT 2SM BR BKN014 BKN020 OVC025 08/07 A2975 1020 89 500 210/09 RMK AO2 SFC VIS 4 SLP080 T00830067
14837KMSN MSN20011127075510911/27/01 07:55:31  5-MIN KMSN 271355Z 22006KT 7SM BKN014 BKN020 OVC025 08/07 A2976 1020 89 500 220/06 RMK AO2
14837KMSN MSN20011127080010511/27/01 08:00:31  5-MIN KMSN 271400Z 23010KT 5SM BR SCT014 OVC023 08/06 A2976 1020 86 500 230/10 RMK AO2
14837KMSN MSN20011127080510511/27/01 08:05:31  5-MIN KMSN 271405Z 24009KT 6SM BR BKN014 OVC023 08/06 A2976 1010 86 400 240/09 RMK AO2
14837KMSN MSN20011127081012111/27/01 08:10:31  5-MIN KMSN 271410Z 25007KT 210V270 6SM BR BKN011 OVC023 07/05 A2976 1020 86 400 240/07 210V270 RMK AO2
14837KMSN MSN20011127081511811/27/01 08:15:31  5-MIN KMSN 271415Z 24008G14KT 6SM BR BKN013 BKN017 OVC022 07/05 A2976 1020 86 400 240/08G14 RMK AO2
14837KMSN MSN20011127082011211/27/01 08:20:31  5-MIN KMSN 271420Z 23008KT 6SM BR SCT013 BKN017 OVC023 07/05 A2976 1010 86 400 230/08 RMK AO2
14837KMSN MSN20011127082510211/27/01 08:25:31  5-MIN KMSN 271425Z 25009KT 8SM SCT013 OVC019 07/04 A2976 1010 82 400 240/09 RMK AO2
14837KMSN MSN20011127083010211/27/01 08:30:31  5-MIN KMSN 271430Z 23009KT 8SM SCT012 OVC019 07/04 A2977 1010 82 400 230/09 RMK AO2
14837KMSN MSN20011127083510211/27/01 08:35:31  5-MIN KMSN 271435Z 23006KT 8SM SCT012 OVC019 07/04 A2976 1010 86 300 230/06 RMK AO2
14837KMSN MSN20011127084009511/27/01 08:40:31  5-MIN KMSN 271440Z 22006KT 8SM OVC019 07/04 A2976 1010 86 300 220/06 RMK AO2
14837KMSN MSN20011127084509511/27/01 08:45:31  5-MIN KMSN 271445Z 23008KT 8SM BKN019 07/04 A2977 1010 82 300 230/08 RMK AO2
14837KMSN MSN20011127085011911/27/01 08:50:31  5-MIN KMSN 271450Z VRB05KT 10SM BKN019 07/04 A2977 1000 82 300 VRB/05 RMK AO2 SLP086 T00670039 55002
14837KMSN MSN20011127085510311/27/01 08:55:31  5-MIN KMSN 271455Z 24009KT 10SM BKN019 BKN031 07/04 A2977 1000 82 300 230/09 RMK AO2
14837KMSN MSN20011127090009611/27/01 09:00:31  5-MIN KMSN 271500Z 24008KT 10SM SCT019 07/03 A2977 1000 79 300 240/08 RMK AO2
14837KMSN MSN20011127090509611/27/01 09:05:31  5-MIN KMSN 271505Z 22010KT 10SM SCT019 07/03 A2977 1000 79 300 220/10 RMK AO2
14837KMSN MSN20011127091010311/27/01 09:10:31  5-MIN KMSN 271510Z 24009KT 10SM FEW019 SCT032 07/03 A2977 1000 79 300 240/09 RMK AO2
14837KMSN MSN20011127091509511/27/01 09:15:31  5-MIN KMSN 271515Z 22009KT 10SM FEW032 07/03 A2978 990 79 300 220/09 RMK AO2
14837KMSN MSN20011127092009511/27/01 09:20:31  5-MIN KMSN 271520Z 24008KT 10SM FEW032 07/03 A2978 990 76 300 240/08 RMK AO2
14837KMSN MSN20011127092509511/27/01 09:25:31  5-MIN KMSN 271525Z 23009KT 10SM FEW032 07/03 A2979 990 76 300 230/09 RMK AO2
14837KMSN MSN20011127093009211/27/01 09:30:31  5-MIN KMSN 271530Z 23007KT 10SM CLR 07/03 A2979 990 79 300 230/07 RMK AO2
14837KMSN MSN20011127093509511/27/01 09:35:31  5-MIN KMSN 271535Z 24009KT 10SM SCT020 07/03 A2978 990 79 300 230/09 RMK AO2
14837KMSN MSN20011127094009511/27/01 09:40:31  5-MIN KMSN 271540Z 21010KT 10SM SCT020 07/03 A2979 990 79 300 210/10 RMK AO2
14837KMSN MSN20011127094509511/27/01 09:45:31  5-MIN KMSN 271545Z 23009KT 10SM SCT020 07/03 A2979 980 79 300 230/09 RMK AO2
14837KMSN MSN20011127095011211/27/01 09:50:31  5-MIN KMSN 271550Z 22006KT 10SM BKN020 07/03 A2980 980 79 200 220/06 RMK AO2 SLP096 T00670033
14837KMSN MSN20011127095509511/27/01 09:55:31  5-MIN KMSN 271555Z 23006KT 10SM BKN018 07/04 A2980 970 82 200 230/06 RMK AO2
14837KMSN MSN20011127100011111/27/01 10:00:31  5-MIN KMSN 271600Z 23009KT 200V260 10SM BKN020 07/04 A2981 970 79 300 230/09 200V260 RMK AO2
14837KMSN MSN20011127100510211/27/01 10:05:31  5-MIN KMSN 271605Z 22010KT 10SM BKN022 07/03 A2981 960 79 200 220/10 RMK AO2 PRESRR
14837KMSN MSN20011127101009511/27/01 10:10:31  5-MIN KMSN 271610Z 22007KT 10SM BKN022 07/03 A2981 960 79 200 220/07 RMK AO2
14837KMSN MSN20011127101510811/27/01 10:15:31  5-MIN KMSN 271615Z 22009G14KT 10SM SCT018 OVC022 07/03 A2982 960 79 200 210/09G14 RMK AO2
14837KMSN MSN20011127102010211/27/01 10:20:31  5-MIN KMSN 271620Z 23010KT 10SM BKN018 OVC022 06/03 A2982 960 82 200 230/10 RMK AO2
14837KMSN MSN20011127102510211/27/01 10:25:31  5-MIN KMSN 271625Z 23010KT 10SM SCT016 OVC022 06/03 A2982 960 82 100 230/10 RMK AO2
14837KMSN MSN20011127103010811/27/01 10:30:31  5-MIN KMSN 271630Z 23009G16KT 10SM SCT016 OVC022 06/02 A2982 960 79 100 230/09G16 RMK AO2
14837KMSN MSN20011127103510811/27/01 10:35:31  5-MIN KMSN 271635Z 23009G16KT 10SM SCT016 OVC022 06/02 A2982 960 79 100 230/09G16 RMK AO2
14837KMSN MSN20011127104010811/27/01 10:40:31  5-MIN KMSN 271640Z 23008G15KT 10SM SCT016 OVC024 06/02 A2982 950 79 100 230/08G15 RMK AO2
14837KMSN MSN20011127104510811/27/01 10:45:31  5-MIN KMSN 271645Z 22009G16KT 10SM SCT018 OVC024 06/02 A2983 950 79 100 220/09G16 RMK AO2
14837KMSN MSN20011127105012511/27/01 10:50:31  5-MIN KMSN 271650Z 22011G16KT 10SM BKN022 OVC027 06/02 A2983 950 76 100 220/11G16 RMK AO2 SLP107 T00560017
14837KMSN MSN20011127105510211/27/01 10:55:31  5-MIN KMSN 271655Z 22008KT 10SM BKN022 OVC027 06/02 A2983 950 76 100 220/08 RMK AO2
14837KMSN MSN20011127110011811/27/01 11:00:31  5-MIN KMSN 271700Z 23008KT 190V260 10SM BKN022 OVC027 06/02 A2983 950 76 100 230/08 190V260 RMK AO2
14837KMSN MSN20011127110509511/27/01 11:05:31  5-MIN KMSN 271705Z 23009KT 10SM OVC022 06/01 A2982 950 73 100 230/09 RMK AO2
14837KMSN MSN20011127111009511/27/01 11:10:31  5-MIN KMSN 271710Z 23008KT 10SM OVC022 06/01 A2982 950 73 100 230/08 RMK AO2
14837KMSN MSN20011127111510211/27/01 11:15:31  5-MIN KMSN 271715Z 23010KT 10SM BKN022 OVC027 06/02 A2982 950 76 100 230/10 RMK AO2
14837KMSN MSN20011127112009511/27/01 11:20:31  5-MIN KMSN 271720Z VRB04KT 10SM OVC024 06/02 A2982 960 76 100 VRB/04 RMK AO2
14837KMSN MSN20011127112509511/27/01 11:25:31  5-MIN KMSN 271725Z 23005KT 10SM OVC022 06/02 A2981 960 76 100 230/05 RMK AO2
14837KMSN MSN20011127113009511/27/01 11:30:31  5-MIN KMSN 271730Z 24007KT 10SM OVC022 06/02 A2981 960 76 100 240/07 RMK AO2
14837KMSN MSN20011127113509311/27/01 11:35:31  5-MIN KMSN 271735Z 25008KT 10SM OVC022 05/01 A2982 960 76 0 250/08 RMK AO2
14837KMSN MSN20011127114009311/27/01 11:40:31  5-MIN KMSN 271740Z 24008KT 10SM OVC022 05/01 A2982 960 76 0 240/08 RMK AO2
14837KMSN MSN20011127114509311/27/01 11:45:31  5-MIN KMSN 271745Z VRB06KT 10SM OVC022 05/02 A2982 950 79 0 VRB/06 RMK AO2
14837KMSN MSN20011127115012811/27/01 11:50:31  5-MIN KMSN 271750Z 24009KT 10SM OVC022 05/02 A2982 960 79 0 240/09 RMK AO2 SLP103 T00500017 10089 20050 53017
14837KMSN MSN20011127115509311/27/01 11:55:31  5-MIN KMSN 271755Z 25008KT 10SM OVC022 05/01 A2981 960 76 0 240/08 RMK AO2
14837KMSN MSN20011127120009311/27/01 12:00:31  5-MIN KMSN 271800Z 24007KT 10SM OVC020 05/01 A2982 960 76 0 240/07 RMK AO2
14837KMSN MSN20011127120510911/27/01 12:05:31  5-MIN KMSN 271805Z 23008KT 200V260 10SM OVC020 05/01 A2982 950 76 0 230/08 200V260 RMK AO2
14837KMSN MSN20011127121009311/27/01 12:10:31  5-MIN KMSN 271810Z 23010KT 10SM OVC022 05/01 A2983 950 76 0 230/10 RMK AO2
14837KMSN MSN20011127121509311/27/01 12:15:31  5-MIN KMSN 271815Z 23007KT 10SM OVC022 05/01 A2983 950 76 0 230/07 RMK AO2
14837KMSN MSN20011127122009311/27/01 12:20:31  5-MIN KMSN 271820Z 23008KT 10SM OVC022 05/02 A2984 940 79 0 230/08 RMK AO2
14837KMSN MSN20011127122509311/27/01 12:25:31  5-MIN KMSN 271825Z 22008KT 10SM OVC022 05/01 A2984 940 76 0 220/08 RMK AO2
14837KMSN MSN20011127123010011/27/01 12:30:31  5-MIN KMSN 271830Z 23005KT 10SM SCT018 OVC024 05/02 A2984 940 79 0 230/05 RMK AO2
14837KMSN MSN20011127123510611/27/01 12:35:31  5-MIN KMSN 271835Z 23008G14KT 10SM BKN018 OVC024 04/02 A2985 930 82 0 230/08G14 RMK AO2
14837KMSN MSN20011127124010611/27/01 12:40:31  5-MIN KMSN 271840Z 21007G14KT 10SM BKN016 OVC024 04/02 A2985 930 82 0 210/07G14 RMK AO2
14837KMSN MSN20011127124511611/27/01 12:45:31  5-MIN KMSN 271845Z 23007KT 190V270 10SM BKN016 OVC024 04/02 A2985 930 82 0 230/07 190V270 RMK AO2
14837KMSN MSN20011127125011011/27/01 12:50:31  5-MIN KMSN 271850Z 23010KT 10SM OVC016 04/02 A2986 920 82 0 220/10 RMK AO2 SLP116 T00440017
14837KMSN MSN20011127125509311/27/01 12:55:31  5-MIN KMSN 271855Z 22007KT 10SM OVC016 04/01 A2986 920 79 0 220/07 RMK AO2
14837KMSN MSN20011127130010911/27/01 13:00:31  5-MIN KMSN 271900Z 23009KT 190V260 10SM OVC016 04/01 A2986 920 79 0 230/09 190V260 RMK AO2
14837KMSN MSN20011127130510911/27/01 13:05:31  5-MIN KMSN 271905Z 24008KT 200V270 10SM OVC016 04/01 A2986 920 79 0 240/08 200V270 RMK AO2
14837KMSN MSN20011127131009611/27/01 13:10:31  5-MIN KMSN 271910Z VRB06KT 10SM OVC016 04/02 A2987 920 82 -100 VRB/06 RMK AO2
14837KMSN MSN20011127131510211/27/01 13:15:31  5-MIN KMSN 271915Z 23009G14KT 10SM OVC016 04/02 A2987 910 82 -100 220/09G14 RMK AO2
14837KMSN MSN20011127132009611/27/01 13:20:31  5-MIN KMSN 271920Z 23009KT 10SM OVC016 04/01 A2987 910 82 -100 230/09 RMK AO2
14837KMSN MSN20011127132511211/27/01 13:25:31  5-MIN KMSN 271925Z 24007KT 200V270 10SM OVC016 04/02 A2987 910 85 -100 230/07 200V270 RMK AO2
14837KMSN MSN20011127133010211/27/01 13:30:31  5-MIN KMSN 271930Z 23009KT 9SM BKN016 OVC020 04/02 A2988 910 85 -100 230/09 RMK AO2
14837KMSN MSN20011127133511111/27/01 13:35:31  5-MIN KMSN 271935Z 24010G14KT 6SM BR BKN016 OVC020 04/02 A2988 900 85 -100 230/10G14 RMK AO2
14837KMSN MSN20011127134012711/27/01 13:40:31  5-MIN KMSN 271940Z 25012G17KT 210V270 6SM BR BKN016 OVC020 04/02 A2989 900 85 -100 250/12G17 210V270 RMK AO2
14837KMSN MSN20011127134510111/27/01 13:45:31  5-MIN KMSN 271945Z 24008G17KT 8SM OVC014 03/01 A2989 900 85 -200 240/08G17 RMK AO2
14837KMSN MSN20011127135012811/27/01 13:50:31  5-MIN KMSN 271950Z 22008KT 180V240 8SM OVC016 03/02 A2989 890 89 -200 220/08 180V240 RMK AO2 SLP127 T00330017
14837KMSN MSN20011127135509611/27/01 13:55:31  5-MIN KMSN 271955Z 24009KT 10SM OVC016 04/01 A2989 890 82 -200 240/09 RMK AO2
14837KMSN MSN20011127140010311/27/01 14:00:31  5-MIN KMSN 272000Z 23009KT 10SM BKN016 OVC020 04/01 A2990 890 82 -200 230/09 RMK AO2
14837KMSN MSN20011127140510311/27/01 14:05:31  5-MIN KMSN 272005Z 23008KT 10SM BKN014 OVC022 03/01 A2990 890 85 -200 230/08 RMK AO2
14837KMSN MSN20011127141010211/27/01 14:10:31  5-MIN KMSN 272010Z 22011KT 9SM SCT014 OVC022 03/01 A2990 880 85 -200 220/11 RMK AO2
14837KMSN MSN20011127141511811/27/01 14:15:31  5-MIN KMSN 272015Z 23007KT 190V260 8SM SCT014 OVC022 03/01 A2990 880 85 -200 230/07 190V260 RMK AO2
14837KMSN MSN20011127142010211/27/01 14:20:31  5-MIN KMSN 272020Z VRB06KT 8SM BKN014 OVC022 03/01 A2990 880 85 -200 VRB/06 RMK AO2
14837KMSN MSN20011127142511811/27/01 14:25:31  5-MIN KMSN 272025Z 22009KT 180V250 8SM SCT012 OVC022 03/01 A2990 880 85 -200 220/09 180V250 RMK AO2
14837KMSN MSN20011127143010211/27/01 14:30:31  5-MIN KMSN 272030Z 22008KT 8SM SCT012 OVC022 03/01 A2990 880 85 -200 220/08 RMK AO2
14837KMSN MSN20011127143510211/27/01 14:35:31  5-MIN KMSN 272035Z 22012KT 8SM SCT012 OVC022 03/01 A2991 880 85 -200 220/12 RMK AO2
14837KMSN MSN20011127144011811/27/01 14:40:31  5-MIN KMSN 272040Z 22008KT 200V280 8SM SCT012 OVC022 03/01 A2991 870 85 -200 220/08 200V280 RMK AO2
14837KMSN MSN20011127144510211/27/01 14:45:31  5-MIN KMSN 272045Z 22009KT 8SM SCT012 OVC022 03/01 A2991 870 89 -300 220/09 RMK AO2
14837KMSN MSN20011127145013211/27/01 14:50:31  5-MIN KMSN 272050Z 23009KT 7SM SCT010 BKN014 OVC022 03/01 A2991 870 89 -300 230/09 RMK AO2 SLP136 T00280011 50014
14837KMSN MSN20011127145511411/27/01 14:55:31  5-MIN KMSN 272055Z 24008KT 7SM BKN010 OVC022 03/01 A2992 870 89 -300 240/08 RMK AO2 CIG 008V014
14837KMSN MSN20011127150011711/27/01 15:00:31  5-MIN KMSN 272100Z 23007KT 6SM BR BKN010 OVC022 03/01 A2992 870 89 -300 220/07 RMK AO2 CIG 008V014
14837KMSN MSN20011127150511611/27/01 15:05:31  5-MIN KMSN 272105Z 24010G16KT 5SM BR OVC010 03/01 A2992 870 89 -300 240/10G16 RMK AO2 CIG 008V014
14837KMSN MSN20011127151013211/27/01 15:10:31  5-MIN KMSN 272110Z 23007G16KT 160V260 5SM BR OVC010 03/01 A2992 870 85 -300 230/07G16 160V260 RMK AO2 CIG 008V014
14837KMSN MSN20011127151512611/27/01 15:15:31  5-MIN KMSN 272115Z 23008KT 210V270 5SM BR OVC010 03/01 A2992 860 85 -300 230/08 210V270 RMK AO2 CIG 008V014
14837KMSN MSN20011127152009811/27/01 15:20:31  5-MIN KMSN 272120Z 24009KT 5SM BR OVC010 03/01 A2992 860 85 -300 230/09 RMK AO2
14837KMSN MSN20011127152510411/27/01 15:25:31  5-MIN KMSN 272125Z 24009G16KT 5SM BR OVC010 03/01 A2993 860 85 -300 240/09G16 RMK AO2
14837KMSN MSN20011127153012011/27/01 15:30:31  5-MIN KMSN 272130Z 24008G16KT 210V270 5SM BR OVC010 03/01 A2993 860 85 -300 240/08G16 210V270 RMK AO2
14837KMSN MSN20011127153509811/27/01 15:35:31  5-MIN KMSN 272135Z 23010KT 5SM BR OVC010 03/01 A2993 850 85 -300 230/10 RMK AO2
14837KMSN MSN20011127154009811/27/01 15:40:31  5-MIN KMSN 272140Z 23008KT 5SM BR OVC010 03/01 A2994 840 85 -300 230/08 RMK AO2
14837KMSN MSN20011127154509811/27/01 15:45:31  5-MIN KMSN 272145Z 25008KT 6SM BR OVC010 03/01 A2995 840 85 -400 250/08 RMK AO2
14837KMSN MSN20011127155014511/27/01 15:50:31  5-MIN KMSN 272150Z 24008KT 210V280 6SM BR BKN010 OVC016 03/01 A2995 830 85 -400 240/08 210V280 RMK AO2 PRESRR SLP149 T00280006
14837KMSN MSN20011127155510811/27/01 15:55:31  5-MIN KMSN 272155Z 23007G14KT 7SM OVC012 03/01 A2996 830 85 -400 230/07G14 RMK AO2 PRESRR
14837KMSN MSN20011127160010811/27/01 16:00:31  5-MIN KMSN 272200Z 24009G15KT 7SM BKN012 OVC020 03/00 A2996 820 82 -400 240/09G15 RMK AO2
14837KMSN MSN20011127160510811/27/01 16:05:31  5-MIN KMSN 272205Z 24007G15KT 7SM BKN012 OVC020 03/00 A2997 820 82 -400 230/07G15 RMK AO2
14837KMSN MSN20011127161011911/27/01 16:10:31  5-MIN KMSN 272210Z 23007KT 170V260 10SM BKN014 OVC019 03/00 A2997 820 82 -400 230/07 170V260 RMK AO2
14837KMSN MSN20011127161510311/27/01 16:15:31  5-MIN KMSN 272215Z 24008KT 10SM BKN015 OVC020 03/00 A2997 820 82 -400 240/08 RMK AO2
14837KMSN MSN20011127162011211/27/01 16:20:31  5-MIN KMSN 272220Z 25009KT 200V270 10SM OVC017 02/00 A2998 810 85 -500 250/09 200V270 RMK AO2
14837KMSN MSN20011127162510311/27/01 16:25:31  5-MIN KMSN 272225Z 25007G14KT 10SM OVC017 03/M01 A2998 810 79 -400 240/07G14 RMK AO2
14837KMSN MSN20011127163010411/27/01 16:30:31  5-MIN KMSN 272230Z 26007KT 10SM BKN017 OVC022 03/M01 A2998 810 79 -400 260/07 RMK AO2
14837KMSN MSN20011127163509711/27/01 16:35:31  5-MIN KMSN 272235Z VRB05KT 10SM OVC020 03/M01 A2998 810 79 -400 VRB/05 RMK AO2
14837KMSN MSN20011127164010411/27/01 16:40:31  5-MIN KMSN 272240Z VRB06KT 10SM SCT016 OVC022 03/M01 A2998 810 79 -400 VRB/06 RMK AO2
14837KMSN MSN20011127164510411/27/01 16:45:31  5-MIN KMSN 272245Z 25009KT 10SM SCT017 OVC024 03/M01 A2998 810 79 -400 250/09 RMK AO2
14837KMSN MSN20011127165012111/27/01 16:50:31  5-MIN KMSN 272250Z 25008KT 10SM SCT017 OVC024 03/M01 A2998 810 79 -400 240/08 RMK AO2 SLP158 T00281006
14837KMSN MSN20011127165509711/27/01 16:55:31  5-MIN KMSN 272255Z 24006KT 10SM OVC024 03/M01 A2998 810 79 -400 240/06 RMK AO2
14837KMSN MSN20011127170009711/27/01 17:00:31  5-MIN KMSN 272300Z 23006KT 10SM OVC024 03/M01 A2999 800 79 -400 230/06 RMK AO2
14837KMSN MSN20011127170509711/27/01 17:05:31  5-MIN KMSN 272305Z 23007KT 10SM OVC024 03/M01 A2999 800 79 -400 230/07 RMK AO2
14837KMSN MSN20011127171010411/27/01 17:10:31  5-MIN KMSN 272310Z 25007KT 10SM BKN019 OVC026 03/M01 A2999 800 79 -400 250/07 RMK AO2
14837KMSN MSN20011127171510311/27/01 17:15:31  5-MIN KMSN 272315Z 23009KT 10SM BKN017 OVC024 03/00 A2999 800 82 -400 230/09 RMK AO2
14837KMSN MSN20011127172010311/27/01 17:20:31  5-MIN KMSN 272320Z 23006KT 10SM BKN017 OVC024 03/01 A2999 800 85 -400 230/06 RMK AO2
14837KMSN MSN20011127172511911/27/01 17:25:31  5-MIN KMSN 272325Z VRB05KT 10SM -DZ SCT013 OVC019 03/01 A3000 790 85 -400 VRB/05 RMK AO2 DZB21 P0000
14837KMSN MSN20011127173011911/27/01 17:30:31  5-MIN KMSN 272330Z 22009KT 10SM -DZ BKN013 OVC019 03/01 A3000 790 85 -400 220/09 RMK AO2 DZB21 P0000
14837KMSN MSN20011127173512511/27/01 17:35:31  5-MIN KMSN 272335Z 23010G15KT 10SM -DZ BKN013 OVC019 03/00 A3000 790 82 -400 230/10G15 RMK AO2 DZB21 P0000
14837KMSN MSN20011127174012511/27/01 17:40:31  5-MIN KMSN 272340Z 23008G15KT 10SM -DZ BKN013 OVC021 03/00 A3000 790 82 -400 230/08G15 RMK AO2 DZB21 P0000
14837KMSN MSN20011127174512511/27/01 17:45:31  5-MIN KMSN 272345Z 23009G15KT 10SM -DZ BKN015 OVC022 03/00 A3001 780 82 -400 230/09G15 RMK AO2 DZB21 P0000
14837KMSN MSN20011128151509511/28/01 15:15:31  5-MIN KMSN 282115Z 07004KT 7SM OVC007 02/01 A3024 570 92 -800 070/04 RMK AO2
14837KMSN MSN20011128152009511/28/01 15:20:31  5-MIN KMSN 282120Z 04004KT 7SM OVC007 02/01 A3024 570 89 -800 040/04 RMK AO2
14837KMSN MSN20011128152509811/28/01 15:25:31  5-MIN KMSN 282125Z 03004KT 6SM BR OVC007 02/01 A3024 570 92 -800 030/04 RMK AO2
14837KMSN MSN20011128153009811/28/01 15:30:31  5-MIN KMSN 282130Z 06003KT 6SM BR OVC007 02/01 A3024 570 89 -800 050/03 RMK AO2
14837KMSN MSN20011128153509811/28/01 15:35:31  5-MIN KMSN 282135Z 05004KT 6SM BR OVC007 02/01 A3024 570 89 -800 050/04 RMK AO2
14837KMSN MSN20011128154009811/28/01 15:40:31  5-MIN KMSN 282140Z 05004KT 6SM BR OVC007 02/01 A3024 570 92 -800 050/04 RMK AO2
14837KMSN MSN20011128154509811/28/01 15:45:31  5-MIN KMSN 282145Z 07006KT 6SM BR OVC007 02/01 A3024 570 89 -800 060/06 RMK AO2
14837KMSN MSN20011128155011511/28/01 15:50:31  5-MIN KMSN 282150Z 08004KT 6SM BR OVC007 02/01 A3025 560 89 -800 080/04 RMK AO2 SLP251 T00220006
14837KMSN MSN20011128155509811/28/01 15:55:31  5-MIN KMSN 282155Z 07004KT 6SM BR OVC007 02/01 A3025 560 89 -800 060/04 RMK AO2
14837KMSN MSN20011128160009811/28/01 16:00:31  5-MIN KMSN 282200Z 05004KT 6SM BR OVC007 02/01 A3024 570 92 -800 050/04 RMK AO2
14837KMSN MSN20011128160509811/28/01 16:05:31  5-MIN KMSN 282205Z 04004KT 6SM BR OVC007 02/01 A3024 570 92 -800 040/04 RMK AO2
14837KMSN MSN20011128161009511/28/01 16:10:31  5-MIN KMSN 282210Z 06003KT 7SM OVC007 02/01 A3024 570 89 -800 060/03 RMK AO2
14837KMSN MSN20011128161509811/28/01 16:15:31  5-MIN KMSN 282215Z 05003KT 5SM BR OVC007 02/01 A3024 570 89 -800 040/03 RMK AO2
14837KMSN MSN20011128162009811/28/01 16:20:31  5-MIN KMSN 282220Z 05003KT 5SM BR OVC007 02/01 A3024 570 89 -800 050/03 RMK AO2
14837KMSN MSN20011128162509811/28/01 16:25:31  5-MIN KMSN 282225Z 06004KT 3SM BR OVC007 02/01 A3024 570 92 -800 060/04 RMK AO2
14837KMSN MSN20011128163009811/28/01 16:30:31  5-MIN KMSN 282230Z 07005KT 3SM BR OVC007 02/01 A3023 570 92 -700 070/05 RMK AO2
14837KMSN MSN20011128163511411/28/01 16:35:31  5-MIN KMSN 282235Z 06004KT 3SM -DZ BR OVC007 02/01 A3023 580 96 -800 060/04 RMK AO2 DZB35 P0000
14837KMSN MSN20011128164011411/28/01 16:40:31  5-MIN KMSN 282240Z 06004KT 3SM -DZ BR OVC007 02/01 A3024 570 96 -800 060/04 RMK AO2 DZB35 P0000
14837KMSN MSN20011128164511411/28/01 16:45:31  5-MIN KMSN 282245Z 05005KT 3SM -DZ BR OVC007 02/01 A3023 580 96 -800 050/05 RMK AO2 DZB35 P0000
14837KMSN MSN20011128165013111/28/01 16:50:31  5-MIN KMSN 282250Z 04006KT 3SM -DZ BR OVC007 02/01 A3023 580 96 -800 040/06 RMK AO2 DZB35 SLP245 P0000 T00170011
14837KMSN MSN20011128165510811/28/01 16:55:31  5-MIN KMSN 282255Z 04006KT 3SM -DZ BR OVC007 02/01 A3022 590 96 -800 040/06 RMK AO2 P0000
14837KMSN MSN20011128170010811/28/01 17:00:31  5-MIN KMSN 282300Z 04006KT 3SM -DZ BR OVC007 02/01 A3022 590 96 -800 030/06 RMK AO2 P0000
14837KMSN MSN20011128170512011/28/01 17:05:31  5-MIN KMSN 282305Z 04005KT 3SM -DZ BR OVC007 02/01 A3021 590 96 -800 040/05 RMK AO2 CIG 004V010 P0000
14837KMSN MSN20011128171012011/28/01 17:10:31  5-MIN KMSN 282310Z 04007KT 3SM -DZ BR OVC007 02/01 A3021 600 96 -800 040/07 RMK AO2 CIG 004V010 P0000
14837KMSN MSN20011128171512011/28/01 17:15:31  5-MIN KMSN 282315Z 03006KT 3SM -DZ BR OVC007 02/01 A3022 590 96 -800 030/06 RMK AO2 CIG 004V010 P0000
14837KMSN MSN20011128172012011/28/01 17:20:31  5-MIN KMSN 282320Z 03006KT 3SM -DZ BR OVC007 02/01 A3022 590 96 -800 030/06 RMK AO2 CIG 004V010 P0000
14837KMSN MSN20011128172512011/28/01 17:25:31  5-MIN KMSN 282325Z 04006KT 3SM -DZ BR OVC005 02/01 A3022 590 96 -800 040/06 RMK AO2 CIG 004V008 P0000
14837KMSN MSN20011128173012011/28/01 17:30:31  5-MIN KMSN 282330Z 04006KT 3SM -DZ BR OVC005 02/01 A3022 590 96 -800 040/06 RMK AO2 CIG 004V010 P0000
14837KMSN MSN20011128173512011/28/01 17:35:31  5-MIN KMSN 282335Z 03007KT 3SM -DZ BR OVC007 02/01 A3022 590 96 -800 030/07 RMK AO2 CIG 004V010 P0000
14837KMSN MSN20011128174012011/28/01 17:40:31  5-MIN KMSN 282340Z 04006KT 3SM -DZ BR OVC007 02/01 A3021 600 96 -800 030/06 RMK AO2 CIG 004V010 P0000
14837KMSN MSN20011128174512011/28/01 17:45:31  5-MIN KMSN 282345Z 04008KT 3SM -DZ BR OVC007 02/01 A3021 600 96 -800 040/08 RMK AO2 CIG 005V010 P0000
14837KMSN MSN20011128175014911/28/01 17:50:31  5-MIN KMSN 282350Z 04007KT 3SM -DZ BR OVC007 02/01 A3021 600 96 -800 040/07 RMK AO2 SLP239 P0000 60000 T00170011 10022 20017 55009
14837KMSN MSN20011128175510811/28/01 17:55:31  5-MIN KMSN 282355Z 03006KT 3SM -DZ BR OVC007 02/01 A3021 600 96 -800 030/06 RMK AO2 P0000
14837KMSN MSN20011128180010811/28/01 18:00:31  5-MIN KMSN 290000Z 04007KT 3SM -DZ BR OVC007 02/01 A3021 600 96 -800 040/07 RMK AO2 P0000
14837KMSN MSN20011128180510811/28/01 18:05:31  5-MIN KMSN 290005Z 04007KT 3SM -DZ BR OVC007 02/01 A3021 600 96 -800 040/07 RMK AO2 P0000
14837KMSN MSN20011128181010811/28/01 18:10:31  5-MIN KMSN 290010Z 04006KT 3SM -DZ BR OVC007 02/01 A3021 590 92 -800 040/06 RMK AO2 P0000
14837KMSN MSN20011128181510811/28/01 18:15:31  5-MIN KMSN 290015Z 03006KT 3SM -DZ BR OVC007 02/01 A3021 600 92 -800 030/06 RMK AO2 P0000
14837KMSN MSN20011128182010811/28/01 18:20:31  5-MIN KMSN 290020Z 04006KT 3SM -DZ BR OVC007 02/01 A3021 600 92 -800 040/06 RMK AO2 P0000
14837KMSN MSN20011128182511011/28/01 18:25:31  5-MIN KMSN 290025Z 04007KT 3SM BR OVC007 02/01 A3021 600 92 -800 030/07 RMK AO2 DZE24 P0000
14837KMSN MSN20011128183011011/28/01 18:30:31  5-MIN KMSN 290030Z 04007KT 3SM BR OVC007 02/01 A3021 600 92 -800 040/07 RMK AO2 DZE24 P0000
14837KMSN MSN20011128183511011/28/01 18:35:31  5-MIN KMSN 290035Z 04005KT 3SM BR OVC007 02/01 A3021 600 92 -800 040/05 RMK AO2 DZE24 P0000
14837KMSN MSN20011128184011011/28/01 18:40:31  5-MIN KMSN 290040Z 04006KT 3SM BR OVC007 02/01 A3021 600 92 -800 040/06 RMK AO2 DZE24 P0000
14837KMSN MSN20011128184511011/28/01 18:45:31  5-MIN KMSN 290045Z 04006KT 3SM BR OVC007 02/01 A3021 600 92 -800 040/06 RMK AO2 DZE24 P0000
14837KMSN MSN20011128185012711/28/01 18:50:31  5-MIN KMSN 290050Z 03005KT 3SM BR OVC007 02/01 A3021 600 92 -800 030/05 RMK AO2 DZE24 SLP239 P0000 T00170006
14837KMSN MSN20011128185509811/28/01 18:55:31  5-MIN KMSN 290055Z 03006KT 3SM BR OVC007 02/01 A3021 600 92 -800 030/06 RMK AO2
14837KMSN MSN20011128190009811/28/01 19:00:31  5-MIN KMSN 290100Z 03006KT 3SM BR OVC007 02/01 A3021 600 92 -800 030/06 RMK AO2
14837KMSN MSN20011128190509811/28/01 19:05:31  5-MIN KMSN 290105Z 02005KT 3SM BR OVC007 02/01 A3022 590 92 -800 010/05 RMK AO2
14837KMSN MSN20011128191009811/28/01 19:10:31  5-MIN KMSN 290110Z 02005KT 3SM BR OVC007 02/01 A3021 590 92 -800 020/05 RMK AO2
14837KMSN MSN20011128191509811/28/01 19:15:31  5-MIN KMSN 290115Z 01005KT 3SM BR OVC007 02/01 A3021 600 92 -800 010/05 RMK AO2
14837KMSN MSN20011128192009811/28/01 19:20:31  5-MIN KMSN 290120Z 02005KT 3SM BR OVC007 02/01 A3021 600 92 -800 020/05 RMK AO2
14837KMSN MSN20011128192509811/28/01 19:25:31  5-MIN KMSN 290125Z 03005KT 3SM BR OVC007 02/01 A3021 600 92 -800 030/05 RMK AO2
14837KMSN MSN20011128193009811/28/01 19:30:31  5-MIN KMSN 290130Z 04005KT 3SM BR OVC007 02/01 A3021 600 92 -800 040/05 RMK AO2
14837KMSN MSN20011128193509811/28/01 19:35:31  5-MIN KMSN 290135Z 04006KT 3SM BR OVC007 01/01 A3021 600 96 -900 040/06 RMK AO2
14837KMSN MSN20011128194009811/28/01 19:40:31  5-MIN KMSN 290140Z 04004KT 3SM BR OVC007 01/01 A3021 600 96 -900 040/04 RMK AO2
14837KMSN MSN20011128194509811/28/01 19:45:31  5-MIN KMSN 290145Z 03005KT 3SM BR OVC005 02/01 A3020 610 92 -800 030/05 RMK AO2
14837KMSN MSN20011128195011511/28/01 19:50:31  5-MIN KMSN 290150Z 04006KT 3SM BR OVC005 01/01 A3019 610 96 -800 040/06 RMK AO2 SLP233 T00110006
14837KMSN MSN20011128195509811/28/01 19:55:31  5-MIN KMSN 290155Z 04006KT 3SM BR OVC005 01/01 A3019 610 96 -800 040/06 RMK AO2
14837KMSN MSN20011128200010511/28/01 20:00:31  5-MIN KMSN 290200Z 05006KT 3SM BR BKN005 OVC010 01/01 A3020 610 96 -800 050/06 RMK AO2
14837KMSN MSN20011128200510511/28/01 20:05:31  5-MIN KMSN 290205Z 03005KT 3SM BR BKN005 OVC010 01/01 A3019 610 96 -800 030/05 RMK AO2
14837KMSN MSN20011128201010511/28/01 20:10:31  5-MIN KMSN 290210Z 03005KT 3SM BR BKN005 OVC010 01/01 A3019 620 96 -800 030/05 RMK AO2
14837KMSN MSN20011128201510511/28/01 20:15:31  5-MIN KMSN 290215Z 03006KT 3SM BR BKN005 OVC010 01/01 A3019 610 96 -800 030/06 RMK AO2
14837KMSN MSN20011128202010511/28/01 20:20:31  5-MIN KMSN 290220Z 04005KT 3SM BR BKN005 OVC010 01/01 A3020 610 96 -800 030/05 RMK AO2
14837KMSN MSN20011128202509811/28/01 20:25:31  5-MIN KMSN 290225Z 03004KT 3SM BR OVC005 01/01 A3020 610 96 -800 030/04 RMK AO2
14837KMSN MSN20011128203011411/28/01 20:30:31  5-MIN KMSN 290230Z 02004KT 3SM -DZ BR OVC005 01/01 A3020 610 96 -900 020/04 RMK AO2 DZB28 P0000
14837KMSN MSN20011128203511411/28/01 20:35:31  5-MIN KMSN 290235Z 02005KT 3SM -DZ BR OVC005 01/01 A3020 610 96 -800 020/05 RMK AO2 DZB28 P0000
14837KMSN MSN20011128204011411/28/01 20:40:31  5-MIN KMSN 290240Z 01005KT 3SM -DZ BR OVC005 01/01 A3020 610 96 -800 010/05 RMK AO2 DZB28 P0000
14837KMSN MSN20011128204511411/28/01 20:45:31  5-MIN KMSN 290245Z 01007KT 3SM -DZ BR OVC005 01/01 A3019 620 96 -800 010/07 RMK AO2 DZB28 P0000
14837KMSN MSN20011128205014311/28/01 20:50:31  5-MIN KMSN 290250Z 03006KT 2SM -DZ BR OVC005 01/01 A3019 620 96 -800 030/06 RMK AO2 DZB28 SLP232 P0000 60000 T00110006 58009
14837KMSN MSN20011128205510811/28/01 20:55:31  5-MIN KMSN 290255Z 02007KT 2SM -DZ BR OVC005 01/01 A3019 620 96 -800 020/07 RMK AO2 P0000
14837KMSN MSN20011128210010811/28/01 21:00:31  5-MIN KMSN 290300Z 03007KT 2SM -DZ BR OVC005 01/01 A3018 620 96 -800 030/07 RMK AO2 P0000
14837KMSN MSN20011128210512011/28/01 21:05:31  5-MIN KMSN 290305Z 02007KT 2SM -DZ BR OVC005 01/01 A3018 620 96 -800 020/07 RMK AO2 CIG 003V007 P0000
14837KMSN MSN20011128211012011/28/01 21:10:31  5-MIN KMSN 290310Z 01005KT 2SM -DZ BR OVC005 01/01 A3018 620 96 -800 010/05 RMK AO2 CIG 003V008 P0000
14837KMSN MSN20011128211512011/28/01 21:15:31  5-MIN KMSN 290315Z 36005KT 2SM -DZ BR OVC005 01/01 A3018 620 96 -800 360/05 RMK AO2 CIG 002V008 P0000
14837KMSN MSN20011128212012011/28/01 21:20:31  5-MIN KMSN 290320Z 01008KT 2SM -DZ BR OVC005 01/01 A3018 630 96 -800 360/08 RMK AO2 CIG 002V008 P0000
14837KMSN MSN20011128212512011/28/01 21:25:31  5-MIN KMSN 290325Z 01008KT 2SM -DZ BR OVC005 01/01 A3017 630 96 -800 010/08 RMK AO2 CIG 002V008 P0000
14837KMSN MSN20011128213012011/28/01 21:30:31  5-MIN KMSN 290330Z 02008KT 2SM -DZ BR OVC005 01/01 A3017 630 96 -800 010/08 RMK AO2 CIG 002V008 P0000
14837KMSN MSN20011128213512011/28/01 21:35:31  5-MIN KMSN 290335Z 01007KT 2SM -DZ BR OVC005 01/01 A3017 630 96 -800 010/07 RMK AO2 CIG 002V008 P0000
14837KMSN MSN20011128214012011/28/01 21:40:31  5-MIN KMSN 290340Z 02006KT 2SM -DZ BR OVC005 01/01 A3017 630 96 -800 020/06 RMK AO2 CIG 002V008 P0000
14837KMSN MSN20011128214512011/28/01 21:45:31  5-MIN KMSN 290345Z 04006KT 2SM -DZ BR OVC005 01/01 A3017 630 96 -800 040/06 RMK AO2 CIG 002V007 P0000
14837KMSN MSN20011128215013711/28/01 21:50:31  5-MIN KMSN 290350Z 03005KT 2SM -DZ BR OVC005 01/01 A3017 630 96 -800 030/05 RMK AO2 CIG 002V007 SLP227 P0000 T00110006
14837KMSN MSN20011128215512211/28/01 21:55:31  5-MIN KMSN 290355Z 03005KT 2SM -DZSN BR OVC005 01/01 A3017 630 96 -800 030/05 RMK AO2 CIG 003V007 P0000
14837KMSN MSN20011128220012411/28/01 22:00:31  5-MIN KMSN 290400Z 02005KT 2SM -DZSN BR OVC003 01/01 A3017 630 96 -800 020/05 RMK AO2 SFC VIS 2 1/2 P0000
14837KMSN MSN20011128220512411/28/01 22:05:31  5-MIN KMSN 290405Z 01005KT 2SM -DZSN BR OVC003 01/01 A3017 640 96 -800 010/05 RMK AO2 SFC VIS 2 1/2 P0000
14837KMSN MSN20011128221013611/28/01 22:10:31  5-MIN KMSN 290410Z 03006KT 2SM -DZ BR OVC003 01/01 A3016 640 96 -800 020/06 RMK AO2 SFC VIS 3 SNE09 CIG 003V006 P0000
14837KMSN MSN20011128221511411/28/01 22:15:31  5-MIN KMSN 290415Z 03006KT 3SM -DZ BR OVC003 01/01 A3016 640 96 -800 030/06 RMK AO2 SNE09 P0000
14837KMSN MSN20011128222011411/28/01 22:20:31  5-MIN KMSN 290420Z 05005KT 3SM -DZ BR OVC003 01/01 A3016 640 96 -800 040/05 RMK AO2 SNE09 P0000
14837KMSN MSN20011128222511011/28/01 22:25:31  5-MIN KMSN 290425Z 05005KT 3SM -DZSN BR OVC003 01/01 A3016 640 96 -800 050/05 RMK AO2 P0000
14837KMSN MSN20011128223011011/28/01 22:30:31  5-MIN KMSN 290430Z 05005KT 3SM -DZSN BR OVC003 01/01 A3016 650 96 -800 050/05 RMK AO2 P0000
14837KMSN MSN20011128223511011/28/01 22:35:31  5-MIN KMSN 290435Z 05004KT 3SM -DZSN BR OVC003 01/01 A3016 650 96 -800 050/04 RMK AO2 P0000
14837KMSN MSN20011128224011011/28/01 22:40:31  5-MIN KMSN 290440Z 05005KT 3SM -DZSN BR OVC003 01/01 A3016 650 96 -800 050/05 RMK AO2 P0000
14837KMSN MSN20011128224511011/28/01 22:45:31  5-MIN KMSN 290445Z 04005KT 3SM -DZSN BR OVC003 01/01 A3016 650 96 -800 040/05 RMK AO2 P0000
14837KMSN MSN20011128225012711/28/01 22:50:31  5-MIN KMSN 290450Z 04005KT 3SM -DZSN BR OVC003 01/01 A3016 650 96 -800 030/05 RMK AO2 SLP221 P0000 T00110006
14837KMSN MSN20011128225512011/28/01 22:55:31  5-MIN KMSN 290455Z 05005KT 3SM -SN BR OVC003 01/01 A3016 650 96 -800 050/05 RMK AO2 CIG 003V007 P0000
14837KMSN MSN20011128230012011/28/01 23:00:31  5-MIN KMSN 290500Z 03005KT 3SM -SN BR OVC005 01/01 A3016 650 96 -800 030/05 RMK AO2 CIG 003V008 P0000
14837KMSN MSN20011128230512011/28/01 23:05:31  5-MIN KMSN 290505Z 03004KT 3SM -SN BR OVC005 01/01 A3016 650 96 -800 030/04 RMK AO2 CIG 003V008 P0000
14837KMSN MSN20011128231012011/28/01 23:10:31  5-MIN KMSN 290510Z 03004KT 3SM -SN BR OVC005 01/01 A3016 650 96 -800 030/04 RMK AO2 CIG 003V008 P0000
14837KMSN MSN20011128231512111/28/01 23:15:31  5-MIN KMSN 290515Z 04005KT 3SM -SN BR OVC005 01/01 A3015 650 100 -900 040/05 RMK AO2 CIG 003V008 P0000
14837KMSN MSN20011128232012011/28/01 23:20:31  5-MIN KMSN 290520Z 04004KT 3SM -SN BR OVC005 01/00 A3015 650 96 -900 040/04 RMK AO2 CIG 003V008 P0000
14837KMSN MSN20011128232512011/28/01 23:25:31  5-MIN KMSN 290525Z 05004KT 3SM -SN BR OVC005 01/00 A3015 650 96 -900 050/04 RMK AO2 CIG 003V008 P0000
14837KMSN MSN20011128233012011/28/01 23:30:31  5-MIN KMSN 290530Z 06004KT 3SM -SN BR OVC005 01/00 A3015 650 96 -900 060/04 RMK AO2 CIG 003V008 P0000
14837KMSN MSN20011128233512011/28/01 23:35:31  5-MIN KMSN 290535Z 05004KT 3SM -SN BR OVC005 01/00 A3015 660 96 -900 040/04 RMK AO2 CIG 003V008 P0000
14837KMSN MSN20011128234012011/28/01 23:40:31  5-MIN KMSN 290540Z 03004KT 3SM -SN BR OVC005 01/00 A3014 660 96 -900 030/04 RMK AO2 CIG 003V008 P0000
14837KMSN MSN20011128234512011/28/01 23:45:31  5-MIN KMSN 290545Z 03003KT 3SM -SN BR OVC005 01/00 A3014 660 96 -900 030/03 RMK AO2 CIG 003V008 P0001
14837KMSN MSN20011128235017111/28/01 23:50:31  5-MIN KMSN 290550Z 03004KT 3SM -SN BR OVC005 01/00 A3015 660 96 -900 030/04 RMK AO2 CIG 003V008 SLP217 P0001 60001 T00060000 10017 20006 400280006 58006
14837KMSN MSN20011128235510811/28/01 23:55:31  5-MIN KMSN 290555Z 02004KT 3SM -SN BR OVC005 01/00 A3015 650 96 -900 020/04 RMK AO2 P0000
14837KMSN MSN20011129000010811/29/01 00:00:31  5-MIN KMSN 290600Z 02004KT 3SM -SN BR OVC005 01/00 A3015 660 96 -900 020/04 RMK AO2 P0000
14837KMSN MSN20011129000510811/29/01 00:05:31  5-MIN KMSN 290605Z 36003KT 3SM -SN BR OVC005 01/00 A3015 650 96 -900 360/03 RMK AO2 P0000
14837KMSN MSN20011129001010811/29/01 00:10:31  5-MIN KMSN 290610Z 00000KT 3SM -SN BR OVC005 01/00 A3015 660 96 -900 000/00 RMK AO2 P0000
14837KMSN MSN20011129001510811/29/01 00:15:31  5-MIN KMSN 290615Z 00000KT 3SM -SN BR OVC005 01/00 A3015 650 96 -900 000/00 RMK AO2 P0000
14837KMSN MSN20011129002010811/29/01 00:20:31  5-MIN KMSN 290620Z 00000KT 3SM -SN BR OVC005 01/00 A3014 660 96 -900 000/00 RMK AO2 P0000
14837KMSN MSN20011129002510811/29/01 00:25:31  5-MIN KMSN 290625Z 01003KT 3SM -SN BR OVC005 01/00 A3014 670 96 -800 010/03 RMK AO2 P0000
14837KMSN MSN20011129003010811/29/01 00:30:31  5-MIN KMSN 290630Z 02003KT 3SM -SN BR OVC005 01/00 A3013 670 96 -800 020/03 RMK AO2 P0000
14837KMSN MSN20011129003510811/29/01 00:35:31  5-MIN KMSN 290635Z 02004KT 4SM -SN BR OVC005 01/00 A3013 670 96 -800 020/04 RMK AO2 P0000
14837KMSN MSN20011129004010811/29/01 00:40:31  5-MIN KMSN 290640Z VRB03KT 4SM -SN BR OVC005 01/00 A3013 670 96 -800 VRB/03 RMK AO2 P0000
14837KMSN MSN20011129004510811/29/01 00:45:31  5-MIN KMSN 290645Z 02004KT 4SM -SN BR OVC005 01/00 A3013 670 96 -800 020/04 RMK AO2 P0000
14837KMSN MSN20011129005012511/29/01 00:50:31  5-MIN KMSN 290650Z 02003KT 4SM -SN BR OVC005 01/00 A3013 670 96 -800 020/03 RMK AO2 SLP213 P0000 T00060000
14837KMSN MSN20011129005510811/29/01 00:55:31  5-MIN KMSN 290655Z 02004KT 6SM -SN BR OVC005 01/00 A3013 670 96 -800 020/04 RMK AO2 P0000
14837KMSN MSN20011129010010811/29/01 01:00:31  5-MIN KMSN 290700Z 36003KT 6SM -SN BR OVC005 01/00 A3013 670 96 -800 360/03 RMK AO2 P0000
14837KMSN MSN20011129010510811/29/01 01:05:31  5-MIN KMSN 290705Z 00000KT 6SM -SN BR OVC005 01/00 A3013 670 96 -800 000/00 RMK AO2 P0000
14837KMSN MSN20011129011010811/29/01 01:10:31  5-MIN KMSN 290710Z 01003KT 6SM -SN BR OVC005 01/00 A3014 670 96 -800 360/03 RMK AO2 P0000
14837KMSN MSN20011129011510811/29/01 01:15:31  5-MIN KMSN 290715Z 01004KT 6SM -SN BR OVC005 01/00 A3013 670 96 -800 010/04 RMK AO2 P0000
14837KMSN MSN20011129012010811/29/01 01:20:31  5-MIN KMSN 290720Z 01004KT 6SM -SN BR OVC005 01/00 A3013 670 96 -800 010/04 RMK AO2 P0000
14837KMSN MSN20011129012510511/29/01 01:25:31  5-MIN KMSN 290725Z 03004KT 7SM -SN OVC005 01/00 A3013 670 96 -800 020/04 RMK AO2 P0000
14837KMSN MSN20011129013010511/29/01 01:30:31  5-MIN KMSN 290730Z 35003KT 7SM -SN OVC003 01/00 A3013 670 92 -800 350/03 RMK AO2 P0000
14837KMSN MSN20011129013510811/29/01 01:35:31  5-MIN KMSN 290735Z 01003KT 5SM -SN BR OVC003 01/00 A3013 670 96 -800 360/03 RMK AO2 P0000
14837KMSN MSN20011129014010811/29/01 01:40:31  5-MIN KMSN 290740Z 02004KT 5SM -SN BR OVC003 01/00 A3012 680 96 -800 020/04 RMK AO2 P0000
14837KMSN MSN20011129014510811/29/01 01:45:31  5-MIN KMSN 290745Z 04004KT 5SM -SN BR OVC003 01/00 A3012 680 96 -800 040/04 RMK AO2 P0000
14837KMSN MSN20011129015012511/29/01 01:50:31  5-MIN KMSN 290750Z 03004KT 4SM -SN BR OVC003 01/00 A3012 680 96 -800 020/04 RMK AO2 SLP210 P0000 T00060000
14837KMSN MSN20011129015510511/29/01 01:55:31  5-MIN KMSN 290755Z 03003KT 7SM -SN OVC003 01/00 A3013 670 92 -800 030/03 RMK AO2 P0000
14837KMSN MSN20011129020010511/29/01 02:00:31  5-MIN KMSN 290800Z 02004KT 7SM -SN OVC003 01/00 A3013 670 92 -800 020/04 RMK AO2 P0000
14837KMSN MSN20011129020510711/29/01 02:05:31  5-MIN KMSN 290805Z 03004KT 7SM OVC003 01/00 A3013 670 92 -800 030/04 RMK AO2 SNE05 P0000
14837KMSN MSN20011129021010711/29/01 02:10:31  5-MIN KMSN 290810Z 36003KT 7SM OVC003 01/01 A3013 670 96 -800 360/03 RMK AO2 SNE05 P0000
14837KMSN MSN20011129021510711/29/01 02:15:31  5-MIN KMSN 290815Z 36003KT 7SM OVC003 01/01 A3013 670 96 -800 360/03 RMK AO2 SNE05 P0000
14837KMSN MSN20011129022010711/29/01 02:20:31  5-MIN KMSN 290820Z 34003KT 7SM OVC003 01/01 A3013 670 96 -800 340/03 RMK AO2 SNE05 P0000
14837KMSN MSN20011129022510711/29/01 02:25:31  5-MIN KMSN 290825Z 34003KT 7SM OVC003 01/01 A3013 670 96 -800 340/03 RMK AO2 SNE05 P0000
14837KMSN MSN20011129023010711/29/01 02:30:31  5-MIN KMSN 290830Z 35003KT 7SM OVC003 01/01 A3013 670 96 -800 340/03 RMK AO2 SNE05 P0000
14837KMSN MSN20011129023511411/29/01 02:35:31  5-MIN KMSN 290835Z 01003KT 7SM BKN003 OVC012 01/01 A3013 670 96 -800 010/03 RMK AO2 SNE05 P0000
14837KMSN MSN20011129024011411/29/01 02:40:31  5-MIN KMSN 290840Z 34003KT 7SM BKN003 OVC012 01/01 A3013 670 96 -800 340/03 RMK AO2 SNE05 P0000
14837KMSN MSN20011129024511411/29/01 02:45:31  5-MIN KMSN 290845Z 35003KT 7SM BKN003 OVC012 01/01 A3013 670 96 -800 350/03 RMK AO2 SNE05 P0000
14837KMSN MSN20011129025014311/29/01 02:50:31  5-MIN KMSN 290850Z 33003KT 7SM SCT003 OVC012 01/01 A3013 670 96 -800 330/03 RMK AO2 SNE05 SLP212 P0000 60000 T00110006 56015
14837KMSN MSN20011129025510211/29/01 02:55:31  5-MIN KMSN 290855Z 32003KT 7SM FEW003 OVC012 01/01 A3013 670 96 -800 320/03 RMK AO2
14837KMSN MSN20011129030010211/29/01 03:00:31  5-MIN KMSN 290900Z 34003KT 7SM SCT003 OVC012 01/01 A3012 680 96 -800 340/03 RMK AO2
14837KMSN MSN20011129030510211/29/01 03:05:31  5-MIN KMSN 290905Z 33004KT 7SM SCT003 OVC012 01/00 A3012 680 92 -800 330/04 RMK AO2
14837KMSN MSN20011129031010511/29/01 03:10:31  5-MIN KMSN 290910Z 33004KT 5SM BR BKN003 OVC012 01/00 A3012 680 92 -800 330/04 RMK AO2
14837KMSN MSN20011129033009811/29/01 03:30:31  5-MIN KMSN 290930Z 34003KT 5SM BR OVC005 01/00 A3010 700 96 -800 340/03 RMK AO2
14837KMSN MSN20011129033509811/29/01 03:35:31  5-MIN KMSN 290935Z 34003KT 5SM BR OVC005 01/00 A3010 700 96 -800 340/03 RMK AO2
14837KMSN MSN20011129034009811/29/01 03:40:31  5-MIN KMSN 290940Z 36004KT 5SM BR OVC005 01/00 A3009 700 96 -800 360/04 RMK AO2
14837KMSN MSN20011129034510511/29/01 03:45:31  5-MIN KMSN 290945Z 00000KT 5SM BR BKN005 OVC019 01/00 A3010 700 96 -800 000/00 RMK AO2
14837KMSN MSN20011129035012211/29/01 03:50:31  5-MIN KMSN 290950Z 00000KT 5SM BR BKN005 OVC017 01/00 A3010 700 96 -800 000/00 RMK AO2 SLP202 T00060000
14837KMSN MSN20011129035509511/29/01 03:55:31  5-MIN KMSN 290955Z 00000KT 7SM OVC005 01/00 A3010 700 96 -800 000/00 RMK AO2
14837KMSN MSN20011129040009511/29/01 04:00:31  5-MIN KMSN 291000Z 36003KT 7SM OVC005 01/00 A3009 710 96 -800 360/03 RMK AO2
14837KMSN MSN20011129040509811/29/01 04:05:31  5-MIN KMSN 291005Z 36005KT 6SM BR OVC005 01/01 A3009 710 96 -700 360/05 RMK AO2
14837KMSN MSN20011129041009811/29/01 04:10:31  5-MIN KMSN 291010Z 36004KT 6SM BR OVC003 01/01 A3009 710 96 -700 360/04 RMK AO2
14837KMSN MSN20011129041509811/29/01 04:15:31  5-MIN KMSN 291015Z 36004KT 4SM BR OVC003 01/00 A3009 710 96 -800 350/04 RMK AO2
14837KMSN MSN20011129042009811/29/01 04:20:31  5-MIN KMSN 291020Z 35004KT 4SM BR OVC003 01/00 A3009 710 96 -800 350/04 RMK AO2
14837KMSN MSN20011129042509811/29/01 04:25:31  5-MIN KMSN 291025Z 01006KT 4SM BR OVC003 01/00 A3008 710 96 -800 010/06 RMK AO2
14837KMSN MSN20011129043009811/29/01 04:30:31  5-MIN KMSN 291030Z 36005KT 4SM BR OVC003 01/00 A3008 710 96 -800 360/05 RMK AO2
14837KMSN MSN20011129043509811/29/01 04:35:31  5-MIN KMSN 291035Z 35004KT 4SM BR OVC003 01/00 A3008 720 96 -800 350/04 RMK AO2
14837KMSN MSN20011129044009511/29/01 04:40:31  5-MIN KMSN 291040Z 36005KT 7SM OVC003 01/00 A3008 710 96 -800 360/05 RMK AO2
14837KMSN MSN20011129044509511/29/01 04:45:31  5-MIN KMSN 291045Z 36005KT 7SM OVC003 01/00 A3008 710 96 -800 360/05 RMK AO2
14837KMSN MSN20011129045011211/29/01 04:50:31  5-MIN KMSN 291050Z 01005KT 7SM OVC003 01/00 A3009 710 96 -800 010/05 RMK AO2 SLP197 T00060000
14837KMSN MSN20011129045509511/29/01 04:55:31  5-MIN KMSN 291055Z 02004KT 7SM OVC003 01/00 A3009 710 96 -800 020/04 RMK AO2
14837KMSN MSN20011129050009811/29/01 05:00:31  5-MIN KMSN 291100Z 03005KT 6SM BR OVC003 01/00 A3009 710 96 -800 030/05 RMK AO2
14837KMSN MSN20011129050509811/29/01 05:05:31  5-MIN KMSN 291105Z 02005KT 6SM BR OVC003 01/00 A3008 710 96 -800 020/05 RMK AO2
14837KMSN MSN20011129051009811/29/01 05:10:31  5-MIN KMSN 291110Z 01004KT 5SM BR OVC003 01/00 A3009 710 96 -800 010/04 RMK AO2
14837KMSN MSN20011129051509811/29/01 05:15:31  5-MIN KMSN 291115Z 35004KT 5SM BR OVC003 01/00 A3008 710 96 -800 350/04 RMK AO2
14837KMSN MSN20011129052009811/29/01 05:20:31  5-MIN KMSN 291120Z 36005KT 5SM BR OVC003 01/00 A3009 710 96 -800 360/05 RMK AO2
14837KMSN MSN20011129052509811/29/01 05:25:31  5-MIN KMSN 291125Z 35004KT 5SM BR OVC003 01/00 A3009 710 96 -800 350/04 RMK AO2
14837KMSN MSN20011129053009811/29/01 05:30:31  5-MIN KMSN 291130Z 02006KT 3SM BR OVC003 01/00 A3009 710 96 -800 020/06 RMK AO2
14837KMSN MSN20011129053510211/29/01 05:35:31  5-MIN KMSN 291135Z 33006KT 2 1/2SM BR OVC001 01/00 A3009 710 96 -800 330/06 RMK AO2
14837KMSN MSN20011129054011611/29/01 05:40:31  5-MIN KMSN 291140Z 01007KT 1 1/2SM BR OVC001 01/00 A3009 710 96 -800 010/07 RMK AO2 SFC VIS 1 3/4
14837KMSN MSN20011129054511611/29/01 05:45:31  5-MIN KMSN 291145Z 34003KT 1 1/4SM BR OVC001 01/00 A3009 710 96 -800 340/03 RMK AO2 TWR VIS 1 1/2
14837KMSN MSN20011129055016311/29/01 05:50:31  5-MIN KMSN 291150Z 36006KT 1 1/4SM BR OVC001 01/00 A3009 710 96 -800 360/06 RMK AO2 TWR VIS 1 1/2 SLP198 60000 70001 T00060000 10011 20006 55006
14837KMSN MSN20011129055511211/29/01 05:55:31  5-MIN KMSN 291155Z 36006KT 1 1/2SM BR OVC001 01/00 A3009 710 96 -800 360/06 RMK AO2 SFC VIS 4
14837KMSN MSN20011129060011611/29/01 06:00:31  5-MIN KMSN 291200Z 36005KT 1 1/4SM BR OVC001 01/00 A3009 710 96 -800 360/05 RMK AO2 TWR VIS 1 1/2
14837KMSN MSN20011129060511611/29/01 06:05:31  5-MIN KMSN 291205Z 01006KT 1 1/4SM BR OVC001 01/00 A3008 720 96 -800 010/06 RMK AO2 TWR VIS 1 1/2
14837KMSN MSN20011129061011211/29/01 06:10:31  5-MIN KMSN 291210Z VRB04KT 1SM BR OVC001 01/00 A3008 720 96 -800 VRB/04 RMK AO2 SFC VIS 1 1/4
14837KMSN MSN20011129061509911/29/01 06:15:31  5-MIN KMSN 291215Z 36005KT 1SM BR OVC001 00/00 A3008 720 100 -800 360/05 RMK AO2
14837KMSN MSN20011129062009911/29/01 06:20:31  5-MIN KMSN 291220Z 35006KT 1SM BR OVC001 00/00 A3008 710 100 -900 350/06 RMK AO2
14837KMSN MSN20011129062509911/29/01 06:25:31  5-MIN KMSN 291225Z 36007KT 1SM BR OVC001 00/00 A3008 710 100 -900 360/07 RMK AO2
14837KMSN MSN20011129063009911/29/01 06:30:31  5-MIN KMSN 291230Z 35005KT 1SM BR OVC001 00/00 A3008 720 100 -900 350/05 RMK AO2
14837KMSN MSN20011129063509911/29/01 06:35:31  5-MIN KMSN 291235Z 36005KT 1SM BR OVC001 00/00 A3008 720 100 -800 350/05 RMK AO2
14837KMSN MSN20011129064010111/29/01 06:40:31  5-MIN KMSN 291240Z 35005KT 1/2SM FG OVC001 00/00 A3008 720 100 -900 350/05 RMK AO2
14837KMSN MSN20011129064510111/29/01 06:45:31  5-MIN KMSN 291245Z 35007KT 1/2SM FG OVC001 00/00 A3008 720 100 -800 350/07 RMK AO2
14837KMSN MSN20011129065013011/29/01 06:50:31  5-MIN KMSN 291250Z 01009KT 1/2SM FG OVC001 00/00 A3007 720 100 -800 010/09 RMK AO2 TWR VIS 3/4 SLP193 T00000000
14837KMSN MSN20011129065511111/29/01 06:55:31  5-MIN KMSN 291255Z 01009KT 3/4SM BR OVC001 00/00 A3007 720 100 -800 010/09 RMK AO2 SFC VIS 1
14837KMSN MSN20011129070011111/29/01 07:00:31  5-MIN KMSN 291300Z 36007KT 3/4SM BR OVC001 00/00 A3008 720 100 -800 360/07 RMK AO2 SFC VIS 1
14837KMSN MSN20011129070511111/29/01 07:05:31  5-MIN KMSN 291305Z 35007KT 3/4SM BR OVC001 00/00 A3008 720 100 -900 350/07 RMK AO2 SFC VIS 1
14837KMSN MSN20011129071011111/29/01 07:10:31  5-MIN KMSN 291310Z 35006KT 3/4SM BR OVC001 00/00 A3008 720 100 -900 350/06 RMK AO2 SFC VIS 1
14837KMSN MSN20011129071511111/29/01 07:15:31  5-MIN KMSN 291315Z 35006KT 3/4SM BR OVC001 00/00 A3009 710 100 -900 350/06 RMK AO2 SFC VIS 1
14837KMSN MSN20011129072011111/29/01 07:20:31  5-MIN KMSN 291320Z 35007KT 3/4SM BR OVC001 00/00 A3008 720 100 -900 350/07 RMK AO2 SFC VIS 1
14837KMSN MSN20011129072511111/29/01 07:25:31  5-MIN KMSN 291325Z 34007KT 3/4SM BR OVC001 00/00 A3008 720 100 -900 340/07 RMK AO2 SFC VIS 1
14837KMSN MSN20011129073011111/29/01 07:30:31  5-MIN KMSN 291330Z 34005KT 3/4SM BR OVC001 00/00 A3009 710 100 -900 340/05 RMK AO2 SFC VIS 1
14837KMSN MSN20011129073511111/29/01 07:35:31  5-MIN KMSN 291335Z 01007KT 3/4SM BR OVC001 00/00 A3008 720 100 -900 010/07 RMK AO2 SFC VIS 1
14837KMSN MSN20011129074011111/29/01 07:40:31  5-MIN KMSN 291340Z 04006KT 3/4SM BR OVC001 00/M01 A3009 710 96 -900 030/06 RMK AO2 SFC VIS 1
14837KMSN MSN20011129074509911/29/01 07:45:31  5-MIN KMSN 291345Z 04006KT 1SM BR OVC001 00/00 A3009 710 100 -900 040/06 RMK AO2
14837KMSN MSN20011129075011611/29/01 07:50:31  5-MIN KMSN 291350Z 04007KT 1SM BR OVC001 00/M01 A3009 700 96 -900 040/07 RMK AO2 SLP201 T00001006
14837KMSN MSN20011129075511311/29/01 07:55:31  5-MIN KMSN 291355Z 02006KT 1SM BR OVC001 00/M01 A3010 700 96 -900 020/06 RMK AO2 SFC VIS 1 1/4
14837KMSN MSN20011129080011311/29/01 08:00:31  5-MIN KMSN 291400Z 02007KT 1SM BR OVC001 00/M01 A3010 700 96 -900 020/07 RMK AO2 SFC VIS 1 1/4
14837KMSN MSN20011129080510311/29/01 08:05:31  5-MIN KMSN 291405Z 01007KT 1 1/2SM BR OVC001 00/M01 A3009 710 96 -900 010/07 RMK AO2
14837KMSN MSN20011129081010311/29/01 08:10:31  5-MIN KMSN 291410Z 36008KT 1 1/2SM BR OVC001 00/M01 A3008 710 96 -900 360/08 RMK AO2
14837KMSN MSN20011129081510311/29/01 08:15:31  5-MIN KMSN 291415Z 36008KT 1 1/2SM BR OVC001 00/M01 A3009 710 96 -900 360/08 RMK AO2
14837KMSN MSN20011129082010311/29/01 08:20:31  5-MIN KMSN 291420Z 01008KT 1 1/2SM BR OVC001 00/M01 A3009 710 96 -900 010/08 RMK AO2
14837KMSN MSN20011129082510311/29/01 08:25:31  5-MIN KMSN 291425Z 36005KT 1 1/2SM BR OVC001 00/M01 A3009 710 96 -900 360/05 RMK AO2
14837KMSN MSN20011129083010311/29/01 08:30:31  5-MIN KMSN 291430Z 01007KT 1 1/2SM BR OVC001 00/M01 A3009 700 96 -900 360/07 RMK AO2
14837KMSN MSN20011129083511311/29/01 08:35:31  5-MIN KMSN 291435Z 36006KT 1 1/2SM BR OVC001 00/M01 A3010 700 96 -900 360/06 RMK AO2 SFC VIS 2
14837KMSN MSN20011129084011311/29/01 08:40:31  5-MIN KMSN 291440Z 03007KT 1 1/2SM BR OVC001 00/M01 A3010 700 96 -900 030/07 RMK AO2 SFC VIS 2
14837KMSN MSN20011129084509911/29/01 08:45:31  5-MIN KMSN 291445Z 03009KT 2SM BR OVC001 00/M01 A3009 710 96 -900 030/09 RMK AO2
14837KMSN MSN20011129085012211/29/01 08:50:31  5-MIN KMSN 291450Z 03009KT 2SM BR OVC001 00/M01 A3009 710 96 -900 030/09 RMK AO2 SLP198 T00001006 56013
14837KMSN MSN20011129085511311/29/01 08:55:31  5-MIN KMSN 291455Z 02010KT 1 1/2SM BR OVC001 00/M01 A3009 710 96 -900 020/10 RMK AO2 SFC VIS 3
14837KMSN MSN20011129090011311/29/01 09:00:31  5-MIN KMSN 291500Z 03010KT 1 1/2SM BR OVC001 00/M01 A3009 710 96 -900 030/10 RMK AO2 SFC VIS 2
14837KMSN MSN20011129090511311/29/01 09:05:31  5-MIN KMSN 291505Z 03010KT 1 1/2SM BR OVC001 00/M01 A3009 710 96 -900 030/10 RMK AO2 SFC VIS 2
14837KMSN MSN20011129091011311/29/01 09:10:31  5-MIN KMSN 291510Z 02010KT 1 1/2SM BR OVC001 00/00 A3009 710 100 -900 020/10 RMK AO2 SFC VIS 2
14837KMSN MSN20011129091511311/29/01 09:15:31  5-MIN KMSN 291515Z 36009KT 1 1/2SM BR OVC001 00/M01 A3010 700 96 -900 360/09 RMK AO2 SFC VIS 2
14837KMSN MSN20011129092011311/29/01 09:20:31  5-MIN KMSN 291520Z 02007KT 1 1/2SM BR OVC001 00/M01 A3010 700 96 -900 020/07 RMK AO2 SFC VIS 2
14837KMSN MSN20011129092511311/29/01 09:25:31  5-MIN KMSN 291525Z 35006KT 1 1/2SM BR OVC001 00/00 A3010 700 100 -900 350/06 RMK AO2 SFC VIS 2
14837KMSN MSN20011129093011311/29/01 09:30:31  5-MIN KMSN 291530Z 36009KT 1 1/2SM BR OVC001 00/M01 A3010 700 96 -900 360/09 RMK AO2 SFC VIS 2
14837KMSN MSN20011129093511311/29/01 09:35:31  5-MIN KMSN 291535Z 35006KT 1 1/2SM BR OVC001 00/M01 A3010 700 96 -900 350/06 RMK AO2 SFC VIS 2
14837KMSN MSN20011129094011711/29/01 09:40:31  5-MIN KMSN 291540Z 36007KT 1 1/2SM BR OVC003 00/M01 A3010 700 96 -900 360/07 RMK AO2 SFC VIS 2 1/2
14837KMSN MSN20011129094511711/29/01 09:45:31  5-MIN KMSN 291545Z 36009KT 1 1/2SM BR OVC003 00/M01 A3010 700 96 -900 360/09 RMK AO2 SFC VIS 2 1/2
14837KMSN MSN20011129095014611/29/01 09:50:31  5-MIN KMSN 291550Z 01011KT 1 1/2SM BR OVC003 00/M01 A3010 700 96 -900 010/11 RMK AO2 SFC VIS 2 1/2 CIG 001V006 SLP203 T00001006
14837KMSN MSN20011129095512911/29/01 09:55:31  5-MIN KMSN 291555Z 02009KT 1 1/2SM BR OVC003 00/M01 A3009 710 96 -900 020/09 RMK AO2 SFC VIS 2 1/2 CIG 002V007
14837KMSN MSN20011129100012911/29/01 10:00:31  5-MIN KMSN 291600Z 03008KT 1 1/2SM BR OVC003 00/M01 A3009 710 96 -900 030/08 RMK AO2 SFC VIS 2 1/2 CIG 002V007
14837KMSN MSN20011129100511711/29/01 10:05:31  5-MIN KMSN 291605Z 04010KT 1 1/2SM BR OVC003 00/M01 A3009 710 96 -900 040/10 RMK AO2 SFC VIS 2 1/2
14837KMSN MSN20011129101011711/29/01 10:10:31  5-MIN KMSN 291610Z 04009KT 1 1/2SM BR OVC003 00/M01 A3009 710 96 -900 040/09 RMK AO2 SFC VIS 2 1/2
14837KMSN MSN20011129101511711/29/01 10:15:31  5-MIN KMSN 291615Z 04009KT 1 1/2SM BR OVC003 00/M01 A3009 710 96 -900 040/09 RMK AO2 SFC VIS 2 1/2
14837KMSN MSN20011129102011311/29/01 10:20:31  5-MIN KMSN 291620Z 03010KT 2SM BR OVC003 01/M01 A3009 710 92 -800 030/10 RMK AO2 SFC VIS 2 1/2
14837KMSN MSN20011129102511211/29/01 10:25:31  5-MIN KMSN 291625Z 03009KT 2SM BR OVC003 01/00 A3009 710 96 -800 020/09 RMK AO2 SFC VIS 2 1/2
14837KMSN MSN20011129103011311/29/01 10:30:31  5-MIN KMSN 291630Z 02008KT 2SM BR OVC003 01/M01 A3010 700 92 -800 010/08 RMK AO2 SFC VIS 2 1/2
14837KMSN MSN20011129103511211/29/01 10:35:31  5-MIN KMSN 291635Z 01008KT 2SM BR OVC003 01/00 A3010 700 96 -800 010/08 RMK AO2 SFC VIS 2 1/2
14837KMSN MSN20011129104010311/29/01 10:40:31  5-MIN KMSN 291640Z 02006KT 2 1/2SM BR OVC005 01/M01 A3010 700 92 -800 020/06 RMK AO2
14837KMSN MSN20011129104511311/29/01 10:45:31  5-MIN KMSN 291645Z 35005KT 2 1/2SM BR OVC005 01/M01 A3010 700 92 -800 350/05 RMK AO2 SFC VIS 3
14837KMSN MSN20011129105012911/29/01 10:50:31  5-MIN KMSN 291650Z 36006KT 2 1/2SM BR OVC005 01/00 A3009 710 96 -800 360/06 RMK AO2 SFC VIS 3 SLP198 T00060000
14837KMSN MSN20011129105511211/29/01 10:55:31  5-MIN KMSN 291655Z 02007KT 2 1/2SM BR OVC005 01/00 A3008 710 96 -800 020/07 RMK AO2 SFC VIS 4
14837KMSN MSN20011129110011211/29/01 11:00:31  5-MIN KMSN 291700Z 36008KT 2 1/2SM BR OVC005 01/00 A3008 720 96 -800 360/08 RMK AO2 SFC VIS 4
14837KMSN MSN20011129110511311/29/01 11:05:31  5-MIN KMSN 291705Z 36008KT 2 1/2SM BR OVC005 01/M01 A3007 720 92 -800 360/08 RMK AO2 SFC VIS 4
14837KMSN MSN20011129111012411/29/01 11:10:31  5-MIN KMSN 291710Z 36008KT 2 1/2SM BR OVC005 01/00 A3007 730 92 -700 360/08 RMK AO2 SFC VIS 4 CIG 004V009
14837KMSN MSN20011129111512511/29/01 11:15:31  5-MIN KMSN 291715Z 35008KT 2 1/2SM BR OVC005 01/M01 A3007 730 92 -800 350/08 RMK AO2 SFC VIS 4 CIG 004V009
14837KMSN MSN20011129112011311/29/01 11:20:31  5-MIN KMSN 291720Z 36008KT 2 1/2SM BR OVC005 01/M01 A3006 740 92 -800 360/08 RMK AO2 SFC VIS 4
14837KMSN MSN20011129112511211/29/01 11:25:31  5-MIN KMSN 291725Z 03007KT 2 1/2SM BR OVC005 01/00 A3006 730 92 -700 020/07 RMK AO2 SFC VIS 4
14837KMSN MSN20011129113012511/29/01 11:30:31  5-MIN KMSN 291730Z 02010KT 2 1/2SM BR OVC005 01/M01 A3006 730 89 -700 020/10 RMK AO2 SFC VIS 4 CIG 005V009
14837KMSN MSN20011129113512511/29/01 11:35:31  5-MIN KMSN 291735Z 03010KT 2 1/2SM BR OVC005 01/M01 A3006 740 89 -700 030/10 RMK AO2 SFC VIS 4 CIG 005V009
14837KMSN MSN20011129114011111/29/01 11:40:31  5-MIN KMSN 291740Z 01009KT 5SM BR OVC005 01/M01 A3006 740 89 -700 010/09 RMK AO2 CIG 005V009
14837KMSN MSN20011129114509911/29/01 11:45:31  5-MIN KMSN 291745Z 02008KT 6SM BR OVC005 01/M01 A3006 740 92 -800 020/08 RMK AO2
14837KMSN MSN20011129115013411/29/01 11:50:31  5-MIN KMSN 291750Z 02008KT 6SM BR OVC007 01/M01 A3006 740 89 -700 020/08 RMK AO2 SLP187 T00111006 10011 20000 56001
14837KMSN MSN20011129115509511/29/01 11:55:31  5-MIN KMSN 291755Z 04008KT 9SM OVC007 01/00 A3006 740 92 -700 040/08 RMK AO2
14837KMSN MSN20011129120009611/29/01 12:00:31  5-MIN KMSN 291800Z 06008KT 9SM OVC007 01/M01 A3006 740 89 -700 060/08 RMK AO2
14837KMSN MSN20011129120509611/29/01 12:05:31  5-MIN KMSN 291805Z 05007KT 8SM OVC007 01/M01 A3005 740 89 -700 050/07 RMK AO2
14837KMSN MSN20011129121009511/29/01 12:10:31  5-MIN KMSN 291810Z 04007KT 8SM OVC007 01/00 A3004 750 92 -700 040/07 RMK AO2
14837KMSN MSN20011129121509511/29/01 12:15:31  5-MIN KMSN 291815Z 02007KT 8SM OVC007 01/00 A3004 750 92 -700 020/07 RMK AO2
14837KMSN MSN20011129122009511/29/01 12:20:31  5-MIN KMSN 291820Z 36007KT 8SM OVC007 01/00 A3004 760 92 -700 360/07 RMK AO2
14837KMSN MSN20011129122509511/29/01 12:25:31  5-MIN KMSN 291825Z 02007KT 8SM OVC007 01/00 A3003 760 92 -700 010/07 RMK AO2
14837KMSN MSN20011129123009511/29/01 12:30:31  5-MIN KMSN 291830Z 01006KT 8SM OVC007 01/00 A3003 760 92 -700 010/06 RMK AO2
14837KMSN MSN20011129123509511/29/01 12:35:31  5-MIN KMSN 291835Z 04007KT 8SM OVC007 01/00 A3003 760 92 -700 040/07 RMK AO2
14837KMSN MSN20011129124009511/29/01 12:40:31  5-MIN KMSN 291840Z 03008KT 8SM OVC007 01/00 A3003 760 92 -700 020/08 RMK AO2
14837KMSN MSN20011129124509511/29/01 12:45:31  5-MIN KMSN 291845Z 02006KT 8SM OVC007 01/00 A3003 760 92 -700 020/06 RMK AO2
14837KMSN MSN20011129125011211/29/01 12:50:31  5-MIN KMSN 291850Z 02007KT 8SM OVC007 01/00 A3004 760 92 -700 020/07 RMK AO2 SLP180 T00110000
14837KMSN MSN20011129125509611/29/01 12:55:31  5-MIN KMSN 291855Z VRB04KT 10SM OVC007 01/00 A3003 760 92 -700 VRB/04 RMK AO2
14837KMSN MSN20011129130010811/29/01 13:00:31  5-MIN KMSN 291900Z 05009KT 10SM OVC007 01/00 A3004 750 92 -700 050/09 RMK AO2 CIG 006V010
14837KMSN MSN20011129130510911/29/01 13:05:31  5-MIN KMSN 291905Z 04006KT 10SM OVC007 01/M01 A3004 750 89 -700 040/06 RMK AO2 CIG 006V011
14837KMSN MSN20011129131010911/29/01 13:10:31  5-MIN KMSN 291910Z 06005KT 10SM OVC007 01/M01 A3004 750 89 -700 060/05 RMK AO2 CIG 006V011
14837KMSN MSN20011129131510911/29/01 13:15:31  5-MIN KMSN 291915Z 06004KT 10SM OVC007 01/M01 A3004 750 89 -700 060/04 RMK AO2 CIG 006V011
14837KMSN MSN20011129132010811/29/01 13:20:31  5-MIN KMSN 291920Z 04004KT 10SM OVC007 01/00 A3004 750 92 -700 040/04 RMK AO2 CIG 006V011
14837KMSN MSN20011129132509611/29/01 13:25:31  5-MIN KMSN 291925Z 04005KT 10SM OVC007 02/00 A3004 750 89 -600 040/05 RMK AO2
14837KMSN MSN20011129133009611/29/01 13:30:31  5-MIN KMSN 291930Z 03007KT 10SM OVC007 02/00 A3003 760 89 -600 020/07 RMK AO2
14837KMSN MSN20011129133509511/29/01 13:35:31  5-MIN KMSN 291935Z 02006KT 8SM OVC007 02/00 A3003 760 89 -600 020/06 RMK AO2
14837KMSN MSN20011129134009511/29/01 13:40:31  5-MIN KMSN 291940Z 02006KT 8SM OVC007 02/00 A3002 770 89 -600 020/06 RMK AO2
14837KMSN MSN20011129134509511/29/01 13:45:31  5-MIN KMSN 291945Z 04007KT 8SM OVC007 02/01 A3003 770 89 -500 030/07 RMK AO2
14837KMSN MSN20011129135011211/29/01 13:50:31  5-MIN KMSN 291950Z 03006KT 8SM OVC007 02/01 A3003 760 92 -600 030/06 RMK AO2 SLP177 T00170006
14837KMSN MSN20011129135509611/29/01 13:55:31  5-MIN KMSN 291955Z 01008KT 10SM OVC007 02/00 A3003 770 89 -600 010/08 RMK AO2
14837KMSN MSN20011129140009611/29/01 14:00:31  5-MIN KMSN 292000Z 02007KT 10SM OVC007 02/01 A3003 760 89 -500 020/07 RMK AO2
14837KMSN MSN20011129140510811/29/01 14:05:31  5-MIN KMSN 292005Z 02005KT 10SM OVC007 02/00 A3003 760 85 -500 020/05 RMK AO2 CIG 007V010
14837KMSN MSN20011129141010811/29/01 14:10:31  5-MIN KMSN 292010Z 01006KT 10SM OVC007 02/00 A3003 770 85 -500 010/06 RMK AO2 CIG 007V010
14837KMSN MSN20011129141509611/29/01 14:15:31  5-MIN KMSN 292015Z 01008KT 10SM OVC007 02/00 A3002 770 89 -600 010/08 RMK AO2
14837KMSN MSN20011129142009611/29/01 14:20:31  5-MIN KMSN 292020Z 36009KT 10SM OVC009 02/00 A3001 780 89 -600 360/09 RMK AO2
14837KMSN MSN20011129142509511/29/01 14:25:31  5-MIN KMSN 292025Z 01007KT 8SM OVC009 02/00 A3001 780 89 -600 360/07 RMK AO2
14837KMSN MSN20011129143009511/29/01 14:30:31  5-MIN KMSN 292030Z 01008KT 8SM OVC009 02/01 A3002 780 89 -500 010/08 RMK AO2
14837KMSN MSN20011129143509511/29/01 14:35:31  5-MIN KMSN 292035Z 01008KT 8SM OVC009 02/01 A3002 780 92 -600 010/08 RMK AO2
14837KMSN MSN20011129144009511/29/01 14:40:31  5-MIN KMSN 292040Z 01008KT 8SM OVC009 02/00 A3001 780 89 -600 010/08 RMK AO2
14837KMSN MSN20011129144509511/29/01 14:45:31  5-MIN KMSN 292045Z 36009KT 8SM OVC009 02/00 A3001 780 89 -600 360/09 RMK AO2
14837KMSN MSN20011129145011811/29/01 14:50:31  5-MIN KMSN 292050Z 36008KT 7SM OVC009 02/00 A3001 780 89 -600 360/08 RMK AO2 SLP171 T00170000 58009
14837KMSN MSN20011129145509511/29/01 14:55:31  5-MIN KMSN 292055Z 01009KT 8SM OVC009 02/00 A3001 780 89 -600 010/09 RMK AO2
14837KMSN MSN20011129150009511/29/01 15:00:31  5-MIN KMSN 292100Z 01009KT 8SM OVC009 02/01 A3001 780 92 -600 010/09 RMK AO2
14837KMSN MSN20011129150509511/29/01 15:05:31  5-MIN KMSN 292105Z 03007KT 8SM OVC009 02/00 A3002 770 89 -600 030/07 RMK AO2
14837KMSN MSN20011129151009511/29/01 15:10:31  5-MIN KMSN 292110Z 03007KT 8SM OVC009 02/00 A3002 770 89 -600 020/07 RMK AO2
14837KMSN MSN20011129151509511/29/01 15:15:31  5-MIN KMSN 292115Z 02008KT 7SM OVC009 02/00 A3001 780 89 -600 020/08 RMK AO2
14837KMSN MSN20011129152009511/29/01 15:20:31  5-MIN KMSN 292120Z 02009KT 7SM OVC009 02/00 A3001 780 89 -600 020/09 RMK AO2
14837KMSN MSN20011129152509511/29/01 15:25:31  5-MIN KMSN 292125Z 03008KT 7SM OVC009 02/00 A3002 780 89 -600 030/08 RMK AO2
14837KMSN MSN20011130132009611/30/01 13:20:31  5-MIN KMSN 301920Z 26003KT 10SM OVC009 05/03 A2967 1100 89 200 260/03 RMK AO2
14837KMSN MSN20011130132510811/30/01 13:25:31  5-MIN KMSN 301925Z VRB03KT 10SM OVC009 06/03 A2968 1090 85 300 VRB/03 RMK AO2 CIG 008V012
14837KMSN MSN20011130133010811/30/01 13:30:31  5-MIN KMSN 301930Z 29004KT 10SM OVC009 06/03 A2968 1090 85 300 290/04 RMK AO2 CIG 008V012
14837KMSN MSN20011130133510811/30/01 13:35:31  5-MIN KMSN 301935Z VRB03KT 10SM OVC009 06/03 A2967 1090 85 300 VRB/03 RMK AO2 CIG 008V014
14837KMSN MSN20011130134009611/30/01 13:40:31  5-MIN KMSN 301940Z VRB06KT 10SM OVC009 06/04 A2968 1090 89 300 VRB/06 RMK AO2
14837KMSN MSN20011130134509611/30/01 13:45:31  5-MIN KMSN 301945Z VRB04KT 10SM OVC009 05/03 A2967 1090 89 200 VRB/04 RMK AO2
14837KMSN MSN20011130135011311/30/01 13:50:31  5-MIN KMSN 301950Z VRB04KT 10SM OVC009 05/03 A2967 1100 89 200 VRB/04 RMK AO2 SLP053 T00500033
14837KMSN MSN20011130135509611/30/01 13:55:31  5-MIN KMSN 301955Z 26003KT 10SM OVC009 06/03 A2967 1100 85 300 260/03 RMK AO2
14837KMSN MSN20011130140009611/30/01 14:00:31  5-MIN KMSN 302000Z VRB03KT 10SM OVC009 06/04 A2967 1090 89 300 VRB/03 RMK AO2
14837KMSN MSN20011130140509611/30/01 14:05:31  5-MIN KMSN 302005Z 27004KT 10SM OVC009 06/04 A2967 1090 89 300 270/04 RMK AO2
14837KMSN MSN20011130141010811/30/01 14:10:31  5-MIN KMSN 302010Z VRB04KT 10SM OVC009 06/03 A2968 1090 85 300 VRB/04 RMK AO2 CIG 008V012
14837KMSN MSN20011130141510811/30/01 14:15:31  5-MIN KMSN 302015Z VRB06KT 10SM OVC009 06/03 A2968 1090 85 200 VRB/06 RMK AO2 CIG 008V012
14837KMSN MSN20011130142010811/30/01 14:20:31  5-MIN KMSN 302020Z 26006KT 10SM OVC009 06/03 A2968 1090 85 200 260/06 RMK AO2 CIG 008V012
14837KMSN MSN20011130142510811/30/01 14:25:31  5-MIN KMSN 302025Z 27004KT 10SM OVC009 06/03 A2968 1090 85 300 260/04 RMK AO2 CIG 008V013
14837KMSN MSN20011130143010811/30/01 14:30:31  5-MIN KMSN 302030Z 27004KT 10SM OVC009 06/03 A2968 1090 85 200 270/04 RMK AO2 CIG 008V014
14837KMSN MSN20011130143509611/30/01 14:35:31  5-MIN KMSN 302035Z VRB05KT 10SM OVC009 06/03 A2968 1080 85 200 VRB/05 RMK AO2
14837KMSN MSN20011130144009611/30/01 14:40:31  5-MIN KMSN 302040Z 25003KT 10SM OVC009 06/03 A2968 1080 85 200 250/03 RMK AO2
14837KMSN MSN20011130144510811/30/01 14:45:31  5-MIN KMSN 302045Z 25004KT 10SM OVC009 06/03 A2968 1080 85 200 250/04 RMK AO2 CIG 009V014
14837KMSN MSN20011130145011911/30/01 14:50:31  5-MIN KMSN 302050Z 27006KT 10SM OVC011 06/03 A2969 1080 85 200 260/06 RMK AO2 SLP059 T00560033 58001
14837KMSN MSN20011130145509611/30/01 14:55:31  5-MIN KMSN 302055Z 27004KT 10SM OVC011 06/03 A2969 1080 85 200 260/04 RMK AO2
14837KMSN MSN20011130150009611/30/01 15:00:31  5-MIN KMSN 302100Z 26005KT 10SM OVC011 06/03 A2969 1080 85 200 260/05 RMK AO2
14837KMSN MSN20011130150509611/30/01 15:05:31  5-MIN KMSN 302105Z VRB04KT 10SM OVC011 06/03 A2969 1080 85 200 VRB/04 RMK AO2
14837KMSN MSN20011130151010811/30/01 15:10:31  5-MIN KMSN 302110Z 25004KT 10SM OVC011 06/03 A2969 1080 85 200 250/04 RMK AO2 CIG 009V014
14837KMSN MSN20011130151509611/30/01 15:15:31  5-MIN KMSN 302115Z 25004KT 10SM OVC011 06/04 A2969 1070 89 200 250/04 RMK AO2
14837KMSN MSN20011130152009611/30/01 15:20:31  5-MIN KMSN 302120Z VRB04KT 10SM OVC011 06/04 A2969 1080 89 200 VRB/04 RMK AO2
14837KMSN MSN20011130152509611/30/01 15:25:31  5-MIN KMSN 302125Z 26005KT 10SM OVC011 06/04 A2970 1070 89 200 260/05 RMK AO2
14837KMSN MSN20011130153009611/30/01 15:30:31  5-MIN KMSN 302130Z 25006KT 10SM OVC011 06/04 A2970 1070 89 200 250/06 RMK AO2
14837KMSN MSN20011130153509611/30/01 15:35:31  5-MIN KMSN 302135Z 26004KT 10SM OVC011 06/04 A2970 1070 89 200 260/04 RMK AO2
14837KMSN MSN20011130154009611/30/01 15:40:31  5-MIN KMSN 302140Z VRB04KT 10SM OVC011 06/04 A2971 1060 89 200 VRB/04 RMK AO2
14837KMSN MSN20011130154509611/30/01 15:45:31  5-MIN KMSN 302145Z VRB04KT 10SM OVC011 06/04 A2971 1060 89 200 VRB/04 RMK AO2
14837KMSN MSN20011130155011311/30/01 15:50:31  5-MIN KMSN 302150Z 26004KT 10SM OVC011 06/04 A2971 1060 89 200 260/04 RMK AO2 SLP066 T00560039
14837KMSN MSN20011130155509611/30/01 15:55:31  5-MIN KMSN 302155Z VRB04KT 10SM OVC011 06/04 A2971 1060 89 200 VRB/04 RMK AO2
14837KMSN MSN20011130160009611/30/01 16:00:31  5-MIN KMSN 302200Z 26003KT 10SM OVC011 06/04 A2971 1060 89 200 260/03 RMK AO2
14837KMSN MSN20011130160509611/30/01 16:05:31  5-MIN KMSN 302205Z 27004KT 10SM OVC011 06/04 A2971 1060 89 200 270/04 RMK AO2
14837KMSN MSN20011130161009611/30/01 16:10:31  5-MIN KMSN 302210Z VRB04KT 10SM OVC011 06/04 A2970 1060 89 200 VRB/04 RMK AO2
14837KMSN MSN20011130161509611/30/01 16:15:31  5-MIN KMSN 302215Z VRB04KT 10SM OVC011 06/04 A2970 1060 89 200 VRB/04 RMK AO2
14837KMSN MSN20011130162010811/30/01 16:20:31  5-MIN KMSN 302220Z 24003KT 10SM OVC009 06/04 A2970 1070 89 200 240/03 RMK AO2 CIG 008V012
14837KMSN MSN20011130162509611/30/01 16:25:31  5-MIN KMSN 302225Z 25005KT 10SM OVC009 06/04 A2971 1060 89 200 250/05 RMK AO2
14837KMSN MSN20011130163010811/30/01 16:30:31  5-MIN KMSN 302230Z VRB03KT 10SM OVC009 06/04 A2970 1070 89 200 VRB/03 RMK AO2 CIG 008V012
14837KMSN MSN20011130163510811/30/01 16:35:31  5-MIN KMSN 302235Z VRB05KT 10SM OVC009 06/04 A2970 1070 89 200 VRB/05 RMK AO2 CIG 008V012
14837KMSN MSN20011130164010811/30/01 16:40:31  5-MIN KMSN 302240Z 24006KT 10SM OVC009 06/04 A2970 1070 89 200 240/06 RMK AO2 CIG 008V012
14837KMSN MSN20011130164510811/30/01 16:45:31  5-MIN KMSN 302245Z 23005KT 10SM OVC009 06/04 A2970 1070 89 200 230/05 RMK AO2 CIG 008V012
14837KMSN MSN20011130165012511/30/01 16:50:31  5-MIN KMSN 302250Z VRB04KT 10SM OVC009 06/04 A2970 1070 89 200 VRB/04 RMK AO2 CIG 008V012 SLP064 T00560039
14837KMSN MSN20011130165510811/30/01 16:55:31  5-MIN KMSN 302255Z VRB03KT 10SM OVC009 06/04 A2970 1070 89 200 VRB/03 RMK AO2 CIG 008V012
14837KMSN MSN20011130170010811/30/01 17:00:31  5-MIN KMSN 302300Z VRB03KT 10SM OVC009 06/04 A2971 1060 89 200 VRB/03 RMK AO2 CIG 008V012
14837KMSN MSN20011130170509611/30/01 17:05:31  5-MIN KMSN 302305Z 24003KT 10SM OVC009 06/04 A2970 1060 89 200 240/03 RMK AO2
14837KMSN MSN20011130171010811/30/01 17:10:31  5-MIN KMSN 302310Z 22003KT 10SM OVC009 06/04 A2971 1060 89 200 220/03 RMK AO2 CIG 008V013
14837KMSN MSN20011130171510811/30/01 17:15:31  5-MIN KMSN 302315Z 21004KT 10SM OVC009 06/04 A2971 1060 89 200 210/04 RMK AO2 CIG 008V013
14837KMSN MSN20011130172010811/30/01 17:20:31  5-MIN KMSN 302320Z 22004KT 10SM OVC009 06/04 A2971 1060 89 200 210/04 RMK AO2 CIG 008V013
14837KMSN MSN20011130172510811/30/01 17:25:31  5-MIN KMSN 302325Z 22004KT 10SM OVC009 06/04 A2970 1060 89 200 220/04 RMK AO2 CIG 008V013
14837KMSN MSN20011130173010811/30/01 17:30:31  5-MIN KMSN 302330Z 22005KT 10SM OVC009 06/04 A2971 1060 89 200 220/05 RMK AO2 CIG 008V013
14837KMSN MSN20011130173510811/30/01 17:35:31  5-MIN KMSN 302335Z 22005KT 10SM OVC009 06/04 A2970 1060 89 200 220/05 RMK AO2 CIG 008V013
14837KMSN MSN20011130174010811/30/01 17:40:31  5-MIN KMSN 302340Z VRB06KT 10SM OVC009 06/04 A2971 1060 89 200 VRB/06 RMK AO2 CIG 008V012
14837KMSN MSN20011130174510811/30/01 17:45:31  5-MIN KMSN 302345Z 23007KT 10SM OVC011 06/04 A2971 1060 89 200 220/07 RMK AO2 CIG 008V014
14837KMSN MSN20011130175013111/30/01 17:50:31  5-MIN KMSN 302350Z 22006KT 10SM OVC011 06/04 A2972 1050 89 200 220/06 RMK AO2 SLP069 T00560039 10056 20050 53008
14837KMSN MSN20011130175511511/30/01 17:55:31  5-MIN KMSN 302355Z 22008KT 10SM BKN009 OVC013 06/04 A2972 1050 89 200 210/08 RMK AO2 CIG 008V011
14837KMSN MSN20011130180010311/30/01 18:00:31  5-MIN KMSN 010000Z 22008KT 10SM BKN009 OVC013 06/04 A2972 1050 89 200 220/08 RMK AO2
14837KMSN MSN20011130180509611/30/01 18:05:31  5-MIN KMSN 010005Z 22008KT 10SM OVC009 06/04 A2973 1040 89 200 220/08 RMK AO2
14837KMSN MSN20011130181012411/30/01 18:10:31  5-MIN KMSN 010010Z 22007KT 200V260 10SM OVC009 06/04 A2973 1040 89 200 220/07 200V260 RMK AO2 CIG 008V013
14837KMSN MSN20011130181511411/30/01 18:15:31  5-MIN KMSN 010015Z 22007G14KT 10SM OVC009 06/04 A2973 1040 89 200 220/07G14 RMK AO2 CIG 008V012
14837KMSN MSN20011130182012111/30/01 18:20:31  5-MIN KMSN 010020Z 22008G14KT 10SM BKN009 OVC014 06/04 A2973 1040 89 200 220/08G14 RMK AO2 CIG 008V012
14837KMSN MSN20011130182511511/30/01 18:25:31  5-MIN KMSN 010025Z 21007KT 10SM BKN009 OVC014 06/04 A2973 1040 89 200 210/07 RMK AO2 CIG 008V013
14837KMSN MSN20011130183009611/30/01 18:30:31  5-MIN KMSN 010030Z 22008KT 10SM OVC012 06/04 A2974 1030 89 200 220/08 RMK AO2
14837KMSN MSN20011130183510211/30/01 18:35:31  5-MIN KMSN 010035Z 22009G15KT 10SM OVC012 06/04 A2974 1030 89 200 220/09G15 RMK AO2
14837KMSN MSN20011130184012111/30/01 18:40:31  5-MIN KMSN 010040Z 21006G15KT 10SM BKN010 OVC014 06/04 A2974 1030 89 200 210/06G15 RMK AO2 CIG 009V013
14837KMSN MSN20011130184511511/30/01 18:45:31  5-MIN KMSN 010045Z 21006KT 10SM BKN010 OVC014 06/04 A2974 1030 89 200 210/06 RMK AO2 CIG 009V013
14837KMSN MSN20011130185012411/30/01 18:50:31  5-MIN KMSN 010050Z 22010KT 9SM OVC010 06/04 A2974 1030 89 200 220/10 RMK AO2 CIG 008V013 SLP078 T00560039
14837KMSN MSN20011130185510711/30/01 18:55:31  5-MIN KMSN 010055Z 22007KT 9SM OVC010 06/04 A2975 1030 89 200 220/07 RMK AO2 CIG 007V013
14837KMSN MSN20011130190010711/30/01 19:00:31  5-MIN KMSN 010100Z 23007KT 8SM OVC008 06/04 A2975 1030 89 200 230/07 RMK AO2 CIG 007V011
14837KMSN MSN20011130190510711/30/01 19:05:31  5-MIN KMSN 010105Z 21009KT 8SM OVC008 06/04 A2975 1030 89 200 210/09 RMK AO2 CIG 007V011
14837KMSN MSN20011130191009511/30/01 19:10:31  5-MIN KMSN 010110Z 22010KT 8SM OVC008 06/04 A2975 1030 89 200 220/10 RMK AO2
14837KMSN MSN20011130191509511/30/01 19:15:31  5-MIN KMSN 010115Z 22009KT 7SM OVC008 06/04 A2974 1030 89 200 220/09 RMK AO2
14837KMSN MSN20011130192009811/30/01 19:20:31  5-MIN KMSN 010120Z 21010KT 6SM BR OVC008 06/04 A2974 1030 89 200 210/10 RMK AO2
14837KMSN MSN20011130192511111/30/01 19:25:31  5-MIN KMSN 010125Z 22008KT 7SM -RA OVC008 06/04 A2974 1030 89 200 220/08 RMK AO2 RAB21 P0000
14837KMSN MSN20011130193011111/30/01 19:30:31  5-MIN KMSN 010130Z 21009KT 7SM -RA OVC008 06/04 A2974 1030 89 200 210/09 RMK AO2 RAB21 P0001
14837KMSN MSN20011130193512711/30/01 19:35:31  5-MIN KMSN 010135Z 22008KT 180V250 7SM -RA OVC008 06/04 A2974 1030 89 200 220/08 180V250 RMK AO2 RAB21 P0001
14837KMSN MSN20011130194011111/30/01 19:40:31  5-MIN KMSN 010140Z 21007KT 7SM -RA OVC008 06/04 A2974 1030 89 200 210/07 RMK AO2 RAB21 P0001
14837KMSN MSN20011130194511911/30/01 19:45:31  5-MIN KMSN 010145Z 21010KT 7SM -DZ OVC008 06/04 A2974 1030 89 200 210/10 RMK AO2 RAB21E43DZB43 P0001
14837KMSN MSN20011130195013611/30/01 19:50:31  5-MIN KMSN 010150Z 21010KT 8SM -DZ OVC008 06/04 A2974 1030 89 200 210/10 RMK AO2 RAB21E43DZB43 SLP077 P0001 T00560039
14837KMSN MSN20011130195511211/30/01 19:55:31  5-MIN KMSN 010155Z 21009KT 8SM -DZ BKN008 OVC013 06/04 A2974 1030 89 200 210/09 RMK AO2 P0000
14837KMSN MSN20011130200012411/30/01 20:00:31  5-MIN KMSN 010200Z 22009KT 9SM -DZ BKN008 OVC013 06/04 A2975 1030 89 200 220/09 RMK AO2 CIG 007V011 P0000
14837KMSN MSN20011130200511311/30/01 20:05:31  5-MIN KMSN 010205Z 22010KT 10SM -DZ SCT008 OVC015 06/04 A2975 1030 89 200 220/10 RMK AO2 P0000
14837KMSN MSN20011130201011311/30/01 20:10:31  5-MIN KMSN 010210Z 22010KT 10SM -DZ SCT008 OVC013 06/03 A2975 1020 85 200 220/10 RMK AO2 P0000
14837KMSN MSN20011130201511211/30/01 20:15:31  5-MIN KMSN 010215Z 22011G15KT 10SM -DZ OVC013 06/03 A2975 1020 85 200 220/11G15 RMK AO2 P0000
14837KMSN MSN20011130202011211/30/01 20:20:31  5-MIN KMSN 010220Z 22009G14KT 10SM -DZ OVC011 06/04 A2975 1020 89 200 220/09G14 RMK AO2 P0000
14837KMSN MSN20011130202510511/30/01 20:25:31  5-MIN KMSN 010225Z 22009KT 9SM -DZ OVC011 06/04 A2975 1020 89 200 220/09 RMK AO2 P0000
14837KMSN MSN20011130203010511/30/01 20:30:31  5-MIN KMSN 010230Z 22008KT 9SM -DZ OVC011 06/04 A2975 1020 89 200 220/08 RMK AO2 P0000
14837KMSN MSN20011130203511711/30/01 20:35:31  5-MIN KMSN 010235Z 21010KT 7SM -DZ OVC011 06/04 A2976 1020 89 200 210/10 RMK AO2 CIG 008V013 P0000
14837KMSN MSN20011130204013311/30/01 20:40:31  5-MIN KMSN 010240Z 22012G16KT 6SM -DZ BR BKN011 OVC018 05/04 A2976 1010 92 100 210/12G16 RMK AO2 CIG 008V013 P0000
14837KMSN MSN20011130204513311/30/01 20:45:31  5-MIN KMSN 010245Z 21010G16KT 6SM -DZ BR BKN011 OVC020 05/04 A2976 1020 92 100 210/10G16 RMK AO2 CIG 008V013 P0000
14837KMSN MSN20011130205016311/30/01 20:50:31  5-MIN KMSN 010250Z 22009KT 7SM -DZ BR BKN011 BKN014 OVC020 05/03 A2976 1020 89 100 220/09 RMK AO2 CIG 008V011 SLP082 P0000 60001 T00500033 51010
14837KMSN MSN20011130205513111/30/01 20:55:31  5-MIN KMSN 010255Z 22007KT 8SM -DZ BKN011 BKN014 OVC020 05/04 A2976 1020 92 100 210/07 RMK AO2 CIG 008V013 P0000
14837KMSN MSN20011130210011211/30/01 21:00:31  5-MIN KMSN 010300Z 22009KT 7SM -DZ BKN011 OVC020 05/04 A2976 1010 92 100 220/09 RMK AO2 P0000
14837KMSN MSN20011130210511211/30/01 21:05:31  5-MIN KMSN 010305Z 22010KT 8SM -DZ BKN011 OVC020 05/03 A2976 1010 89 100 210/10 RMK AO2 P0000
14837KMSN MSN20011130211011811/30/01 21:10:31  5-MIN KMSN 010310Z 22010G16KT 9SM -DZ SCT011 OVC020 05/03 A2976 1010 89 100 220/10G16 RMK AO2 P0000
14837KMSN MSN20011130211511911/30/01 21:15:31  5-MIN KMSN 010315Z 22011G17KT 10SM -DZ BKN014 OVC020 05/03 A2976 1010 89 100 220/11G17 RMK AO2 P0000
14837KMSN MSN20011130212011911/30/01 21:20:31  5-MIN KMSN 010320Z 23009G17KT 10SM -DZ BKN012 OVC020 05/03 A2976 1010 89 100 230/09G17 RMK AO2 P0000
14837KMSN MSN20011130212511911/30/01 21:25:31  5-MIN KMSN 010325Z 23007G15KT 10SM -DZ BKN012 OVC020 05/03 A2976 1010 89 100 230/07G15 RMK AO2 P0000
14837KMSN MSN20011130213012811/30/01 21:30:31  5-MIN KMSN 010330Z 23008KT 200V270 9SM -DZ BKN010 OVC020 05/03 A2976 1010 89 100 230/08 200V270 RMK AO2 P0000
14837KMSN MSN20011130213510511/30/01 21:35:31  5-MIN KMSN 010335Z 22009KT 8SM -DZ OVC012 05/03 A2976 1010 89 100 220/09 RMK AO2 P0000
14837KMSN MSN20011130214011511/30/01 21:40:31  5-MIN KMSN 010340Z 23009KT 6SM -DZ BR BKN012 OVC017 05/03 A2976 1010 89 100 230/09 RMK AO2 P0000
14837KMSN MSN20011130214511511/30/01 21:45:31  5-MIN KMSN 010345Z 22008KT 6SM -DZ BR BKN012 OVC017 05/03 A2976 1010 89 100 220/08 RMK AO2 P0000
14837KMSN MSN20011130215014211/30/01 21:50:31  5-MIN KMSN 010350Z 22011G16KT 7SM -DZ BKN010 BKN017 OVC049 05/03 A2976 1010 89 100 220/11G16 RMK AO2 SLP085 P0000 T00500033
14837KMSN MSN20011130215512511/30/01 21:55:31  5-MIN KMSN 010355Z 23006G16KT 7SM -DZ FEW010 BKN014 OVC049 05/03 A2976 1010 89 100 230/06G16 RMK AO2 P0000
14837KMSN MSN20011130220011911/30/01 22:00:31  5-MIN KMSN 010400Z 23009KT 7SM -DZ SCT012 BKN019 OVC049 05/03 A2977 1010 89 100 230/09 RMK AO2 P0000
14837KMSN MSN20011130220512011/30/01 22:05:31  5-MIN KMSN 010405Z 23010KT 6SM -DZ BR SCT012 BKN017 OVC049 04/03 A2976 1010 92 0 230/10 RMK AO2 P0000
14837KMSN MSN20011130221012011/30/01 22:10:31  5-MIN KMSN 010410Z 22008KT 6SM -DZ BR SCT012 BKN017 OVC049 04/03 A2976 1010 92 0 220/08 RMK AO2 P0000
14837KMSN MSN20011130221511911/30/01 22:15:31  5-MIN KMSN 010415Z 23008KT 7SM -DZ FEW010 BKN020 OVC049 05/03 A2976 1010 89 100 220/08 RMK AO2 P0000
14837KMSN MSN20011130222012911/30/01 22:20:31  5-MIN KMSN 010420Z 23009KT 7SM -DZ BKN010 BKN020 OVC029 04/03 A2976 1010 92 0 230/09 RMK AO2 CIG 007V014 P0000
14837KMSN MSN20011130222511911/30/01 22:25:31  5-MIN KMSN 010425Z 23009KT 8SM -DZ BKN010 BKN020 OVC029 05/03 A2977 1010 89 100 230/09 RMK AO2 P0000
14837KMSN MSN20011130223011911/30/01 22:30:31  5-MIN KMSN 010430Z 23007KT 9SM -DZ BKN010 BKN020 OVC029 05/03 A2976 1010 89 100 230/07 RMK AO2 P0000
14837KMSN MSN20011130223511711/30/01 22:35:31  5-MIN KMSN 010435Z 23007KT 9SM -DZ BKN010 BKN020 OVC029 04/03 A2976 1010 92 0 230/07 RMK AO2 P0000
14837KMSN MSN20011130224011911/30/01 22:40:31  5-MIN KMSN 010440Z 23004KT 9SM -DZ BKN010 BKN020 OVC029 05/03 A2976 1010 89 100 230/04 RMK AO2 P0000
14837KMSN MSN20011130224511911/30/01 22:45:31  5-MIN KMSN 010445Z 23006KT 8SM -DZ BKN010 BKN020 OVC029 05/03 A2977 1010 89 100 230/06 RMK AO2 P0000
14837KMSN MSN20011130225014011/30/01 22:50:31  5-MIN KMSN 010450Z 22006KT 8SM -RA FEW010 OVC016 05/03 A2977 1010 89 100 220/06 RMK AO2 DZE50RAB50 SLP086 P0000 T00500033
14837KMSN MSN20011130225511211/30/01 22:55:31  5-MIN KMSN 010455Z 23007KT 9SM -RA BKN012 OVC018 05/03 A2977 1000 89 100 230/07 RMK AO2 P0000
14837KMSN MSN20011130230011311/30/01 23:00:31  5-MIN KMSN 010500Z 23008KT 10SM -RA BKN012 OVC018 05/03 A2977 1000 89 100 230/08 RMK AO2 P0000
14837KMSN MSN20011130230511211/30/01 23:05:31  5-MIN KMSN 010505Z 24007KT 9SM -RA BKN012 OVC018 05/03 A2978 1000 89 100 240/07 RMK AO2 P0000
14837KMSN MSN20011130231011811/30/01 23:10:31  5-MIN KMSN 010510Z 25007KT 210V280 7SM -RA OVC012 04/03 A2978 990 92 0 250/07 210V280 RMK AO2 P0000
14837KMSN MSN20011130231511211/30/01 23:15:31  5-MIN KMSN 010515Z VRB06KT 6SM -RA BR SCT009 OVC015 04/03 A2978 990 92 0 VRB/06 RMK AO2 P0000
14837KMSN MSN20011130232011211/30/01 23:20:31  5-MIN KMSN 010520Z 26007KT 6SM -RA BR FEW009 OVC015 04/03 A2978 990 92 0 260/07 RMK AO2 P0001
14837KMSN MSN20011130232510911/30/01 23:25:31  5-MIN KMSN 010525Z 26006KT 7SM -RA BKN011 OVC017 04/03 A2978 990 92 0 260/06 RMK AO2 P0001
14837KMSN MSN20011130233011611/30/01 23:30:31  5-MIN KMSN 010530Z 26005KT 7SM -RA BKN009 BKN013 OVC020 04/03 A2979 990 92 0 250/05 RMK AO2 P0001
14837KMSN MSN20011130233511611/30/01 23:35:31  5-MIN KMSN 010535Z 26006KT 7SM -RA BKN009 BKN013 OVC020 04/03 A2979 990 92 0 250/06 RMK AO2 P0001
14837KMSN MSN20011130234011611/30/01 23:40:31  5-MIN KMSN 010540Z 25007KT 8SM -RA BKN009 BKN013 OVC020 04/03 A2979 980 92 0 250/07 RMK AO2 P0001
14837KMSN MSN20011130234511611/30/01 23:45:31  5-MIN KMSN 010545Z VRB06KT 8SM -RA FEW009 BKN015 OVC026 04/03 A2979 980 92 0 VRB/06 RMK AO2 P0001
14837KMSN MSN20011130235018311/30/01 23:50:31  5-MIN KMSN 010550Z 25007KT 210V280 8SM -RA FEW009 BKN015 OVC023 04/03 A2979 980 92 0 250/07 210V280 RMK AO2 SLP095 P0001 60004 T00440033 10056 20044 400560033 51012
14837KMSN MSN20011130235511711/30/01 23:55:31  5-MIN KMSN 010555Z 25008KT 10SM -RA FEW009 SCT015 OVC023 04/03 A2979 980 89 0 250/08 RMK AO2 P0000
