14837KMSN MSN20020601000009306/01/02 00:00:32  5-MIN KMSN 010600Z 00000KT 10SM CLR 16/11 A2979 980 74 1300 000/00 RMK AO2
14837KMSN MSN20020601000509306/01/02 00:05:31  5-MIN KMSN 010605Z 00000KT 10SM CLR 16/11 A2979 980 74 1300 000/00 RMK AO2
14837KMSN MSN20020601001009306/01/02 00:10:31  5-MIN KMSN 010610Z 00000KT 10SM CLR 16/11 A2979 980 74 1300 000/00 RMK AO2
14837KMSN MSN20020601001509306/01/02 00:15:31  5-MIN KMSN 010615Z 00000KT 10SM CLR 15/11 A2979 980 77 1300 000/00 RMK AO2
14837KMSN MSN20020601002009306/01/02 00:20:31  5-MIN KMSN 010620Z 00000KT 10SM CLR 15/11 A2979 980 77 1300 000/00 RMK AO2
14837KMSN MSN20020601002509306/01/02 00:25:31  5-MIN KMSN 010625Z 00000KT 10SM CLR 16/11 A2979 980 74 1300 000/00 RMK AO2
14837KMSN MSN20020601003009306/01/02 00:30:31  5-MIN KMSN 010630Z 00000KT 10SM CLR 15/12 A2979 980 80 1300 000/00 RMK AO2
14837KMSN MSN20020601003509306/01/02 00:35:31  5-MIN KMSN 010635Z 00000KT 10SM CLR 14/11 A2979 980 80 1200 000/00 RMK AO2
14837KMSN MSN20020601004009306/01/02 00:40:31  5-MIN KMSN 010640Z 00000KT 10SM CLR 15/11 A2979 980 77 1300 000/00 RMK AO2
14837KMSN MSN20020601004509306/01/02 00:45:31  5-MIN KMSN 010645Z 00000KT 10SM CLR 15/11 A2979 990 77 1300 000/00 RMK AO2
14837KMSN MSN20020601005011006/01/02 00:50:31  5-MIN KMSN 010650Z 00000KT 10SM CLR 14/11 A2979 980 80 1200 000/00 RMK AO2 SLP084 T01440111
14837KMSN MSN20020601005509306/01/02 00:55:31  5-MIN KMSN 010655Z 00000KT 10SM CLR 14/12 A2979 980 86 1100 000/00 RMK AO2
14837KMSN MSN20020601010009306/01/02 01:00:31  5-MIN KMSN 010700Z 00000KT 10SM CLR 14/12 A2979 980 86 1100 000/00 RMK AO2
14837KMSN MSN20020601010509306/01/02 01:05:31  5-MIN KMSN 010705Z 00000KT 10SM CLR 14/12 A2979 980 83 1200 000/00 RMK AO2
14837KMSN MSN20020601011009306/01/02 01:10:31  5-MIN KMSN 010710Z 00000KT 10SM CLR 14/12 A2979 980 83 1200 000/00 RMK AO2
14837KMSN MSN20020601011509306/01/02 01:15:31  5-MIN KMSN 010715Z 00000KT 10SM CLR 14/11 A2980 980 83 1100 000/00 RMK AO2
14837KMSN MSN20020601012009306/01/02 01:20:31  5-MIN KMSN 010720Z 16003KT 10SM CLR 15/12 A2979 980 80 1300 160/03 RMK AO2
14837KMSN MSN20020601012509306/01/02 01:25:31  5-MIN KMSN 010725Z 00000KT 10SM CLR 14/11 A2979 980 83 1100 000/00 RMK AO2
14837KMSN MSN20020601013009306/01/02 01:30:31  5-MIN KMSN 010730Z 00000KT 10SM CLR 14/11 A2979 980 83 1100 000/00 RMK AO2
14837KMSN MSN20020601013509306/01/02 01:35:31  5-MIN KMSN 010735Z 00000KT 10SM CLR 13/11 A2979 980 86 1100 000/00 RMK AO2
14837KMSN MSN20020601014009306/01/02 01:40:31  5-MIN KMSN 010740Z 00000KT 10SM CLR 13/11 A2979 980 86 1100 000/00 RMK AO2
14837KMSN MSN20020601014509306/01/02 01:45:31  5-MIN KMSN 010745Z 00000KT 10SM CLR 13/11 A2979 980 86 1100 000/00 RMK AO2
14837KMSN MSN20020601015011006/01/02 01:50:31  5-MIN KMSN 010750Z 00000KT 10SM CLR 14/12 A2979 980 86 1100 000/00 RMK AO2 SLP085 T01390117
14837KMSN MSN20020601015509306/01/02 01:55:31  5-MIN KMSN 010755Z 00000KT 10SM CLR 14/12 A2979 980 86 1100 000/00 RMK AO2
14837KMSN MSN20020601020009306/01/02 02:00:31  5-MIN KMSN 010800Z 00000KT 10SM CLR 13/11 A2979 980 86 1100 000/00 RMK AO2
14837KMSN MSN20020601020509306/01/02 02:05:31  5-MIN KMSN 010805Z 00000KT 10SM CLR 13/11 A2979 980 86 1100 000/00 RMK AO2
14837KMSN MSN20020601021009306/01/02 02:10:31  5-MIN KMSN 010810Z 00000KT 10SM CLR 13/11 A2979 980 86 1100 000/00 RMK AO2
14837KMSN MSN20020601021509306/01/02 02:15:31  5-MIN KMSN 010815Z 00000KT 10SM CLR 13/11 A2979 980 86 1100 000/00 RMK AO2
14837KMSN MSN20020601022009306/01/02 02:20:31  5-MIN KMSN 010820Z 00000KT 10SM CLR 14/11 A2980 980 83 1100 000/00 RMK AO2
14837KMSN MSN20020601022509306/01/02 02:25:31  5-MIN KMSN 010825Z 00000KT 10SM CLR 14/11 A2980 980 80 1200 000/00 RMK AO2
14837KMSN MSN20020601023009306/01/02 02:30:31  5-MIN KMSN 010830Z 00000KT 10SM CLR 14/11 A2979 980 83 1100 000/00 RMK AO2
14837KMSN MSN20020601023509306/01/02 02:35:31  5-MIN KMSN 010835Z 00000KT 10SM CLR 13/11 A2979 980 89 1000 000/00 RMK AO2
14837KMSN MSN20020601024009306/01/02 02:40:31  5-MIN KMSN 010840Z 00000KT 10SM CLR 13/11 A2979 980 86 1100 000/00 RMK AO2
14837KMSN MSN20020601024509306/01/02 02:45:31  5-MIN KMSN 010845Z 00000KT 10SM CLR 13/11 A2979 980 86 1100 000/00 RMK AO2
14837KMSN MSN20020601025011606/01/02 02:50:31  5-MIN KMSN 010850Z 00000KT 10SM CLR 14/11 A2979 980 83 1100 000/00 RMK AO2 SLP085 T01390111 58004
14837KMSN MSN20020601025509306/01/02 02:55:31  5-MIN KMSN 010855Z 00000KT 10SM CLR 13/11 A2979 980 89 1000 000/00 RMK AO2
14837KMSN MSN20020601030009306/01/02 03:00:31  5-MIN KMSN 010900Z 00000KT 10SM CLR 13/11 A2980 980 89 1000 000/00 RMK AO2
14837KMSN MSN20020601030509306/01/02 03:05:31  5-MIN KMSN 010905Z 00000KT 10SM CLR 13/11 A2980 980 89 1000 000/00 RMK AO2
14837KMSN MSN20020601031009306/01/02 03:10:31  5-MIN KMSN 010910Z 00000KT 10SM CLR 13/11 A2980 980 89 1000 000/00 RMK AO2
14837KMSN MSN20020601031509306/01/02 03:15:31  5-MIN KMSN 010915Z 00000KT 10SM CLR 13/11 A2980 980 86 1000 000/00 RMK AO2
14837KMSN MSN20020601032009206/01/02 03:20:31  5-MIN KMSN 010920Z 00000KT 10SM CLR 12/11 A2980 970 89 900 000/00 RMK AO2
14837KMSN MSN20020601032509306/01/02 03:25:31  5-MIN KMSN 010925Z 00000KT 10SM CLR 13/11 A2980 970 86 1000 000/00 RMK AO2
14837KMSN MSN20020601033009306/01/02 03:30:31  5-MIN KMSN 010930Z 00000KT 10SM CLR 13/11 A2980 980 86 1000 000/00 RMK AO2
14837KMSN MSN20020601033509206/01/02 03:35:31  5-MIN KMSN 010935Z 00000KT 10SM CLR 12/11 A2980 980 89 900 000/00 RMK AO2
14837KMSN MSN20020601034009206/01/02 03:40:31  5-MIN KMSN 010940Z 00000KT 10SM CLR 12/11 A2980 980 93 800 000/00 RMK AO2
14837KMSN MSN20020601034509206/01/02 03:45:31  5-MIN KMSN 010945Z 00000KT 10SM CLR 12/11 A2980 980 89 900 000/00 RMK AO2
14837KMSN MSN20020601035011006/01/02 03:50:31  5-MIN KMSN 010950Z 00000KT 10SM CLR 13/11 A2980 980 89 1000 000/00 RMK AO2 SLP087 T01280111
14837KMSN MSN20020601035509206/01/02 03:55:31  5-MIN KMSN 010955Z 00000KT 10SM CLR 12/11 A2980 980 93 900 000/00 RMK AO2
14837KMSN MSN20020601040009306/01/02 04:00:31  5-MIN KMSN 011000Z 00000KT 10SM CLR 13/11 A2980 980 89 1000 000/00 RMK AO2
14837KMSN MSN20020601040509206/01/02 04:05:31  5-MIN KMSN 011005Z 00000KT 10SM CLR 12/11 A2980 970 89 900 000/00 RMK AO2
14837KMSN MSN20020601041009206/01/02 04:10:31  5-MIN KMSN 011010Z 00000KT 10SM CLR 12/11 A2980 970 89 900 000/00 RMK AO2
14837KMSN MSN20020601041509206/01/02 04:15:31  5-MIN KMSN 011015Z 00000KT 10SM CLR 12/11 A2980 970 89 900 000/00 RMK AO2
14837KMSN MSN20020601042009206/01/02 04:20:31  5-MIN KMSN 011020Z 00000KT 10SM CLR 12/11 A2981 970 89 900 000/00 RMK AO2
14837KMSN MSN20020601042509206/01/02 04:25:31  5-MIN KMSN 011025Z 00000KT 10SM CLR 12/11 A2981 970 89 900 000/00 RMK AO2
14837KMSN MSN20020601043009206/01/02 04:30:31  5-MIN KMSN 011030Z 00000KT 10SM CLR 12/11 A2981 970 89 900 000/00 RMK AO2
14837KMSN MSN20020601043509206/01/02 04:35:31  5-MIN KMSN 011035Z 00000KT 10SM CLR 12/11 A2981 970 89 900 000/00 RMK AO2
14837KMSN MSN20020601044009206/01/02 04:40:31  5-MIN KMSN 011040Z 00000KT 10SM CLR 12/11 A2981 970 89 900 000/00 RMK AO2
14837KMSN MSN20020601044509306/01/02 04:45:31  5-MIN KMSN 011045Z 00000KT 10SM CLR 13/11 A2981 970 86 1000 000/00 RMK AO2
14837KMSN MSN20020601045011006/01/02 04:50:31  5-MIN KMSN 011050Z 00000KT 10SM CLR 13/11 A2981 960 86 1000 000/00 RMK AO2 SLP092 T01280106
14837KMSN MSN20020601045509306/01/02 04:55:31  5-MIN KMSN 011055Z 03003KT 10SM CLR 13/11 A2981 970 89 1000 030/03 RMK AO2
14837KMSN MSN20020601050009206/01/02 05:00:31  5-MIN KMSN 011100Z 00000KT 10SM CLR 12/11 A2981 970 89 900 000/00 RMK AO2
14837KMSN MSN20020601050509306/01/02 05:05:31  5-MIN KMSN 011105Z 00000KT 10SM CLR 13/11 A2981 960 86 1000 000/00 RMK AO2
14837KMSN MSN20020601051009306/01/02 05:10:31  5-MIN KMSN 011110Z 00000KT 10SM CLR 13/11 A2981 970 89 1000 000/00 RMK AO2
14837KMSN MSN20020601051509306/01/02 05:15:31  5-MIN KMSN 011115Z 00000KT 10SM CLR 13/11 A2981 960 86 1000 000/00 RMK AO2
14837KMSN MSN20020601052009306/01/02 05:20:31  5-MIN KMSN 011120Z 00000KT 10SM CLR 13/12 A2982 960 89 1000 000/00 RMK AO2
14837KMSN MSN20020601052509306/01/02 05:25:31  5-MIN KMSN 011125Z 00000KT 10SM CLR 14/12 A2982 960 90 1100 000/00 RMK AO2
14837KMSN MSN20020601053009306/01/02 05:30:31  5-MIN KMSN 011130Z 00000KT 10SM CLR 14/12 A2982 960 86 1200 000/00 RMK AO2
14837KMSN MSN20020601053509306/01/02 05:35:31  5-MIN KMSN 011135Z 00000KT 10SM CLR 14/13 A2981 960 90 1200 000/00 RMK AO2
14837KMSN MSN20020601054009306/01/02 05:40:31  5-MIN KMSN 011140Z 00000KT 10SM CLR 15/13 A2981 960 90 1200 000/00 RMK AO2
14837KMSN MSN20020601054509306/01/02 05:45:31  5-MIN KMSN 011145Z 00000KT 10SM CLR 16/14 A2982 960 90 1300 000/00 RMK AO2
14837KMSN MSN20020601055012806/01/02 05:50:31  5-MIN KMSN 011150Z 00000KT 10SM CLR 16/14 A2982 960 86 1400 000/00 RMK AO2 SLP092 T01610139 10161 20117 53001
14837KMSN MSN20020601055509306/01/02 05:55:31  5-MIN KMSN 011155Z 00000KT 10SM CLR 16/14 A2982 960 86 1400 000/00 RMK AO2
14837KMSN MSN20020601060009306/01/02 06:00:31  5-MIN KMSN 011200Z 00000KT 10SM CLR 17/14 A2981 960 83 1400 000/00 RMK AO2
14837KMSN MSN20020601060509306/01/02 06:05:31  5-MIN KMSN 011205Z 00000KT 10SM CLR 17/14 A2981 960 80 1500 000/00 RMK AO2
14837KMSN MSN20020601061009306/01/02 06:10:31  5-MIN KMSN 011210Z 00000KT 10SM CLR 18/14 A2981 960 78 1600 000/00 RMK AO2
14837KMSN MSN20020601061509306/01/02 06:15:31  5-MIN KMSN 011215Z 00000KT 10SM CLR 18/13 A2981 960 72 1600 000/00 RMK AO2
14837KMSN MSN20020601062009306/01/02 06:20:31  5-MIN KMSN 011220Z 00000KT 10SM CLR 19/13 A2981 960 70 1700 000/00 RMK AO2
14837KMSN MSN20020601062509306/01/02 06:25:31  5-MIN KMSN 011225Z 00000KT 10SM CLR 19/14 A2981 960 72 1700 000/00 RMK AO2
14837KMSN MSN20020601063009306/01/02 06:30:31  5-MIN KMSN 011230Z 00000KT 10SM CLR 19/14 A2981 970 70 1700 000/00 RMK AO2
14837KMSN MSN20020601063509306/01/02 06:35:31  5-MIN KMSN 011235Z 00000KT 10SM CLR 20/13 A2981 970 65 1800 000/00 RMK AO2
14837KMSN MSN20020601064009306/01/02 06:40:31  5-MIN KMSN 011240Z 00000KT 10SM CLR 21/13 A2981 970 63 1900 000/00 RMK AO2
14837KMSN MSN20020601064509306/01/02 06:45:31  5-MIN KMSN 011245Z 22004KT 10SM CLR 21/13 A2981 970 60 1900 220/04 RMK AO2
14837KMSN MSN20020601065011006/01/02 06:50:31  5-MIN KMSN 011250Z VRB04KT 10SM CLR 21/13 A2981 970 60 1900 VRB/04 RMK AO2 SLP087 T02060128
14837KMSN MSN20020601065509306/01/02 06:55:31  5-MIN KMSN 011255Z VRB03KT 10SM CLR 21/13 A2980 970 60 1900 VRB/03 RMK AO2
14837KMSN MSN20020601070009306/01/02 07:00:31  5-MIN KMSN 011300Z VRB03KT 10SM CLR 21/13 A2980 970 58 1900 VRB/03 RMK AO2
14837KMSN MSN20020601070509306/01/02 07:05:31  5-MIN KMSN 011305Z VRB03KT 10SM CLR 21/13 A2980 970 58 1900 VRB/03 RMK AO2
14837KMSN MSN20020601071009306/01/02 07:10:31  5-MIN KMSN 011310Z VRB04KT 10SM CLR 21/13 A2981 970 58 1900 VRB/04 RMK AO2
14837KMSN MSN20020601071509306/01/02 07:15:31  5-MIN KMSN 011315Z VRB03KT 10SM CLR 22/13 A2980 970 56 2000 VRB/03 RMK AO2
14837KMSN MSN20020601072009306/01/02 07:20:31  5-MIN KMSN 011320Z VRB04KT 10SM CLR 22/13 A2980 970 58 2000 VRB/04 RMK AO2
14837KMSN MSN20020601072509306/01/02 07:25:31  5-MIN KMSN 011325Z VRB05KT 10SM CLR 22/13 A2980 970 58 2000 VRB/05 RMK AO2
14837KMSN MSN20020601073009306/01/02 07:30:31  5-MIN KMSN 011330Z VRB05KT 10SM CLR 22/13 A2980 970 56 2100 VRB/05 RMK AO2
14837KMSN MSN20020601073509306/01/02 07:35:31  5-MIN KMSN 011335Z 22004KT 10SM CLR 22/13 A2980 980 56 2100 220/04 RMK AO2
14837KMSN MSN20020601074009306/01/02 07:40:31  5-MIN KMSN 011340Z 24004KT 10SM CLR 22/13 A2980 980 54 2100 240/04 RMK AO2
14837KMSN MSN20020601074509306/01/02 07:45:31  5-MIN KMSN 011345Z VRB05KT 10SM CLR 23/13 A2980 970 55 2100 VRB/05 RMK AO2
14837KMSN MSN20020601075011006/01/02 07:50:31  5-MIN KMSN 011350Z 22004KT 10SM CLR 23/13 A2980 970 53 2200 220/04 RMK AO2 SLP086 T02330133
14837KMSN MSN20020601075509306/01/02 07:55:31  5-MIN KMSN 011355Z 26007KT 10SM CLR 23/13 A2980 970 53 2200 260/07 RMK AO2
14837KMSN MSN20020601080009306/01/02 08:00:31  5-MIN KMSN 011400Z VRB06KT 10SM CLR 24/13 A2980 980 51 2300 VRB/06 RMK AO2
14837KMSN MSN20020601080509306/01/02 08:05:31  5-MIN KMSN 011405Z VRB06KT 10SM CLR 24/13 A2980 980 49 2300 VRB/06 RMK AO2
14837KMSN MSN20020601081009306/01/02 08:10:31  5-MIN KMSN 011410Z 23007KT 10SM CLR 24/13 A2979 980 47 2300 230/07 RMK AO2
14837KMSN MSN20020601081509306/01/02 08:15:31  5-MIN KMSN 011415Z VRB04KT 10SM CLR 24/13 A2979 980 47 2300 VRB/04 RMK AO2
14837KMSN MSN20020601082009306/01/02 08:20:31  5-MIN KMSN 011420Z VRB06KT 10SM CLR 24/13 A2979 980 49 2300 VRB/06 RMK AO2
14837KMSN MSN20020601082509306/01/02 08:25:31  5-MIN KMSN 011425Z 24006KT 10SM CLR 25/13 A2979 980 48 2400 230/06 RMK AO2
14837KMSN MSN20020601083009306/01/02 08:30:31  5-MIN KMSN 011430Z VRB06KT 10SM CLR 25/13 A2979 980 48 2400 VRB/06 RMK AO2
14837KMSN MSN20020601083509306/01/02 08:35:31  5-MIN KMSN 011435Z 25008KT 10SM CLR 25/13 A2979 990 46 2400 250/08 RMK AO2
14837KMSN MSN20020601084009306/01/02 08:40:31  5-MIN KMSN 011440Z VRB05KT 10SM CLR 26/13 A2979 990 44 2500 VRB/05 RMK AO2
14837KMSN MSN20020601084509306/01/02 08:45:31  5-MIN KMSN 011445Z 23004KT 10SM CLR 26/13 A2978 990 46 2500 230/04 RMK AO2
14837KMSN MSN20020601085011606/01/02 08:50:31  5-MIN KMSN 011450Z 23007KT 10SM CLR 26/13 A2978 990 46 2500 230/07 RMK AO2 SLP079 T02560133 52007
14837KMSN MSN20020601085509306/01/02 08:55:31  5-MIN KMSN 011455Z 22006KT 10SM CLR 26/13 A2978 990 44 2500 220/06 RMK AO2
14837KMSN MSN20020601090010906/01/02 09:00:31  5-MIN KMSN 011500Z 23007KT 200V260 10SM CLR 26/13 A2978 990 44 2500 220/07 200V260 RMK AO2
14837KMSN MSN20020601090509406/01/02 09:05:31  5-MIN KMSN 011505Z 24008KT 10SM CLR 26/13 A2978 1000 43 2500 240/08 RMK AO2
14837KMSN MSN20020601091009406/01/02 09:10:31  5-MIN KMSN 011510Z 22007KT 10SM CLR 26/13 A2978 1000 43 2500 220/07 RMK AO2
14837KMSN MSN20020601091509406/01/02 09:15:31  5-MIN KMSN 011515Z 22007KT 10SM CLR 26/13 A2978 1000 44 2500 220/07 RMK AO2
14837KMSN MSN20020601092009406/01/02 09:20:31  5-MIN KMSN 011520Z 22006KT 10SM CLR 26/13 A2978 1000 43 2500 220/06 RMK AO2
14837KMSN MSN20020601092509406/01/02 09:25:31  5-MIN KMSN 011525Z 21008KT 10SM CLR 27/13 A2978 1000 41 2600 210/08 RMK AO2
14837KMSN MSN20020601093009406/01/02 09:30:31  5-MIN KMSN 011530Z 23008KT 10SM CLR 27/13 A2977 1000 41 2600 220/08 RMK AO2
14837KMSN MSN20020601093509406/01/02 09:35:31  5-MIN KMSN 011535Z 22008KT 10SM CLR 27/12 A2978 1000 40 2600 220/08 RMK AO2
14837KMSN MSN20020601094011006/01/02 09:40:31  5-MIN KMSN 011540Z 24009KT 210V270 10SM CLR 27/12 A2978 1000 38 2600 240/09 210V270 RMK AO2
14837KMSN MSN20020601094511006/01/02 09:45:31  5-MIN KMSN 011545Z 22008KT 200V260 10SM CLR 27/12 A2978 1000 39 2700 220/08 200V260 RMK AO2
14837KMSN MSN20020601095012706/01/02 09:50:31  5-MIN KMSN 011550Z 23008KT 200V270 10SM CLR 27/13 A2977 1000 40 2700 230/08 200V270 RMK AO2 SLP077 T02720128
14837KMSN MSN20020601095511006/01/02 09:55:31  5-MIN KMSN 011555Z 22009KT 200V280 10SM CLR 27/13 A2977 1000 40 2700 220/09 200V280 RMK AO2
14837KMSN MSN20020601100009406/01/02 10:00:31  5-MIN KMSN 011600Z VRB06KT 10SM CLR 28/13 A2977 1000 40 2700 VRB/06 RMK AO2
14837KMSN MSN20020601100509406/01/02 10:05:31  5-MIN KMSN 011605Z 23009KT 10SM CLR 28/13 A2977 1000 39 2700 230/09 RMK AO2
14837KMSN MSN20020601101011006/01/02 10:10:31  5-MIN KMSN 011610Z 24008KT 210V270 10SM CLR 28/12 A2977 1010 37 2700 240/08 210V270 RMK AO2
14837KMSN MSN20020601101511006/01/02 10:15:31  5-MIN KMSN 011615Z 24008KT 220V280 10SM CLR 28/12 A2977 1010 37 2700 240/08 220V280 RMK AO2
14837KMSN MSN20020601102009406/01/02 10:20:31  5-MIN KMSN 011620Z VRB06KT 10SM CLR 28/13 A2977 1010 39 2700 VRB/06 RMK AO2
14837KMSN MSN20020601102509406/01/02 10:25:31  5-MIN KMSN 011625Z 23006KT 10SM CLR 28/13 A2976 1010 39 2700 230/06 RMK AO2
14837KMSN MSN20020601103009406/01/02 10:30:31  5-MIN KMSN 011630Z 22011KT 10SM CLR 28/13 A2976 1010 39 2700 220/11 RMK AO2
14837KMSN MSN20020601103511006/01/02 10:35:31  5-MIN KMSN 011635Z 23008KT 210V270 10SM CLR 28/13 A2976 1010 39 2700 230/08 210V270 RMK AO2
14837KMSN MSN20020601104011006/01/02 10:40:31  5-MIN KMSN 011640Z 23007KT 200V270 10SM CLR 28/13 A2976 1010 39 2800 220/07 200V270 RMK AO2
14837KMSN MSN20020601104511006/01/02 10:45:31  5-MIN KMSN 011645Z 23008KT 180V270 10SM CLR 28/13 A2976 1010 39 2800 230/08 180V270 RMK AO2
14837KMSN MSN20020601105012706/01/02 10:50:31  5-MIN KMSN 011650Z 22007KT 180V260 10SM CLR 28/13 A2976 1010 39 2800 220/07 180V260 RMK AO2 SLP072 T02830133
14837KMSN MSN20020601105509406/01/02 10:55:31  5-MIN KMSN 011655Z 22009KT 10SM CLR 28/14 A2976 1010 40 2800 220/09 RMK AO2
14837KMSN MSN20020601110009406/01/02 11:00:31  5-MIN KMSN 011700Z 22008KT 10SM CLR 28/14 A2976 1010 40 2800 220/08 RMK AO2
14837KMSN MSN20020601110509406/01/02 11:05:31  5-MIN KMSN 011705Z 23008KT 10SM CLR 28/14 A2975 1020 40 2800 220/08 RMK AO2
14837KMSN MSN20020601111009406/01/02 11:10:31  5-MIN KMSN 011710Z 22009KT 10SM CLR 28/14 A2976 1020 40 2800 220/09 RMK AO2
14837KMSN MSN20020601111509406/01/02 11:15:31  5-MIN KMSN 011715Z 22010KT 10SM CLR 28/13 A2975 1020 39 2800 220/10 RMK AO2
14837KMSN MSN20020601112009406/01/02 11:20:31  5-MIN KMSN 011720Z 23009KT 10SM CLR 28/14 A2975 1020 40 2800 230/09 RMK AO2
14837KMSN MSN20020601112509406/01/02 11:25:31  5-MIN KMSN 011725Z 23009KT 10SM CLR 28/13 A2975 1020 39 2800 230/09 RMK AO2
14837KMSN MSN20020601113011006/01/02 11:30:31  5-MIN KMSN 011730Z 23009KT 200V260 10SM CLR 28/13 A2975 1020 39 2800 230/09 200V260 RMK AO2
14837KMSN MSN20020601113509406/01/02 11:35:31  5-MIN KMSN 011735Z 23009KT 10SM CLR 28/14 A2975 1020 40 2800 220/09 RMK AO2
14837KMSN MSN20020601114011006/01/02 11:40:31  5-MIN KMSN 011740Z 23009KT 190V250 10SM CLR 28/14 A2975 1020 40 2800 230/09 190V250 RMK AO2
14837KMSN MSN20020601114509406/01/02 11:45:31  5-MIN KMSN 011745Z 23008KT 10SM CLR 28/13 A2975 1030 39 2800 230/08 RMK AO2
14837KMSN MSN20020601115012906/01/02 11:50:31  5-MIN KMSN 011750Z VRB06KT 10SM CLR 29/14 A2974 1030 40 2900 VRB/06 RMK AO2 SLP067 T02890144 10289 20161 58012
14837KMSN MSN20020601115509406/01/02 11:55:31  5-MIN KMSN 011755Z 24010KT 10SM CLR 29/13 A2974 1030 38 2900 240/10 RMK AO2
14837KMSN MSN20020601120009406/01/02 12:00:31  5-MIN KMSN 011800Z 23008KT 10SM CLR 29/13 A2974 1030 38 2900 230/08 RMK AO2
14837KMSN MSN20020601120509406/01/02 12:05:31  5-MIN KMSN 011805Z 24009KT 10SM CLR 29/13 A2974 1030 38 2900 240/09 RMK AO2
14837KMSN MSN20020601121011006/01/02 12:10:31  5-MIN KMSN 011810Z 23008KT 200V260 10SM CLR 29/14 A2974 1030 39 2900 230/08 200V260 RMK AO2
14837KMSN MSN20020601121511006/01/02 12:15:31  5-MIN KMSN 011815Z 21009KT 190V250 10SM CLR 29/14 A2973 1040 39 2900 210/09 190V250 RMK AO2
14837KMSN MSN20020601122009406/01/02 12:20:31  5-MIN KMSN 011820Z 23008KT 10SM CLR 29/14 A2973 1040 39 2900 230/08 RMK AO2
14837KMSN MSN20020601122511006/01/02 12:25:31  5-MIN KMSN 011825Z 23008KT 190V260 10SM CLR 29/14 A2973 1040 39 2900 230/08 190V260 RMK AO2
14837KMSN MSN20020601123010006/01/02 12:30:31  5-MIN KMSN 011830Z 22010G15KT 10SM CLR 29/14 A2973 1040 39 2900 220/10G15 RMK AO2
14837KMSN MSN20020601123511606/01/02 12:35:31  5-MIN KMSN 011835Z 23009G15KT 200V260 10SM CLR 29/14 A2973 1040 39 2900 230/09G15 200V260 RMK AO2
14837KMSN MSN20020601124009406/01/02 12:40:31  5-MIN KMSN 011840Z 22010KT 10SM CLR 29/14 A2973 1040 39 2900 220/10 RMK AO2
14837KMSN MSN20020601124511006/01/02 12:45:31  5-MIN KMSN 011845Z 22008KT 170V240 10SM CLR 29/14 A2972 1050 40 2900 220/08 170V240 RMK AO2
14837KMSN MSN20020601125011106/01/02 12:50:31  5-MIN KMSN 011850Z 22007KT 10SM CLR 29/15 A2972 1050 41 3000 220/07 RMK AO2 SLP059 T02940150
14837KMSN MSN20020601125510006/01/02 12:55:31  5-MIN KMSN 011855Z 23011G15KT 10SM CLR 29/14 A2972 1050 39 3000 230/11G15 RMK AO2
14837KMSN MSN20020601130009406/01/02 13:00:31  5-MIN KMSN 011900Z 23009KT 10SM CLR 29/14 A2972 1050 40 2900 230/09 RMK AO2
14837KMSN MSN20020601130509406/01/02 13:05:31  5-MIN KMSN 011905Z 23009KT 10SM CLR 29/15 A2972 1050 41 3000 220/09 RMK AO2
14837KMSN MSN20020601131009406/01/02 13:10:31  5-MIN KMSN 011910Z 23009KT 10SM CLR 29/14 A2971 1060 39 3000 230/09 RMK AO2
14837KMSN MSN20020601131510006/01/02 13:15:31  5-MIN KMSN 011915Z 22010G16KT 10SM CLR 29/15 A2971 1060 41 3000 220/10G16 RMK AO2
14837KMSN MSN20020601132011606/01/02 13:20:31  5-MIN KMSN 011920Z 24008G16KT 200V270 10SM CLR 29/16 A2971 1060 42 3000 240/08G16 200V270 RMK AO2
14837KMSN MSN20020601132511606/01/02 13:25:31  5-MIN KMSN 011925Z 23007G14KT 200V260 10SM CLR 29/16 A2971 1060 42 3000 230/07G14 200V260 RMK AO2
14837KMSN MSN20020601133010006/01/02 13:30:31  5-MIN KMSN 011930Z 22011G14KT 10SM CLR 29/16 A2971 1060 42 3000 210/11G14 RMK AO2
14837KMSN MSN20020601133511006/01/02 13:35:31  5-MIN KMSN 011935Z 23009KT 210V270 10SM CLR 29/16 A2971 1060 42 3000 230/09 210V270 RMK AO2
14837KMSN MSN20020601134011606/01/02 13:40:31  5-MIN KMSN 011940Z 22010G16KT 190V250 10SM CLR 29/16 A2971 1060 42 3000 220/10G16 190V250 RMK AO2
14837KMSN MSN20020601134511606/01/02 13:45:31  5-MIN KMSN 011945Z 24010G17KT 220V290 10SM CLR 30/14 A2971 1060 36 3100 240/10G17 220V290 RMK AO2
14837KMSN MSN20020601135012006/01/02 13:50:31  5-MIN KMSN 011950Z 22007G17KT 10SM FEW060 31/15 A2971 1060 38 3100 220/07G17 RMK AO2 SLP055 T03060150
14837KMSN MSN20020601135509406/01/02 13:55:31  5-MIN KMSN 011955Z 22008KT 10SM CLR 29/16 A2970 1070 42 3000 220/08 RMK AO2
14837KMSN MSN20020601140011306/01/02 14:00:31  5-MIN KMSN 012000Z 25008KT 210V310 10SM FEW060 30/15 A2971 1060 39 3100 250/08 210V310 RMK AO2
14837KMSN MSN20020601140511306/01/02 14:05:31  5-MIN KMSN 012005Z 27008KT 220V310 10SM FEW060 31/14 A2971 1060 37 3100 270/08 220V310 RMK AO2
14837KMSN MSN20020601141010306/01/02 14:10:31  5-MIN KMSN 012010Z 26013G20KT 10SM FEW060 31/14 A2971 1060 35 3100 260/13G20 RMK AO2
14837KMSN MSN20020601141511906/01/02 14:15:31  5-MIN KMSN 012015Z 26011G20KT 200V300 10SM FEW060 31/14 A2971 1060 35 3100 260/11G20 200V300 RMK AO2
14837KMSN MSN20020601142011906/01/02 14:20:31  5-MIN KMSN 012020Z 27009G17KT 220V300 10SM FEW060 31/14 A2970 1060 37 3100 270/09G17 220V300 RMK AO2
14837KMSN MSN20020601142510306/01/02 14:25:31  5-MIN KMSN 012025Z 25012G17KT 10SM FEW060 31/14 A2971 1060 37 3100 250/12G17 RMK AO2
14837KMSN MSN20020601143010306/01/02 14:30:31  5-MIN KMSN 012030Z 28011G17KT 10SM FEW060 30/14 A2970 1070 36 3100 280/11G17 RMK AO2
14837KMSN MSN20020601143511906/01/02 14:35:31  5-MIN KMSN 012035Z 25010G15KT 220V290 10SM FEW060 30/15 A2970 1070 39 3100 250/10G15 220V290 RMK AO2
14837KMSN MSN20020601144010306/01/02 14:40:31  5-MIN KMSN 012040Z 26009G15KT 10SM SCT090 30/14 A2970 1070 38 3100 260/09G15 RMK AO2
14837KMSN MSN20020601144510306/01/02 14:45:31  5-MIN KMSN 012045Z 27012G20KT 10SM SCT090 31/14 A2970 1070 37 3100 270/12G20 RMK AO2
14837KMSN MSN20020601145012606/01/02 14:50:31  5-MIN KMSN 012050Z 27011G20KT 10SM SCT090 30/14 A2970 1070 36 3100 270/11G20 RMK AO2 SLP052 T03000139 58013
14837KMSN MSN20020601145511006/01/02 14:55:31  5-MIN KMSN 012055Z 26008G19KT 10SM SCT060 SCT090 29/14 A2970 1070 38 3000 260/08G19 RMK AO2
14837KMSN MSN20020601150011006/01/02 15:00:31  5-MIN KMSN 012100Z 27010G17KT 10SM SCT060 SCT090 29/14 A2969 1070 39 3000 270/10G17 RMK AO2
14837KMSN MSN20020601150512606/01/02 15:05:31  5-MIN KMSN 012105Z 28011G17KT 240V310 10SM SCT060 SCT090 30/15 A2970 1070 39 3100 280/11G17 240V310 RMK AO2
14837KMSN MSN20020601151012606/01/02 15:10:31  5-MIN KMSN 012110Z 27009G14KT 230V300 10SM SCT060 SCT090 30/15 A2970 1070 39 3100 270/09G14 230V300 RMK AO2
14837KMSN MSN20020601151511006/01/02 15:15:31  5-MIN KMSN 012115Z 26009G17KT 10SM SCT060 SCT090 29/14 A2969 1080 39 3000 260/09G17 RMK AO2
14837KMSN MSN20020601152011006/01/02 15:20:31  5-MIN KMSN 012120Z 26008G17KT 10SM SCT060 SCT090 30/15 A2969 1080 39 3100 250/08G17 RMK AO2
14837KMSN MSN20020601152512606/01/02 15:25:31  5-MIN KMSN 012125Z 26009G15KT 220V280 10SM SCT060 SCT090 30/16 A2969 1080 41 3100 260/09G15 220V280 RMK AO2
14837KMSN MSN20020601153012606/01/02 15:30:31  5-MIN KMSN 012130Z 25008G15KT 210V290 10SM SCT060 SCT090 31/16 A2968 1080 39 3100 250/08G15 210V290 RMK AO2
14837KMSN MSN20020601153512606/01/02 15:35:31  5-MIN KMSN 012135Z 25012G19KT 190V270 10SM SCT060 SCT090 31/15 A2968 1090 38 3100 250/12G19 190V270 RMK AO2
14837KMSN MSN20020601154012606/01/02 15:40:31  5-MIN KMSN 012140Z 25008G19KT 220V290 10SM SCT060 SCT090 30/15 A2968 1090 39 3100 250/08G19 220V290 RMK AO2
14837KMSN MSN20020601154512606/01/02 15:45:31  5-MIN KMSN 012145Z 26009G14KT 220V310 10SM SCT060 SCT090 31/15 A2968 1080 38 3100 260/09G14 220V310 RMK AO2
14837KMSN MSN20020601155013606/01/02 15:50:31  5-MIN KMSN 012150Z 25009G17KT 200V290 10SM SCT090 31/15 A2968 1080 38 3100 250/09G17 200V290 RMK AO2 SLP047 T03060150
14837KMSN MSN20020601155510306/01/02 15:55:31  5-MIN KMSN 012155Z 24007G17KT 10SM SCT085 31/16 A2968 1090 39 3100 240/07G17 RMK AO2
14837KMSN MSN20020601160010306/01/02 16:00:31  5-MIN KMSN 012200Z 24008G14KT 10SM SCT085 31/16 A2968 1090 39 3100 240/08G14 RMK AO2
14837KMSN MSN20020601160511906/01/02 16:05:31  5-MIN KMSN 012205Z 23009G14KT 190V250 10SM SCT085 30/15 A2968 1090 39 3100 230/09G14 190V250 RMK AO2
14837KMSN MSN20020601161009706/01/02 16:10:31  5-MIN KMSN 012210Z VRB06KT 10SM SCT085 30/16 A2968 1090 41 3100 VRB/06 RMK AO2
14837KMSN MSN20020601161511906/01/02 16:15:31  5-MIN KMSN 012215Z 26009G14KT 240V300 10SM SCT085 30/16 A2968 1090 41 3100 260/09G14 240V300 RMK AO2
14837KMSN MSN20020601162010306/01/02 16:20:31  5-MIN KMSN 012220Z 27007G16KT 10SM SCT085 30/16 A2968 1090 41 3100 270/07G16 RMK AO2
14837KMSN MSN20020601162511906/01/02 16:25:31  5-MIN KMSN 012225Z 27008G16KT 230V310 10SM SCT085 29/15 A2968 1090 41 3000 270/08G16 230V310 RMK AO2
14837KMSN MSN20020601163011906/01/02 16:30:31  5-MIN KMSN 012230Z 26009G16KT 230V290 10SM SCT085 30/15 A2968 1090 39 3100 260/09G16 230V290 RMK AO2
14837KMSN MSN20020601163510306/01/02 16:35:31  5-MIN KMSN 012235Z 28008G16KT 10SM SCT085 29/16 A2968 1080 42 3000 270/08G16 RMK AO2
14837KMSN MSN20020601164009706/01/02 16:40:31  5-MIN KMSN 012240Z 27010KT 10SM SCT085 29/16 A2968 1080 42 3000 270/10 RMK AO2
14837KMSN MSN20020601164509706/01/02 16:45:31  5-MIN KMSN 012245Z 28010KT 10SM SCT085 29/15 A2969 1080 41 3000 280/10 RMK AO2
14837KMSN MSN20020601165012006/01/02 16:50:31  5-MIN KMSN 012250Z 30015G22KT 10SM FEW085 30/14 A2969 1080 38 3100 300/15G22 RMK AO2 SLP048 T03000144
14837KMSN MSN20020601165510306/01/02 16:55:31  5-MIN KMSN 012255Z 29010G22KT 10SM FEW085 30/13 A2969 1080 34 3100 290/10G22 RMK AO2
14837KMSN MSN20020601170009706/01/02 17:00:31  5-MIN KMSN 012300Z 29010KT 10SM FEW085 29/12 A2969 1080 34 3000 290/10 RMK AO2
14837KMSN MSN20020601170509706/01/02 17:05:31  5-MIN KMSN 012305Z 30008KT 10SM FEW085 29/12 A2969 1080 34 3000 300/08 RMK AO2
14837KMSN MSN20020601171009706/01/02 17:10:31  5-MIN KMSN 012310Z 29009KT 10SM FEW085 29/12 A2969 1080 34 3000 290/09 RMK AO2
14837KMSN MSN20020601171509706/01/02 17:15:31  5-MIN KMSN 012315Z 30011KT 10SM FEW085 29/12 A2969 1080 34 3000 300/11 RMK AO2
14837KMSN MSN20020601172009706/01/02 17:20:31  5-MIN KMSN 012320Z 31009KT 10SM FEW085 29/11 A2969 1080 32 3000 310/09 RMK AO2
14837KMSN MSN20020601172509706/01/02 17:25:31  5-MIN KMSN 012325Z 29008KT 10SM FEW085 29/11 A2969 1080 32 3000 290/08 RMK AO2
14837KMSN MSN20020601173010306/01/02 17:30:31  5-MIN KMSN 012330Z 30011G16KT 10SM FEW085 29/11 A2969 1080 32 3000 300/11G16 RMK AO2
14837KMSN MSN20020601173510306/01/02 17:35:31  5-MIN KMSN 012335Z 30009G16KT 10SM FEW085 28/11 A2969 1080 32 2900 300/09G16 RMK AO2
14837KMSN MSN20020601174010306/01/02 17:40:31  5-MIN KMSN 012340Z 30008G14KT 10SM FEW085 28/11 A2969 1080 33 2900 300/08G14 RMK AO2
14837KMSN MSN20020601174510306/01/02 17:45:31  5-MIN KMSN 012345Z 30009G16KT 10SM FEW085 28/11 A2969 1080 32 2900 300/09G16 RMK AO2
14837KMSN MSN20020601175015406/01/02 17:50:31  5-MIN KMSN 012350Z 30010G16KT 260V330 10SM FEW085 28/10 A2969 1070 31 2900 300/10G16 260V330 RMK AO2 SLP050 T02830100 10306 20283 56014
14837KMSN MSN20020601175509406/01/02 17:55:31  5-MIN KMSN 012355Z 30008KT 10SM CLR 28/09 A2969 1070 30 2900 300/08 RMK AO2
14837KMSN MSN20020601180010006/01/02 18:00:31  5-MIN KMSN 020000Z 30006G14KT 10SM CLR 28/09 A2969 1080 30 2900 300/06G14 RMK AO2
14837KMSN MSN20020601180510006/01/02 18:05:31  5-MIN KMSN 020005Z 31008G14KT 10SM CLR 28/09 A2969 1080 31 2800 310/08G14 RMK AO2
14837KMSN MSN20020601181009406/01/02 18:10:31  5-MIN KMSN 020010Z 31008KT 10SM CLR 28/09 A2970 1070 31 2800 310/08 RMK AO2
14837KMSN MSN20020601181509406/01/02 18:15:31  5-MIN KMSN 020015Z 30007KT 10SM CLR 28/09 A2970 1070 31 2800 300/07 RMK AO2
14837KMSN MSN20020601182009406/01/02 18:20:31  5-MIN KMSN 020020Z 30007KT 10SM CLR 28/09 A2970 1070 31 2800 300/07 RMK AO2
14837KMSN MSN20020601182509406/01/02 18:25:31  5-MIN KMSN 020025Z 30007KT 10SM CLR 28/09 A2971 1060 31 2800 300/07 RMK AO2
14837KMSN MSN20020601183009406/01/02 18:30:31  5-MIN KMSN 020030Z 30006KT 10SM CLR 27/09 A2971 1060 31 2700 300/06 RMK AO2
14837KMSN MSN20020601183509406/01/02 18:35:31  5-MIN KMSN 020035Z 31006KT 10SM CLR 27/09 A2971 1060 31 2700 310/06 RMK AO2
14837KMSN MSN20020601184009406/01/02 18:40:31  5-MIN KMSN 020040Z 30004KT 10SM CLR 27/09 A2971 1060 33 2700 300/04 RMK AO2
14837KMSN MSN20020601184509406/01/02 18:45:31  5-MIN KMSN 020045Z 32004KT 10SM CLR 27/09 A2971 1060 32 2700 310/04 RMK AO2
14837KMSN MSN20020601185011106/01/02 18:50:31  5-MIN KMSN 020050Z 31003KT 10SM CLR 27/09 A2971 1060 33 2700 310/03 RMK AO2 SLP054 T02670094
14837KMSN MSN20020601185509406/01/02 18:55:31  5-MIN KMSN 020055Z 31003KT 10SM CLR 27/09 A2971 1060 33 2700 310/03 RMK AO2
14837KMSN MSN20020601190009406/01/02 19:00:31  5-MIN KMSN 020100Z 29005KT 10SM CLR 26/09 A2971 1060 34 2600 290/05 RMK AO2
14837KMSN MSN20020601190509406/01/02 19:05:31  5-MIN KMSN 020105Z 29004KT 10SM CLR 26/09 A2971 1060 34 2600 290/04 RMK AO2
14837KMSN MSN20020601191009406/01/02 19:10:31  5-MIN KMSN 020110Z 29005KT 10SM CLR 26/09 A2972 1050 34 2600 290/05 RMK AO2
14837KMSN MSN20020601191509406/01/02 19:15:31  5-MIN KMSN 020115Z 29004KT 10SM CLR 26/09 A2971 1060 34 2600 290/04 RMK AO2
14837KMSN MSN20020601192009406/01/02 19:20:31  5-MIN KMSN 020120Z 30003KT 10SM CLR 26/09 A2971 1060 35 2600 300/03 RMK AO2
14837KMSN MSN20020601192509406/01/02 19:25:31  5-MIN KMSN 020125Z 30003KT 10SM CLR 25/09 A2971 1060 37 2500 290/03 RMK AO2
14837KMSN MSN20020601193009406/01/02 19:30:31  5-MIN KMSN 020130Z 29003KT 10SM CLR 24/11 A2971 1060 42 2400 290/03 RMK AO2
14837KMSN MSN20020601193509406/01/02 19:35:31  5-MIN KMSN 020135Z 00000KT 10SM CLR 23/11 A2972 1050 47 2200 000/00 RMK AO2
14837KMSN MSN20020601194009406/01/02 19:40:31  5-MIN KMSN 020140Z 29003KT 10SM CLR 23/11 A2972 1050 45 2200 290/03 RMK AO2
14837KMSN MSN20020601194509406/01/02 19:45:31  5-MIN KMSN 020145Z 29003KT 10SM CLR 23/10 A2972 1050 44 2200 290/03 RMK AO2
14837KMSN MSN20020601195011106/01/02 19:50:31  5-MIN KMSN 020150Z 27003KT 10SM CLR 22/11 A2972 1050 49 2100 270/03 RMK AO2 SLP059 T02170106
14837KMSN MSN20020601195509406/01/02 19:55:31  5-MIN KMSN 020155Z 28005KT 10SM CLR 22/10 A2973 1040 45 2200 280/05 RMK AO2
14837KMSN MSN20020601200009406/01/02 20:00:31  5-MIN KMSN 020200Z 28006KT 10SM CLR 23/09 A2973 1040 41 2300 280/06 RMK AO2
14837KMSN MSN20020601200509406/01/02 20:05:31  5-MIN KMSN 020205Z 30005KT 10SM CLR 24/09 A2973 1040 39 2300 300/05 RMK AO2
14837KMSN MSN20020601201009406/01/02 20:10:31  5-MIN KMSN 020210Z 30005KT 10SM CLR 24/09 A2974 1040 39 2300 300/05 RMK AO2
14837KMSN MSN20020601201509406/01/02 20:15:31  5-MIN KMSN 020215Z 30005KT 10SM CLR 23/09 A2974 1030 41 2300 300/05 RMK AO2
14837KMSN MSN20020601202009406/01/02 20:20:31  5-MIN KMSN 020220Z 31006KT 10SM CLR 23/09 A2974 1030 41 2300 310/06 RMK AO2
14837KMSN MSN20020601202509406/01/02 20:25:31  5-MIN KMSN 020225Z 32006KT 10SM CLR 23/09 A2975 1030 41 2300 320/06 RMK AO2
14837KMSN MSN20020601203009406/01/02 20:30:31  5-MIN KMSN 020230Z 31007KT 10SM CLR 23/09 A2975 1020 41 2300 310/07 RMK AO2
14837KMSN MSN20020601203509406/01/02 20:35:31  5-MIN KMSN 020235Z 31006KT 10SM CLR 23/09 A2975 1020 41 2300 300/06 RMK AO2
14837KMSN MSN20020601204009406/01/02 20:40:31  5-MIN KMSN 020240Z 31005KT 10SM CLR 23/09 A2975 1020 41 2300 310/05 RMK AO2
14837KMSN MSN20020601204509406/01/02 20:45:31  5-MIN KMSN 020245Z 33004KT 10SM CLR 23/10 A2976 1020 44 2200 330/04 RMK AO2
14837KMSN MSN20020601205011706/01/02 20:50:31  5-MIN KMSN 020250Z 33003KT 10SM CLR 22/10 A2976 1010 45 2100 320/03 RMK AO2 SLP072 T02220100 55001
14837KMSN MSN20020601205509406/01/02 20:55:31  5-MIN KMSN 020255Z 31003KT 10SM CLR 23/10 A2976 1010 44 2200 310/03 RMK AO2
14837KMSN MSN20020601210009406/01/02 21:00:31  5-MIN KMSN 020300Z VRB06KT 10SM CLR 22/10 A2977 1000 47 2000 VRB/06 RMK AO2
14837KMSN MSN20020601210510006/01/02 21:05:31  5-MIN KMSN 020305Z 03013KT 10SM CLR 21/11 A2979 990 52 1900 030/13 RMK AO2 PRESRR
14837KMSN MSN20020601211010006/01/02 21:10:31  5-MIN KMSN 020310Z 05012KT 10SM CLR 21/11 A2979 980 50 2000 050/12 RMK AO2 PRESRR
14837KMSN MSN20020601211510406/01/02 21:15:31  5-MIN KMSN 020315Z 07013KT 10SM CLR 20/09 A2980 980 50 1800 060/13 RMK AO2 WSHFT 0301
14837KMSN MSN20020601212011106/01/02 21:20:31  5-MIN KMSN 020320Z 06010KT 10SM CLR 19/09 A2980 970 52 1700 060/10 RMK AO2 WSHFT 0301 PRESRR
14837KMSN MSN20020601212511106/01/02 21:25:31  5-MIN KMSN 020325Z 07008KT 10SM CLR 19/09 A2981 970 52 1700 060/08 RMK AO2 WSHFT 0301 PRESRR
14837KMSN MSN20020601213011106/01/02 21:30:31  5-MIN KMSN 020330Z 05008KT 10SM CLR 18/09 A2981 960 54 1600 050/08 RMK AO2 WSHFT 0301 PRESRR
14837KMSN MSN20020601213510406/01/02 21:35:31  5-MIN KMSN 020335Z 06007KT 10SM CLR 18/08 A2982 960 50 1600 060/07 RMK AO2 WSHFT 0301
14837KMSN MSN20020601214010406/01/02 21:40:31  5-MIN KMSN 020340Z 07007KT 10SM CLR 18/08 A2982 960 51 1500 060/07 RMK AO2 WSHFT 0301
14837KMSN MSN20020601214510406/01/02 21:45:31  5-MIN KMSN 020345Z 06006KT 10SM CLR 18/08 A2982 950 51 1500 060/06 RMK AO2 WSHFT 0301
14837KMSN MSN20020601215012106/01/02 21:50:31  5-MIN KMSN 020350Z 07006KT 10SM CLR 17/08 A2982 950 53 1500 070/06 RMK AO2 WSHFT 0301 SLP095 T01720078
14837KMSN MSN20020601215509306/01/02 21:55:31  5-MIN KMSN 020355Z 06006KT 10SM CLR 17/08 A2983 950 53 1500 060/06 RMK AO2
14837KMSN MSN20020601220009306/01/02 22:00:31  5-MIN KMSN 020400Z 06006KT 10SM CLR 17/08 A2983 950 55 1400 060/06 RMK AO2
14837KMSN MSN20020601220509306/01/02 22:05:31  5-MIN KMSN 020405Z 06007KT 10SM CLR 17/08 A2982 950 57 1400 060/07 RMK AO2
14837KMSN MSN20020601221009306/01/02 22:10:31  5-MIN KMSN 020410Z 07007KT 10SM CLR 17/08 A2982 960 55 1400 070/07 RMK AO2
14837KMSN MSN20020601221509306/01/02 22:15:31  5-MIN KMSN 020415Z 07007KT 10SM CLR 16/08 A2982 960 57 1400 070/07 RMK AO2
14837KMSN MSN20020601222009306/01/02 22:20:31  5-MIN KMSN 020420Z 08006KT 10SM CLR 16/08 A2982 960 57 1400 070/06 RMK AO2
14837KMSN MSN20020601222509306/01/02 22:25:31  5-MIN KMSN 020425Z 07005KT 10SM CLR 16/07 A2983 950 55 1300 060/05 RMK AO2
14837KMSN MSN20020601223009306/01/02 22:30:31  5-MIN KMSN 020430Z 05005KT 10SM CLR 16/07 A2983 940 55 1300 050/05 RMK AO2
14837KMSN MSN20020601223509306/01/02 22:35:31  5-MIN KMSN 020435Z 05005KT 10SM CLR 16/07 A2984 940 55 1300 050/05 RMK AO2
14837KMSN MSN20020601224009306/01/02 22:40:31  5-MIN KMSN 020440Z 05006KT 10SM CLR 16/07 A2984 940 57 1300 050/06 RMK AO2
14837KMSN MSN20020601224509306/01/02 22:45:31  5-MIN KMSN 020445Z 05004KT 10SM CLR 16/07 A2984 940 57 1300 040/04 RMK AO2
14837KMSN MSN20020601225011006/01/02 22:50:31  5-MIN KMSN 020450Z 05003KT 10SM CLR 16/07 A2984 940 57 1300 050/03 RMK AO2 SLP100 T01560072
14837KMSN MSN20020601225509306/01/02 22:55:31  5-MIN KMSN 020455Z 00000KT 10SM CLR 16/07 A2984 940 57 1300 000/00 RMK AO2
14837KMSN MSN20020601230009306/01/02 23:00:31  5-MIN KMSN 020500Z 00000KT 10SM CLR 16/07 A2984 940 55 1300 000/00 RMK AO2
14837KMSN MSN20020601230509306/01/02 23:05:31  5-MIN KMSN 020505Z 00000KT 10SM CLR 16/08 A2984 940 57 1300 000/00 RMK AO2
14837KMSN MSN20020601231009306/01/02 23:10:31  5-MIN KMSN 020510Z 00000KT 10SM CLR 15/08 A2984 940 64 1200 000/00 RMK AO2
14837KMSN MSN20020601231509306/01/02 23:15:31  5-MIN KMSN 020515Z 00000KT 10SM CLR 15/08 A2984 940 62 1200 000/00 RMK AO2
14837KMSN MSN20020601232009306/01/02 23:20:31  5-MIN KMSN 020520Z 00000KT 10SM CLR 15/07 A2984 940 59 1200 000/00 RMK AO2
14837KMSN MSN20020601232509306/01/02 23:25:31  5-MIN KMSN 020525Z 00000KT 10SM CLR 15/07 A2984 940 59 1200 000/00 RMK AO2
14837KMSN MSN20020601233009306/01/02 23:30:31  5-MIN KMSN 020530Z 00000KT 10SM CLR 14/07 A2984 940 64 1100 000/00 RMK AO2
14837KMSN MSN20020601233509306/01/02 23:35:31  5-MIN KMSN 020535Z 00000KT 10SM CLR 14/08 A2984 940 66 1100 000/00 RMK AO2
14837KMSN MSN20020601234009306/01/02 23:40:31  5-MIN KMSN 020540Z 00000KT 10SM CLR 14/08 A2984 940 64 1100 000/00 RMK AO2
14837KMSN MSN20020601234509306/01/02 23:45:31  5-MIN KMSN 020545Z 00000KT 10SM CLR 13/08 A2983 940 69 1000 000/00 RMK AO2
14837KMSN MSN20020601235013806/01/02 23:50:31  5-MIN KMSN 020550Z 00000KT 10SM CLR 14/07 A2983 950 64 1100 000/00 RMK AO2 SLP096 T01390072 10283 20133 403060117 53022
14837KMSN MSN20020601235509306/01/02 23:55:31  5-MIN KMSN 020555Z 00000KT 10SM CLR 14/07 A2982 960 59 1200 000/00 RMK AO2
14837KMSN MSN20020602000009306/02/02 00:00:31  5-MIN KMSN 020600Z 00000KT 10SM CLR 15/08 A2982 960 62 1200 000/00 RMK AO2
14837KMSN MSN20020602000509306/02/02 00:05:31  5-MIN KMSN 020605Z 00000KT 10SM CLR 14/08 A2982 950 66 1200 000/00 RMK AO2
14837KMSN MSN20020602001009206/02/02 00:10:31  5-MIN KMSN 020610Z 00000KT 10SM CLR 12/08 A2983 950 77 900 000/00 RMK AO2
14837KMSN MSN20020602001509306/02/02 00:15:31  5-MIN KMSN 020615Z 00000KT 10SM CLR 13/07 A2983 950 64 1000 000/00 RMK AO2
14837KMSN MSN20020602002009206/02/02 00:20:31  5-MIN KMSN 020620Z 00000KT 10SM CLR 13/08 A2983 950 71 900 000/00 RMK AO2
14837KMSN MSN20020602002509206/02/02 00:25:31  5-MIN KMSN 020625Z 00000KT 10SM CLR 13/08 A2983 940 74 900 000/00 RMK AO2
14837KMSN MSN20020602003009206/02/02 00:30:31  5-MIN KMSN 020630Z 28003KT 10SM CLR 12/08 A2984 940 77 900 280/03 RMK AO2
14837KMSN MSN20020602003509206/02/02 00:35:31  5-MIN KMSN 020635Z 00000KT 10SM CLR 12/08 A2984 940 77 900 000/00 RMK AO2
14837KMSN MSN20020602004009206/02/02 00:40:31  5-MIN KMSN 020640Z 29003KT 10SM CLR 13/09 A2985 930 77 900 280/03 RMK AO2
14837KMSN MSN20020602004509206/02/02 00:45:31  5-MIN KMSN 020645Z 00000KT 10SM CLR 12/08 A2985 930 77 900 000/00 RMK AO2
14837KMSN MSN20020602005010906/02/02 00:50:31  5-MIN KMSN 020650Z 00000KT 10SM CLR 13/08 A2985 930 74 900 000/00 RMK AO2 SLP103 T01280083
14837KMSN MSN20020602005509206/02/02 00:55:31  5-MIN KMSN 020655Z 00000KT 10SM CLR 12/08 A2985 930 77 900 000/00 RMK AO2
14837KMSN MSN20020602010009206/02/02 01:00:31  5-MIN KMSN 020700Z 00000KT 10SM CLR 12/08 A2985 930 77 900 000/00 RMK AO2
14837KMSN MSN20020602010509206/02/02 01:05:31  5-MIN KMSN 020705Z 00000KT 10SM CLR 13/09 A2985 930 77 900 000/00 RMK AO2
14837KMSN MSN20020602011009206/02/02 01:10:31  5-MIN KMSN 020710Z 00000KT 10SM CLR 12/09 A2985 930 80 900 000/00 RMK AO2
14837KMSN MSN20020602011509206/02/02 01:15:31  5-MIN KMSN 020715Z 00000KT 10SM CLR 12/08 A2986 920 77 800 000/00 RMK AO2
14837KMSN MSN20020602012009206/02/02 01:20:31  5-MIN KMSN 020720Z 00000KT 10SM CLR 12/08 A2986 920 77 800 000/00 RMK AO2
14837KMSN MSN20020602012509206/02/02 01:25:31  5-MIN KMSN 020725Z 00000KT 10SM CLR 12/08 A2986 920 80 800 000/00 RMK AO2
14837KMSN MSN20020602013009206/02/02 01:30:31  5-MIN KMSN 020730Z 00000KT 10SM CLR 12/08 A2986 920 80 800 000/00 RMK AO2
14837KMSN MSN20020602013509206/02/02 01:35:31  5-MIN KMSN 020735Z 00000KT 10SM CLR 12/09 A2986 920 80 800 000/00 RMK AO2
14837KMSN MSN20020602014009206/02/02 01:40:31  5-MIN KMSN 020740Z 00000KT 10SM CLR 12/08 A2986 920 77 800 000/00 RMK AO2
14837KMSN MSN20020602014509206/02/02 01:45:31  5-MIN KMSN 020745Z 00000KT 10SM CLR 12/09 A2986 920 83 800 000/00 RMK AO2
14837KMSN MSN20020602015010906/02/02 01:50:31  5-MIN KMSN 020750Z 00000KT 10SM CLR 12/09 A2986 920 83 800 000/00 RMK AO2 SLP106 T01170089
14837KMSN MSN20020602015509206/02/02 01:55:31  5-MIN KMSN 020755Z 00000KT 10SM CLR 12/09 A2985 930 83 800 000/00 RMK AO2
14837KMSN MSN20020602020009206/02/02 02:00:31  5-MIN KMSN 020800Z 00000KT 10SM CLR 12/09 A2985 930 80 900 000/00 RMK AO2
14837KMSN MSN20020602020509206/02/02 02:05:31  5-MIN KMSN 020805Z 00000KT 10SM CLR 12/09 A2985 930 80 900 000/00 RMK AO2
14837KMSN MSN20020602021009206/02/02 02:10:31  5-MIN KMSN 020810Z 00000KT 10SM CLR 12/09 A2985 930 83 900 000/00 RMK AO2
14837KMSN MSN20020602021509206/02/02 02:15:31  5-MIN KMSN 020815Z 00000KT 10SM CLR 12/09 A2985 930 83 900 000/00 RMK AO2
14837KMSN MSN20020602022009206/02/02 02:20:31  5-MIN KMSN 020820Z 00000KT 10SM CLR 12/08 A2985 930 80 800 000/00 RMK AO2
14837KMSN MSN20020602022509206/02/02 02:25:31  5-MIN KMSN 020825Z 00000KT 10SM CLR 12/08 A2986 920 80 800 000/00 RMK AO2
14837KMSN MSN20020602023009206/02/02 02:30:31  5-MIN KMSN 020830Z 00000KT 10SM CLR 11/08 A2986 920 80 700 000/00 RMK AO2
14837KMSN MSN20020602023509206/02/02 02:35:31  5-MIN KMSN 020835Z 00000KT 10SM CLR 12/08 A2986 920 80 800 000/00 RMK AO2
14837KMSN MSN20020602024009206/02/02 02:40:31  5-MIN KMSN 020840Z 04003KT 10SM CLR 12/09 A2985 930 80 900 040/03 RMK AO2
14837KMSN MSN20020602024509206/02/02 02:45:31  5-MIN KMSN 020845Z 00000KT 10SM CLR 12/09 A2985 930 86 800 000/00 RMK AO2
14837KMSN MSN20020602025011506/02/02 02:50:31  5-MIN KMSN 020850Z 02003KT 10SM CLR 12/09 A2985 930 83 800 020/03 RMK AO2 SLP103 T01170089 50019
14837KMSN MSN20020602025509206/02/02 02:55:31  5-MIN KMSN 020855Z 36003KT 10SM CLR 12/09 A2985 930 83 800 360/03 RMK AO2
14837KMSN MSN20020602030009206/02/02 03:00:31  5-MIN KMSN 020900Z 00000KT 10SM CLR 11/09 A2985 930 89 700 000/00 RMK AO2
14837KMSN MSN20020602030509206/02/02 03:05:31  5-MIN KMSN 020905Z 00000KT 10SM CLR 12/09 A2985 930 83 800 000/00 RMK AO2
14837KMSN MSN20020602031009206/02/02 03:10:31  5-MIN KMSN 020910Z 00000KT 10SM CLR 12/09 A2986 920 83 900 000/00 RMK AO2
14837KMSN MSN20020602031509206/02/02 03:15:31  5-MIN KMSN 020915Z 00000KT 10SM CLR 12/09 A2986 920 83 800 000/00 RMK AO2
14837KMSN MSN20020602032009206/02/02 03:20:31  5-MIN KMSN 020920Z 00000KT 10SM CLR 12/09 A2987 910 83 800 000/00 RMK AO2
14837KMSN MSN20020602032509206/02/02 03:25:31  5-MIN KMSN 020925Z 00000KT 10SM CLR 12/09 A2986 920 83 800 000/00 RMK AO2
14837KMSN MSN20020602033009206/02/02 03:30:31  5-MIN KMSN 020930Z 02005KT 10SM CLR 12/10 A2986 920 86 800 020/05 RMK AO2
14837KMSN MSN20020602033509206/02/02 03:35:31  5-MIN KMSN 020935Z 36005KT 10SM CLR 12/10 A2986 920 86 900 360/05 RMK AO2
14837KMSN MSN20020602034009506/02/02 03:40:31  5-MIN KMSN 020940Z 00000KT 10SM FEW120 12/09 A2985 930 83 900 000/00 RMK AO2
14837KMSN MSN20020602034509506/02/02 03:45:31  5-MIN KMSN 020945Z 00000KT 10SM FEW120 13/09 A2987 910 80 900 000/00 RMK AO2
14837KMSN MSN20020602035011206/02/02 03:50:31  5-MIN KMSN 020950Z 00000KT 10SM SCT120 12/10 A2988 910 89 800 000/00 RMK AO2 SLP112 T01170100
14837KMSN MSN20020602035509906/02/02 03:55:31  5-MIN KMSN 020955Z 27004KT 10SM CLR 12/09 A2989 890 80 800 270/04 RMK AO2 PRESRR
14837KMSN MSN20020602040009506/02/02 04:00:31  5-MIN KMSN 021000Z 35004KT 10SM FEW120 12/09 A2987 910 86 800 340/04 RMK AO2
14837KMSN MSN20020602040509506/02/02 04:05:31  5-MIN KMSN 021005Z 01005KT 10SM FEW120 12/09 A2987 910 83 800 010/05 RMK AO2
14837KMSN MSN20020602041009506/02/02 04:10:31  5-MIN KMSN 021010Z 00000KT 10SM FEW120 12/09 A2988 900 86 800 000/00 RMK AO2
14837KMSN MSN20020602041509506/02/02 04:15:31  5-MIN KMSN 021015Z 00000KT 10SM FEW120 12/09 A2987 910 83 800 000/00 RMK AO2
14837KMSN MSN20020602042009506/02/02 04:20:31  5-MIN KMSN 021020Z 00000KT 10SM FEW120 12/09 A2987 910 86 800 000/00 RMK AO2
14837KMSN MSN20020602042509506/02/02 04:25:31  5-MIN KMSN 021025Z 00000KT 10SM FEW120 12/09 A2987 910 86 800 000/00 RMK AO2
14837KMSN MSN20020602043009506/02/02 04:30:31  5-MIN KMSN 021030Z 00000KT 10SM FEW120 12/09 A2987 910 80 800 000/00 RMK AO2
14837KMSN MSN20020602043509206/02/02 04:35:31  5-MIN KMSN 021035Z 00000KT 10SM CLR 12/09 A2988 910 83 800 000/00 RMK AO2
14837KMSN MSN20020602044009206/02/02 04:40:31  5-MIN KMSN 021040Z 00000KT 10SM CLR 11/09 A2988 900 86 700 000/00 RMK AO2
14837KMSN MSN20020602044509206/02/02 04:45:31  5-MIN KMSN 021045Z 00000KT 10SM CLR 12/09 A2988 900 83 800 000/00 RMK AO2
14837KMSN MSN20020602045011206/02/02 04:50:31  5-MIN KMSN 021050Z 00000KT 10SM FEW120 12/09 A2989 890 83 700 000/00 RMK AO2 SLP117 T01170089
14837KMSN MSN20020602045509206/02/02 04:55:31  5-MIN KMSN 021055Z 00000KT 10SM CLR 12/09 A2989 890 80 800 000/00 RMK AO2
14837KMSN MSN20020602050009506/02/02 05:00:31  5-MIN KMSN 021100Z 00000KT 10SM FEW120 12/09 A2989 890 83 800 000/00 RMK AO2
14837KMSN MSN20020602050509206/02/02 05:05:31  5-MIN KMSN 021105Z 00000KT 10SM CLR 12/09 A2989 890 83 800 000/00 RMK AO2
14837KMSN MSN20020602051009206/02/02 05:10:31  5-MIN KMSN 021110Z 00000KT 10SM CLR 12/09 A2990 890 86 700 000/00 RMK AO2
14837KMSN MSN20020602051509206/02/02 05:15:31  5-MIN KMSN 021115Z 00000KT 10SM CLR 12/09 A2990 880 83 800 000/00 RMK AO2
14837KMSN MSN20020602052009206/02/02 05:20:31  5-MIN KMSN 021120Z 00000KT 10SM CLR 12/09 A2991 880 83 800 000/00 RMK AO2
14837KMSN MSN20020602052509206/02/02 05:25:31  5-MIN KMSN 021125Z 00000KT 10SM CLR 12/09 A2991 870 86 700 000/00 RMK AO2
14837KMSN MSN20020602053009206/02/02 05:30:31  5-MIN KMSN 021130Z 00000KT 10SM CLR 12/09 A2991 870 83 800 000/00 RMK AO2
14837KMSN MSN20020602053509506/02/02 05:35:31  5-MIN KMSN 021135Z 00000KT 10SM FEW120 13/09 A2991 880 77 900 000/00 RMK AO2
14837KMSN MSN20020602054009506/02/02 05:40:31  5-MIN KMSN 021140Z 00000KT 10SM FEW120 13/11 A2991 880 83 900 000/00 RMK AO2
14837KMSN MSN20020602054509606/02/02 05:45:31  5-MIN KMSN 021145Z 00000KT 10SM FEW120 14/09 A2991 870 74 1000 000/00 RMK AO2
14837KMSN MSN20020602055013106/02/02 05:50:31  5-MIN KMSN 021150Z 00000KT 10SM FEW120 14/10 A2991 870 77 1000 000/00 RMK AO2 SLP125 T01390100 10150 20111 50009
14837KMSN MSN20020602055509506/02/02 05:55:31  5-MIN KMSN 021155Z 00000KT 10SM FEW120 13/10 A2991 870 80 900 000/00 RMK AO2
14837KMSN MSN20020602060009606/02/02 06:00:31  5-MIN KMSN 021200Z 00000KT 10SM FEW120 14/10 A2991 880 77 1000 000/00 RMK AO2
14837KMSN MSN20020602060509606/02/02 06:05:31  5-MIN KMSN 021205Z 05003KT 10SM FEW120 14/11 A2991 880 80 1000 050/03 RMK AO2
14837KMSN MSN20020602061009606/02/02 06:10:31  5-MIN KMSN 021210Z 00000KT 10SM FEW120 14/12 A2991 880 86 1000 000/00 RMK AO2
14837KMSN MSN20020602061509606/02/02 06:15:31  5-MIN KMSN 021215Z 00000KT 10SM FEW120 14/11 A2991 880 83 1000 000/00 RMK AO2
14837KMSN MSN20020602062009606/02/02 06:20:31  5-MIN KMSN 021220Z 00000KT 10SM FEW120 14/11 A2991 870 77 1100 000/00 RMK AO2
14837KMSN MSN20020602062509606/02/02 06:25:31  5-MIN KMSN 021225Z 00000KT 10SM FEW120 14/12 A2991 870 83 1000 000/00 RMK AO2
14837KMSN MSN20020602063009306/02/02 06:30:31  5-MIN KMSN 021230Z 00000KT 10SM CLR 14/12 A2991 870 83 1100 000/00 RMK AO2
14837KMSN MSN20020602063509306/02/02 06:35:31  5-MIN KMSN 021235Z 00000KT 10SM CLR 15/11 A2991 880 74 1100 000/00 RMK AO2
14837KMSN MSN20020602064009306/02/02 06:40:31  5-MIN KMSN 021240Z 00000KT 10SM CLR 15/11 A2991 870 74 1100 000/00 RMK AO2
14837KMSN MSN20020602064509306/02/02 06:45:31  5-MIN KMSN 021245Z 00000KT 10SM CLR 15/11 A2991 870 77 1100 000/00 RMK AO2
14837KMSN MSN20020602065011006/02/02 06:50:31  5-MIN KMSN 021250Z 00000KT 10SM CLR 15/11 A2992 870 77 1100 000/00 RMK AO2 SLP126 T01500111
14837KMSN MSN20020602065509306/02/02 06:55:31  5-MIN KMSN 021255Z 00000KT 10SM CLR 15/11 A2991 870 74 1100 000/00 RMK AO2
14837KMSN MSN20020602070009306/02/02 07:00:31  5-MIN KMSN 021300Z 00000KT 10SM CLR 16/11 A2992 870 72 1200 000/00 RMK AO2
14837KMSN MSN20020602070509306/02/02 07:05:31  5-MIN KMSN 021305Z 00000KT 10SM CLR 16/11 A2992 870 74 1200 000/00 RMK AO2
14837KMSN MSN20020602071009306/02/02 07:10:31  5-MIN KMSN 021310Z 00000KT 10SM CLR 16/11 A2992 870 72 1200 000/00 RMK AO2
14837KMSN MSN20020602071509306/02/02 07:15:31  5-MIN KMSN 021315Z 00000KT 10SM CLR 16/11 A2992 860 69 1200 000/00 RMK AO2
14837KMSN MSN20020602072009306/02/02 07:20:31  5-MIN KMSN 021320Z 00000KT 10SM CLR 17/10 A2993 860 64 1300 000/00 RMK AO2
14837KMSN MSN20020602072509306/02/02 07:25:31  5-MIN KMSN 021325Z 00000KT 10SM CLR 17/11 A2993 860 67 1300 000/00 RMK AO2
14837KMSN MSN20020602073009306/02/02 07:30:31  5-MIN KMSN 021330Z 04003KT 10SM CLR 17/11 A2993 860 67 1300 030/03 RMK AO2
14837KMSN MSN20020602073509306/02/02 07:35:31  5-MIN KMSN 021335Z 03003KT 10SM CLR 17/11 A2993 860 67 1300 030/03 RMK AO2
14837KMSN MSN20020602074009306/02/02 07:40:31  5-MIN KMSN 021340Z 07004KT 10SM CLR 17/10 A2993 860 62 1400 070/04 RMK AO2
14837KMSN MSN20020602074509306/02/02 07:45:31  5-MIN KMSN 021345Z 00000KT 10SM CLR 17/10 A2993 860 62 1400 000/00 RMK AO2
14837KMSN MSN20020602075011306/02/02 07:50:31  5-MIN KMSN 021350Z 00000KT 10SM FEW100 18/10 A2993 860 60 1400 000/00 RMK AO2 SLP131 T01780100
14837KMSN MSN20020602075509306/02/02 07:55:31  5-MIN KMSN 021355Z 07004KT 10SM CLR 18/10 A2993 860 60 1400 070/04 RMK AO2
14837KMSN MSN20020602080009306/02/02 08:00:31  5-MIN KMSN 021400Z 06005KT 10SM CLR 18/11 A2993 860 62 1400 050/05 RMK AO2
14837KMSN MSN20020602080509306/02/02 08:05:31  5-MIN KMSN 021405Z 06005KT 10SM CLR 18/11 A2993 860 60 1500 060/05 RMK AO2
14837KMSN MSN20020602081009306/02/02 08:10:31  5-MIN KMSN 021410Z 07006KT 10SM CLR 18/10 A2992 870 58 1500 070/06 RMK AO2
14837KMSN MSN20020602081509306/02/02 08:15:31  5-MIN KMSN 021415Z 07006KT 10SM CLR 18/10 A2992 870 58 1500 070/06 RMK AO2
14837KMSN MSN20020602082009306/02/02 08:20:31  5-MIN KMSN 021420Z 07006KT 10SM CLR 18/11 A2991 870 60 1500 060/06 RMK AO2
14837KMSN MSN20020602082509306/02/02 08:25:31  5-MIN KMSN 021425Z 08005KT 10SM CLR 19/11 A2991 870 60 1600 080/05 RMK AO2
14837KMSN MSN20020602083009306/02/02 08:30:31  5-MIN KMSN 021430Z 09005KT 10SM CLR 19/11 A2991 870 58 1600 090/05 RMK AO2
14837KMSN MSN20020602083509306/02/02 08:35:31  5-MIN KMSN 021435Z 07006KT 10SM CLR 19/10 A2991 870 56 1600 070/06 RMK AO2
14837KMSN MSN20020602084009306/02/02 08:40:31  5-MIN KMSN 021440Z 07004KT 10SM CLR 19/10 A2991 870 54 1600 070/04 RMK AO2
14837KMSN MSN20020602084509306/02/02 08:45:31  5-MIN KMSN 021445Z 11003KT 10SM CLR 19/10 A2991 870 54 1600 110/03 RMK AO2
14837KMSN MSN20020602085011606/02/02 08:50:31  5-MIN KMSN 021450Z 00000KT 10SM CLR 19/08 A2992 870 48 1600 000/00 RMK AO2 SLP127 T01940083 51021
14837KMSN MSN20020602085509306/02/02 08:55:31  5-MIN KMSN 021455Z 00000KT 10SM CLR 20/09 A2992 860 50 1700 000/00 RMK AO2
14837KMSN MSN20020602090009306/02/02 09:00:31  5-MIN KMSN 021500Z VRB03KT 10SM CLR 20/09 A2993 860 50 1700 VRB/03 RMK AO2
14837KMSN MSN20020602090509306/02/02 09:05:31  5-MIN KMSN 021505Z 14003KT 10SM CLR 20/09 A2993 860 50 1700 140/03 RMK AO2
14837KMSN MSN20020602091009606/02/02 09:10:31  5-MIN KMSN 021510Z 00000KT 10SM FEW110 20/09 A2993 860 48 1700 000/00 RMK AO2
14837KMSN MSN20020602091509606/02/02 09:15:31  5-MIN KMSN 021515Z 00000KT 10SM FEW110 20/08 A2993 850 46 1700 000/00 RMK AO2
14837KMSN MSN20020602092009606/02/02 09:20:31  5-MIN KMSN 021520Z 00000KT 10SM SCT110 20/08 A2994 850 46 1700 000/00 RMK AO2
14837KMSN MSN20020602092509606/02/02 09:25:31  5-MIN KMSN 021525Z 00000KT 10SM SCT110 21/09 A2994 850 46 1700 000/00 RMK AO2
14837KMSN MSN20020602093009606/02/02 09:30:31  5-MIN KMSN 021530Z 32003KT 10SM SCT110 20/09 A2995 840 48 1700 320/03 RMK AO2
14837KMSN MSN20020602093509606/02/02 09:35:31  5-MIN KMSN 021535Z 34003KT 10SM BKN110 20/09 A2995 840 50 1700 340/03 RMK AO2
14837KMSN MSN20020602094009606/02/02 09:40:31  5-MIN KMSN 021540Z 34003KT 10SM BKN110 20/10 A2995 840 52 1700 340/03 RMK AO2
14837KMSN MSN20020602094509606/02/02 09:45:31  5-MIN KMSN 021545Z 32004KT 10SM BKN110 19/11 A2996 830 58 1600 320/04 RMK AO2
14837KMSN MSN20020602095011306/02/02 09:50:31  5-MIN KMSN 021550Z 33003KT 10SM BKN110 19/11 A2996 830 58 1600 320/03 RMK AO2 SLP142 T01940111
14837KMSN MSN20020602095509606/02/02 09:55:31  5-MIN KMSN 021555Z 32005KT 10SM BKN110 19/11 A2996 830 58 1600 320/05 RMK AO2
14837KMSN MSN20020602100009606/02/02 10:00:31  5-MIN KMSN 021600Z 33004KT 10SM BKN110 19/11 A2996 830 58 1600 330/04 RMK AO2
14837KMSN MSN20020602100509606/02/02 10:05:31  5-MIN KMSN 021605Z 33004KT 10SM BKN110 19/11 A2996 830 58 1600 330/04 RMK AO2
14837KMSN MSN20020602101009606/02/02 10:10:31  5-MIN KMSN 021610Z VRB03KT 10SM SCT110 19/11 A2996 830 58 1600 VRB/03 RMK AO2
14837KMSN MSN20020602101509606/02/02 10:15:31  5-MIN KMSN 021615Z 34003KT 10SM SCT110 19/11 A2996 830 58 1600 340/03 RMK AO2
14837KMSN MSN20020602102009606/02/02 10:20:31  5-MIN KMSN 021620Z 33004KT 10SM FEW110 20/11 A2995 830 56 1600 330/04 RMK AO2
14837KMSN MSN20020602102509606/02/02 10:25:31  5-MIN KMSN 021625Z 36005KT 10SM FEW110 20/11 A2995 830 56 1700 360/05 RMK AO2
14837KMSN MSN20020602103009306/02/02 10:30:31  5-MIN KMSN 021630Z 02005KT 10SM CLR 21/11 A2995 840 54 1700 010/05 RMK AO2
14837KMSN MSN20020602103509306/02/02 10:35:31  5-MIN KMSN 021635Z 01004KT 10SM CLR 21/10 A2994 840 50 1700 010/04 RMK AO2
14837KMSN MSN20020602104009306/02/02 10:40:31  5-MIN KMSN 021640Z 01003KT 10SM CLR 21/10 A2994 840 50 1700 010/03 RMK AO2
14837KMSN MSN20020602104509306/02/02 10:45:31  5-MIN KMSN 021645Z 01005KT 10SM CLR 21/11 A2994 850 50 1800 010/05 RMK AO2
14837KMSN MSN20020602105011306/02/02 10:50:31  5-MIN KMSN 021650Z 05004KT 10SM FEW120 21/10 A2993 850 50 1700 050/04 RMK AO2 SLP134 T02060100
14837KMSN MSN20020602105509306/02/02 10:55:31  5-MIN KMSN 021655Z VRB06KT 10SM CLR 21/10 A2993 850 50 1700 VRB/06 RMK AO2
14837KMSN MSN20020602110009306/02/02 11:00:31  5-MIN KMSN 021700Z 06006KT 10SM CLR 21/10 A2993 850 48 1800 060/06 RMK AO2
14837KMSN MSN20020602110509306/02/02 11:05:31  5-MIN KMSN 021705Z 07006KT 10SM CLR 21/11 A2993 850 50 1800 070/06 RMK AO2
14837KMSN MSN20020602111009306/02/02 11:10:31  5-MIN KMSN 021710Z 09006KT 10SM CLR 21/11 A2994 850 50 1800 080/06 RMK AO2
14837KMSN MSN20020602111509606/02/02 11:15:31  5-MIN KMSN 021715Z 08006KT 10SM FEW090 21/11 A2993 850 54 1700 080/06 RMK AO2
14837KMSN MSN20020602112009606/02/02 11:20:31  5-MIN KMSN 021720Z 08006KT 10SM FEW090 21/11 A2993 860 54 1700 080/06 RMK AO2
14837KMSN MSN20020602112509606/02/02 11:25:31  5-MIN KMSN 021725Z 06008KT 10SM FEW090 20/11 A2992 860 54 1700 060/08 RMK AO2
14837KMSN MSN20020602113009606/02/02 11:30:31  5-MIN KMSN 021730Z 08010KT 10SM FEW090 19/11 A2992 870 58 1600 080/10 RMK AO2
14837KMSN MSN20020602113509606/02/02 11:35:31  5-MIN KMSN 021735Z 08009KT 10SM FEW090 19/11 A2992 860 58 1600 080/09 RMK AO2
14837KMSN MSN20020602114009606/02/02 11:40:31  5-MIN KMSN 021740Z 09009KT 10SM FEW090 19/11 A2991 870 58 1600 090/09 RMK AO2
14837KMSN MSN20020602114509306/02/02 11:45:31  5-MIN KMSN 021745Z 10009KT 10SM CLR 20/11 A2990 880 56 1700 100/09 RMK AO2
14837KMSN MSN20020602115013506/02/02 11:50:31  5-MIN KMSN 021750Z 10011KT 10SM CLR 21/12 A2989 890 56 1800 100/11 RMK AO2 PRESFR SLP120 T02060117 10211 20133 50003
14837KMSN MSN20020602115510006/02/02 11:55:31  5-MIN KMSN 021755Z 11015KT 10SM CLR 20/11 A2987 910 54 1700 110/15 RMK AO2 PRESFR
14837KMSN MSN20020602120009306/02/02 12:00:31  5-MIN KMSN 021800Z 10011KT 10SM CLR 20/11 A2988 900 54 1700 100/11 RMK AO2
14837KMSN MSN20020602120509306/02/02 12:05:31  5-MIN KMSN 021805Z 12011KT 10SM CLR 20/11 A2989 890 54 1700 120/11 RMK AO2
14837KMSN MSN20020602121009306/02/02 12:10:31  5-MIN KMSN 021810Z 10008KT 10SM CLR 21/11 A2990 880 52 1800 100/08 RMK AO2
14837KMSN MSN20020602121509306/02/02 12:15:31  5-MIN KMSN 021815Z 13009KT 10SM CLR 21/11 A2990 880 50 1800 130/09 RMK AO2
14837KMSN MSN20020602122009306/02/02 12:20:31  5-MIN KMSN 021820Z 12009KT 10SM CLR 21/11 A2990 880 50 1800 120/09 RMK AO2
14837KMSN MSN20020602122509306/02/02 12:25:31  5-MIN KMSN 021825Z 14009KT 10SM CLR 22/11 A2991 880 50 1900 140/09 RMK AO2
14837KMSN MSN20020602123009306/02/02 12:30:31  5-MIN KMSN 021830Z 13008KT 10SM CLR 21/11 A2990 880 50 1800 130/08 RMK AO2
14837KMSN MSN20020602123509306/02/02 12:35:31  5-MIN KMSN 021835Z 12008KT 10SM CLR 22/11 A2989 890 50 1900 120/08 RMK AO2
14837KMSN MSN20020602124009306/02/02 12:40:31  5-MIN KMSN 021840Z 12006KT 10SM CLR 22/12 A2989 890 52 1900 120/06 RMK AO2
14837KMSN MSN20020602124509306/02/02 12:45:31  5-MIN KMSN 021845Z 13007KT 10SM CLR 22/12 A2989 890 52 1900 130/07 RMK AO2
14837KMSN MSN20020602125012606/02/02 12:50:31  5-MIN KMSN 021850Z 11007KT 070V150 10SM CLR 22/11 A2989 890 50 1900 110/07 070V150 RMK AO2 SLP122 T02170111
14837KMSN MSN20020602125509306/02/02 12:55:31  5-MIN KMSN 021855Z 10010KT 10SM CLR 22/12 A2989 890 52 2000 100/10 RMK AO2
14837KMSN MSN20020602130009306/02/02 13:00:31  5-MIN KMSN 021900Z 09010KT 10SM CLR 22/12 A2990 880 54 1900 090/10 RMK AO2
14837KMSN MSN20020602130509306/02/02 13:05:31  5-MIN KMSN 021905Z 07009KT 10SM CLR 22/13 A2990 880 54 2000 070/09 RMK AO2
14837KMSN MSN20020602131009306/02/02 13:10:31  5-MIN KMSN 021910Z 12010KT 10SM CLR 22/12 A2990 880 54 1900 120/10 RMK AO2
14837KMSN MSN20020602131509306/02/02 13:15:31  5-MIN KMSN 021915Z 11010KT 10SM CLR 21/12 A2990 880 56 1800 110/10 RMK AO2
14837KMSN MSN20020602132009306/02/02 13:20:31  5-MIN KMSN 021920Z 08009KT 10SM CLR 21/12 A2991 880 56 1800 080/09 RMK AO2
14837KMSN MSN20020602132509306/02/02 13:25:31  5-MIN KMSN 021925Z 08009KT 10SM CLR 20/12 A2991 870 60 1700 080/09 RMK AO2
14837KMSN MSN20020602133009606/02/02 13:30:31  5-MIN KMSN 021930Z 08011KT 10SM FEW050 20/12 A2991 880 58 1700 080/11 RMK AO2
14837KMSN MSN20020602133510306/02/02 13:35:31  5-MIN KMSN 021935Z 08012KT 10SM FEW047 SCT055 20/12 A2991 870 58 1700 080/12 RMK AO2
14837KMSN MSN20020602134010306/02/02 13:40:31  5-MIN KMSN 021940Z 08011KT 10SM SCT038 SCT055 20/12 A2992 870 58 1700 080/11 RMK AO2
14837KMSN MSN20020602134511206/02/02 13:45:31  5-MIN KMSN 021945Z 09011KT 10SM -RA SCT036 19/12 A2992 860 60 1600 090/11 RMK AO2 RAB43 P0000
14837KMSN MSN20020602135012806/02/02 13:50:31  5-MIN KMSN 021950Z 09011KT 10SM FEW039 20/12 A2992 870 58 1700 090/11 RMK AO2 RAB43E50 SLP129 P0000 T02000117
14837KMSN MSN20020602135509606/02/02 13:55:31  5-MIN KMSN 021955Z 10012KT 10SM FEW039 19/12 A2990 880 60 1600 100/12 RMK AO2
14837KMSN MSN20020602140009606/02/02 14:00:31  5-MIN KMSN 022000Z 09011KT 10SM FEW031 19/11 A2991 880 60 1600 090/11 RMK AO2
14837KMSN MSN20020602140509606/02/02 14:05:31  5-MIN KMSN 022005Z 09013KT 10SM FEW028 19/11 A2990 880 58 1600 090/13 RMK AO2
14837KMSN MSN20020602141009306/02/02 14:10:31  5-MIN KMSN 022010Z 10011KT 10SM CLR 18/11 A2990 890 60 1500 100/11 RMK AO2
14837KMSN MSN20020602141509306/02/02 14:15:31  5-MIN KMSN 022015Z 09010KT 10SM CLR 18/11 A2990 880 60 1500 090/10 RMK AO2
14837KMSN MSN20020602142010306/02/02 14:20:31  5-MIN KMSN 022020Z AUTO 09006KT 10SM CLR 18/11 A2991 880 60 1500 090/06 RMK AO2 TSNO
14837KMSN MSN20020602142510306/02/02 14:25:31  5-MIN KMSN 022025Z AUTO 09007KT 10SM CLR 18/11 A2990 880 60 1500 090/07 RMK AO2 TSNO
14837KMSN MSN20020602143010306/02/02 14:30:31  5-MIN KMSN 022030Z AUTO 07009KT 10SM CLR 18/11 A2991 880 62 1500 070/09 RMK AO2 TSNO
14837KMSN MSN20020602143509306/02/02 14:35:31  5-MIN KMSN 022035Z 08009KT 10SM CLR 18/11 A2990 880 60 1500 080/09 RMK AO2
14837KMSN MSN20020602144009306/02/02 14:40:31  5-MIN KMSN 022040Z 06009KT 10SM CLR 18/11 A2990 880 62 1500 060/09 RMK AO2
14837KMSN MSN20020602144509306/02/02 14:45:31  5-MIN KMSN 022045Z 06009KT 10SM CLR 18/11 A2990 880 62 1500 060/09 RMK AO2
14837KMSN MSN20020602145012206/02/02 14:50:31  5-MIN KMSN 022050Z 06010KT 10SM CLR 18/11 A2990 880 62 1500 060/10 RMK AO2 SLP125 60000 T01780106 58015
14837KMSN MSN20020602145509306/02/02 14:55:31  5-MIN KMSN 022055Z 06010KT 10SM CLR 18/11 A2990 880 62 1500 060/10 RMK AO2
14837KMSN MSN20020602150009306/02/02 15:00:31  5-MIN KMSN 022100Z 07009KT 10SM CLR 18/11 A2990 880 62 1500 060/09 RMK AO2
14837KMSN MSN20020602150509306/02/02 15:05:31  5-MIN KMSN 022105Z 07008KT 10SM CLR 18/11 A2990 880 62 1500 070/08 RMK AO2
14837KMSN MSN20020602151009306/02/02 15:10:31  5-MIN KMSN 022110Z 07008KT 10SM CLR 18/11 A2990 880 62 1400 070/08 RMK AO2
14837KMSN MSN20020602151509306/02/02 15:15:31  5-MIN KMSN 022115Z 07009KT 10SM CLR 17/10 A2991 870 62 1400 070/09 RMK AO2
14837KMSN MSN20020602152010906/02/02 15:20:31  5-MIN KMSN 022120Z 07007KT 10SM -RA CLR 17/10 A2992 870 62 1400 070/07 RMK AO2 RAB19 P0000
14837KMSN MSN20020602152511206/02/02 15:25:31  5-MIN KMSN 022125Z 06008KT 10SM -RA FEW024 17/11 A2992 860 64 1400 060/08 RMK AO2 RAB19 P0000
14837KMSN MSN20020602153011206/02/02 15:30:31  5-MIN KMSN 022130Z 08012KT 10SM -RA FEW020 17/11 A2990 880 67 1300 080/12 RMK AO2 RAB19 P0000
14837KMSN MSN20020602153511206/02/02 15:35:31  5-MIN KMSN 022135Z 07010KT 10SM -RA SCT022 16/11 A2991 870 69 1200 070/10 RMK AO2 RAB19 P0000
14837KMSN MSN20020602154011206/02/02 15:40:31  5-MIN KMSN 022140Z 07009KT 10SM -RA SCT022 16/11 A2992 860 69 1200 060/09 RMK AO2 RAB19 P0000
14837KMSN MSN20020602154511206/02/02 15:45:31  5-MIN KMSN 022145Z 08008KT 10SM -RA SCT022 16/11 A2991 870 72 1200 080/08 RMK AO2 RAB19 P0000
14837KMSN MSN20020602155012906/02/02 15:50:31  5-MIN KMSN 022150Z 09008KT 10SM -RA FEW022 16/11 A2990 880 72 1300 090/08 RMK AO2 RAB19 SLP126 P0000 T01610111
14837KMSN MSN20020602155510606/02/02 15:55:31  5-MIN KMSN 022155Z 08011KT 10SM -RA SCT029 16/11 A2989 890 69 1300 080/11 RMK AO2 P0000
14837KMSN MSN20020602160011306/02/02 16:00:31  5-MIN KMSN 022200Z 07008KT 10SM -RA SCT029 SCT060 16/11 A2991 870 69 1200 060/08 RMK AO2 P0000
14837KMSN MSN20020602160512006/02/02 16:05:31  5-MIN KMSN 022205Z 07007KT 10SM -RA FEW022 SCT040 BKN060 16/11 A2992 870 74 1200 070/07 RMK AO2 P0000
14837KMSN MSN20020602161011906/02/02 16:10:31  5-MIN KMSN 022210Z 09004KT 7SM -RA BKN040 BKN060 16/11 A2993 850 74 1200 090/04 RMK AO2 PRESRR P0001
14837KMSN MSN20020602161511906/02/02 16:15:31  5-MIN KMSN 022215Z 08004KT 6SM -RA BKN038 BKN065 16/11 A2994 840 72 1100 080/04 RMK AO2 PRESRR P0001
14837KMSN MSN20020602162012606/02/02 16:20:31  5-MIN KMSN 022220Z 08006KT 6SM -RA BKN038 BKN065 OVC110 16/11 A2996 830 72 1100 080/06 RMK AO2 PRESRR P0001
14837KMSN MSN20020602162511906/02/02 16:25:31  5-MIN KMSN 022225Z 07006KT 6SM -RA SCT038 BKN065 OVC110 15/11 A2996 830 74 1100 060/06 RMK AO2 P0001
14837KMSN MSN20020602163011906/02/02 16:30:31  5-MIN KMSN 022230Z 08005KT 6SM -RA SCT038 BKN065 OVC100 14/11 A2995 840 80 1000 080/05 RMK AO2 P0002
14837KMSN MSN20020602163511906/02/02 16:35:31  5-MIN KMSN 022235Z 10004KT 6SM -RA SCT033 SCT065 OVC100 14/11 A2995 840 80 1000 100/04 RMK AO2 P0002
14837KMSN MSN20020602164011906/02/02 16:40:31  5-MIN KMSN 022240Z 00000KT 6SM -RA SCT044 SCT065 OVC110 14/11 A2996 830 77 1000 000/00 RMK AO2 P0003
14837KMSN MSN20020602164511906/02/02 16:45:31  5-MIN KMSN 022245Z 00000KT 4SM -RA SCT039 BKN060 OVC110 14/12 A2997 820 83 1000 000/00 RMK AO2 P0004
14837KMSN MSN20020602165013006/02/02 16:50:31  5-MIN KMSN 022250Z 00000KT 3SM RA BR BKN030 OVC110 13/12 A2997 820 93 900 000/00 RMK AO2 SLP149 P0006 T01330122
14837KMSN MSN20020602165511106/02/02 16:55:31  5-MIN KMSN 022255Z 12003KT 5SM -RA BKN032 OVC110 14/11 A2996 820 83 900 120/03 RMK AO2 P0001
14837KMSN MSN20020602170011106/02/02 17:00:31  5-MIN KMSN 022300Z 12005KT 4SM -RA BKN034 OVC110 14/11 A2997 820 83 900 120/05 RMK AO2 P0002
14837KMSN MSN20020602170510306/02/02 17:05:31  5-MIN KMSN 022305Z 12004KT 3SM RA OVC032 14/11 A2997 820 83 900 120/04 RMK AO2 P0003
14837KMSN MSN20020602171010706/02/02 17:10:31  5-MIN KMSN 022310Z 12003KT 3SM -RA BR OVC030 13/12 A2997 820 89 900 120/03 RMK AO2 P0004
14837KMSN MSN20020602171511406/02/02 17:15:31  5-MIN KMSN 022315Z 10007KT 3SM -RA BR OVC030 13/12 A2994 840 89 900 100/07 RMK AO2 PRESFR P0005
14837KMSN MSN20020602172010706/02/02 17:20:31  5-MIN KMSN 022320Z 10006KT 3SM -RA BR OVC030 13/12 A2995 840 89 900 100/06 RMK AO2 P0006
14837KMSN MSN20020602172511406/02/02 17:25:31  5-MIN KMSN 022325Z 11008KT 3SM -RA BR OVC030 13/12 A2992 860 89 900 110/08 RMK AO2 PRESFR P0007
14837KMSN MSN20020602173011406/02/02 17:30:31  5-MIN KMSN 022330Z 08009KT 3SM -RA BR OVC030 13/12 A2990 880 89 900 080/09 RMK AO2 PRESFR P0008
14837KMSN MSN20020602173511406/02/02 17:35:31  5-MIN KMSN 022335Z 10006KT 3SM -RA BR BKN034 OVC060 13/12 A2992 860 93 800 100/06 RMK AO2 P0009
14837KMSN MSN20020602174011106/02/02 17:40:31  5-MIN KMSN 022340Z 10008KT 7SM -RA BKN034 OVC110 13/11 A2992 860 89 800 100/08 RMK AO2 P0009
14837KMSN MSN20020602174511106/02/02 17:45:31  5-MIN KMSN 022345Z 10009KT 8SM -RA SCT032 OVC110 13/11 A2993 850 89 800 100/09 RMK AO2 P0009
14837KMSN MSN20020602175015306/02/02 17:50:31  5-MIN KMSN 022350Z 10007KT 10SM -RA SCT034 OVC110 13/11 A2993 850 89 800 100/07 RMK AO2 SLP137 P0009 60015 T01280111 10222 20128 50008
14837KMSN MSN20020602175511206/02/02 17:55:31  5-MIN KMSN 022355Z 07006KT 10SM -RA FEW036 OVC100 13/11 A2993 850 89 800 070/06 RMK AO2 P0000
14837KMSN MSN20020602180011206/02/02 18:00:31  5-MIN KMSN 030000Z 07008KT 10SM -RA FEW042 OVC100 13/12 A2992 860 93 800 070/08 RMK AO2 P0000
14837KMSN MSN20020602180510506/02/02 18:05:31  5-MIN KMSN 030005Z 07013KT 10SM -RA OVC100 12/11 A2991 870 93 800 070/13 RMK AO2 P0000
14837KMSN MSN20020602181011206/02/02 18:10:31  5-MIN KMSN 030010Z 08015KT 10SM -RA OVC100 12/11 A2990 880 89 800 080/15 RMK AO2 PRESFR P0000
14837KMSN MSN20020602181510506/02/02 18:15:31  5-MIN KMSN 030015Z 08012KT 10SM -RA OVC100 12/10 A2991 870 86 800 080/12 RMK AO2 P0000
14837KMSN MSN20020602182010506/02/02 18:20:31  5-MIN KMSN 030020Z 09012KT 10SM -RA OVC095 12/10 A2992 870 86 800 080/12 RMK AO2 P0000
14837KMSN MSN20020602182510506/02/02 18:25:31  5-MIN KMSN 030025Z 08011KT 10SM -RA OVC095 12/10 A2992 870 86 800 080/11 RMK AO2 P0000
14837KMSN MSN20020602183010506/02/02 18:30:31  5-MIN KMSN 030030Z 08010KT 10SM -RA OVC095 12/10 A2991 870 89 700 080/10 RMK AO2 P0000
14837KMSN MSN20020602183511106/02/02 18:35:31  5-MIN KMSN 030035Z 10014G20KT 10SM -RA OVC095 12/09 A2990 890 86 700 090/14G20 RMK AO2 P0000
14837KMSN MSN20020602184011106/02/02 18:40:31  5-MIN KMSN 030040Z 09011G20KT 10SM -RA BKN095 12/09 A2991 880 86 700 090/11G20 RMK AO2 P0000
14837KMSN MSN20020602184511206/02/02 18:45:31  5-MIN KMSN 030045Z 07010KT 10SM -RA FEW060 BKN100 12/09 A2992 860 86 700 070/10 RMK AO2 P0000
14837KMSN MSN20020602185013106/02/02 18:50:31  5-MIN KMSN 030050Z 06008KT 10SM FEW060 BKN100 12/09 A2993 860 86 700 060/08 RMK AO2 RAE47 SLP135 P0000 T01170094
14837KMSN MSN20020602185510206/02/02 18:55:31  5-MIN KMSN 030055Z 06011KT 10SM BKN100 12/09 A2994 840 86 700 060/11 RMK AO2 PRESRR
14837KMSN MSN20020602190010906/02/02 19:00:31  5-MIN KMSN 030100Z 04009KT 10SM BKN090 BKN110 12/09 A2996 830 86 700 040/09 RMK AO2 PRESRR
14837KMSN MSN20020602190511606/02/02 19:05:31  5-MIN KMSN 030105Z 36008KT 10SM FEW050 BKN085 OVC110 11/09 A2999 800 89 600 360/08 RMK AO2 PRESRR
14837KMSN MSN20020602191012406/02/02 19:10:31  5-MIN KMSN 030110Z 01008KT 8SM -RA SCT050 BKN090 OVC100 11/09 A2999 800 89 600 010/08 RMK AO2 RAB08 P0001
14837KMSN MSN20020602191512706/02/02 19:15:31  5-MIN KMSN 030115Z 02010KT 6SM -RA BR BKN050 OVC090 11/09 A3001 790 89 500 020/10 RMK AO2 RAB08 PRESRR P0001
14837KMSN MSN20020602192012706/02/02 19:20:31  5-MIN KMSN 030120Z 02009KT 6SM -RA BR BKN050 OVC085 11/09 A3002 770 86 500 020/09 RMK AO2 RAB08 PRESRR P0001
14837KMSN MSN20020602192512006/02/02 19:25:31  5-MIN KMSN 030125Z 02009KT 5SM -RA BR BKN050 OVC085 11/09 A3002 780 93 500 010/09 RMK AO2 RAB08 P0002
14837KMSN MSN20020602193011606/02/02 19:30:31  5-MIN KMSN 030130Z 05009KT 2 1/2SM RA BR OVC050 11/09 A3000 800 93 500 050/09 RMK AO2 RAB08 P0005
14837KMSN MSN20020602193511906/02/02 19:35:31  5-MIN KMSN 030135Z 07009KT 2SM RA BR SCT023 OVC050 10/09 A2998 800 96 400 070/09 RMK AO2 RAB08 P0009
14837KMSN MSN20020602194013706/02/02 19:40:31  5-MIN KMSN 030140Z 08011KT 2 1/2SM RA BR SCT023 BKN050 OVC095 10/09 A2998 810 93 400 080/11 RMK AO2 RAB08 PRESFR P0011
14837KMSN MSN20020602194513106/02/02 19:45:31  5-MIN KMSN 030145Z 07012KT 2 1/2SM -RA BR FEW029 BKN050 OVC095 10/09 A2998 810 93 400 070/12 RMK AO2 RAB08 P0011
14837KMSN MSN20020602195015106/02/02 19:50:31  5-MIN KMSN 030150Z 09011KT 5SM -RA BR FEW029 SCT050 OVC095 10/09 A2996 830 93 500 090/11 RMK AO2 RAB08 PRESFR SLP146 P0011 T01000089
14837KMSN MSN20020602195512806/02/02 19:55:31  5-MIN KMSN 030155Z 08013KT 5SM -RA BR FEW027 SCT050 OVC090 09/09 A2995 840 96 400 080/13 RMK AO2 PRESFR P0000
14837KMSN MSN20020602200012106/02/02 20:00:31  5-MIN KMSN 030200Z 09013KT 5SM -RA BR SCT029 OVC095 09/08 A2994 850 93 400 090/13 RMK AO2 PRESFR P0000
14837KMSN MSN20020602200512106/02/02 20:05:31  5-MIN KMSN 030205Z 10012KT 5SM -RA BR FEW036 BKN095 09/08 A2992 860 93 400 100/12 RMK AO2 PRESFR P0000
14837KMSN MSN20020602201012706/02/02 20:10:31  5-MIN KMSN 030210Z 10014G19KT 5SM -RA BR FEW040 BKN090 09/08 A2991 880 93 500 090/14G19 RMK AO2 PRESFR P0000
14837KMSN MSN20020602201512406/02/02 20:15:31  5-MIN KMSN 030215Z 10013G19KT 8SM -RA FEW034 BKN090 09/08 A2990 880 93 500 100/13G19 RMK AO2 PRESFR P0000
14837KMSN MSN20020602202012006/02/02 20:20:31  5-MIN KMSN 030220Z 11012G18KT 10SM FEW034 BKN090 09/08 A2990 880 93 500 110/12G18 RMK AO2 RAE18 P0000
14837KMSN MSN20020602202512006/02/02 20:25:31  5-MIN KMSN 030225Z 12013G19KT 10SM FEW034 BKN085 09/08 A2989 890 93 500 110/13G19 RMK AO2 RAE18 P0000
14837KMSN MSN20020602203011306/02/02 20:30:31  5-MIN KMSN 030230Z 12015G19KT 10SM BKN085 09/08 A2989 890 93 500 120/15G19 RMK AO2 RAE18 P0000
14837KMSN MSN20020602203511306/02/02 20:35:31  5-MIN KMSN 030235Z 12011G19KT 10SM BKN085 09/08 A2989 890 93 500 120/11G19 RMK AO2 RAE18 P0000
14837KMSN MSN20020602204011306/02/02 20:40:31  5-MIN KMSN 030240Z 13012G17KT 10SM OVC085 09/08 A2989 890 93 500 130/12G17 RMK AO2 RAE18 P0000
14837KMSN MSN20020602204511306/02/02 20:45:31  5-MIN KMSN 030245Z 14013G17KT 10SM OVC085 09/08 A2988 900 93 500 140/13G17 RMK AO2 RAE18 P0000
14837KMSN MSN20020602205013606/02/02 20:50:31  5-MIN KMSN 030250Z 15011KT 10SM OVC085 09/08 A2989 890 93 500 150/11 RMK AO2 RAE18 SLP123 P0000 60012 T00940083 50009
14837KMSN MSN20020602205509506/02/02 20:55:31  5-MIN KMSN 030255Z 14008KT 10SM OVC085 09/08 A2990 890 93 500 140/08 RMK AO2
14837KMSN MSN20020602210009506/02/02 21:00:31  5-MIN KMSN 030300Z 14011KT 10SM OVC085 09/08 A2989 890 93 500 140/11 RMK AO2
14837KMSN MSN20020602210509506/02/02 21:05:31  5-MIN KMSN 030305Z 13007KT 10SM OVC085 09/08 A2990 890 89 500 130/07 RMK AO2
14837KMSN MSN20020602211010206/02/02 21:10:31  5-MIN KMSN 030310Z 05007KT 10SM OVC085 09/08 A2992 870 89 400 040/07 RMK AO2 PRESRR
14837KMSN MSN20020602211509506/02/02 21:15:31  5-MIN KMSN 030315Z 05008KT 10SM OVC085 09/08 A2992 870 93 400 050/08 RMK AO2
14837KMSN MSN20020602212009506/02/02 21:20:31  5-MIN KMSN 030320Z 04009KT 10SM OVC085 10/08 A2992 870 89 500 040/09 RMK AO2
14837KMSN MSN20020602212509506/02/02 21:25:31  5-MIN KMSN 030325Z 06008KT 10SM OVC085 10/08 A2992 870 89 500 060/08 RMK AO2
14837KMSN MSN20020602213009506/02/02 21:30:31  5-MIN KMSN 030330Z 04009KT 10SM OVC085 10/08 A2993 850 89 500 040/09 RMK AO2
14837KMSN MSN20020602213509506/02/02 21:35:31  5-MIN KMSN 030335Z 04008KT 10SM OVC085 10/08 A2994 850 89 500 040/08 RMK AO2
14837KMSN MSN20020602214009506/02/02 21:40:31  5-MIN KMSN 030340Z 04010KT 10SM OVC085 10/08 A2994 850 89 500 040/10 RMK AO2
14837KMSN MSN20020602214509506/02/02 21:45:31  5-MIN KMSN 030345Z 03009KT 10SM OVC085 10/08 A2994 840 89 500 030/09 RMK AO2
14837KMSN MSN20020602215011206/02/02 21:50:31  5-MIN KMSN 030350Z 04010KT 10SM OVC085 09/08 A2994 850 93 400 040/10 RMK AO2 SLP139 T00940083
14837KMSN MSN20020602215509506/02/02 21:55:31  5-MIN KMSN 030355Z 03009KT 10SM OVC080 09/08 A2995 840 89 400 030/09 RMK AO2
14837KMSN MSN20020602220009506/02/02 22:00:31  5-MIN KMSN 030400Z 03010KT 10SM OVC080 10/08 A2995 830 86 500 030/10 RMK AO2
14837KMSN MSN20020602220509506/02/02 22:05:31  5-MIN KMSN 030405Z 03009KT 10SM OVC080 09/08 A2995 830 89 400 030/09 RMK AO2
14837KMSN MSN20020602221009506/02/02 22:10:31  5-MIN KMSN 030410Z 03012KT 10SM OVC080 09/07 A2995 830 86 400 030/12 RMK AO2
14837KMSN MSN20020602221509506/02/02 22:15:31  5-MIN KMSN 030415Z 05013KT 10SM OVC080 09/07 A2994 840 86 400 050/13 RMK AO2
14837KMSN MSN20020602222009506/02/02 22:20:31  5-MIN KMSN 030420Z 05013KT 10SM OVC080 09/07 A2995 840 83 400 050/13 RMK AO2
14837KMSN MSN20020602222509506/02/02 22:25:31  5-MIN KMSN 030425Z 05012KT 10SM OVC080 09/07 A2995 840 83 400 050/12 RMK AO2
14837KMSN MSN20020602223009506/02/02 22:30:31  5-MIN KMSN 030430Z 06012KT 10SM OVC075 09/06 A2995 840 79 400 060/12 RMK AO2
14837KMSN MSN20020602223509506/02/02 22:35:31  5-MIN KMSN 030435Z 06010KT 10SM OVC075 09/06 A2995 840 79 400 060/10 RMK AO2
14837KMSN MSN20020602224009506/02/02 22:40:31  5-MIN KMSN 030440Z 06008KT 10SM OVC070 09/06 A2994 840 79 400 060/08 RMK AO2
14837KMSN MSN20020602224509506/02/02 22:45:31  5-MIN KMSN 030445Z 06009KT 10SM OVC070 09/06 A2995 840 79 400 060/09 RMK AO2
14837KMSN MSN20020602225011206/02/02 22:50:31  5-MIN KMSN 030450Z 05008KT 10SM OVC070 09/06 A2996 830 79 400 050/08 RMK AO2 SLP144 T00940061
14837KMSN MSN20020602225509506/02/02 22:55:31  5-MIN KMSN 030455Z 05009KT 10SM OVC070 09/06 A2995 830 79 400 040/09 RMK AO2
14837KMSN MSN20020602230009506/02/02 23:00:31  5-MIN KMSN 030500Z 06012KT 10SM OVC070 09/06 A2995 840 76 400 060/12 RMK AO2
14837KMSN MSN20020602230509506/02/02 23:05:31  5-MIN KMSN 030505Z 06010KT 10SM OVC070 09/06 A2995 840 76 400 060/10 RMK AO2
14837KMSN MSN20020602231009506/02/02 23:10:31  5-MIN KMSN 030510Z 07006KT 10SM OVC070 09/06 A2995 830 79 400 070/06 RMK AO2
14837KMSN MSN20020602231509506/02/02 23:15:31  5-MIN KMSN 030515Z 10006KT 10SM OVC070 09/06 A2995 840 76 400 100/06 RMK AO2
14837KMSN MSN20020602232009506/02/02 23:20:31  5-MIN KMSN 030520Z 09003KT 10SM OVC070 09/06 A2995 840 76 400 090/03 RMK AO2
14837KMSN MSN20020602232510206/02/02 23:25:31  5-MIN KMSN 030525Z 08009KT 10SM OVC070 09/06 A2993 860 76 400 080/09 RMK AO2 PRESFR
14837KMSN MSN20020602233010806/02/02 23:30:31  5-MIN KMSN 030530Z 07012G16KT 10SM BKN070 09/06 A2991 870 76 500 070/12G16 RMK AO2 PRESFR
14837KMSN MSN20020602233510206/02/02 23:35:31  5-MIN KMSN 030535Z 06011KT 10SM BKN070 BKN120 09/06 A2992 870 76 400 060/11 RMK AO2
14837KMSN MSN20020602234010206/02/02 23:40:31  5-MIN KMSN 030540Z 07010KT 10SM BKN070 BKN120 09/06 A2993 860 76 400 070/10 RMK AO2
14837KMSN MSN20020602234510206/02/02 23:45:31  5-MIN KMSN 030545Z 07010KT 10SM SCT070 BKN110 09/06 A2991 870 76 500 070/10 RMK AO2
14837KMSN MSN20020602235015306/02/02 23:50:31  5-MIN KMSN 030550Z 08010KT 10SM SCT070 OVC110 09/06 A2991 880 76 500 080/10 RMK AO2 SLP127 60012 T00940056 10128 20094 402220094 58010
14837KMSN MSN20020602235510206/02/02 23:55:31  5-MIN KMSN 030555Z 09009KT 10SM SCT065 OVC110 09/06 A2991 870 76 500 080/09 RMK AO2
14837KMSN MSN20020603000010206/03/02 00:00:31  5-MIN KMSN 030600Z 07008KT 10SM BKN065 OVC110 09/06 A2991 870 76 500 070/08 RMK AO2
14837KMSN MSN20020603000510206/03/02 00:05:31  5-MIN KMSN 030605Z 06010KT 10SM BKN065 OVC110 09/06 A2991 880 76 500 060/10 RMK AO2
14837KMSN MSN20020603001010206/03/02 00:10:31  5-MIN KMSN 030610Z 05009KT 10SM BKN065 OVC110 09/06 A2991 870 76 500 050/09 RMK AO2
14837KMSN MSN20020603001510206/03/02 00:15:31  5-MIN KMSN 030615Z 06010KT 10SM BKN065 OVC110 09/06 A2991 870 76 500 060/10 RMK AO2
14837KMSN MSN20020603002009506/03/02 00:20:31  5-MIN KMSN 030620Z 07011KT 10SM OVC060 09/06 A2990 890 76 500 070/11 RMK AO2
14837KMSN MSN20020603002509506/03/02 00:25:31  5-MIN KMSN 030625Z 08011KT 10SM OVC060 09/06 A2990 890 76 500 080/11 RMK AO2
14837KMSN MSN20020603003009506/03/02 00:30:31  5-MIN KMSN 030630Z 09013KT 10SM OVC060 09/06 A2989 890 76 500 090/13 RMK AO2
14837KMSN MSN20020603003509506/03/02 00:35:31  5-MIN KMSN 030635Z 09010KT 10SM OVC060 09/05 A2989 900 74 500 090/10 RMK AO2
14837KMSN MSN20020603004009506/03/02 00:40:31  5-MIN KMSN 030640Z 08010KT 10SM OVC060 09/05 A2989 890 74 500 080/10 RMK AO2
14837KMSN MSN20020603004514806/03/02 00:45:31  5-MIN KMSN 030645Z 07013G16KT 9SM -TSRA OVC060 09/06 A2988 900 76 500 070/13G16 RMK AO2 TSB42RAB42 FRQ LTGIC VC TS VC MOV E P0001
14837KMSN MSN20020603005015906/03/02 00:50:31  5-MIN KMSN 030650Z 08011KT 9SM -TSRA OVC060 09/06 A2988 900 79 500 080/11 RMK AO2 TSB42RAB42 SLP118 FRQ LTGIC VC TS VC MOV E P0001 T00940061
14837KMSN MSN20020603005511006/03/02 00:55:31  5-MIN KMSN 030655Z 08013KT 10SM TS OVC060 09/06 A2988 900 79 500 080/13 RMK AO2 RAE55 P0000
14837KMSN MSN20020603010014506/03/02 01:00:31  5-MIN KMSN 030700Z 08010G17KT 10SM TS OVC060 09/06 A2989 890 76 500 080/10G17 RMK AO2 RAE0655 FRQ LTGIC OHD TS OHD MOV E P0000
14837KMSN MSN20020603010514606/03/02 01:05:31  5-MIN KMSN 030705Z VRB03G17KT 9SM -TSRA OVC060 10/06 A2992 860 74 500 VRB/03G17 RMK AO2 PRESRR FRQ LTGIC OHD TS OHD MOV E P0000
14837KMSN MSN20020603011013906/03/02 01:10:31  5-MIN KMSN 030710Z 32008KT 4SM TSRA OVC060 09/06 A2996 830 79 400 310/08 RMK AO2 PRESRR FRQ LTGIC OHD TS OHD MOV E P0004
14837KMSN MSN20020603011514806/03/02 01:15:31  5-MIN KMSN 030715Z 34009G15KT 3SM TSRA BR OVC060 08/07 A2998 810 93 200 330/09G15 RMK AO2 PRESRR FRQ LTGIC OHD TS OHD MOV E P0006
14837KMSN MSN20020603012013606/03/02 01:20:31  5-MIN KMSN 030720Z 03011KT 5SM -TSRA BR OVC060 09/07 A2995 830 86 300 030/11 RMK AO2 FRQ LTGIC OHD TS OHD MOV E P0006
14837KMSN MSN20020603012513406/03/02 01:25:31  5-MIN KMSN 030725Z 03012KT 10SM -TSRA OVC060 09/07 A2995 830 86 300 030/12 RMK AO2 FRQ LTGIC OHD TS OHD MOV E P0006
14837KMSN MSN20020603013013306/03/02 01:30:31  5-MIN KMSN 030730Z 03012KT 8SM -TSRA OVC060 09/07 A2995 830 89 300 030/12 RMK AO2 FRQ LTGIC OHD TS OHD MOV E P0008
14837KMSN MSN20020603013513506/03/02 01:35:31  5-MIN KMSN 030735Z 03012KT 5SM TSRA BR OVC060 08/07 A2995 840 93 300 030/12 RMK AO2 FRQ LTGIC OHD TS OHD MOV E P0009
14837KMSN MSN20020603014013306/03/02 01:40:31  5-MIN KMSN 030740Z 04012KT 7SM -TSRA OVC065 08/07 A2994 850 93 300 040/12 RMK AO2 FRQ LTGIC OHD TS OHD MOV E P0009
14837KMSN MSN20020603014513406/03/02 01:45:31  5-MIN KMSN 030745Z 05012KT 10SM -TSRA OVC065 08/07 A2993 850 93 300 050/12 RMK AO2 FRQ LTGIC OHD TS OHD MOV E P0009
14837KMSN MSN20020603015015406/03/02 01:50:31  5-MIN KMSN 030750Z 03011KT 10SM OVC065 08/07 A2994 850 93 300 020/11 RMK AO2 TSE48RAE48 SLP138 FRQ LTG DSNT NE TS MOV E P0009 T00830072
14837KMSN MSN20020603015509506/03/02 01:55:31  5-MIN KMSN 030755Z 04014KT 10SM OVC065 08/07 A2992 860 93 300 040/14 RMK AO2
14837KMSN MSN20020603020009506/03/02 02:00:31  5-MIN KMSN 030800Z 06011KT 10SM OVC065 08/07 A2992 860 93 300 060/11 RMK AO2
14837KMSN MSN20020603020509506/03/02 02:05:31  5-MIN KMSN 030805Z 07010KT 10SM OVC060 08/08 A2993 860 96 300 070/10 RMK AO2
14837KMSN MSN20020603021009506/03/02 02:10:31  5-MIN KMSN 030810Z 08011KT 10SM OVC060 09/08 A2992 860 93 400 080/11 RMK AO2
14837KMSN MSN20020603021509506/03/02 02:15:31  5-MIN KMSN 030815Z 08009KT 10SM OVC060 09/08 A2992 860 93 400 080/09 RMK AO2
14837KMSN MSN20020603022009506/03/02 02:20:31  5-MIN KMSN 030820Z 09011KT 10SM OVC060 09/08 A2991 880 93 400 090/11 RMK AO2
14837KMSN MSN20020603022509506/03/02 02:25:31  5-MIN KMSN 030825Z 07014KT 10SM OVC060 09/08 A2991 880 93 400 070/14 RMK AO2
14837KMSN MSN20020603023009506/03/02 02:30:31  5-MIN KMSN 030830Z 07013KT 10SM OVC060 09/08 A2991 880 93 400 070/13 RMK AO2
14837KMSN MSN20020603023509506/03/02 02:35:31  5-MIN KMSN 030835Z 07011KT 10SM OVC060 09/08 A2990 880 93 400 070/11 RMK AO2
14837KMSN MSN20020603024009506/03/02 02:40:31  5-MIN KMSN 030840Z 06011KT 10SM OVC060 09/08 A2990 880 93 400 060/11 RMK AO2
14837KMSN MSN20020603024509506/03/02 02:45:31  5-MIN KMSN 030845Z 07014KT 10SM OVC060 09/08 A2990 890 93 400 070/14 RMK AO2
14837KMSN MSN20020603025013006/03/02 02:50:31  5-MIN KMSN 030850Z 07014G19KT 10SM OVC060 09/08 A2990 890 96 400 070/14G19 RMK AO2 SLP124 60010 T00890083 50005
14837KMSN MSN20020603025509506/03/02 02:55:31  5-MIN KMSN 030855Z 07013KT 10SM OVC055 09/08 A2990 880 93 400 070/13 RMK AO2
14837KMSN MSN20020603030009506/03/02 03:00:31  5-MIN KMSN 030900Z 07011KT 10SM OVC055 09/08 A2990 880 93 400 070/11 RMK AO2
14837KMSN MSN20020603030509506/03/02 03:05:31  5-MIN KMSN 030905Z 08009KT 10SM OVC055 09/08 A2989 890 93 400 080/09 RMK AO2
14837KMSN MSN20020603031010106/03/02 03:10:31  5-MIN KMSN 030910Z 08008G16KT 10SM OVC055 09/08 A2989 900 93 400 080/08G16 RMK AO2
14837KMSN MSN20020603031510906/03/02 03:15:31  5-MIN KMSN 030915Z 09012KT 10SM FEW009 OVC055 09/08 A2988 900 93 400 090/12 RMK AO2 PRESFR
14837KMSN MSN20020603032010206/03/02 03:20:31  5-MIN KMSN 030920Z 10012KT 10SM FEW009 OVC055 09/08 A2988 910 96 400 100/12 RMK AO2
14837KMSN MSN20020603032509506/03/02 03:25:31  5-MIN KMSN 030925Z 11012KT 10SM OVC055 09/08 A2988 910 96 400 110/12 RMK AO2
14837KMSN MSN20020603033010206/03/02 03:30:31  5-MIN KMSN 030930Z 11009KT 10SM BKN055 OVC070 09/08 A2987 910 96 400 110/09 RMK AO2
14837KMSN MSN20020603033509506/03/02 03:35:31  5-MIN KMSN 030935Z 10010KT 10SM OVC055 09/08 A2987 910 96 400 100/10 RMK AO2
14837KMSN MSN20020603034009506/03/02 03:40:31  5-MIN KMSN 030940Z 09011KT 10SM OVC055 09/08 A2987 910 96 400 090/11 RMK AO2
14837KMSN MSN20020603034510206/03/02 03:45:31  5-MIN KMSN 030945Z 10009KT 10SM BKN055 OVC070 09/08 A2987 910 96 400 090/09 RMK AO2
14837KMSN MSN20020603035011206/03/02 03:50:31  5-MIN KMSN 030950Z 09010KT 10SM OVC055 09/08 A2987 910 93 500 090/10 RMK AO2 SLP117 T00940083
14837KMSN MSN20020603035509506/03/02 03:55:31  5-MIN KMSN 030955Z 10009KT 10SM OVC055 09/08 A2987 910 93 500 100/09 RMK AO2
14837KMSN MSN20020603040009506/03/02 04:00:31  5-MIN KMSN 031000Z 11012KT 10SM OVC055 09/08 A2987 910 93 500 110/12 RMK AO2
14837KMSN MSN20020603040509506/03/02 04:05:31  5-MIN KMSN 031005Z 12010KT 10SM OVC050 09/09 A2986 920 96 500 110/10 RMK AO2
14837KMSN MSN20020603041012406/03/02 04:10:31  5-MIN KMSN 031010Z 12012KT 9SM -RA BKN050 OVC065 09/09 A2984 940 96 500 120/12 RMK AO2 RAB09 PRESFR P0000
14837KMSN MSN20020603041512406/03/02 04:15:31  5-MIN KMSN 031015Z 11012KT 8SM -RA FEW040 BKN050 OVC065 09/09 A2984 940 96 500 110/12 RMK AO2 RAB09 P0001
14837KMSN MSN20020603042012406/03/02 04:20:31  5-MIN KMSN 031020Z 11012KT 9SM -RA SCT050 BKN065 BKN075 09/09 A2985 930 96 500 100/12 RMK AO2 RAB09 P0001
14837KMSN MSN20020603042511706/03/02 04:25:31  5-MIN KMSN 031025Z 11010KT 10SM SCT055 BKN080 10/09 A2985 930 93 600 110/10 RMK AO2 RAB09E24 P0001
14837KMSN MSN20020603043016606/03/02 04:30:31  5-MIN KMSN 031030Z 11008G17KT 10SM TS SCT049 SCT060 BKN070 10/09 A2986 920 93 600 110/08G17 RMK AO2 TSB27RAB09E24 OCNL LTGIC OHD TS OHD MOV E P0001
14837KMSN MSN20020603043516606/03/02 04:35:31  5-MIN KMSN 031035Z 09012G16KT 10SM TS SCT050 SCT060 BKN075 10/09 A2982 950 93 600 090/12G16 RMK AO2 TSB27RAB09E24 OCNL LTGIC OHD TS OHD MOV E P0001
14837KMSN MSN20020603044016606/03/02 04:40:31  5-MIN KMSN 031040Z 09017G22KT 10SM -TSRA SCT050 BKN075 10/09 A2979 980 96 700 090/17G22 RMK AO2 TSB27RAB09 PRESFR OCNL LTGIC OHD TS OHD MOV E P0002
14837KMSN MSN20020603044515906/03/02 04:45:31  5-MIN KMSN 031045Z 08014G22KT 10SM -TSRA FEW050 BKN065 10/09 A2979 990 96 700 080/14G22 RMK AO2 TSB27RAB09 OCNL LTGIC OHD TS OHD MOV E P0002
14837KMSN MSN20020603045017506/03/02 04:50:31  5-MIN KMSN 031050Z 09009G20KT 8SM -TSRA SCT050 BKN060 10/09 A2981 970 96 600 090/09G20 RMK AO2 TSB27RAB09 SLP096 OCNL LTGIC OHD TS OHD MOV E P0002 T01000094
14837KMSN MSN20020603045514806/03/02 04:55:31  5-MIN KMSN 031055Z 09014G17KT 8SM -TSRA BKN050 OVC060 11/09 A2981 970 93 700 090/14G17 RMK AO2 FRQ LTGICCC OHD TS OHD MOV E P0000
14837KMSN MSN20020603050015506/03/02 05:00:31  5-MIN KMSN 031100Z 04010G17KT 9SM -TSRA BKN050 OVC060 11/09 A2985 930 93 700 040/10G17 RMK AO2 PRESRR FRQ LTGICCC OHD TS OHD MOV E P0000
14837KMSN MSN20020603050515906/03/02 05:05:31  5-MIN KMSN 031105Z 32012G20KT 10SM TS BKN050 OVC055 11/09 A2991 870 93 600 320/12G20 RMK AO2 RAE05 PRESRR FRQ LTGICCC OHD TS OHD MOV E P0000
14837KMSN MSN20020603051017406/03/02 05:10:31  5-MIN KMSN 031110Z 32019G27KT 10SM -TSRA SCT011 OVC048 10/09 A2995 840 96 500 320/19G27 RMK AO2 PK WND 32027/1107 PRESRR FRQ LTGICCC OHD TS OHD MOV E P0001
14837KMSN MSN20020603051518006/03/02 05:15:31  5-MIN KMSN 031115Z 35017G27KT 6SM -TSRA BR SCT009 OVC050 09/09 A2994 840 96 400 350/17G27 RMK AO2 PK WND 32027/1107 WSHFT 1100 FRQ LTGICCC OHD TS OHD MOV E P0003
14837KMSN MSN20020603052018706/03/02 05:20:31  5-MIN KMSN 031120Z 33024G39KT 6SM -TSRA BR SCT009 BKN022 OVC050 10/09 A2999 800 93 400 320/24G39 RMK AO2 PK WND 33039/1118 WSHFT 1100 FRQ LTGICCC OHD TS OHD MOV E P0007
14837KMSN MSN20020603052518806/03/02 05:25:31  5-MIN KMSN 031125Z 01024G39KT 1SM TSRA BR SCT008 BKN021 OVC050 10/09 A2996 830 96 500 010/24G39 RMK AO2 PK WND 33039/1118 WSHFT 1100 FRQ LTGCGICCC OHD TS OHD MOV E P0017
14837KMSN MSN20020603053019306/03/02 05:30:31  5-MIN KMSN 031130Z 32015G31KT 1 1/2SM +TSRA BR SCT008 BKN013 OVC032 10/09 A3002 770 96 400 320/15G31 RMK AO2 PK WND 33039/1118 WSHFT 1100 FRQ LTGCGICCC OHD TS OHD MOV E P0027
14837KMSN MSN20020603053519306/03/02 05:35:31  5-MIN KMSN 031135Z 06013G19KT 1 1/2SM +TSRA BR BKN010 BKN021 OVC034 10/09 A2996 830 96 500 060/13G19 RMK AO2 PK WND 33039/1118 WSHFT 1100 FRQ LTGCGICCC OHD TS OHD MOV E P0038
14837KMSN MSN20020603054018806/03/02 05:40:31  5-MIN KMSN 031140Z 04016KT 1 1/2SM +TSRA BR BKN010 BKN021 OVC034 10/10 A2996 830 100 500 040/16 RMK AO2 PK WND 33039/1118 WSHFT 1125 FRQ LTGCGICCC OHD TS OHD MOV E P0048
14837KMSN MSN20020603054518806/03/02 05:45:31  5-MIN KMSN 031145Z 34009KT 1 1/2SM +TSRA BR BKN010 BKN021 OVC034 10/10 A2999 800 100 400 340/09 RMK AO2 PK WND 33039/1118 WSHFT 1125 FRQ LTGCGICCC OHD TS OHD MOV E P0056
14837KMSN MSN20020603055025006/03/02 05:50:31  5-MIN KMSN 031150Z 01016G19KT 1 1/2SM TSRA BR BKN012 BKN029 OVC055 10/10 A2998 810 100 400 010/16G19 RMK AO2 PK WND 33039/1118 WSHFT 1125 SFC VIS 2 SLP154 FRQ LTGCGICCC OHD TS OHD MOV E P0058 60070 70097 T01000100 10106 20083 56004
14837KMSN MSN20020603055517206/03/02 05:55:31  5-MIN KMSN 031155Z 03016G19KT 1 1/2SM TSRA BR SCT010 BKN029 OVC055 10/10 A2998 810 100 400 030/16G19 RMK AO2 SFC VIS 3 FRQ LTGICCC OHD TS OHD MOV E P0000
14837KMSN MSN20020603060016106/03/02 06:00:31  5-MIN KMSN 031200Z 01015KT 3SM TSRA BR SCT010 BKN029 OVC055 11/10 A2999 800 96 500 010/15 RMK AO2 SFC VIS 3 FRQ LTGICCC OHD TS OHD MOV E P0001
14837KMSN MSN20020603060515506/03/02 06:05:31  5-MIN KMSN 031205Z 36013KT 3SM -TSRA BR FEW013 BKN055 11/10 A3000 790 96 500 360/13 RMK AO2 SFC VIS 4 FRQ LTGICCC OHD TS OHD MOV E P0003
14837KMSN MSN20020603061016106/03/02 06:10:31  5-MIN KMSN 031210Z 03016G20KT 3SM TSRA BR FEW011 OVC055 10/10 A2998 810 100 400 020/16G20 RMK AO2 SFC VIS 4 FRQ LTGICCC OHD TS OHD MOV E P0004
14837KMSN MSN20020603061514406/03/02 06:15:31  5-MIN KMSN 031215Z 03017G22KT 3SM TSRA BR OVC055 11/11 A2998 810 100 500 020/17G22 RMK AO2 FRQ LTGICCC OHD TS OHD MOV E P0006
14837KMSN MSN20020603062016106/03/02 06:20:31  5-MIN KMSN 031220Z 02015G22KT 2SM +TSRA BR FEW027 OVC055 11/11 A3000 790 96 600 020/15G22 RMK AO2 TWR VIS 3 FRQ LTGICCC OHD TS OHD MOV E P0012
14837KMSN MSN20020603062517006/03/02 06:25:31  5-MIN KMSN 031225Z 07010G19KT 030V100 2SM +TSRA BR SCT017 OVC055 11/11 A3000 790 100 600 070/10G19 030V100 RMK AO2 FRQ LTGICGCCC OHD TS OHD MOV E P0021
14837KMSN MSN20020603063017806/03/02 06:30:31  5-MIN KMSN 031230Z 11017KT 3/4SM +TSRA BR BKN015 OVC050 11/11 A2996 830 100 600 110/17 RMK AO2 WSHFT 1216 TWR VIS 1 PRESFR FRQ LTGICGCCC OHD TS OHD MOV E P0030
14837KMSN MSN20020603063517306/03/02 06:35:31  5-MIN KMSN 031235Z 12019KT 1SM +TSRA BR BKN015 BKN032 OVC055 12/12 A2992 860 100 800 120/19 RMK AO2 WSHFT 1216 PRESFR FRQ LTGICGCCC OHD TS OHD MOV E P0039
14837KMSN MSN20020603064018706/03/02 06:40:31  5-MIN KMSN 031240Z 11022KT 1SM +TSRA BR BKN015 BKN032 OVC055 12/12 A2990 890 100 800 110/22 RMK AO2 WSHFT 1216 SFC VIS 1 1/2 PRESFR FRQ LTGICGCCC OHD TS OHD MOV E P0042
14837KMSN MSN20020603064520306/03/02 06:45:31  5-MIN KMSN 031245Z 11025G28KT 1SM TSRA BR BKN023 OVC032 13/13 A2987 910 96 1000 110/25G28 RMK AO2 PK WND 11028/1242 WSHFT 1216 SFC VIS 2 1/2 PRESFR FRQ LTGICGCCC OHD TS OHD MOV E P0043
14837KMSN MSN20020603065020306/03/02 06:50:31  5-MIN KMSN 031250Z 11018G28KT 2 1/2SM TSRA BR OVC029 14/13 A2986 920 93 1000 110/18G28 RMK AO2 PK WND 11028/1242 WSHFT 1216 PRESFR SLP114 FRQ LTGICGCCC OHD TS OHD MOV E P0044 T01390128
14837KMSN MSN20020603065518506/03/02 06:55:31  5-MIN KMSN 031255Z 11028G32KT 2 1/2SM -TSRA BR OVC033 14/13 A2985 930 90 1100 110/28G32 RMK AO2 PK WND 11032/1254 SFC VIS 5 PRESFR OCNL LTGICCC OHD TS OHD MOV E P0000
14837KMSN MSN20020603070017106/03/02 07:00:31  5-MIN KMSN 031300Z 12020G32KT 5SM -TSRA BR BKN033 OVC070 14/13 A2986 920 93 1000 120/20G32 RMK AO2 PK WND 11032/1254 OCNL LTGICCC OHD TS OHD MOV E P0000
14837KMSN MSN20020603070516506/03/02 07:05:31  5-MIN KMSN 031305Z 12018G25KT 5SM -TSRA BR OVC035 14/13 A2989 890 93 1000 120/18G25 RMK AO2 PK WND 11032/1254 OCNL LTGICCC OHD TS OHD MOV SE P0000
14837KMSN MSN20020603071017206/03/02 07:10:31  5-MIN KMSN 031310Z 12018G23KT 5SM -TSRA BR OVC044 14/13 A2990 880 93 1000 120/18G23 RMK AO2 PK WND 11032/1254 PRESRR OCNL LTGICCC OHD TS OHD MOV SE P0001
14837KMSN MSN20020603071514806/03/02 07:15:31  5-MIN KMSN 031315Z 11018G23KT 6SM -RA BR OVC049 14/13 A2987 910 93 1000 110/18G23 RMK AO2 PK WND 11032/1254 TSE11 TS MOV SE P0001
14837KMSN MSN20020603072014806/03/02 07:20:31  5-MIN KMSN 031320Z 11015G27KT 6SM -RA BR BKN047 14/13 A2987 910 93 1000 110/15G27 RMK AO2 PK WND 11032/1254 TSE11 TS MOV SE P0001
14837KMSN MSN20020603072514606/03/02 07:25:31  5-MIN KMSN 031325Z 10017G27KT 7SM BKN047 14/13 A2986 920 93 1000 100/17G27 RMK AO2 PK WND 11032/1254 TSE11RAE25 TS MOV SE P0001
14837KMSN MSN20020603073014706/03/02 07:30:31  5-MIN KMSN 031330Z 12015KT 7SM SCT049 14/13 A2985 930 93 1100 110/15 RMK AO2 PK WND 11032/1254 TSE11RAE25 PRESFR TS MOV SE P0001
14837KMSN MSN20020603073514606/03/02 07:35:31  5-MIN KMSN 031335Z 12016G22KT 8SM BKN055 14/12 A2985 930 90 1100 120/16G22 RMK AO2 PK WND 11032/1254 TSE11RAE25 TS MOV SE P0001
14837KMSN MSN20020603074014606/03/02 07:40:31  5-MIN KMSN 031340Z 13016G22KT 8SM BKN055 14/12 A2985 930 90 1100 130/16G22 RMK AO2 PK WND 11032/1254 TSE11RAE25 TS MOV SE P0001
14837KMSN MSN20020603074514006/03/02 07:45:31  5-MIN KMSN 031345Z 13018KT 8SM BKN055 14/12 A2984 940 90 1100 130/18 RMK AO2 PK WND 11032/1254 TSE11RAE25 TS MOV SE P0001
14837KMSN MSN20020603075016506/03/02 07:50:31  5-MIN KMSN 031350Z 13018KT 10SM BKN055 14/12 A2983 950 90 1100 130/18 RMK AO2 PK WND 11032/1254 TSE11RAE25 PRESFR SLP101 TS MOV SE P0001 T01390122
14837KMSN MSN20020603075510606/03/02 07:55:31  5-MIN KMSN 031355Z 12017G21KT 10SM CLR 14/12 A2981 960 90 1100 110/17G21 RMK AO2 PRESFR
14837KMSN MSN20020603080009906/03/02 08:00:31  5-MIN KMSN 031400Z 12016G23KT 10SM CLR 14/12 A2982 960 86 1200 110/16G23 RMK AO2
14837KMSN MSN20020603080509906/03/02 08:05:31  5-MIN KMSN 031405Z 13018G24KT 10SM CLR 14/12 A2984 940 86 1100 120/18G24 RMK AO2
14837KMSN MSN20020603081010606/03/02 08:10:31  5-MIN KMSN 031410Z 12013G24KT 10SM CLR 14/12 A2985 930 86 1100 120/13G24 RMK AO2 PRESRR
14837KMSN MSN20020603081509906/03/02 08:15:31  5-MIN KMSN 031415Z 12011G21KT 10SM CLR 14/12 A2985 930 86 1100 120/11G21 RMK AO2
14837KMSN MSN20020603082009906/03/02 08:20:31  5-MIN KMSN 031420Z 13013G19KT 10SM CLR 14/12 A2986 920 86 1100 130/13G19 RMK AO2
14837KMSN MSN20020603082509306/03/02 08:25:31  5-MIN KMSN 031425Z 12012KT 10SM CLR 14/12 A2985 930 86 1100 120/12 RMK AO2
14837KMSN MSN20020603083009306/03/02 08:30:31  5-MIN KMSN 031430Z 14011KT 10SM CLR 14/12 A2986 920 86 1100 140/11 RMK AO2
14837KMSN MSN20020603083509606/03/02 08:35:31  5-MIN KMSN 031435Z 13013KT 10SM SCT040 14/13 A2985 930 90 1100 130/13 RMK AO2
14837KMSN MSN20020603084009606/03/02 08:40:31  5-MIN KMSN 031440Z 12011KT 10SM BKN038 14/13 A2984 930 90 1100 120/11 RMK AO2
14837KMSN MSN20020603084510306/03/02 08:45:31  5-MIN KMSN 031445Z 12010KT 10SM SCT033 BKN041 14/13 A2984 940 90 1100 120/10 RMK AO2
14837KMSN MSN20020603085012506/03/02 08:50:31  5-MIN KMSN 031450Z 13009KT 10SM BKN037 14/13 A2983 950 90 1100 130/09 RMK AO2 SLP104 60045 T01440128 53024
14837KMSN MSN20020603085510306/03/02 08:55:31  5-MIN KMSN 031455Z 13011KT 10SM FEW034 SCT042 15/13 A2984 940 86 1200 130/11 RMK AO2
14837KMSN MSN20020603090010306/03/02 09:00:31  5-MIN KMSN 031500Z 13010KT 10SM FEW032 SCT040 15/13 A2984 940 90 1200 120/10 RMK AO2
14837KMSN MSN20020603090509606/03/02 09:05:31  5-MIN KMSN 031505Z 13012KT 10SM FEW032 16/13 A2984 940 86 1300 120/12 RMK AO2
14837KMSN MSN20020603091009606/03/02 09:10:31  5-MIN KMSN 031510Z 11011KT 10SM SCT032 16/14 A2985 930 90 1300 110/11 RMK AO2
14837KMSN MSN20020603091509606/03/02 09:15:31  5-MIN KMSN 031515Z 11012KT 10SM SCT032 16/13 A2985 930 86 1200 110/12 RMK AO2
14837KMSN MSN20020603092009606/03/02 09:20:31  5-MIN KMSN 031520Z 11013KT 10SM SCT032 16/13 A2986 920 83 1300 110/13 RMK AO2
14837KMSN MSN20020603092510206/03/02 09:25:31  5-MIN KMSN 031525Z 11013G18KT 10SM SCT020 16/13 A2986 920 83 1300 110/13G18 RMK AO2
14837KMSN MSN20020603093010206/03/02 09:30:31  5-MIN KMSN 031530Z 12013G18KT 10SM SCT020 17/14 A2987 910 83 1400 120/13G18 RMK AO2
14837KMSN MSN20020603093509606/03/02 09:35:31  5-MIN KMSN 031535Z 10007KT 10SM SCT020 17/14 A2987 910 83 1400 100/07 RMK AO2
14837KMSN MSN20020603094010206/03/02 09:40:31  5-MIN KMSN 031540Z 10008G16KT 10SM BKN016 17/14 A2987 910 83 1400 100/08G16 RMK AO2
14837KMSN MSN20020603094510206/03/02 09:45:31  5-MIN KMSN 031545Z 10011G16KT 10SM BKN016 17/14 A2987 910 83 1400 100/11G16 RMK AO2
14837KMSN MSN20020603095011306/03/02 09:50:31  5-MIN KMSN 031550Z 10010KT 10SM BKN016 16/13 A2987 910 83 1300 100/10 RMK AO2 SLP117 T01610133
14837KMSN MSN20020603095509506/03/02 09:55:31  5-MIN KMSN 031555Z 10012KT 9SM BKN016 17/14 A2987 910 83 1400 100/12 RMK AO2
14837KMSN MSN20020603100010306/03/02 10:00:31  5-MIN KMSN 031600Z 10009KT 10SM BKN016 OVC032 17/14 A2987 910 83 1400 100/09 RMK AO2
14837KMSN MSN20020603100510306/03/02 10:05:31  5-MIN KMSN 031605Z 10011KT 10SM BKN018 OVC032 17/14 A2986 920 83 1400 100/11 RMK AO2
14837KMSN MSN20020603101010306/03/02 10:10:31  5-MIN KMSN 031610Z 10015KT 10SM BKN018 OVC032 17/14 A2986 920 83 1400 100/15 RMK AO2
14837KMSN MSN20020603101511606/03/02 10:15:31  5-MIN KMSN 031615Z 09013G18KT 10SM BKN018 BKN032 OVC039 17/14 A2985 930 80 1400 090/13G18 RMK AO2
14837KMSN MSN20020603102011606/03/02 10:20:31  5-MIN KMSN 031620Z 10013G18KT 10SM BKN018 BKN032 OVC039 17/14 A2986 920 83 1400 100/13G18 RMK AO2
14837KMSN MSN20020603102510306/03/02 10:25:31  5-MIN KMSN 031625Z 11012KT 10SM BKN018 OVC036 17/14 A2986 920 83 1400 110/12 RMK AO2
14837KMSN MSN20020603103011006/03/02 10:30:31  5-MIN KMSN 031630Z 10012KT 10SM BKN018 BKN031 OVC038 16/14 A2986 920 86 1300 100/12 RMK AO2
14837KMSN MSN20020603103510306/03/02 10:35:31  5-MIN KMSN 031635Z 11012KT 10SM BKN018 OVC036 16/14 A2986 920 86 1300 110/12 RMK AO2
14837KMSN MSN20020603104010306/03/02 10:40:31  5-MIN KMSN 031640Z 11012KT 10SM BKN016 OVC032 16/14 A2986 920 86 1300 110/12 RMK AO2
14837KMSN MSN20020603104510306/03/02 10:45:31  5-MIN KMSN 031645Z 10011KT 10SM BKN016 OVC032 16/14 A2987 910 86 1300 100/11 RMK AO2
14837KMSN MSN20020603105012006/03/02 10:50:31  5-MIN KMSN 031650Z 12008KT 10SM BKN016 OVC032 16/13 A2987 910 83 1300 120/08 RMK AO2 SLP115 T01610133
14837KMSN MSN20020603105510206/03/02 10:55:31  5-MIN KMSN 031655Z 10010KT 8SM BKN016 OVC030 16/13 A2986 920 83 1300 100/10 RMK AO2
14837KMSN MSN20020603110010306/03/02 11:00:31  5-MIN KMSN 031700Z 10010KT 10SM BKN016 OVC030 16/13 A2986 920 83 1300 100/10 RMK AO2
14837KMSN MSN20020603110510306/03/02 11:05:31  5-MIN KMSN 031705Z 10012KT 10SM SCT016 OVC030 16/14 A2986 920 86 1300 100/12 RMK AO2
14837KMSN MSN20020603111010306/03/02 11:10:31  5-MIN KMSN 031710Z 10009KT 10SM FEW016 OVC028 16/13 A2985 930 83 1300 090/09 RMK AO2
14837KMSN MSN20020603111510306/03/02 11:15:31  5-MIN KMSN 031715Z 10008KT 10SM FEW016 OVC028 16/14 A2986 920 86 1300 100/08 RMK AO2
14837KMSN MSN20020603112010306/03/02 11:20:31  5-MIN KMSN 031720Z 09010KT 10SM FEW016 OVC028 17/14 A2985 930 83 1400 090/10 RMK AO2
14837KMSN MSN20020603112510306/03/02 11:25:31  5-MIN KMSN 031725Z 11009KT 10SM FEW016 OVC028 17/14 A2986 920 83 1400 110/09 RMK AO2
14837KMSN MSN20020603113010306/03/02 11:30:31  5-MIN KMSN 031730Z 11009KT 10SM SCT016 OVC028 16/14 A2986 920 86 1300 110/09 RMK AO2
14837KMSN MSN20020603113510306/03/02 11:35:31  5-MIN KMSN 031735Z 10009KT 10SM BKN016 OVC028 17/14 A2986 920 83 1400 100/09 RMK AO2
14837KMSN MSN20020603114011006/03/02 11:40:31  5-MIN KMSN 031740Z 09010KT 10SM BKN016 BKN024 OVC028 17/14 A2986 920 83 1400 090/10 RMK AO2
14837KMSN MSN20020603114511006/03/02 11:45:31  5-MIN KMSN 031745Z 10008KT 10SM BKN016 BKN024 OVC028 16/14 A2986 920 86 1300 100/08 RMK AO2
14837KMSN MSN20020603115013706/03/02 11:50:31  5-MIN KMSN 031750Z 06010KT 10SM OVC016 16/14 A2986 920 86 1300 050/10 RMK AO2 SLP113 60045 T01610139 10172 20100 55045
14837KMSN MSN20020603115509506/03/02 11:55:31  5-MIN KMSN 031755Z 07009KT 8SM OVC016 16/14 A2986 920 90 1200 070/09 RMK AO2
14837KMSN MSN20020603120009506/03/02 12:00:31  5-MIN KMSN 031800Z 07010KT 8SM OVC014 16/14 A2986 920 90 1200 070/10 RMK AO2
14837KMSN MSN20020603120509506/03/02 12:05:31  5-MIN KMSN 031805Z 07009KT 8SM OVC014 16/14 A2985 930 90 1200 070/09 RMK AO2
14837KMSN MSN20020603121009506/03/02 12:10:31  5-MIN KMSN 031810Z 07009KT 8SM OVC014 16/14 A2985 930 90 1200 070/09 RMK AO2
14837KMSN MSN20020603121509506/03/02 12:15:31  5-MIN KMSN 031815Z 07009KT 8SM OVC014 16/14 A2986 920 90 1200 070/09 RMK AO2
14837KMSN MSN20020603122010206/03/02 12:20:31  5-MIN KMSN 031820Z 06008KT 8SM BKN014 OVC025 16/14 A2986 920 90 1200 060/08 RMK AO2
14837KMSN MSN20020603122510206/03/02 12:25:31  5-MIN KMSN 031825Z 06007KT 7SM BKN014 OVC025 16/14 A2986 920 90 1200 060/07 RMK AO2
14837KMSN MSN20020603123009506/03/02 12:30:31  5-MIN KMSN 031830Z 08009KT 7SM OVC014 16/14 A2986 920 90 1200 080/09 RMK AO2
14837KMSN MSN20020603123509506/03/02 12:35:31  5-MIN KMSN 031835Z 06008KT 7SM OVC014 16/14 A2985 920 90 1200 060/08 RMK AO2
14837KMSN MSN20020603124009506/03/02 12:40:31  5-MIN KMSN 031840Z 07010KT 7SM OVC014 16/14 A2985 930 90 1300 070/10 RMK AO2
14837KMSN MSN20020603124509506/03/02 12:45:31  5-MIN KMSN 031845Z 08009KT 7SM OVC014 16/14 A2985 930 90 1300 080/09 RMK AO2
14837KMSN MSN20020603125011206/03/02 12:50:31  5-MIN KMSN 031850Z 08009KT 7SM OVC014 16/14 A2985 930 90 1300 080/09 RMK AO2 SLP109 T01560139
14837KMSN MSN20020603125509806/03/02 12:55:31  5-MIN KMSN 031855Z 08009KT 6SM BR OVC014 16/14 A2985 930 90 1300 080/09 RMK AO2
14837KMSN MSN20020603130009506/03/02 13:00:31  5-MIN KMSN 031900Z 08008KT 7SM OVC012 16/14 A2986 920 90 1200 080/08 RMK AO2
14837KMSN MSN20020603130510206/03/02 13:05:31  5-MIN KMSN 031905Z 08005KT 7SM OVC012 16/14 A2987 910 90 1200 070/05 RMK AO2 PRESRR
14837KMSN MSN20020603131009506/03/02 13:10:31  5-MIN KMSN 031910Z 07008KT 7SM OVC012 16/14 A2987 910 90 1200 070/08 RMK AO2
14837KMSN MSN20020603131509506/03/02 13:15:31  5-MIN KMSN 031915Z 07005KT 7SM OVC012 16/14 A2988 900 90 1200 070/05 RMK AO2
14837KMSN MSN20020603132009506/03/02 13:20:31  5-MIN KMSN 031920Z 07008KT 7SM OVC012 16/14 A2988 900 90 1200 070/08 RMK AO2
14837KMSN MSN20020603132509506/03/02 13:25:31  5-MIN KMSN 031925Z 09006KT 7SM OVC012 16/14 A2988 910 90 1200 080/06 RMK AO2
14837KMSN MSN20020603133009506/03/02 13:30:31  5-MIN KMSN 031930Z 07008KT 7SM OVC012 16/14 A2987 910 90 1200 070/08 RMK AO2
14837KMSN MSN20020603133509806/03/02 13:35:31  5-MIN KMSN 031935Z 08008KT 6SM BR OVC012 16/14 A2987 910 90 1200 080/08 RMK AO2
14837KMSN MSN20020603134011406/03/02 13:40:31  5-MIN KMSN 031940Z 07010KT 3SM -DZ BR OVC012 16/14 A2986 920 90 1200 070/10 RMK AO2 DZB39 P0000
14837KMSN MSN20020603134512806/03/02 13:45:31  5-MIN KMSN 031945Z 06008KT 2SM -DZ BR OVC012 15/14 A2987 910 93 1200 060/08 RMK AO2 TWR VIS 2 1/2 DZB39 P0000
14837KMSN MSN20020603135014506/03/02 13:50:31  5-MIN KMSN 031950Z 06008KT 2SM -DZ BR OVC012 14/14 A2987 910 96 1100 060/08 RMK AO2 TWR VIS 2 1/2 DZB39 SLP116 P0000 T01440139
14837KMSN MSN20020603135512206/03/02 13:55:31  5-MIN KMSN 031955Z 06009KT 2SM -DZ BR OVC012 14/14 A2987 910 96 1100 060/09 RMK AO2 TWR VIS 2 1/2 P0000
14837KMSN MSN20020603140012206/03/02 14:00:31  5-MIN KMSN 032000Z 06013KT 2SM -DZ BR OVC012 14/14 A2986 920 96 1100 060/13 RMK AO2 TWR VIS 2 1/2 P0000
14837KMSN MSN20020603140513406/03/02 14:05:31  5-MIN KMSN 032005Z 06009KT 2SM -DZ BR OVC010 14/14 A2987 920 96 1100 060/09 RMK AO2 TWR VIS 2 1/2 CIG 007V014 P0000
14837KMSN MSN20020603141012006/03/02 14:10:31  5-MIN KMSN 032010Z 05007KT 2SM -DZ BR OVC010 14/14 A2987 910 96 1100 050/07 RMK AO2 CIG 005V014 P0000
14837KMSN MSN20020603141514006/03/02 14:15:31  5-MIN KMSN 032015Z 06008KT 2SM -RA BR SCT007 OVC010 14/14 A2986 920 96 1100 060/08 RMK AO2 SFC VIS 2 1/2 DZE11RAB11 P0000
14837KMSN MSN20020603142014806/03/02 14:20:31  5-MIN KMSN 032020Z 05008KT 2SM -RA BR SCT007 BKN010 OVC019 14/14 A2985 930 100 1100 050/08 RMK AO2 SFC VIS 2 1/2 DZE11RAB11 P0000
14837KMSN MSN20020603142515806/03/02 14:25:31  5-MIN KMSN 032025Z 03010KT 2SM -DZ BR BKN005 BKN010 OVC019 14/14 A2986 920 100 1000 030/10 RMK AO2 SFC VIS 2 1/2 RAB11E25 CIG 005V009 P0001
14837KMSN MSN20020603143015106/03/02 14:30:31  5-MIN KMSN 032030Z 05008KT 2SM -DZ BR BKN005 OVC010 14/14 A2987 910 100 1000 050/08 RMK AO2 SFC VIS 2 1/2 RAB11E25 CIG 005V008 P0001
14837KMSN MSN20020603143515206/03/02 14:35:31  5-MIN KMSN 032035Z 04005KT 2SM BR BKN007 OVC010 14/14 A2987 910 100 1000 040/05 RMK AO2 SFC VIS 2 1/2 DZE33RAB11E25 CIG 005V010 P0001
14837KMSN MSN20020603144015206/03/02 14:40:31  5-MIN KMSN 032040Z 06008KT 2SM BR BKN007 OVC010 14/14 A2986 920 100 1100 050/08 RMK AO2 SFC VIS 2 1/2 DZE33RAB11E25 CIG 005V010 P0001
14837KMSN MSN20020603144515106/03/02 14:45:31  5-MIN KMSN 032045Z 07009KT 2SM -DZ BR BKN007 OVC010 14/14 A2985 930 100 1100 070/09 RMK AO2 SFC VIS 2 1/2 RAB11E25 CIG 004V010 P0001
14837KMSN MSN20020603145016606/03/02 14:50:31  5-MIN KMSN 032050Z 06010KT 2SM -DZ BR BKN007 OVC011 14/14 A2986 920 100 1100 060/10 RMK AO2 RAB11E25 CIG 004V009 SLP111 P0001 60001 T01440144 50008
14837KMSN MSN20020603145513506/03/02 14:55:31  5-MIN KMSN 032055Z 06010KT 1 3/4SM -DZ BR OVC007 14/14 A2986 920 100 1100 060/10 RMK AO2 TWR VIS 2 CIG 004V009 P0000
14837KMSN MSN20020603150013406/03/02 15:00:31  5-MIN KMSN 032100Z 06010KT 1 3/4SM -DZ BR OVC007 14/14 A2986 920 96 1100 060/10 RMK AO2 TWR VIS 2 CIG 004V010 P0000
14837KMSN MSN20020603150513406/03/02 15:05:31  5-MIN KMSN 032105Z 07010KT 1 3/4SM -DZ BR OVC007 14/14 A2986 920 96 1100 070/10 RMK AO2 TWR VIS 2 CIG 004V011 P0000
14837KMSN MSN20020603151013506/03/02 15:10:31  5-MIN KMSN 032110Z 08009KT 1 3/4SM -DZ BR OVC007 14/14 A2987 910 100 1000 080/09 RMK AO2 TWR VIS 2 CIG 004V010 P0000
14837KMSN MSN20020603151513506/03/02 15:15:31  5-MIN KMSN 032115Z 07009KT 1 3/4SM -DZ BR OVC007 14/14 A2986 920 100 1000 070/09 RMK AO2 TWR VIS 2 CIG 004V009 P0000
14837KMSN MSN20020603152013506/03/02 15:20:31  5-MIN KMSN 032120Z 08008KT 1 3/4SM -DZ BR OVC005 14/14 A2986 920 100 1000 070/08 RMK AO2 TWR VIS 2 CIG 004V009 P0000
14837KMSN MSN20020603152512106/03/02 15:25:31  5-MIN KMSN 032125Z 08012KT 2SM -DZ BR OVC005 14/14 A2985 930 100 1100 080/12 RMK AO2 CIG 004V009 P0000
14837KMSN MSN20020603153012106/03/02 15:30:31  5-MIN KMSN 032130Z 08010KT 2SM -DZ BR OVC005 14/14 A2985 930 100 1100 080/10 RMK AO2 CIG 004V009 P0000
14837KMSN MSN20020603153513406/03/02 15:35:31  5-MIN KMSN 032135Z 09011KT 2SM -DZ BR OVC005 14/13 A2985 930 96 1100 090/11 RMK AO2 SFC VIS 2 1/2 CIG 004V009 P0000
14837KMSN MSN20020603154013706/03/02 15:40:31  5-MIN KMSN 032140Z 10009KT 2SM BR OVC005 14/14 A2986 920 100 1000 100/09 RMK AO2 SFC VIS 2 1/2 DZE36 CIG 004V008 P0000
14837KMSN MSN20020603154513606/03/02 15:45:31  5-MIN KMSN 032145Z 10011KT 2SM BR OVC005 14/13 A2985 930 96 1100 100/11 RMK AO2 SFC VIS 2 1/2 DZE36 CIG 004V008 P0000
14837KMSN MSN20020603155013706/03/02 15:50:31  5-MIN KMSN 032150Z 09011KT 2SM BR OVC005 14/13 A2985 930 96 1100 090/11 RMK AO2 SFC VIS 3 DZE36 SLP108 P0000 T01390133
14837KMSN MSN20020603155511206/03/02 15:55:31  5-MIN KMSN 032155Z 07012KT 2 1/2SM BR OVC005 14/13 A2984 940 96 1100 070/12 RMK AO2 SFC VIS 3
14837KMSN MSN20020603160011206/03/02 16:00:31  5-MIN KMSN 032200Z 08010KT 2 1/2SM BR OVC005 14/13 A2984 930 96 1100 080/10 RMK AO2 SFC VIS 3
14837KMSN MSN20020603160510806/03/02 16:05:31  5-MIN KMSN 032205Z 09011KT 3SM BR OVC005 14/13 A2985 930 96 1100 090/11 RMK AO2 TWR VIS 4
14837KMSN MSN20020603161010806/03/02 16:10:31  5-MIN KMSN 032210Z 09009KT 3SM BR OVC005 14/13 A2986 920 96 1000 090/09 RMK AO2 TWR VIS 4
14837KMSN MSN20020603161511506/03/02 16:15:31  5-MIN KMSN 032215Z 11006KT 3SM BR OVC005 14/13 A2988 900 96 1000 100/06 RMK AO2 TWR VIS 4 PRESRR
14837KMSN MSN20020603162011506/03/02 16:20:31  5-MIN KMSN 032220Z VRB05KT 3SM BR OVC005 14/13 A2989 890 96 1000 VRB/05 RMK AO2 TWR VIS 4 PRESRR
14837KMSN MSN20020603162510806/03/02 16:25:31  5-MIN KMSN 032225Z 04006KT 3SM BR OVC005 14/13 A2989 890 96 1000 040/06 RMK AO2 TWR VIS 4
14837KMSN MSN20020603163010806/03/02 16:30:31  5-MIN KMSN 032230Z 05009KT 3SM BR OVC005 14/13 A2989 890 96 1000 050/09 RMK AO2 TWR VIS 4
14837KMSN MSN20020603163510806/03/02 16:35:31  5-MIN KMSN 032235Z 05007KT 3SM BR OVC005 13/13 A2990 890 100 900 050/07 RMK AO2 TWR VIS 4
14837KMSN MSN20020603164010806/03/02 16:40:31  5-MIN KMSN 032240Z 03010KT 3SM BR OVC005 13/13 A2990 890 100 900 030/10 RMK AO2 TWR VIS 4
14837KMSN MSN20020603164510706/03/02 16:45:31  5-MIN KMSN 032245Z 03009KT 3SM BR OVC005 13/13 A2990 880 96 900 020/09 RMK AO2 TWR VIS 4
14837KMSN MSN20020603165012406/03/02 16:50:31  5-MIN KMSN 032250Z 03011KT 3SM BR OVC005 13/13 A2989 890 96 900 030/11 RMK AO2 TWR VIS 4 SLP124 T01330128
14837KMSN MSN20020603165510706/03/02 16:55:31  5-MIN KMSN 032255Z 04009KT 3SM BR OVC005 13/13 A2989 890 96 900 040/09 RMK AO2 TWR VIS 4
14837KMSN MSN20020603170010706/03/02 17:00:31  5-MIN KMSN 032300Z 05012KT 3SM BR OVC005 13/12 A2989 890 96 900 050/12 RMK AO2 TWR VIS 4
14837KMSN MSN20020603170510706/03/02 17:05:31  5-MIN KMSN 032305Z 05010KT 3SM BR OVC005 13/12 A2989 890 96 900 050/10 RMK AO2 TWR VIS 4
14837KMSN MSN20020603171010706/03/02 17:10:31  5-MIN KMSN 032310Z 04011KT 3SM BR OVC005 13/12 A2989 890 96 900 040/11 RMK AO2 TWR VIS 4
14837KMSN MSN20020603171510806/03/02 17:15:31  5-MIN KMSN 032315Z 05011KT 3SM BR OVC005 12/12 A2989 890 100 800 050/11 RMK AO2 TWR VIS 4
14837KMSN MSN20020603172012306/03/02 17:20:31  5-MIN KMSN 032320Z 05010KT 3SM -DZ BR OVC005 12/12 A2989 890 96 800 050/10 RMK AO2 TWR VIS 4 DZB18 P0000
14837KMSN MSN20020603172512306/03/02 17:25:31  5-MIN KMSN 032325Z 06011KT 3SM -DZ BR OVC005 12/12 A2988 900 96 800 050/11 RMK AO2 TWR VIS 4 DZB18 P0000
14837KMSN MSN20020603173012306/03/02 17:30:31  5-MIN KMSN 032330Z 05010KT 3SM -DZ BR OVC005 12/12 A2988 900 96 800 050/10 RMK AO2 TWR VIS 4 DZB18 P0000
14837KMSN MSN20020603173513006/03/02 17:35:31  5-MIN KMSN 032335Z 04012KT 3SM -DZ BR OVC005 12/12 A2987 910 96 800 040/12 RMK AO2 TWR VIS 4 DZB18 PRESFR P0000
14837KMSN MSN20020603174013006/03/02 17:40:31  5-MIN KMSN 032340Z 03012KT 3SM -DZ BR OVC005 12/12 A2986 920 96 800 030/12 RMK AO2 TWR VIS 4 DZB18 PRESFR P0000
14837KMSN MSN20020603174512306/03/02 17:45:31  5-MIN KMSN 032345Z 04011KT 3SM -DZ BR OVC005 12/12 A2986 920 96 800 030/11 RMK AO2 TWR VIS 4 DZB18 P0000
14837KMSN MSN20020603175017006/03/02 17:50:31  5-MIN KMSN 032350Z 05012KT 3SM BR OVC005 12/12 A2985 930 96 900 050/12 RMK AO2 TWR VIS 4 DZB18E48 PRESFR SLP111 P0000 60001 T01220117 10156 20122 56000
14837KMSN MSN20020603175510706/03/02 17:55:31  5-MIN KMSN 032355Z 06010KT 3SM BR OVC005 12/12 A2985 930 96 900 060/10 RMK AO2 TWR VIS 4
14837KMSN MSN20020603180010706/03/02 18:00:31  5-MIN KMSN 040000Z 06009KT 3SM BR OVC005 12/12 A2985 930 96 900 060/09 RMK AO2 TWR VIS 4
14837KMSN MSN20020603180510706/03/02 18:05:31  5-MIN KMSN 040005Z 07010KT 3SM BR OVC005 12/12 A2984 930 96 900 070/10 RMK AO2 TWR VIS 4
14837KMSN MSN20020603181010706/03/02 18:10:31  5-MIN KMSN 040010Z 09009KT 3SM BR OVC005 12/12 A2985 930 96 900 090/09 RMK AO2 TWR VIS 4
14837KMSN MSN20020603181510706/03/02 18:15:31  5-MIN KMSN 040015Z 09009KT 3SM BR OVC005 12/12 A2984 940 96 900 090/09 RMK AO2 TWR VIS 4
14837KMSN MSN20020603182010706/03/02 18:20:31  5-MIN KMSN 040020Z 10010KT 3SM BR OVC005 12/12 A2985 930 96 900 100/10 RMK AO2 TWR VIS 4
14837KMSN MSN20020603182510706/03/02 18:25:31  5-MIN KMSN 040025Z 09007KT 3SM BR OVC005 12/12 A2986 920 96 800 090/07 RMK AO2 TWR VIS 4
14837KMSN MSN20020603183010706/03/02 18:30:31  5-MIN KMSN 040030Z 08005KT 3SM BR OVC005 12/12 A2986 920 96 800 080/05 RMK AO2 TWR VIS 4
14837KMSN MSN20020603183512306/03/02 18:35:31  5-MIN KMSN 040035Z 09007KT 3SM -RA BR OVC005 12/12 A2985 930 96 900 090/07 RMK AO2 TWR VIS 4 RAB33 P0000
14837KMSN MSN20020603184012306/03/02 18:40:31  5-MIN KMSN 040040Z 10010KT 3SM -RA BR OVC005 12/12 A2983 950 96 900 100/10 RMK AO2 TWR VIS 4 RAB33 P0000
14837KMSN MSN20020603184512706/03/02 18:45:31  5-MIN KMSN 040045Z 10007KT 2 1/2SM -RA BR OVC005 12/12 A2983 940 96 900 100/07 RMK AO2 TWR VIS 4 RAB33 P0000
14837KMSN MSN20020603185014406/03/02 18:50:31  5-MIN KMSN 040050Z 06006KT 2 1/2SM -RA BR OVC005 12/12 A2983 950 96 900 060/06 RMK AO2 TWR VIS 4 RAB33 SLP102 P0000 T01220117
14837KMSN MSN20020603185512106/03/02 18:55:31  5-MIN KMSN 040055Z 04005KT 2 1/2SM -RA BR OVC005 12/12 A2984 940 96 900 030/05 RMK AO2 TWR VIS 4 P0000
14837KMSN MSN20020603190012106/03/02 19:00:31  5-MIN KMSN 040100Z 03005KT 2 1/2SM -RA BR OVC005 12/12 A2985 930 96 900 030/05 RMK AO2 TWR VIS 4 P0000
14837KMSN MSN20020603190512106/03/02 19:05:31  5-MIN KMSN 040105Z 03005KT 2 1/2SM -RA BR OVC005 12/12 A2985 930 96 900 030/05 RMK AO2 TWR VIS 4 P0000
14837KMSN MSN20020603191013006/03/02 19:10:31  5-MIN KMSN 040110Z 03004KT 2 1/2SM BR OVC005 12/12 A2987 910 96 800 030/04 RMK AO2 TWR VIS 4 RAE10 PRESRR P0000
14837KMSN MSN20020603191513006/03/02 19:15:31  5-MIN KMSN 040115Z 03005KT 2 1/2SM BR OVC005 12/12 A2988 900 96 800 030/05 RMK AO2 TWR VIS 4 RAE10 PRESRR P0000
14837KMSN MSN20020603192012306/03/02 19:20:31  5-MIN KMSN 040120Z 04004KT 2 1/2SM BR OVC005 12/12 A2989 890 96 800 040/04 RMK AO2 TWR VIS 4 RAE10 P0000
14837KMSN MSN20020603192512406/03/02 19:25:31  5-MIN KMSN 040125Z 06004KT 2 1/2SM BR OVC005 12/12 A2989 890 100 800 060/04 RMK AO2 TWR VIS 4 RAE10 P0000
14837KMSN MSN20020603193013106/03/02 19:30:31  5-MIN KMSN 040130Z 07004KT 2 1/2SM BR OVC005 12/12 A2990 880 100 800 070/04 RMK AO2 TWR VIS 4 RAE10 PRESRR P0000
14837KMSN MSN20020603193513006/03/02 19:35:31  5-MIN KMSN 040135Z 00000KT 2 1/2SM BR OVC005 13/12 A2992 870 96 800 000/00 RMK AO2 TWR VIS 4 RAE10 PRESRR P0000
14837KMSN MSN20020603194013006/03/02 19:40:31  5-MIN KMSN 040140Z 00000KT 2 1/2SM BR OVC005 13/12 A2993 860 96 800 000/00 RMK AO2 TWR VIS 4 RAE10 PRESRR P0000
14837KMSN MSN20020603194513006/03/02 19:45:31  5-MIN KMSN 040145Z 09003KT 2 1/2SM -RA BR OVC005 13/12 A2992 860 96 800 090/03 RMK AO2 TWR VIS 4 RAE10B44 P0000
14837KMSN MSN20020603195014306/03/02 19:50:31  5-MIN KMSN 040150Z 09004KT 3SM -RA BR OVC005 13/12 A2991 870 96 900 090/04 RMK AO2 TWR VIS 4 RAE10B44 SLP130 P0001 T01280122
14837KMSN MSN20020603195511706/03/02 19:55:31  5-MIN KMSN 040155Z VRB03KT 3SM -RA BR OVC007 13/12 A2991 870 96 900 VRB/03 RMK AO2 TWR VIS 4 P0000
14837KMSN MSN20020603200011806/03/02 20:00:31  5-MIN KMSN 040200Z 04004KT 3SM -RA BR OVC007 12/12 A2991 880 100 800 040/04 RMK AO2 TWR VIS 4 P0000
14837KMSN MSN20020603200511806/03/02 20:05:31  5-MIN KMSN 040205Z 05004KT 3SM -RA BR OVC007 12/12 A2991 870 100 800 050/04 RMK AO2 TWR VIS 4 P0001
14837KMSN MSN20020603201011806/03/02 20:10:31  5-MIN KMSN 040210Z 04006KT 3SM -RA BR OVC007 12/12 A2991 870 100 800 040/06 RMK AO2 TWR VIS 4 P0001
14837KMSN MSN20020603201511806/03/02 20:15:31  5-MIN KMSN 040215Z 05004KT 3SM -RA BR OVC007 12/12 A2992 870 100 800 050/04 RMK AO2 TWR VIS 4 P0001
14837KMSN MSN20020603202011706/03/02 20:20:31  5-MIN KMSN 040220Z 07004KT 3SM -RA BR OVC007 13/12 A2992 860 96 800 070/04 RMK AO2 TWR VIS 4 P0001
14837KMSN MSN20020603202511706/03/02 20:25:31  5-MIN KMSN 040225Z 05004KT 3SM -RA BR OVC007 13/12 A2992 860 96 800 050/04 RMK AO2 TWR VIS 4 P0001
14837KMSN MSN20020603203011706/03/02 20:30:31  5-MIN KMSN 040230Z 09004KT 3SM -RA BR OVC007 13/12 A2992 860 96 800 090/04 RMK AO2 TWR VIS 4 P0001
14837KMSN MSN20020603203511706/03/02 20:35:31  5-MIN KMSN 040235Z 10005KT 3SM -RA BR OVC007 13/12 A2991 870 96 900 100/05 RMK AO2 TWR VIS 4 P0001
14837KMSN MSN20020603204011706/03/02 20:40:31  5-MIN KMSN 040240Z 10005KT 3SM -RA BR OVC007 13/12 A2991 880 96 900 100/05 RMK AO2 TWR VIS 4 P0002
14837KMSN MSN20020603204512506/03/02 20:45:31  5-MIN KMSN 040245Z 09005KT 3SM -RA BR OVC007 13/13 A2990 880 100 900 090/05 RMK AO2 TWR VIS 4 PRESFR P0002
14837KMSN MSN20020603205015106/03/02 20:50:31  5-MIN KMSN 040250Z 07007KT 2 1/2SM -RA BR OVC007 13/13 A2989 890 100 900 070/07 RMK AO2 TWR VIS 4 SLP124 P0002 60003 T01280128 58003
14837KMSN MSN20020603205512906/03/02 20:55:31  5-MIN KMSN 040255Z 08006KT 2 1/2SM -RA BR BKN007 OVC018 13/13 A2989 890 100 900 080/06 RMK AO2 TWR VIS 3 P0000
14837KMSN MSN20020603210014106/03/02 21:00:31  5-MIN KMSN 040300Z 07005KT 2 1/2SM -RA BR BKN007 OVC018 13/13 A2989 890 100 900 070/05 RMK AO2 TWR VIS 3 CIG 005V009 P0000
14837KMSN MSN20020603210514106/03/02 21:05:31  5-MIN KMSN 040305Z 08004KT 2 1/2SM -RA BR BKN007 OVC018 13/13 A2989 900 100 900 080/04 RMK AO2 TWR VIS 3 CIG 005V009 P0000
14837KMSN MSN20020603211014106/03/02 21:10:31  5-MIN KMSN 040310Z 09007KT 2 1/2SM -RA BR BKN007 OVC018 13/13 A2988 900 100 900 090/07 RMK AO2 TWR VIS 3 CIG 004V009 P0000
14837KMSN MSN20020603211514106/03/02 21:15:31  5-MIN KMSN 040315Z 10005KT 2 1/2SM -RA BR BKN007 OVC018 13/13 A2988 900 100 900 100/05 RMK AO2 TWR VIS 3 CIG 004V009 P0000
14837KMSN MSN20020603212012906/03/02 21:20:31  5-MIN KMSN 040320Z 10007KT 2 1/2SM -RA BR BKN005 OVC018 13/13 A2987 910 100 900 100/07 RMK AO2 TWR VIS 3 P0000
14837KMSN MSN20020603212512406/03/02 21:25:31  5-MIN KMSN 040325Z 09008KT 2 1/2SM BR OVC005 13/13 A2987 910 100 900 090/08 RMK AO2 TWR VIS 3 RAE23 P0000
14837KMSN MSN20020603213013106/03/02 21:30:31  5-MIN KMSN 040330Z 09006KT 2 1/2SM BR OVC005 13/13 A2986 920 100 900 090/06 RMK AO2 TWR VIS 3 RAE23 PRESFR P0000
14837KMSN MSN20020603213512406/03/02 21:35:31  5-MIN KMSN 040335Z 08005KT 2 1/2SM BR BKN005 13/13 A2986 920 100 900 080/05 RMK AO2 TWR VIS 3 RAE23 P0000
14837KMSN MSN20020603214012406/03/02 21:40:31  5-MIN KMSN 040340Z 05005KT 2 1/2SM BR OVC005 13/13 A2986 920 100 900 050/05 RMK AO2 TWR VIS 3 RAE23 P0000
14837KMSN MSN20020603214512406/03/02 21:45:31  5-MIN KMSN 040345Z 02008KT 2 1/2SM BR OVC005 13/13 A2985 930 100 900 020/08 RMK AO2 TWR VIS 3 RAE23 P0000
14837KMSN MSN20020603215014106/03/02 21:50:31  5-MIN KMSN 040350Z 02008KT 2 1/2SM BR OVC005 13/13 A2984 940 100 900 020/08 RMK AO2 TWR VIS 3 RAE23 SLP106 P0000 T01280128
14837KMSN MSN20020603215511206/03/02 21:55:31  5-MIN KMSN 040355Z 03008KT 2 1/2SM BR OVC005 13/13 A2984 940 100 900 030/08 RMK AO2 TWR VIS 3
14837KMSN MSN20020603220011206/03/02 22:00:31  5-MIN KMSN 040400Z 05008KT 2 1/2SM BR OVC005 13/13 A2983 940 100 900 050/08 RMK AO2 TWR VIS 3
14837KMSN MSN20020603220512806/03/02 22:05:31  5-MIN KMSN 040405Z 04008KT 2 1/2SM -RA BR OVC005 13/13 A2984 940 100 900 040/08 RMK AO2 TWR VIS 3 RAB04 P0000
14837KMSN MSN20020603221012806/03/02 22:10:31  5-MIN KMSN 040410Z 02008KT 2 1/2SM -RA BR OVC005 13/13 A2985 930 100 900 020/08 RMK AO2 TWR VIS 3 RAB04 P0000
14837KMSN MSN20020603221511806/03/02 22:15:31  5-MIN KMSN 040415Z 04007KT 2 1/2SM -RA BR OVC005 13/13 A2986 920 100 900 030/07 RMK AO2 RAB04 P0000
14837KMSN MSN20020603222015506/03/02 22:20:31  5-MIN KMSN 040420Z 04007KT 2 1/2SM -TSRA BR OVC005 13/13 A2986 920 100 900 040/07 RMK AO2 TSB17RAB04 OCNL LTGIC VC W TS VC W MOV E P0001
14837KMSN MSN20020603222515506/03/02 22:25:31  5-MIN KMSN 040425Z 04007KT 2 1/2SM -TSRA BR OVC005 13/13 A2986 920 100 900 040/07 RMK AO2 TSB17RAB04 OCNL LTGIC VC W TS VC W MOV E P0001
14837KMSN MSN20020603223015506/03/02 22:30:31  5-MIN KMSN 040430Z 04008KT 2 1/2SM -TSRA BR OVC005 13/13 A2986 920 100 900 030/08 RMK AO2 TSB17RAB04 OCNL LTGIC VC W TS VC W MOV E P0001
14837KMSN MSN20020603223515306/03/02 22:35:31  5-MIN KMSN 040435Z 03008KT 2 1/2SM -TSRA BR OVC005 13/13 A2986 920 100 900 030/08 RMK AO2 TSB17RAB04 OCNL LTGIC OHD TS OHD MOV E P0002
14837KMSN MSN20020603224015206/03/02 22:40:31  5-MIN KMSN 040440Z 04008KT 2 1/2SM -TSRA BR OVC005 13/12 A2986 920 96 900 040/08 RMK AO2 TSB17RAB04 OCNL LTGIC OHD TS OHD MOV E P0003
14837KMSN MSN20020603224515206/03/02 22:45:31  5-MIN KMSN 040445Z 05006KT 2 1/2SM -TSRA BR OVC005 13/12 A2986 920 96 900 050/06 RMK AO2 TSB17RAB04 OCNL LTGIC OHD TS OHD MOV E P0003
14837KMSN MSN20020603225016906/03/02 22:50:31  5-MIN KMSN 040450Z 06006KT 2 1/2SM -TSRA BR OVC005 13/12 A2987 910 96 900 060/06 RMK AO2 TSB17RAB04 SLP116 OCNL LTGIC OHD TS OHD MOV E P0004 T01280122
14837KMSN MSN20020603225514106/03/02 22:55:31  5-MIN KMSN 040455Z 06006KT 2 1/2SM -TSRA BR OVC005 13/12 A2987 910 96 900 060/06 RMK AO2 OCNL LTGIC OHD TS OHD MOV E P0000
14837KMSN MSN20020603230014106/03/02 23:00:31  5-MIN KMSN 040500Z 07007KT 2 1/2SM -TSRA BR OVC005 13/12 A2984 940 96 900 070/07 RMK AO2 OCNL LTGIC OHD TS OHD MOV E P0000
14837KMSN MSN20020603230514906/03/02 23:05:31  5-MIN KMSN 040505Z 09008KT 2 1/2SM -TSRA BR OVC005 12/12 A2982 960 100 900 080/08 RMK AO2 PRESFR OCNL LTGIC OHD TS OHD MOV E P0001
14837KMSN MSN20020603231014106/03/02 23:10:31  5-MIN KMSN 040510Z VRB05KT 2 1/2SM -TSRA BR OVC005 13/12 A2985 930 96 900 VRB/05 RMK AO2 OCNL LTGIC OHD TS OHD MOV E P0001
14837KMSN MSN20020603231514206/03/02 23:15:31  5-MIN KMSN 040515Z 28003KT 2 1/2SM -TSRA BR OVC005 12/12 A2987 910 100 800 280/03 RMK AO2 OCNL LTGIC OHD TS OHD MOV E P0002
14837KMSN MSN20020603232014206/03/02 23:20:31  5-MIN KMSN 040520Z 09004KT 2 1/2SM -TSRA BR OVC005 12/12 A2985 930 100 900 090/04 RMK AO2 OCNL LTGIC OHD TS OHD MOV E P0002
14837KMSN MSN20020603232514206/03/02 23:25:31  5-MIN KMSN 040525Z 00000KT 2 1/2SM -TSRA BR OVC005 12/12 A2986 920 100 800 000/00 RMK AO2 OCNL LTGIC OHD TS OHD MOV E P0003
14837KMSN MSN20020603233014106/03/02 23:30:31  5-MIN KMSN 040530Z 00000KT 2 1/2SM -TSRA BR OVC005 13/12 A2987 910 96 900 000/00 RMK AO2 OCNL LTGIC OHD TS OHD MOV E P0003
14837KMSN MSN20020603233514106/03/02 23:35:31  5-MIN KMSN 040535Z 00000KT 2 1/2SM -TSRA BR OVC005 13/12 A2988 900 96 900 000/00 RMK AO2 OCNL LTGIC OHD TS OHD MOV E P0004
14837KMSN MSN20020603234013806/03/02 23:40:31  5-MIN KMSN 040540Z 13003KT 2SM -TSRA BR OVC005 12/12 A2987 910 100 800 130/03 RMK AO2 OCNL LTGIC OHD TS OHD MOV E P0006
14837KMSN MSN20020603234514806/03/02 23:45:31  5-MIN KMSN 040545Z 00000KT 1 1/2SM TSRA BR BKN005 OVC016 12/12 A2988 900 100 800 000/00 RMK AO2 OCNL LTGIC OHD TS OHD MOV E P0010
14837KMSN MSN20020603235020506/03/02 23:50:31  5-MIN KMSN 040550Z 00000KT 1 1/2SM TSRA BR BKN005 BKN010 OVC016 13/12 A2988 900 96 900 000/00 RMK AO2 SLP118 OCNL LTGIC OHD TS OHD MOV E P0012 60019 T01280122 10128 20122 401720083 50015
14837KMSN MSN20020603235512706/03/02 23:55:31  5-MIN KMSN 040555Z 13009KT 1 1/2SM TSRA BR BKN005 BKN010 OVC015 12/12 A2986 920 100 800 130/09 RMK AO2 P0007
14837KMSN MSN20020604000014606/04/02 00:00:31  5-MIN KMSN 040600Z 14007KT 1SM +TSRA BR SCT007 OVC013 12/12 A2985 930 100 900 140/07 RMK AO2 FRQ LTGICCC OHD TS OHD MOV E P0014
14837KMSN MSN20020604000514906/04/02 00:05:31  5-MIN KMSN 040605Z 17009KT 1 1/4SM TSRA BR SCT007 OVC015 13/13 A2985 930 100 900 170/09 RMK AO2 FRQ LTGICCC OHD TS OHD MOV E P0016
14837KMSN MSN20020604001016306/04/02 00:10:31  5-MIN KMSN 040610Z 16011KT 1 3/4SM TSRA BR FEW007 BKN017 OVC075 13/13 A2984 940 100 900 150/11 RMK AO2 PRESFR FRQ LTGICCC OHD TS OHD MOV E P0018
14837KMSN MSN20020604001515206/04/02 00:15:31  5-MIN KMSN 040615Z 13008KT 2SM TSRA BR FEW007 BKN022 OVC075 13/13 A2984 940 100 900 130/08 RMK AO2 FRQ LTGICCC OHD TS OHD MOV E P0020
14837KMSN MSN20020604002014506/04/02 00:20:31  5-MIN KMSN 040620Z 10007KT 2SM TSRA BR FEW003 OVC022 13/13 A2984 940 100 900 100/07 RMK AO2 FRQ LTGICCC OHD TS OHD MOV E P0022
14837KMSN MSN20020604002514606/04/02 00:25:31  5-MIN KMSN 040625Z 00000KT 2SM -TSRA BR SCT003 OVC020 13/13 A2985 930 100 900 000/00 RMK AO2 FRQ LTGICCC OHD TS OHD MOV E P0023
14837KMSN MSN20020604003015706/04/02 00:30:31  5-MIN KMSN 040630Z 00000KT 2 1/2SM -TSRA BR FEW003 OVC024 13/13 A2986 920 100 900 000/00 RMK AO2 PRESRR FRQ LTGICCC OHD TS OHD MOV E P0024
14837KMSN MSN20020604003515306/04/02 00:35:31  5-MIN KMSN 040635Z 26003KT 2SM -TSRA BR FEW003 BKN028 OVC070 13/13 A2986 920 100 900 250/03 RMK AO2 FRQ LTGICCC OHD TS OHD MOV E P0024
14837KMSN MSN20020604004016006/04/02 00:40:31  5-MIN KMSN 040640Z 30006KT 2SM -TSRA BR SCT003 BKN028 OVC070 13/13 A2988 900 100 900 300/06 RMK AO2 PRESRR FRQ LTGICCC OHD TS OHD MOV E P0025
14837KMSN MSN20020604004516006/04/02 00:45:31  5-MIN KMSN 040645Z 30006KT 2SM -TSRA BR SCT005 BKN024 OVC070 13/13 A2989 890 100 900 290/06 RMK AO2 PRESRR FRQ LTGICCC OHD TS OHD MOV E P0026
14837KMSN MSN20020604005017706/04/02 00:50:31  5-MIN KMSN 040650Z 23005KT 2SM -TSRA BR SCT005 BKN024 OVC070 13/13 A2991 880 100 900 230/05 RMK AO2 PRESRR SLP128 FRQ LTGICCC OHD TS OHD MOV E P0027 T01280128
14837KMSN MSN20020604005512406/04/02 00:55:31  5-MIN KMSN 040655Z VRB04KT 2SM -TSRA BR SCT005 BKN013 OVC070 13/13 A2990 880 100 900 VRB/04 RMK AO2 P0000
14837KMSN MSN20020604010015606/04/02 01:00:31  5-MIN KMSN 040700Z 22003KT 2 1/2SM -TSRA BR FEW005 BKN013 OVC070 13/13 A2990 890 100 900 210/03 RMK AO2 OCNL LTGIC OHD TS OHD MOV E P0001
14837KMSN MSN20020604010515206/04/02 01:05:31  5-MIN KMSN 040705Z 21003KT 2SM -TSRA BR SCT005 BKN013 OVC070 13/13 A2990 890 100 900 210/03 RMK AO2 OCNL LTGIC OHD TS OHD MOV E P0003
14837KMSN MSN20020604011015206/04/02 01:10:31  5-MIN KMSN 040710Z 00000KT 2SM -TSRA BR BKN005 BKN013 OVC023 13/13 A2990 880 100 900 000/00 RMK AO2 OCNL LTGIC OHD TS OHD MOV E P0004
14837KMSN MSN20020604011515506/04/02 01:15:31  5-MIN KMSN 040715Z 35007KT 1 1/4SM TSRA BR BKN005 BKN013 OVC065 13/13 A2991 880 100 900 350/07 RMK AO2 OCNL LTGIC OHD TS OHD MOV E P0005
14837KMSN MSN20020604012015506/04/02 01:20:31  5-MIN KMSN 040720Z 01007KT 1 1/4SM TSRA BR BKN005 BKN013 OVC065 13/13 A2989 890 100 900 360/07 RMK AO2 OCNL LTGIC OHD TS OHD MOV E P0007
14837KMSN MSN20020604012515606/04/02 01:25:31  5-MIN KMSN 040725Z 01009KT 1 1/2SM -TSRA BR BKN005 BKN013 OVC065 13/13 A2988 900 100 900 360/09 RMK AO2 OCNL LTGIC OHD TS OHD MOV E P0008
14837KMSN MSN20020604013015906/04/02 01:30:31  5-MIN KMSN 040730Z 02009KT 2SM -TSRA BR BKN005 BKN013 OVC065 13/13 A2987 910 100 900 020/09 RMK AO2 PRESFR OCNL LTGIC OHD TS OHD MOV E P0009
14837KMSN MSN20020604013516306/04/02 01:35:31  5-MIN KMSN 040735Z 05011KT 2 1/2SM -TSRA BR BKN005 BKN013 OVC065 13/13 A2984 940 100 900 050/11 RMK AO2 PRESFR OCNL LTGIC OHD TS OHD MOV E P0011
14837KMSN MSN20020604014016406/04/02 01:40:31  5-MIN KMSN 040740Z 08016KT 2 1/2SM -TSRA BR BKN005 BKN013 OVC065 13/13 A2979 980 100 1000 080/16 RMK AO2 PRESFR OCNL LTGIC OHD TS OHD MOV E P0012
14837KMSN MSN20020604014516506/04/02 01:45:31  5-MIN KMSN 040745Z 09016KT 2 1/2SM -TSRA BR BKN005 BKN013 OVC065 13/13 A2978 1000 100 1000 090/16 RMK AO2 PRESFR OCNL LTGIC OHD TS OHD MOV E P0012
14837KMSN MSN20020604015019806/04/02 01:50:31  5-MIN KMSN 040750Z 09019G22KT 2 1/2SM -TSRA BR BKN005 BKN013 OVC065 13/13 A2975 1020 100 1000 090/19G22 RMK AO2 WSHFT 0733 PRESFR SLP075 FRQ LTGIC OHD TS OHD MOV E P0013 T01280128
14837KMSN MSN20020604015512606/04/02 01:55:31  5-MIN KMSN 040755Z 11019KT 3SM -TSRA BR FEW010 OVC037 13/13 A2973 1040 100 1100 110/19 RMK AO2 PRESFR P0001
14837KMSN MSN20020604020013206/04/02 02:00:31  5-MIN KMSN 040800Z 12020G25KT 3SM -TSRA BR FEW012 OVC039 13/13 A2970 1070 100 1200 110/20G25 RMK AO2 PRESFR P0001
14837KMSN MSN20020604020512506/04/02 02:05:31  5-MIN KMSN 040805Z 11018G25KT 4SM -TSRA BR BKN037 BKN044 13/13 A2970 1070 100 1200 110/18G25 RMK AO2 P0001
14837KMSN MSN20020604021012506/04/02 02:10:31  5-MIN KMSN 040810Z 11017G25KT 4SM -TSRA BR BKN035 BKN045 13/13 A2971 1060 100 1200 110/17G25 RMK AO2 P0001
14837KMSN MSN20020604021516306/04/02 02:15:31  5-MIN KMSN 040815Z 11009G25KT 5SM TS BR FEW005 BKN035 BKN110 13/13 A2971 1060 100 1100 110/09G25 RMK AO2 RAE13 OCNL LTGIC OHD TS OHD MOV E P0001
14837KMSN MSN20020604022016206/04/02 02:20:31  5-MIN KMSN 040820Z 10008KT 5SM BR FEW005 SCT035 BKN110 14/13 A2972 1050 96 1200 100/08 RMK AO2 TSE19RAE13 PRESRR OCNL LTG DSNT E TS MOV E P0001
14837KMSN MSN20020604022516106/04/02 02:25:31  5-MIN KMSN 040825Z VRB04G15KT 5SM BR FEW042 BKN120 14/13 A2976 1010 96 1200 VRB/04G15 RMK AO2 TSE19RAE13 PRESRR OCNL LTG DSNT E TS MOV E P0001
14837KMSN MSN20020604023016206/04/02 02:30:31  5-MIN KMSN 040830Z 30014KT 6SM BR FEW006 SCT044 BKN110 14/14 A2982 960 100 1100 300/14 RMK AO2 TSE19RAE13 PRESRR OCNL LTG DSNT E TS MOV E P0002
14837KMSN MSN20020604023519206/04/02 02:35:31  5-MIN KMSN 040835Z 31017G26KT 5SM -RA BR SCT006 SCT015 BKN110 14/13 A2983 950 96 1100 300/17G26 RMK AO2 PK WND 30026/0833 TSE19RAE13B32 PRESRR OCNL LTG DSNT E TS MOV E P0002
14837KMSN MSN20020604024018506/04/02 02:40:31  5-MIN KMSN 040840Z 32010G26KT 5SM -RA BR FEW006 BKN017 OVC120 14/13 A2984 940 96 1100 320/10G26 RMK AO2 PK WND 30026/0833 TSE19RAE13B32 OCNL LTG DSNT E TS MOV E P0002
14837KMSN MSN20020604024519506/04/02 02:45:31  5-MIN KMSN 040845Z 31008KT 280V350 6SM -RA BR SCT009 BKN015 OVC120 14/14 A2984 940 96 1100 310/08 280V350 RMK AO2 PK WND 30026/0833 TSE19RAE13B32 OCNL LTG DSNT E TS MOV E P0002
14837KMSN MSN20020604025021006/04/02 02:50:31  5-MIN KMSN 040850Z 30011G18KT 7SM FEW007 BKN015 OVC120 15/14 A2986 920 96 1200 300/11G18 RMK AO2 PK WND 30026/0833 TSE19RAE13B32E46 SLP111 OCNL LTG DSNT E TS MOV E P0002 60043 T01500144 56008
14837KMSN MSN20020604025513806/04/02 02:55:31  5-MIN KMSN 040855Z 28009G18KT 7SM -RA FEW007 BKN015 OVC028 15/14 A2988 900 96 1100 270/09G18 RMK AO2 RAB55 PRESRR P0000
14837KMSN MSN20020604030014006/04/02 03:00:31  5-MIN KMSN 040900Z 28010G16KT 7SM -RA FEW009 BKN017 OVC028 14/14 A2990 880 96 1100 280/10G16 RMK AO2 RAB0855 PRESRR P0001
14837KMSN MSN20020604030516806/04/02 03:05:31  5-MIN KMSN 040905Z 29008G16KT 7SM TS FEW009 BKN021 OVC090 14/14 A2990 880 96 1100 290/08G16 RMK AO2 TSB05RAB0855E05 OCNL LTGIC OHD TS OHD MOV E P0001
14837KMSN MSN20020604031016506/04/02 03:10:31  5-MIN KMSN 040910Z 33009KT 6SM -TSRA BR FEW008 BKN029 OVC090 14/14 A2987 910 96 1100 330/09 RMK AO2 TSB05RAB0855 OCNL LTGIC OHD TS OHD MOV E P0001
14837KMSN MSN20020604031516606/04/02 03:15:31  5-MIN KMSN 040915Z 34008KT 5SM -TSRA BR FEW008 BKN029 OVC090 14/14 A2987 910 100 1000 330/08 RMK AO2 TSB05RAB0855 OCNL LTGIC OHD TS OHD MOV E P0001
14837KMSN MSN20020604032016506/04/02 03:20:31  5-MIN KMSN 040920Z 32007KT 4SM -TSRA BR SCT026 BKN055 OVC090 14/14 A2987 910 100 1000 320/07 RMK AO2 TSB05RAB0855 FRQ LTGIC OHD TS OHD MOV E P0002
14837KMSN MSN20020604032516506/04/02 03:25:31  5-MIN KMSN 040925Z 33007KT 4SM -TSRA BR FEW026 BKN050 OVC090 14/14 A2986 920 100 1000 330/07 RMK AO2 TSB05RAB0855 FRQ LTGIC OHD TS OHD MOV E P0003
14837KMSN MSN20020604033015806/04/02 03:30:31  5-MIN KMSN 040930Z 34009KT 4SM -TSRA BR BKN048 OVC090 14/14 A2988 910 100 1000 330/09 RMK AO2 TSB05RAB0855 FRQ LTGIC OHD TS OHD MOV E P0004
14837KMSN MSN20020604033515006/04/02 03:35:31  5-MIN KMSN 040935Z 32008KT 3SM TSRA BR OVC046 14/14 A2988 900 100 1000 320/08 RMK AO2 TSB05RAB0855 FRQ LTGIC OHD TS OHD MOV E P0006
14837KMSN MSN20020604034015006/04/02 03:40:31  5-MIN KMSN 040940Z 30005KT 3SM TSRA BR OVC042 14/14 A2987 910 100 1000 300/05 RMK AO2 TSB05RAB0855 FRQ LTGIC OHD TS OHD MOV E P0007
14837KMSN MSN20020604034515006/04/02 03:45:31  5-MIN KMSN 040945Z 32003KT 3SM TSRA BR OVC038 14/14 A2986 920 100 1000 320/03 RMK AO2 TSB05RAB0855 FRQ LTGIC OHD TS OHD MOV E P0009
14837KMSN MSN20020604035016706/04/02 03:50:31  5-MIN KMSN 040950Z 00000KT 3SM TSRA BR OVC036 14/14 A2986 920 100 1000 000/00 RMK AO2 TSB05RAB0855 SLP113 FRQ LTGIC OHD TS OHD MOV E P0011 T01390139
14837KMSN MSN20020604035511406/04/02 03:55:31  5-MIN KMSN 040955Z 08005KT 2 1/2SM TSRA BR OVC032 14/14 A2986 920 100 1000 080/05 RMK AO2 P0001
14837KMSN MSN20020604040012106/04/02 04:00:31  5-MIN KMSN 041000Z 11007KT 2 1/2SM TSRA BR OVC030 14/14 A2984 940 100 1100 110/07 RMK AO2 PRESFR P0003
14837KMSN MSN20020604040514406/04/02 04:05:31  5-MIN KMSN 041005Z 14005KT 2 1/2SM TSRA BR BKN030 14/14 A2984 930 100 1100 140/05 RMK AO2 OCNL LTGICCC OHD TS OHD MOV E P0005
14837KMSN MSN20020604041014806/04/02 04:10:31  5-MIN KMSN 041010Z 14007KT 3SM -TSRA BR BKN031 OVC110 14/14 A2984 940 100 1100 140/07 RMK AO2 OCNL LTGICCC OHD TS OHD MOV E P0006
14837KMSN MSN20020604041514806/04/02 04:15:31  5-MIN KMSN 041015Z 17007KT 3SM -TSRA BR BKN031 OVC110 14/14 A2983 940 100 1100 160/07 RMK AO2 OCNL LTGICCC OHD TS OHD MOV E P0007
14837KMSN MSN20020604042014806/04/02 04:20:31  5-MIN KMSN 041020Z 17006KT 3SM -TSRA BR BKN035 OVC110 14/14 A2983 950 100 1100 170/06 RMK AO2 OCNL LTGICCC OHD TS OHD MOV E P0008
14837KMSN MSN20020604042514806/04/02 04:25:31  5-MIN KMSN 041025Z 16008KT 3SM -TSRA BR OVC039 14/14 A2982 960 100 1200 160/08 RMK AO2 PRESFR OCNL LTGICCC OHD TS OHD MOV E P0009
14837KMSN MSN20020604043014806/04/02 04:30:31  5-MIN KMSN 041030Z 18008KT 3SM -TSRA BR BKN039 OVC055 14/14 A2982 960 100 1200 180/08 RMK AO2 OCNL LTGICCC OHD TS OHD MOV E P0010
14837KMSN MSN20020604043514106/04/02 04:35:31  5-MIN KMSN 041035Z 20009KT 3SM -TSRA BR OVC039 14/14 A2983 950 100 1100 190/09 RMK AO2 OCNL LTGICCC OHD TS OHD MOV E P0010
14837KMSN MSN20020604044014106/04/02 04:40:31  5-MIN KMSN 041040Z 16009KT 3SM -TSRA BR OVC041 14/14 A2983 950 100 1100 160/09 RMK AO2 OCNL LTGICCC OHD TS OHD MOV E P0011
14837KMSN MSN20020604044514006/04/02 04:45:31  5-MIN KMSN 041045Z 18011KT 3SM TSRA BR OVC039 15/15 A2982 950 100 1200 180/11 RMK AO2 OCNL LTGICCC OHD TS OHD MOV E P0013
14837KMSN MSN20020604045016106/04/02 04:50:31  5-MIN KMSN 041050Z 17013KT 2 1/2SM TSRA BR OVC035 15/15 A2981 970 100 1200 170/13 RMK AO2 SLP094 OCNL LTGICCC OHD TS OHD MOV E P0014 T01500150
14837KMSN MSN20020604045513806/04/02 04:55:31  5-MIN KMSN 041055Z 15016G19KT 2 1/2SM -TSRA BR OVC031 15/15 A2979 980 100 1200 150/16G19 RMK AO2 SFC VIS 3 PRESFR P0001
14837KMSN MSN20020604050015506/04/02 05:00:31  5-MIN KMSN 041100Z 15014KT 2 1/2SM -TSRA BR OVC033 15/15 A2979 990 100 1300 150/14 RMK AO2 SFC VIS 3 OCNL LTGICCC OHD TS OHD MOV E P0002
14837KMSN MSN20020604050516306/04/02 05:05:31  5-MIN KMSN 041105Z 15014KT 2 1/2SM -TSRA BR OVC035 16/16 A2978 1000 100 1300 150/14 RMK AO2 SFC VIS 4 PRESFR OCNL LTGICCC OHD TS OHD MOV E P0003
14837KMSN MSN20020604051016306/04/02 05:10:31  5-MIN KMSN 041110Z 16012KT 2 1/2SM -TSRA BR BKN037 OVC110 16/16 A2978 1000 100 1300 160/12 RMK AO2 SFC VIS 5 OCNL LTGICCC OHD TS OHD MOV E P0003
14837KMSN MSN20020604051516106/04/02 05:15:31  5-MIN KMSN 041115Z 17011KT 2 1/2SM -TSRA BR BKN039 OVC110 16/16 A2979 980 96 1400 170/11 RMK AO2 SFC VIS 6 OCNL LTGICCC OHD TS OHD MOV E P0004
14837KMSN MSN20020604052016106/04/02 05:20:31  5-MIN KMSN 041120Z 18010KT 2 1/2SM -TSRA BR BKN046 OVC110 17/16 A2980 980 93 1400 180/10 RMK AO2 SFC VIS 6 OCNL LTGICCC OHD TS OHD MOV E P0005
14837KMSN MSN20020604052516106/04/02 05:25:31  5-MIN KMSN 041125Z 17011KT 2 1/2SM -TSRA BR BKN049 OVC110 17/16 A2979 990 93 1400 170/11 RMK AO2 SFC VIS 5 OCNL LTGICCC OHD TS OHD MOV E P0006
14837KMSN MSN20020604053014706/04/02 05:30:31  5-MIN KMSN 041130Z 17010KT 4SM -TSRA BR BKN045 OVC110 17/16 A2979 990 93 1500 170/10 RMK AO2 OCNL LTGICCC OHD TS OHD MOV E P0007
14837KMSN MSN20020604053514806/04/02 05:35:31  5-MIN KMSN 041135Z 16009KT 4SM -TSRA BR BKN045 OVC110 17/16 A2978 1000 93 1500 160/09 RMK AO2 OCNL LTGICCC OHD TS OHD MOV E P0008
14837KMSN MSN20020604054015506/04/02 05:40:31  5-MIN KMSN 041140Z 12014KT 4SM -TSRA BR BKN043 OVC110 17/16 A2974 1040 93 1500 120/14 RMK AO2 PRESFR OCNL LTGICCC OHD TS OHD MOV E P0009
14837KMSN MSN20020604054514806/04/02 05:45:31  5-MIN KMSN 041145Z 16013KT 5SM -TSRA BR BKN039 OVC050 17/16 A2976 1010 90 1500 160/13 RMK AO2 OCNL LTGICCC OHD TS OHD MOV E P0009
14837KMSN MSN20020604055019206/04/02 05:50:31  5-MIN KMSN 041150Z 18011KT 7SM -TSRA BKN039 BKN050 17/16 A2978 1000 90 1500 180/11 RMK AO2 SLP082 OCNL LTGICCC OHD TS OHD MOV E P0009 60079 70148 T01720156 10172 20122 53001
14837KMSN MSN20020604055511406/04/02 05:55:31  5-MIN KMSN 041155Z 21006G16KT 10SM -TSRA BKN039 17/16 A2979 990 93 1500 210/06G16 RMK AO2 P0000
14837KMSN MSN20020604060011306/04/02 06:00:31  5-MIN KMSN 041200Z 18007KT 10SM TS SCT039 17/16 A2979 990 93 1500 180/07 RMK AO2 RAE1156 P0000
14837KMSN MSN20020604060512006/04/02 06:05:31  5-MIN KMSN 041205Z 20007KT 9SM -RA SCT039 17/16 A2980 980 93 1500 200/07 RMK AO2 TSE04 TS MOV E P0001
14837KMSN MSN20020604061013706/04/02 06:10:31  5-MIN KMSN 041210Z 21008KT 180V260 10SM -RA FEW041 17/16 A2980 970 93 1500 210/08 180V260 RMK AO2 TSE04 TS MOV E P0001
14837KMSN MSN20020604061512106/04/02 06:15:31  5-MIN KMSN 041215Z 19007KT 10SM -RA FEW110 17/16 A2980 980 96 1400 190/07 RMK AO2 TSE04 TS MOV E P0001
14837KMSN MSN20020604062012206/04/02 06:20:31  5-MIN KMSN 041220Z 19008KT 10SM FEW110 17/16 A2981 970 96 1400 190/08 RMK AO2 TSE04RAE16 TS MOV E P0001
14837KMSN MSN20020604062512206/04/02 06:25:31  5-MIN KMSN 041225Z VRB04KT 10SM FEW110 17/16 A2982 960 93 1500 VRB/04 RMK AO2 TSE04RAE16 TS MOV E P0001
14837KMSN MSN20020604063012006/04/02 06:30:31  5-MIN KMSN 041230Z 29005KT 8SM -RA SCT110 17/16 A2983 950 96 1400 280/05 RMK AO2 TSE04 TS MOV E P0001
14837KMSN MSN20020604063512306/04/02 06:35:31  5-MIN KMSN 041235Z 29003KT 6SM -RA BR BKN110 17/16 A2982 960 96 1400 290/03 RMK AO2 TSE04 TS MOV E P0002
14837KMSN MSN20020604064015206/04/02 06:40:31  5-MIN KMSN 041240Z 11007KT 5SM -TSRA FEW030 BKN110 17/16 A2978 1000 96 1500 110/07 RMK AO2 TSE04B37 OCNL LTGIC OHD TS OHD MOV E P0002
14837KMSN MSN20020604064515206/04/02 06:45:31  5-MIN KMSN 041245Z 14008KT 5SM -TSRA SCT038 BKN110 17/16 A2977 1010 96 1500 140/08 RMK AO2 TSE04B37 OCNL LTGIC OHD TS OHD MOV E P0003
14837KMSN MSN20020604065016906/04/02 06:50:31  5-MIN KMSN 041250Z 16009KT 5SM -TSRA SCT041 OVC110 17/16 A2976 1010 96 1500 160/09 RMK AO2 TSE04B37 SLP078 OCNL LTGIC OHD TS OHD MOV E P0003 T01670161
14837KMSN MSN20020604065511506/04/02 06:55:31  5-MIN KMSN 041255Z 16009KT 6SM -TSRA SCT060 OVC110 17/16 A2976 1010 96 1500 160/09 RMK AO2 P0000
14837KMSN MSN20020604070014306/04/02 07:00:31  5-MIN KMSN 041300Z 16009KT 7SM -TSRA SCT065 BKN110 17/16 A2976 1020 96 1500 160/09 RMK AO2 OCNL LTGIC OHD TS OHD MOV E P0000
14837KMSN MSN20020604070514306/04/02 07:05:31  5-MIN KMSN 041305Z 15012KT 7SM -TSRA SCT080 BKN110 17/16 A2975 1020 96 1500 150/12 RMK AO2 OCNL LTGIC OHD TS OHD MOV E P0000
14837KMSN MSN20020604071012806/04/02 07:10:31  5-MIN KMSN 041310Z 21008KT 8SM -RA SCT080 BKN110 17/16 A2977 1000 96 1500 210/08 RMK AO2 TSE06 TS MOV E P0000
14837KMSN MSN20020604071513406/04/02 07:15:31  5-MIN KMSN 041315Z 27006KT 8SM -RA FEW100 BKN110 17/16 A2980 970 96 1400 270/06 RMK AO2 TSE06 PRESRR TS MOV E P0000
14837KMSN MSN20020604072013406/04/02 07:20:31  5-MIN KMSN 041320Z 32005KT 8SM -RA SCT075 BKN110 17/16 A2981 970 96 1400 320/05 RMK AO2 TSE06 PRESRR TS MOV E P0001
14837KMSN MSN20020604072512706/04/02 07:25:31  5-MIN KMSN 041325Z 34003KT 7SM -RA SCT055 BKN110 17/16 A2980 980 96 1400 330/03 RMK AO2 TSE06 TS MOV E P0001
14837KMSN MSN20020604073013506/04/02 07:30:31  5-MIN KMSN 041330Z VRB04KT 7SM -RA SCT046 SCT070 BKN110 17/16 A2978 1000 96 1500 VRB/04 RMK AO2 TSE06 TS MOV E P0001
14837KMSN MSN20020604073513706/04/02 07:35:31  5-MIN KMSN 041335Z VRB03KT 6SM -RA BR BKN039 BKN070 BKN110 17/16 A2981 970 96 1400 VRB/03 RMK AO2 TSE06 TS MOV E P0002
14837KMSN MSN20020604074013406/04/02 07:40:31  5-MIN KMSN 041340Z 32006KT 7SM -RA FEW012 BKN036 OVC110 17/16 A2982 950 96 1400 320/06 RMK AO2 TSE06 TS MOV E P0002
14837KMSN MSN20020604074513406/04/02 07:45:31  5-MIN KMSN 041345Z 32006KT 7SM -RA SCT014 BKN034 OVC110 17/16 A2982 960 96 1400 320/06 RMK AO2 TSE06 TS MOV E P0002
14837KMSN MSN20020604075014406/04/02 07:50:31  5-MIN KMSN 041350Z 34004KT 7SM -RA BKN014 BKN034 17/16 A2982 960 96 1400 340/04 RMK AO2 TSE06 SLP097 TS MOV E P0002 T01670161
14837KMSN MSN20020604075511506/04/02 07:55:31  5-MIN KMSN 041355Z 03004KT 6SM -RA BR BKN014 OVC037 17/16 A2979 990 96 1500 030/04 RMK AO2 P0000
14837KMSN MSN20020604080011606/04/02 08:00:31  5-MIN KMSN 041400Z 05005KT 6SM -RA BR BKN014 OVC035 16/16 A2979 990 100 1400 050/05 RMK AO2 P0000
14837KMSN MSN20020604080511606/04/02 08:05:31  5-MIN KMSN 041405Z 34006KT 4SM -RA BR FEW004 OVC014 15/15 A2980 980 100 1200 340/06 RMK AO2 P0000
14837KMSN MSN20020604081011606/04/02 08:10:31  5-MIN KMSN 041410Z 32007KT 3SM -RA BR SCT004 OVC014 14/14 A2982 960 100 1200 320/07 RMK AO2 P0000
14837KMSN MSN20020604081511706/04/02 08:15:31  5-MIN KMSN 041415Z 04010KT 3SM -RA BR SCT004 OVC014 14/14 A2977 1000 100 1100 040/10 RMK AO2 P0001
14837KMSN MSN20020604082011606/04/02 08:20:31  5-MIN KMSN 041420Z 01007KT 2SM -RA BR BKN004 OVC014 13/13 A2979 980 100 1100 010/07 RMK AO2 P0001
14837KMSN MSN20020604082511606/04/02 08:25:31  5-MIN KMSN 041425Z VRB05KT 2SM -RA BR BKN004 OVC014 14/14 A2979 990 100 1100 VRB/05 RMK AO2 P0001
14837KMSN MSN20020604083011606/04/02 08:30:31  5-MIN KMSN 041430Z 01005KT 2SM -RA BR BKN004 OVC014 13/13 A2979 990 100 1100 010/05 RMK AO2 P0001
14837KMSN MSN20020604083512306/04/02 08:35:31  5-MIN KMSN 041435Z 31006KT 2SM -RA BR BKN002 OVC007 13/13 A2981 960 100 1000 310/06 RMK AO2 PRESRR P0001
14837KMSN MSN20020604084012106/04/02 08:40:31  5-MIN KMSN 041440Z 32005KT 2SM -RA BR OVC002 13/13 A2982 960 100 1000 320/05 RMK AO2 CIG 002V007 P0001
14837KMSN MSN20020604084512306/04/02 08:45:31  5-MIN KMSN 041445Z 02007KT 2SM BR OVC002 13/13 A2979 980 100 1100 020/07 RMK AO2 RAE42 CIG 002V007 P0001
14837KMSN MSN20020604085016106/04/02 08:50:31  5-MIN KMSN 041450Z 03008KT 2SM BR BKN002 OVC015 13/13 A2979 990 100 1100 030/08 RMK AO2 SFC VIS 2 1/2 RAE42 SLP088 P0001 60007 T01330133 58028
14837KMSN MSN20020604085512506/04/02 08:55:31  5-MIN KMSN 041455Z 01007KT 2SM BR OVC002 13/13 A2980 970 100 1000 010/07 RMK AO2 SFC VIS 2 1/2 CIG 002V006
14837KMSN MSN20020604090012406/04/02 09:00:31  5-MIN KMSN 041500Z 36007KT 2SM BR OVC004 13/13 A2981 970 96 1000 360/07 RMK AO2 SFC VIS 2 1/2 CIG 002V007
14837KMSN MSN20020604090512806/04/02 09:05:31  5-MIN KMSN 041505Z VRB06KT 2SM BR OVC004 13/13 A2983 940 100 1000 VRB/06 RMK AO2 SFC VIS 3 CIG 002V007 PRESRR
14837KMSN MSN20020604091013106/04/02 09:10:31  5-MIN KMSN 041510Z VRB05KT 2SM BR OVC004 13/13 A2984 940 96 1000 VRB/05 RMK AO2 SFC VIS 2 1/2 CIG 002V007 PRESRR
14837KMSN MSN20020604091513506/04/02 09:15:31  5-MIN KMSN 041515Z 30009KT 2SM -RA BR OVC004 13/13 A2987 910 96 1000 300/09 RMK AO2 SFC VIS 2 1/2 RAB14 PRESRR P0000
14837KMSN MSN20020604092012606/04/02 09:20:31  5-MIN KMSN 041520Z 01006KT 2SM -RA BR OVC004 13/13 A2984 940 100 900 360/06 RMK AO2 RAB14 CIG 003V008 P0000
14837KMSN MSN20020604092512206/04/02 09:25:31  5-MIN KMSN 041525Z 04008KT 2SM -RA BR BKN004 OVC008 13/13 A2981 970 100 1000 030/08 RMK AO2 RAB14 P0000
14837KMSN MSN20020604093012906/04/02 09:30:31  5-MIN KMSN 041530Z 01006KT 2SM -RA BR BKN004 BKN008 OVC013 13/13 A2982 960 100 1000 360/06 RMK AO2 RAB14 P0000
14837KMSN MSN20020604093512206/04/02 09:35:31  5-MIN KMSN 041535Z VRB04KT 2SM -RA BR BKN004 OVC010 13/13 A2982 960 100 1000 VRB/04 RMK AO2 RAB14 P0000
14837KMSN MSN20020604094013506/04/02 09:40:31  5-MIN KMSN 041540Z 02008KT 2SM -RA BR BKN004 OVC010 13/13 A2981 970 96 1000 020/08 RMK AO2 SFC VIS 2 1/2 RAB14 P0001
14837KMSN MSN20020604094513606/04/02 09:45:31  5-MIN KMSN 041545Z 31015G18KT 2SM -RA BR BKN004 OVC010 13/13 A2991 880 96 900 310/15G18 RMK AO2 SFC VIS 3 RAB14 P0001
14837KMSN MSN20020604095015806/04/02 09:50:31  5-MIN KMSN 041550Z 33013G20KT 2SM -RA BR BKN004 OVC010 13/13 A2992 860 100 800 330/13G20 RMK AO2 SFC VIS 2 1/2 RAB14 SLP134 P0001 T01280128
14837KMSN MSN20020604095514206/04/02 09:55:31  5-MIN KMSN 041555Z 34013G22KT 2SM -RA BR BKN004 OVC010 13/13 A2992 860 100 800 340/13G22 RMK AO2 WSHFT 1541 SFC VIS 3 P0000
14837KMSN MSN20020604100013806/04/02 10:00:31  5-MIN KMSN 041600Z 34009G22KT 2SM -RA BR OVC004 13/12 A2991 880 96 900 340/09G22 RMK AO2 WSHFT 1541 SFC VIS 2 1/2 P0001
14837KMSN MSN20020604100513906/04/02 10:05:31  5-MIN KMSN 041605Z 01013G21KT 2SM -RA BR OVC004 12/12 A2987 910 100 800 010/13G21 RMK AO2 WSHFT 1541 SFC VIS 2 1/2 P0002
14837KMSN MSN20020604101013906/04/02 10:10:31  5-MIN KMSN 041610Z 04013G21KT 2SM -RA BR OVC004 12/12 A2984 930 100 900 040/13G21 RMK AO2 WSHFT 1541 SFC VIS 2 1/2 P0003
14837KMSN MSN20020604101513306/04/02 10:15:31  5-MIN KMSN 041615Z 01012KT 2SM -RA BR OVC004 12/12 A2986 920 100 900 010/12 RMK AO2 WSHFT 1601 SFC VIS 2 1/2 P0003
14837KMSN MSN20020604102013906/04/02 10:20:31  5-MIN KMSN 041620Z 02012G17KT 2SM -RA BR OVC004 12/12 A2985 930 100 900 020/12G17 RMK AO2 WSHFT 1601 SFC VIS 2 1/2 P0004
14837KMSN MSN20020604102513906/04/02 10:25:31  5-MIN KMSN 041625Z 03008G16KT 2SM -RA BR OVC004 12/12 A2986 920 100 900 030/08G16 RMK AO2 WSHFT 1601 SFC VIS 2 1/2 P0004
14837KMSN MSN20020604103013306/04/02 10:30:31  5-MIN KMSN 041630Z 04009KT 2SM -RA BR OVC004 12/12 A2984 940 100 900 040/09 RMK AO2 WSHFT 1601 SFC VIS 2 1/2 P0004
14837KMSN MSN20020604103512806/04/02 10:35:31  5-MIN KMSN 041635Z 06008KT 2SM -RA BR OVC004 13/12 A2984 940 96 900 060/08 RMK AO2 WSHFT 1601 SFC VIS 3 P0004
14837KMSN MSN20020604104012806/04/02 10:40:31  5-MIN KMSN 041640Z 03007KT 2SM -RA BR OVC004 13/12 A2986 920 96 900 030/07 RMK AO2 WSHFT 1601 SFC VIS 3 P0005
14837KMSN MSN20020604104512806/04/02 10:45:31  5-MIN KMSN 041645Z 06009KT 2SM -RA BR OVC004 13/12 A2983 940 96 900 060/09 RMK AO2 WSHFT 1601 SFC VIS 4 P0005
14837KMSN MSN20020604105013506/04/02 10:50:31  5-MIN KMSN 041650Z 05012KT 4SM -RA BR OVC004 13/12 A2983 950 96 900 050/12 RMK AO2 WSHFT 1601 SLP102 P0005 T01280122
14837KMSN MSN20020604105511406/04/02 10:55:31  5-MIN KMSN 041655Z 36006KT 4SM -RA BR BKN004 OVC014 13/12 A2985 930 96 900 360/06 RMK AO2 P0000
14837KMSN MSN20020604110011406/04/02 11:00:31  5-MIN KMSN 041700Z 02007KT 5SM -RA BR BKN004 OVC014 13/12 A2985 930 96 900 020/07 RMK AO2 P0000
14837KMSN MSN20020604110512106/04/02 11:05:31  5-MIN KMSN 041705Z 01004KT 4SM -RA BR BKN006 OVC014 13/12 A2986 920 96 900 010/04 RMK AO2 PRESRR P0001
14837KMSN MSN20020604111011506/04/02 11:10:31  5-MIN KMSN 041710Z 03006KT 4SM -RA BR BKN006 OVC014 13/13 A2986 920 100 900 030/06 RMK AO2 P0001
14837KMSN MSN20020604111512906/04/02 11:15:31  5-MIN KMSN 041715Z VRB03KT 4SM -RA BR SCT006 BKN014 OVC021 13/13 A2989 890 100 900 VRB/03 RMK AO2 PRESRR P0002
14837KMSN MSN20020604112012206/04/02 11:20:31  5-MIN KMSN 041720Z 26005KT 4SM -RA BR SCT006 OVC018 13/13 A2992 870 100 800 260/05 RMK AO2 PRESRR P0002
14837KMSN MSN20020604112512206/04/02 11:25:31  5-MIN KMSN 041725Z 26007KT 4SM -RA BR SCT006 OVC018 13/13 A2994 850 100 800 260/07 RMK AO2 PRESRR P0002
14837KMSN MSN20020604113012206/04/02 11:30:31  5-MIN KMSN 041730Z 27006KT 4SM -RA BR SCT006 OVC018 13/13 A2994 840 100 800 270/06 RMK AO2 PRESRR P0002
14837KMSN MSN20020604113512506/04/02 11:35:31  5-MIN KMSN 041735Z VRB06KT 3SM -RA BR SCT006 OVC018 13/13 A2994 840 100 800 VRB/06 RMK AO2 TWR VIS 4 P0003
14837KMSN MSN20020604114012906/04/02 11:40:31  5-MIN KMSN 041740Z 18008KT 2 1/2SM -RA BR SCT006 OVC018 13/13 A2990 880 100 900 180/08 RMK AO2 TWR VIS 3 P0004
14837KMSN MSN20020604114513606/04/02 11:45:31  5-MIN KMSN 041745Z 16008KT 2 1/2SM -RA BR SCT006 BKN018 OVC043 13/13 A2987 910 100 900 160/08 RMK AO2 TWR VIS 3 P0005
14837KMSN MSN20020604115016806/04/02 11:50:31  5-MIN KMSN 041750Z 12012KT 2 1/2SM -RA BR SCT006 BKN023 OVC034 13/13 A2981 960 100 1000 110/12 RMK AO2 SLP097 P0006 60019 T01280128 10172 20122 53003
14837KMSN MSN20020604115513706/04/02 11:55:31  5-MIN KMSN 041755Z 14011KT 2SM -RA BR FEW006 SCT019 OVC029 13/13 A2982 960 100 1000 140/11 RMK AO2 TWR VIS 2 1/2 P0000
14837KMSN MSN20020604120013606/04/02 12:00:31  5-MIN KMSN 041800Z 19009KT 2SM -RA BR SCT006 SCT015 OVC027 13/13 A2985 930 96 1000 190/09 RMK AO2 TWR VIS 2 1/2 P0001
14837KMSN MSN20020604120512906/04/02 12:05:31  5-MIN KMSN 041805Z 18010KT 2 1/2SM -RA BR SCT006 OVC025 13/13 A2985 930 96 1000 180/10 RMK AO2 SFC VIS 3 P0001
14837KMSN MSN20020604121013006/04/02 12:10:31  5-MIN KMSN 041810Z 18009KT 2 1/2SM -RA BR SCT006 OVC025 13/13 A2984 940 100 1000 180/09 RMK AO2 SFC VIS 3 P0002
14837KMSN MSN20020604121512006/04/02 12:15:31  5-MIN KMSN 041815Z 16008KT 2 1/2SM -RA BR SCT006 OVC025 13/13 A2983 950 100 1000 160/08 RMK AO2 P0003
14837KMSN MSN20020604122013006/04/02 12:20:31  5-MIN KMSN 041820Z 13012KT 2SM -RA BR SCT006 OVC021 13/13 A2979 980 100 1100 130/12 RMK AO2 TWR VIS 2 1/2 P0004
14837KMSN MSN20020604122513106/04/02 12:25:31  5-MIN KMSN 041825Z 13017KT 2SM -RA BR SCT006 OVC019 13/13 A2975 1020 100 1100 130/17 RMK AO2 TWR VIS 2 1/2 P0006
14837KMSN MSN20020604123013106/04/02 12:30:31  5-MIN KMSN 041830Z 11023KT 2SM -RA BR SCT004 OVC019 13/13 A2966 1110 100 1200 110/23 RMK AO2 TWR VIS 2 1/2 P0007
14837KMSN MSN20020604123516606/04/02 12:35:31  5-MIN KMSN 041835Z 12023G31KT 2SM -RA BR FEW004 BKN017 13/13 A2964 1130 100 1200 120/23G31 RMK AO2 PK WND 11031/1833 WSHFT 1819 TWR VIS 2 1/2 P0008
14837KMSN MSN20020604124016606/04/02 12:40:31  5-MIN KMSN 041840Z 11017G31KT 2 1/2SM -RA BR FEW004 BKN017 14/14 A2963 1140 100 1300 110/17G31 RMK AO2 PK WND 11031/1833 WSHFT 1819 SFC VIS 4 P0008
14837KMSN MSN20020604124514606/04/02 12:45:31  5-MIN KMSN 041845Z 12011G22KT 5SM BR SCT017 14/14 A2965 1120 96 1400 120/11G22 RMK AO2 PK WND 11031/1833 WSHFT 1819 RAE44 P0008
14837KMSN MSN20020604125016306/04/02 12:50:31  5-MIN KMSN 041850Z VRB06G21KT 6SM BR SCT017 15/14 A2968 1090 96 1400 VRB/06G21 RMK AO2 PK WND 11031/1833 WSHFT 1819 RAE44 SLP050 P0008 T01500144
14837KMSN MSN20020604125513206/04/02 12:55:31  5-MIN KMSN 041855Z 26014G20KT 250V310 7SM FEW009 SCT014 16/15 A2976 1020 96 1400 260/14G20 250V310 RMK AO2 PRESRR
14837KMSN MSN20020604130013206/04/02 13:00:31  5-MIN KMSN 041900Z 27008G22KT 250V320 7SM SCT007 BKN014 16/14 A2977 1010 93 1300 270/08G22 250V320 RMK AO2 PRESRR
14837KMSN MSN20020604130511506/04/02 13:05:31  5-MIN KMSN 041905Z 29013G22KT 7SM SCT007 BKN012 16/14 A2978 990 93 1300 290/13G22 RMK AO2 PRESRR
14837KMSN MSN20020604131011306/04/02 13:10:31  5-MIN KMSN 041910Z 30009G18KT 7SM BKN010 15/14 A2980 980 96 1200 300/09G18 RMK AO2 CIG 006V012
14837KMSN MSN20020604131513006/04/02 13:15:31  5-MIN KMSN 041915Z 30007KT 240V320 7SM BKN010 BKN013 15/14 A2981 970 96 1200 300/07 240V320 RMK AO2 CIG 006V012
14837KMSN MSN20020604132011706/04/02 13:20:31  5-MIN KMSN 041920Z 34007KT 6SM BR BKN010 OVC013 15/14 A2980 970 96 1200 340/07 RMK AO2 CIG 006V012
14837KMSN MSN20020604132510506/04/02 13:25:31  5-MIN KMSN 041925Z 34007KT 6SM BR SCT010 OVC015 16/14 A2980 970 93 1300 330/07 RMK AO2
14837KMSN MSN20020604133010506/04/02 13:30:31  5-MIN KMSN 041930Z 33006KT 6SM BR SCT010 OVC017 16/15 A2980 970 96 1300 330/06 RMK AO2
14837KMSN MSN20020604133510506/04/02 13:35:31  5-MIN KMSN 041935Z 34005KT 6SM BR FEW010 OVC017 16/14 A2981 970 93 1300 340/05 RMK AO2
14837KMSN MSN20020604134011206/04/02 13:40:31  5-MIN KMSN 041940Z 34004KT 6SM BR FEW006 BKN015 OVC020 16/14 A2981 960 93 1300 340/04 RMK AO2
14837KMSN MSN20020604134510506/04/02 13:45:31  5-MIN KMSN 041945Z 31004KT 6SM BR FEW006 OVC014 16/14 A2982 950 93 1300 310/04 RMK AO2
14837KMSN MSN20020604135012906/04/02 13:50:31  5-MIN KMSN 041950Z 29003KT 6SM BR FEW006 BKN012 OVC019 16/14 A2983 950 93 1300 290/03 RMK AO2 SLP101 T01560144
14837KMSN MSN20020604135511206/04/02 13:55:31  5-MIN KMSN 041955Z 00000KT 5SM BR FEW006 BKN012 OVC019 16/14 A2982 950 93 1300 000/00 RMK AO2
14837KMSN MSN20020604140010506/04/02 14:00:31  5-MIN KMSN 042000Z 01005KT 6SM BR FEW006 OVC012 16/15 A2982 960 96 1300 010/05 RMK AO2
14837KMSN MSN20020604140510506/04/02 14:05:31  5-MIN KMSN 042005Z 01004KT 6SM BR FEW006 OVC012 16/14 A2981 960 90 1400 010/04 RMK AO2
14837KMSN MSN20020604141010506/04/02 14:10:31  5-MIN KMSN 042010Z 01006KT 6SM BR FEW006 OVC012 16/15 A2981 960 93 1400 360/06 RMK AO2
14837KMSN MSN20020604141510506/04/02 14:15:31  5-MIN KMSN 042015Z 36005KT 6SM BR FEW006 OVC012 16/15 A2982 960 93 1300 360/05 RMK AO2
14837KMSN MSN20020604142010506/04/02 14:20:31  5-MIN KMSN 042020Z 36004KT 6SM BR FEW006 OVC012 16/15 A2982 960 93 1400 360/04 RMK AO2
14837KMSN MSN20020604142510506/04/02 14:25:31  5-MIN KMSN 042025Z 36004KT 6SM BR FEW006 OVC012 16/15 A2981 960 93 1400 360/04 RMK AO2
14837KMSN MSN20020604143010506/04/02 14:30:31  5-MIN KMSN 042030Z 01004KT 6SM BR FEW006 OVC012 16/15 A2981 970 93 1400 010/04 RMK AO2
14837KMSN MSN20020604143510506/04/02 14:35:31  5-MIN KMSN 042035Z 03004KT 6SM BR FEW006 OVC012 16/15 A2981 960 93 1400 030/04 RMK AO2
14837KMSN MSN20020604144009806/04/02 14:40:31  5-MIN KMSN 042040Z 01004KT 6SM BR OVC012 16/15 A2981 970 93 1400 010/04 RMK AO2
14837KMSN MSN20020604144509806/04/02 14:45:31  5-MIN KMSN 042045Z 02005KT 6SM BR OVC012 17/15 A2981 970 90 1400 020/05 RMK AO2
14837KMSN MSN20020604145012706/04/02 14:50:31  5-MIN KMSN 042050Z 04007KT 6SM BR OVC012 17/16 A2980 970 93 1400 040/07 RMK AO2 SLP090 60008 T01670156 58001
14837KMSN MSN20020604145509806/04/02 14:55:31  5-MIN KMSN 042055Z 01008KT 5SM BR OVC012 17/16 A2980 970 93 1400 010/08 RMK AO2
14837KMSN MSN20020604150009806/04/02 15:00:31  5-MIN KMSN 042100Z 02009KT 5SM BR OVC010 17/16 A2980 970 93 1400 020/09 RMK AO2
14837KMSN MSN20020604150509806/04/02 15:05:31  5-MIN KMSN 042105Z 01006KT 5SM BR OVC010 17/16 A2980 970 93 1400 010/06 RMK AO2
14837KMSN MSN20020604151009806/04/02 15:10:31  5-MIN KMSN 042110Z 01007KT 5SM BR OVC010 17/16 A2980 970 93 1400 010/07 RMK AO2
14837KMSN MSN20020604151509806/04/02 15:15:31  5-MIN KMSN 042115Z 01006KT 5SM BR OVC010 17/16 A2981 970 90 1500 010/06 RMK AO2
14837KMSN MSN20020604152009806/04/02 15:20:31  5-MIN KMSN 042120Z 36006KT 5SM BR OVC010 17/16 A2981 970 90 1500 360/06 RMK AO2
14837KMSN MSN20020604152509806/04/02 15:25:31  5-MIN KMSN 042125Z 01004KT 5SM BR OVC010 17/16 A2981 970 93 1500 010/04 RMK AO2
14837KMSN MSN20020604153009806/04/02 15:30:31  5-MIN KMSN 042130Z 01005KT 5SM BR OVC010 17/16 A2981 970 90 1500 010/05 RMK AO2
14837KMSN MSN20020604153509806/04/02 15:35:31  5-MIN KMSN 042135Z 01007KT 5SM BR OVC010 17/16 A2980 970 90 1500 010/07 RMK AO2
14837KMSN MSN20020604154009806/04/02 15:40:31  5-MIN KMSN 042140Z 02005KT 4SM BR OVC010 17/16 A2981 970 90 1500 020/05 RMK AO2
14837KMSN MSN20020604154511006/04/02 15:45:31  5-MIN KMSN 042145Z 01008KT 4SM BR OVC010 17/16 A2980 970 90 1500 010/08 RMK AO2 CIG 008V011
14837KMSN MSN20020604155012706/04/02 15:50:31  5-MIN KMSN 042150Z 03005KT 4SM BR OVC010 17/16 A2980 970 90 1500 030/05 RMK AO2 CIG 008V011 SLP091 T01720156
14837KMSN MSN20020604155511006/04/02 15:55:31  5-MIN KMSN 042155Z 04006KT 4SM BR OVC008 17/16 A2980 970 93 1400 040/06 RMK AO2 CIG 008V013
14837KMSN MSN20020604160011006/04/02 16:00:31  5-MIN KMSN 042200Z 03007KT 4SM BR OVC010 17/16 A2979 980 90 1500 030/07 RMK AO2 CIG 008V013
14837KMSN MSN20020604160510506/04/02 16:05:31  5-MIN KMSN 042205Z 05006KT 4SM BR BKN008 OVC010 17/16 A2980 980 93 1400 050/06 RMK AO2
14837KMSN MSN20020604161010506/04/02 16:10:31  5-MIN KMSN 042210Z 05007KT 3SM BR BKN008 OVC010 17/16 A2979 980 93 1400 040/07 RMK AO2
14837KMSN MSN20020604161512606/04/02 16:15:31  5-MIN KMSN 042215Z 04007KT 2SM -RA BR OVC010 17/16 A2979 990 96 1500 040/07 RMK AO2 RAB13 CIG 007V013 P0000
14837KMSN MSN20020604162013006/04/02 16:20:31  5-MIN KMSN 042220Z 05007KT 1 1/2SM -RA BR OVC010 17/16 A2978 990 93 1500 050/07 RMK AO2 RAB13 CIG 007V013 P0000
14837KMSN MSN20020604162513006/04/02 16:25:31  5-MIN KMSN 042225Z 05007KT 1 1/2SM -RA BR OVC010 17/16 A2978 990 96 1500 050/07 RMK AO2 RAB13 CIG 007V013 P0000
14837KMSN MSN20020604163011506/04/02 16:30:31  5-MIN KMSN 042230Z 05006KT 2SM -RA BR OVC010 17/16 A2978 1000 96 1500 050/06 RMK AO2 RAB13 P0000
14837KMSN MSN20020604163511806/04/02 16:35:31  5-MIN KMSN 042235Z 05004KT 2 1/2SM -RA BR OVC010 17/16 A2978 990 96 1500 050/04 RMK AO2 RAB13 P0000
14837KMSN MSN20020604164012206/04/02 16:40:31  5-MIN KMSN 042240Z 07006KT 3SM -RA BR FEW005 OVC010 17/16 A2978 1000 96 1500 070/06 RMK AO2 RAB13 P0000
14837KMSN MSN20020604164512206/04/02 16:45:31  5-MIN KMSN 042245Z 08006KT 3SM -RA BR FEW005 OVC010 17/16 A2978 1000 96 1500 080/06 RMK AO2 RAB13 P0000
14837KMSN MSN20020604165013106/04/02 16:50:31  5-MIN KMSN 042250Z 06007KT 3SM BR OVC010 17/16 A2978 1000 96 1500 060/07 RMK AO2 RAB13E46 SLP082 P0000 T01670161
14837KMSN MSN20020604165511706/04/02 16:55:31  5-MIN KMSN 042255Z 08004KT 2SM BR BKN010 OVC013 17/16 A2978 990 96 1500 080/04 RMK AO2 CIG 005V011
14837KMSN MSN20020604170013606/04/02 17:00:31  5-MIN KMSN 042300Z 06005KT 2SM -DZ BR BKN008 OVC013 17/16 A2978 1000 96 1500 060/05 RMK AO2 DZB2258 CIG 005V011 P0000
14837KMSN MSN20020604170514006/04/02 17:05:31  5-MIN KMSN 042305Z 10004KT 1 1/2SM -DZ BR BKN008 OVC014 17/17 A2978 990 100 1500 100/04 RMK AO2 DZB2258 CIG 005V011 P0000
14837KMSN MSN20020604171014006/04/02 17:10:31  5-MIN KMSN 042310Z 07006KT 1 1/2SM -DZ BR BKN008 OVC014 17/17 A2978 990 100 1500 070/06 RMK AO2 DZB2258 CIG 005V011 P0000
14837KMSN MSN20020604171514006/04/02 17:15:31  5-MIN KMSN 042315Z 08005KT 1 1/2SM -DZ BR BKN008 OVC014 17/17 A2979 990 100 1500 080/05 RMK AO2 DZB2258 CIG 005V011 P0000
14837KMSN MSN20020604172013906/04/02 17:20:31  5-MIN KMSN 042320Z 09004KT 1 1/2SM -DZ BR BKN008 OVC014 17/16 A2979 980 96 1400 090/04 RMK AO2 DZB2258 CIG 004V011 P0000
14837KMSN MSN20020604172514006/04/02 17:25:31  5-MIN KMSN 042325Z 08005KT 1 1/2SM -DZ BR SCT005 OVC010 17/17 A2979 990 100 1500 080/05 RMK AO2 DZB2258 CIG 008V015 P0000
14837KMSN MSN20020604173012706/04/02 17:30:31  5-MIN KMSN 042330Z 07006KT 1 1/2SM -DZ BR SCT005 OVC008 17/16 A2978 990 96 1500 070/06 RMK AO2 DZB2258 P0000
14837KMSN MSN20020604173513906/04/02 17:35:31  5-MIN KMSN 042335Z 08005KT 1 1/2SM -DZ BR SCT005 OVC010 17/16 A2979 990 96 1500 070/05 RMK AO2 DZB2258 CIG 009V015 P0000
14837KMSN MSN20020604174012706/04/02 17:40:31  5-MIN KMSN 042340Z 07004KT 1 1/2SM -DZ BR SCT005 OVC008 17/16 A2979 990 96 1400 070/04 RMK AO2 DZB2258 P0000
14837KMSN MSN20020604174512706/04/02 17:45:31  5-MIN KMSN 042345Z 08004KT 1 1/2SM -DZ BR SCT005 OVC008 17/16 A2979 980 96 1400 080/04 RMK AO2 DZB2258 P0000
14837KMSN MSN20020604175016906/04/02 17:50:31  5-MIN KMSN 042350Z 09004KT 1 1/2SM -DZ BR SCT005 OVC008 17/17 A2979 980 100 1400 090/04 RMK AO2 DZB2258 SLP087 P0000 60008 T01670167 10172 20128 53004
14837KMSN MSN20020604175511606/04/02 17:55:31  5-MIN KMSN 042355Z 09004KT 1SM -DZ BR SCT005 OVC008 17/17 A2979 980 100 1400 090/04 RMK AO2 P0000
14837KMSN MSN20020604180011606/04/02 18:00:31  5-MIN KMSN 050000Z 10005KT 1SM -DZ BR BKN005 OVC010 17/17 A2979 990 100 1400 100/05 RMK AO2 P0000
14837KMSN MSN20020604180512806/04/02 18:05:31  5-MIN KMSN 050005Z 12003KT 1SM -DZ BR BKN005 OVC010 17/17 A2979 980 100 1400 120/03 RMK AO2 CIG 004V008 P0000
14837KMSN MSN20020604181011606/04/02 18:10:31  5-MIN KMSN 050010Z 11003KT 1SM -DZ BR BKN005 OVC010 17/17 A2980 980 100 1400 110/03 RMK AO2 P0000
14837KMSN MSN20020604181511606/04/02 18:15:31  5-MIN KMSN 050015Z 00000KT 1SM -DZ BR BKN005 OVC010 17/17 A2979 980 100 1400 000/00 RMK AO2 P0000
14837KMSN MSN20020604182010906/04/02 18:20:31  5-MIN KMSN 050020Z 11003KT 1SM -DZ BR OVC005 17/17 A2979 980 100 1400 110/03 RMK AO2 P0000
14837KMSN MSN20020604182512106/04/02 18:25:31  5-MIN KMSN 050025Z 00000KT 1SM -DZ BR OVC005 17/17 A2980 980 100 1400 000/00 RMK AO2 CIG 003V007 P0000
14837KMSN MSN20020604183012106/04/02 18:30:31  5-MIN KMSN 050030Z 09003KT 1SM -DZ BR OVC005 17/17 A2979 980 100 1400 090/03 RMK AO2 CIG 003V009 P0000
14837KMSN MSN20020604183512106/04/02 18:35:31  5-MIN KMSN 050035Z 00000KT 1SM -DZ BR OVC005 17/17 A2980 980 100 1400 000/00 RMK AO2 CIG 003V009 P0000
14837KMSN MSN20020604184012106/04/02 18:40:31  5-MIN KMSN 050040Z 00000KT 1SM -DZ BR OVC005 17/17 A2979 980 100 1400 000/00 RMK AO2 CIG 003V009 P0000
14837KMSN MSN20020604184512106/04/02 18:45:31  5-MIN KMSN 050045Z 00000KT 1SM -DZ BR OVC007 17/17 A2980 980 100 1400 000/00 RMK AO2 CIG 004V010 P0000
14837KMSN MSN20020604185013806/04/02 18:50:31  5-MIN KMSN 050050Z 00000KT 1SM -DZ BR OVC007 17/17 A2980 980 100 1400 000/00 RMK AO2 CIG 004V010 SLP089 P0000 T01670167
14837KMSN MSN20020604185512106/04/02 18:55:31  5-MIN KMSN 050055Z 00000KT 1SM -DZ BR OVC007 17/17 A2980 980 100 1400 000/00 RMK AO2 CIG 003V010 P0000
14837KMSN MSN20020604190012106/04/02 19:00:31  5-MIN KMSN 050100Z 00000KT 1SM -DZ BR OVC007 17/17 A2980 980 100 1400 000/00 RMK AO2 CIG 002V010 P0000
14837KMSN MSN20020604190514106/04/02 19:05:31  5-MIN KMSN 050105Z 00000KT 1/2SM DZ FG BKN004 OVC009 17/17 A2979 980 100 1400 000/00 RMK AO2 TWR VIS 3/4 CIG 002V007 P0000
14837KMSN MSN20020604191014106/04/02 19:10:31  5-MIN KMSN 050110Z 00000KT 1/2SM DZ FG BKN004 OVC009 17/17 A2979 980 100 1400 000/00 RMK AO2 TWR VIS 3/4 CIG 002V007 P0001
14837KMSN MSN20020604191512906/04/02 19:15:31  5-MIN KMSN 050115Z 00000KT 1/2SM DZ FG BKN004 OVC009 16/16 A2979 980 100 1400 000/00 RMK AO2 TWR VIS 3/4 P0001
14837KMSN MSN20020604192012206/04/02 19:20:31  5-MIN KMSN 050120Z 00000KT 1/2SM DZ FG OVC004 17/17 A2980 980 100 1400 000/00 RMK AO2 TWR VIS 3/4 P0001
14837KMSN MSN20020604192512206/04/02 19:25:31  5-MIN KMSN 050125Z 00000KT 1/2SM DZ FG OVC004 16/16 A2980 980 100 1400 000/00 RMK AO2 TWR VIS 3/4 P0001
14837KMSN MSN20020604193012206/04/02 19:30:31  5-MIN KMSN 050130Z 00000KT 1/2SM DZ FG OVC004 16/16 A2980 980 100 1400 000/00 RMK AO2 TWR VIS 3/4 P0001
14837KMSN MSN20020604193511606/04/02 19:35:31  5-MIN KMSN 050135Z 00000KT 3/4SM -DZ BR BCFG OVC004 17/17 A2980 970 100 1400 000/00 RMK AO2 P0001
14837KMSN MSN20020604194011606/04/02 19:40:31  5-MIN KMSN 050140Z 00000KT 3/4SM -DZ BR BCFG OVC004 17/17 A2981 970 100 1400 000/00 RMK AO2 P0001
14837KMSN MSN20020604194511606/04/02 19:45:31  5-MIN KMSN 050145Z 00000KT 3/4SM -DZ BR BCFG OVC004 16/16 A2981 970 100 1400 000/00 RMK AO2 P0001
14837KMSN MSN20020604195014506/04/02 19:50:31  5-MIN KMSN 050150Z 00000KT 3/4SM -DZ BR BCFG OVC004 17/17 A2981 970 100 1400 000/00 RMK AO2 CIG 001V005 SLP092 P0001 T01670167
14837KMSN MSN20020604195512806/04/02 19:55:31  5-MIN KMSN 050155Z 00000KT 3/4SM -DZ BR BCFG OVC004 17/17 A2981 960 100 1400 000/00 RMK AO2 CIG 001V005 P0000
14837KMSN MSN20020604200012806/04/02 20:00:31  5-MIN KMSN 050200Z 00000KT 3/4SM -DZ BR BCFG OVC004 17/17 A2981 970 100 1400 000/00 RMK AO2 CIG 001V006 P0000
14837KMSN MSN20020604200513506/04/02 20:05:31  5-MIN KMSN 050205Z 00000KT 3/4SM -DZ BR BCFG BKN004 OVC009 17/17 A2981 970 100 1400 000/00 RMK AO2 CIG 001V006 P0001
14837KMSN MSN20020604201013806/04/02 20:10:31  5-MIN KMSN 050210Z 31006KT 3/4SM -DZ BR BCFG OVC004 16/16 A2981 960 100 1400 310/06 RMK AO2 SFC VIS 1 CIG 001V008 P0001
14837KMSN MSN20020604201513806/04/02 20:15:31  5-MIN KMSN 050215Z 32005KT 3/4SM -DZ BR BCFG OVC004 16/16 A2981 970 100 1400 320/05 RMK AO2 SFC VIS 1 CIG 001V006 P0001
14837KMSN MSN20020604202013306/04/02 20:20:31  5-MIN KMSN 050220Z 32004KT 3/4SM -DZ BR OVC004 16/16 A2981 960 100 1400 320/04 RMK AO2 SFC VIS 1 CIG 001V006 P0001
14837KMSN MSN20020604202512106/04/02 20:25:31  5-MIN KMSN 050225Z 33004KT 1SM -DZ BR OVC004 16/16 A2981 960 100 1400 330/04 RMK AO2 CIG 001V006 P0001
14837KMSN MSN20020604203012106/04/02 20:30:31  5-MIN KMSN 050230Z 31005KT 1SM -DZ BR OVC004 16/16 A2981 960 100 1400 310/05 RMK AO2 CIG 001V007 P0001
14837KMSN MSN20020604203512106/04/02 20:35:31  5-MIN KMSN 050235Z 32005KT 1SM -DZ BR OVC002 16/16 A2982 960 100 1400 320/05 RMK AO2 CIG 001V005 P0001
14837KMSN MSN20020604204012106/04/02 20:40:31  5-MIN KMSN 050240Z 31005KT 1SM -DZ BR OVC002 16/16 A2982 960 100 1300 310/05 RMK AO2 CIG 001V006 P0001
14837KMSN MSN20020604204512106/04/02 20:45:31  5-MIN KMSN 050245Z 32005KT 1SM -DZ BR OVC002 16/16 A2982 950 100 1300 310/05 RMK AO2 CIG 001V005 P0001
14837KMSN MSN20020604205013806/04/02 20:50:31  5-MIN KMSN 050250Z 32006KT 1SM -DZ BR OVC002 16/16 A2982 950 100 1300 310/06 RMK AO2 SLP098 P0001 60002 T01610161 55003
14837KMSN MSN20020604205513506/04/02 20:55:31  5-MIN KMSN 050255Z 32007KT 1SM -DZ BR OVC002 16/16 A2982 960 100 1400 320/07 RMK AO2 SFC VIS 1 1/2 CIG 001V006 P0000
14837KMSN MSN20020604210013506/04/02 21:00:31  5-MIN KMSN 050300Z 34007KT 1SM -DZ BR OVC002 16/16 A2982 960 100 1400 340/07 RMK AO2 SFC VIS 1 1/2 CIG 001V006 P0000
14837KMSN MSN20020604210513506/04/02 21:05:31  5-MIN KMSN 050305Z 33005KT 1SM -DZ BR OVC002 16/16 A2982 950 100 1300 330/05 RMK AO2 SFC VIS 1 1/2 CIG 002V006 P0000
14837KMSN MSN20020604211013506/04/02 21:10:31  5-MIN KMSN 050310Z VRB06KT 1SM -DZ BR OVC002 16/16 A2983 950 100 1300 VRB/06 RMK AO2 SFC VIS 1 1/2 CIG 002V007 P0000
14837KMSN MSN20020604211511906/04/02 21:15:31  5-MIN KMSN 050315Z 33007KT 1SM -DZ BR OVC004 16/16 A2983 940 100 1300 330/07 RMK AO2 SFC VIS 2 P0000
14837KMSN MSN20020604212013506/04/02 21:20:31  5-MIN KMSN 050320Z 34005KT 1SM -DZ BR OVC004 16/16 A2983 950 100 1300 340/05 RMK AO2 SFC VIS 2 1/2 CIG 002V007 P0000
14837KMSN MSN20020604212513406/04/02 21:25:31  5-MIN KMSN 050325Z 35005KT 1SM -DZ BR OVC004 16/16 A2982 960 96 1300 350/05 RMK AO2 SFC VIS 2 1/2 CIG 002V008 P0000
14837KMSN MSN20020604213013106/04/02 21:30:31  5-MIN KMSN 050330Z 34005KT 1SM -DZ BR OVC004 16/16 A2982 960 100 1300 340/05 RMK AO2 SFC VIS 3 CIG 002V008 P0000
14837KMSN MSN20020604213511906/04/02 21:35:31  5-MIN KMSN 050335Z VRB06KT 1SM -DZ BR BKN004 16/16 A2983 950 100 1300 VRB/06 RMK AO2 SFC VIS 3 P0000
14837KMSN MSN20020604214011906/04/02 21:40:31  5-MIN KMSN 050340Z 32008KT 1SM -DZ BR BKN004 16/16 A2983 950 100 1300 320/08 RMK AO2 SFC VIS 3 P0000
14837KMSN MSN20020604214511906/04/02 21:45:31  5-MIN KMSN 050345Z 31007KT 1SM -DZ BR BKN004 16/16 A2983 950 100 1300 310/07 RMK AO2 SFC VIS 3 P0000
14837KMSN MSN20020604215015706/04/02 21:50:31  5-MIN KMSN 050350Z 32006KT 1SM BR BKN004 OVC034 16/16 A2983 950 100 1300 320/06 RMK AO2 SFC VIS 3 DZE50 CIG 002V007 SLP101 P0000 T01560156
14837KMSN MSN20020604215511506/04/02 21:55:31  5-MIN KMSN 050355Z VRB06KT 1SM BR BKN004 OVC034 16/15 A2983 950 96 1300 VRB/06 RMK AO2 SFC VIS 3
14837KMSN MSN20020604220011506/04/02 22:00:31  5-MIN KMSN 050400Z 33005KT 1SM BR BKN004 OVC034 16/15 A2984 940 96 1300 320/05 RMK AO2 SFC VIS 3
14837KMSN MSN20020604220509806/04/02 22:05:31  5-MIN KMSN 050405Z 33006KT 3SM BR OVC004 16/15 A2984 940 96 1300 330/06 RMK AO2
14837KMSN MSN20020604221009806/04/02 22:10:31  5-MIN KMSN 050410Z 32007KT 3SM BR OVC004 16/15 A2984 940 96 1300 320/07 RMK AO2
14837KMSN MSN20020604221509806/04/02 22:15:31  5-MIN KMSN 050415Z VRB06KT 3SM BR OVC004 16/15 A2984 940 96 1300 VRB/06 RMK AO2
14837KMSN MSN20020604222009806/04/02 22:20:31  5-MIN KMSN 050420Z 32007KT 3SM BR OVC004 16/15 A2985 930 96 1300 310/07 RMK AO2
14837KMSN MSN20020604222511506/04/02 22:25:31  5-MIN KMSN 050425Z 31007KT 280V340 3SM BR OVC004 15/15 A2985 930 100 1200 310/07 280V340 RMK AO2
14837KMSN MSN20020604223009806/04/02 22:30:31  5-MIN KMSN 050430Z 31005KT 3SM BR OVC004 16/15 A2986 920 96 1200 310/05 RMK AO2
14837KMSN MSN20020604223511106/04/02 22:35:31  5-MIN KMSN 050435Z 31006KT 3SM BR OVC004 15/15 A2986 920 100 1200 310/06 RMK AO2 CIG 003V008
14837KMSN MSN20020604224011706/04/02 22:40:31  5-MIN KMSN 050440Z 31007KT 3SM BR OVC004 15/15 A2986 920 100 1200 310/07 RMK AO2 CIG 003V010 P0001
14837KMSN MSN20020604224513806/04/02 22:45:31  5-MIN KMSN 050445Z 31008KT 2 1/2SM -DZ BR BKN006 OVC010 15/15 A2986 920 100 1200 310/08 RMK AO2 DZB41 CIG 003V008 P0001
14837KMSN MSN20020604225015406/04/02 22:50:31  5-MIN KMSN 050450Z 31008KT 1 1/2SM -DZ BR BKN006 OVC010 15/14 A2986 920 96 1200 310/08 RMK AO2 DZB41 CIG 003V009 SLP113 P0001 T01500144
14837KMSN MSN20020604225511906/04/02 22:55:31  5-MIN KMSN 050455Z 32008KT 1 1/2SM -DZ BR BKN006 OVC010 15/14 A2986 920 96 1200 320/08 RMK AO2 P0000
14837KMSN MSN20020604230012006/04/02 23:00:31  5-MIN KMSN 050500Z 31007KT 1 1/2SM -DZ BR BKN006 OVC009 14/14 A2986 920 100 1100 310/07 RMK AO2 P0000
14837KMSN MSN20020604230512506/04/02 23:05:31  5-MIN KMSN 050505Z 32009KT 1 1/2SM -DZ BR OVC006 14/14 A2986 920 100 1100 320/09 RMK AO2 CIG 004V010 P0000
14837KMSN MSN20020604231013406/04/02 23:10:31  5-MIN KMSN 050510Z 31009G14KT 5SM -DZ BR BKN006 OVC011 14/14 A2986 920 100 1100 310/09G14 RMK AO2 CIG 004V008 P0000
14837KMSN MSN20020604231512606/04/02 23:15:31  5-MIN KMSN 050515Z 32008KT 9SM BKN006 OVC013 14/14 A2987 910 96 1100 320/08 RMK AO2 DZE12 CIG 004V009 P0000
14837KMSN MSN20020604232012706/04/02 23:20:31  5-MIN KMSN 050520Z 32007KT 10SM BKN006 OVC013 14/14 A2987 910 96 1100 320/07 RMK AO2 DZE12 CIG 004V008 P0000
14837KMSN MSN20020604232511506/04/02 23:25:31  5-MIN KMSN 050525Z 32008KT 10SM BKN006 OVC014 14/14 A2987 910 96 1100 320/08 RMK AO2 DZE12 P0000
14837KMSN MSN20020604233011506/04/02 23:30:31  5-MIN KMSN 050530Z 31008KT 10SM BKN006 OVC014 14/14 A2987 910 96 1100 310/08 RMK AO2 DZE12 P0000
14837KMSN MSN20020604233511506/04/02 23:35:31  5-MIN KMSN 050535Z 31005KT 10SM BKN006 OVC014 14/13 A2988 910 96 1000 310/05 RMK AO2 DZE12 P0000
14837KMSN MSN20020604234011506/04/02 23:40:31  5-MIN KMSN 050540Z 33006KT 10SM BKN006 OVC014 14/13 A2988 900 96 1000 330/06 RMK AO2 DZE12 P0000
14837KMSN MSN20020604234511506/04/02 23:45:31  5-MIN KMSN 050545Z 32005KT 10SM BKN006 OVC014 14/13 A2988 900 96 1000 320/05 RMK AO2 DZE12 P0000
14837KMSN MSN20020604235016606/04/02 23:50:31  5-MIN KMSN 050550Z VRB04KT 10SM SCT011 OVC020 14/13 A2988 900 96 1000 VRB/04 RMK AO2 DZE12 SLP118 P0000 60003 T01390133 10167 20139 401720122 53009
14837KMSN MSN20020604235510306/04/02 23:55:31  5-MIN KMSN 050555Z 31005KT 10SM BKN011 OVC020 14/13 A2988 900 96 1000 310/05 RMK AO2
14837KMSN MSN20020605000010306/05/02 00:00:31  5-MIN KMSN 050600Z 32005KT 10SM BKN011 OVC020 14/13 A2988 900 96 1000 320/05 RMK AO2
14837KMSN MSN20020605000510306/05/02 00:05:31  5-MIN KMSN 050605Z 32007KT 10SM BKN011 OVC020 14/13 A2988 900 96 1000 320/07 RMK AO2
14837KMSN MSN20020605001009606/05/02 00:10:31  5-MIN KMSN 050610Z 31005KT 10SM OVC011 14/13 A2988 900 96 1000 310/05 RMK AO2
14837KMSN MSN20020605001509606/05/02 00:15:31  5-MIN KMSN 050615Z 32005KT 10SM OVC011 14/13 A2988 900 96 1000 320/05 RMK AO2
14837KMSN MSN20020605002009606/05/02 00:20:31  5-MIN KMSN 050620Z 30004KT 10SM OVC011 14/13 A2988 900 96 1000 300/04 RMK AO2
14837KMSN MSN20020605002509606/05/02 00:25:31  5-MIN KMSN 050625Z VRB03KT 10SM OVC011 14/13 A2988 900 96 1000 VRB/03 RMK AO2
14837KMSN MSN20020605003009606/05/02 00:30:31  5-MIN KMSN 050630Z 29004KT 10SM OVC011 14/13 A2988 900 96 1000 290/04 RMK AO2
14837KMSN MSN20020605003510806/05/02 00:35:31  5-MIN KMSN 050635Z VRB04KT 10SM OVC011 14/13 A2989 900 93 1000 VRB/04 RMK AO2 CIG 009V013
14837KMSN MSN20020605004010806/05/02 00:40:31  5-MIN KMSN 050640Z 29005KT 10SM OVC011 14/13 A2989 890 93 1000 290/05 RMK AO2 CIG 008V013
14837KMSN MSN20020605004510806/05/02 00:45:31  5-MIN KMSN 050645Z 28005KT 10SM OVC009 14/13 A2989 900 93 1000 280/05 RMK AO2 CIG 008V012
14837KMSN MSN20020605005011306/05/02 00:50:31  5-MIN KMSN 050650Z 29006KT 10SM OVC009 14/13 A2989 890 93 1000 290/06 RMK AO2 SLP121 T01390128
14837KMSN MSN20020605005509506/05/02 00:55:31  5-MIN KMSN 050655Z 29004KT 10SM OVC009 13/13 A2989 890 96 900 290/04 RMK AO2
14837KMSN MSN20020605010009506/05/02 01:00:31  5-MIN KMSN 050700Z 30005KT 10SM OVC009 13/13 A2989 890 96 900 290/05 RMK AO2
14837KMSN MSN20020605010509506/05/02 01:05:31  5-MIN KMSN 050705Z 30005KT 10SM OVC009 13/13 A2989 890 96 900 300/05 RMK AO2
14837KMSN MSN20020605011009506/05/02 01:10:31  5-MIN KMSN 050710Z 29006KT 10SM OVC009 13/13 A2989 900 96 900 290/06 RMK AO2
14837KMSN MSN20020605011509506/05/02 01:15:31  5-MIN KMSN 050715Z 31005KT 10SM OVC009 13/13 A2989 900 96 900 310/05 RMK AO2
14837KMSN MSN20020605012009606/05/02 01:20:31  5-MIN KMSN 050720Z 31006KT 10SM OVC009 13/13 A2988 900 96 1000 310/06 RMK AO2
14837KMSN MSN20020605012509506/05/02 01:25:31  5-MIN KMSN 050725Z 31006KT 10SM OVC009 13/13 A2988 900 96 900 310/06 RMK AO2
14837KMSN MSN20020605013009506/05/02 01:30:31  5-MIN KMSN 050730Z 31006KT 10SM OVC009 13/13 A2989 890 96 900 310/06 RMK AO2
14837KMSN MSN20020605013509506/05/02 01:35:31  5-MIN KMSN 050735Z 31009KT 10SM OVC009 13/13 A2989 890 96 900 310/09 RMK AO2
14837KMSN MSN20020605014009506/05/02 01:40:31  5-MIN KMSN 050740Z 31010KT 10SM OVC009 13/13 A2989 890 96 900 310/10 RMK AO2
14837KMSN MSN20020605014509506/05/02 01:45:31  5-MIN KMSN 050745Z 31007KT 10SM OVC009 13/13 A2989 890 96 900 310/07 RMK AO2
14837KMSN MSN20020605015011206/05/02 01:50:31  5-MIN KMSN 050750Z 32008KT 10SM OVC009 13/13 A2990 890 96 900 320/08 RMK AO2 SLP124 T01330128
14837KMSN MSN20020605015509506/05/02 01:55:31  5-MIN KMSN 050755Z 32008KT 10SM OVC007 13/13 A2989 890 96 900 310/08 RMK AO2
14837KMSN MSN20020605020009506/05/02 02:00:31  5-MIN KMSN 050800Z 32007KT 10SM OVC007 13/13 A2990 890 96 900 320/07 RMK AO2
14837KMSN MSN20020605020509506/05/02 02:05:31  5-MIN KMSN 050805Z 30005KT 10SM OVC007 13/13 A2991 880 96 900 300/05 RMK AO2
14837KMSN MSN20020605021009506/05/02 02:10:31  5-MIN KMSN 050810Z 32006KT 10SM OVC007 13/13 A2990 880 96 900 310/06 RMK AO2
14837KMSN MSN20020605021509406/05/02 02:15:31  5-MIN KMSN 050815Z VRB05KT 9SM OVC007 13/13 A2990 880 96 900 VRB/05 RMK AO2
14837KMSN MSN20020605022009406/05/02 02:20:31  5-MIN KMSN 050820Z 32006KT 9SM OVC007 13/12 A2990 880 93 900 320/06 RMK AO2
14837KMSN MSN20020605022509406/05/02 02:25:31  5-MIN KMSN 050825Z 32005KT 9SM OVC007 13/12 A2990 880 93 900 320/05 RMK AO2
14837KMSN MSN20020605023009406/05/02 02:30:31  5-MIN KMSN 050830Z 32007KT 9SM OVC007 13/12 A2991 880 93 900 320/07 RMK AO2
14837KMSN MSN20020605023509406/05/02 02:35:31  5-MIN KMSN 050835Z 30007KT 9SM OVC007 13/12 A2991 880 93 900 300/07 RMK AO2
14837KMSN MSN20020605024009406/05/02 02:40:31  5-MIN KMSN 050840Z 31005KT 9SM OVC007 13/12 A2991 870 93 900 310/05 RMK AO2
14837KMSN MSN20020605024509406/05/02 02:45:31  5-MIN KMSN 050845Z 31006KT 9SM OVC007 13/12 A2991 870 93 900 300/06 RMK AO2
14837KMSN MSN20020605025011706/05/02 02:50:31  5-MIN KMSN 050850Z 31005KT 9SM OVC007 13/12 A2991 870 93 900 310/05 RMK AO2 SLP128 T01330122 53019
14837KMSN MSN20020605025509406/05/02 02:55:31  5-MIN KMSN 050855Z VRB05KT 9SM OVC007 13/12 A2991 870 93 900 VRB/05 RMK AO2
14837KMSN MSN20020605030009406/05/02 03:00:31  5-MIN KMSN 050900Z VRB06KT 9SM OVC007 13/12 A2990 880 93 900 VRB/06 RMK AO2
14837KMSN MSN20020605030509406/05/02 03:05:31  5-MIN KMSN 050905Z 32005KT 9SM OVC007 13/12 A2990 880 93 900 320/05 RMK AO2
14837KMSN MSN20020605031011006/05/02 03:10:31  5-MIN KMSN 050910Z 31007KT 260V330 9SM OVC007 13/12 A2990 880 93 900 310/07 260V330 RMK AO2
14837KMSN MSN20020605031509406/05/02 03:15:31  5-MIN KMSN 050915Z 31006KT 9SM OVC007 13/12 A2990 880 93 900 310/06 RMK AO2
14837KMSN MSN20020605032009406/05/02 03:20:31  5-MIN KMSN 050920Z 32007KT 8SM OVC007 13/12 A2990 880 93 900 320/07 RMK AO2
14837KMSN MSN20020605032509406/05/02 03:25:31  5-MIN KMSN 050925Z 33007KT 8SM OVC007 13/12 A2990 880 96 900 330/07 RMK AO2
14837KMSN MSN20020605033009406/05/02 03:30:31  5-MIN KMSN 050930Z 32007KT 9SM OVC007 13/12 A2990 890 96 900 320/07 RMK AO2
14837KMSN MSN20020605033509406/05/02 03:35:31  5-MIN KMSN 050935Z 32008KT 9SM OVC007 13/12 A2989 890 96 900 320/08 RMK AO2
14837KMSN MSN20020605034009406/05/02 03:40:31  5-MIN KMSN 050940Z 33005KT 9SM OVC007 13/12 A2989 890 96 900 330/05 RMK AO2
14837KMSN MSN20020605034509406/05/02 03:45:31  5-MIN KMSN 050945Z 33005KT 9SM OVC007 13/12 A2989 890 96 900 330/05 RMK AO2
14837KMSN MSN20020605035011106/05/02 03:50:31  5-MIN KMSN 050950Z 32005KT 8SM OVC007 13/12 A2989 890 96 900 320/05 RMK AO2 SLP123 T01280122
14837KMSN MSN20020605035509406/05/02 03:55:31  5-MIN KMSN 050955Z 32006KT 8SM OVC007 13/12 A2989 890 96 900 320/06 RMK AO2
14837KMSN MSN20020605040009406/05/02 04:00:31  5-MIN KMSN 051000Z 32006KT 8SM OVC007 13/12 A2989 890 96 900 320/06 RMK AO2
14837KMSN MSN20020605040509406/05/02 04:05:31  5-MIN KMSN 051005Z 32005KT 8SM OVC005 13/12 A2990 880 96 900 320/05 RMK AO2
14837KMSN MSN20020605041009406/05/02 04:10:31  5-MIN KMSN 051010Z 31006KT 9SM OVC005 13/12 A2990 880 96 900 310/06 RMK AO2
14837KMSN MSN20020605041509406/05/02 04:15:31  5-MIN KMSN 051015Z 32007KT 8SM OVC005 13/12 A2990 880 96 900 320/07 RMK AO2
14837KMSN MSN20020605042010606/05/02 04:20:31  5-MIN KMSN 051020Z VRB06KT 9SM OVC005 13/12 A2990 880 96 900 VRB/06 RMK AO2 CIG 005V008
14837KMSN MSN20020605042511306/05/02 04:25:31  5-MIN KMSN 051025Z 33006KT 9SM BKN005 OVC010 13/12 A2991 870 96 900 330/06 RMK AO2 CIG 005V008
14837KMSN MSN20020605043011406/05/02 04:30:31  5-MIN KMSN 051030Z 32005KT 10SM BKN005 OVC010 13/12 A2991 870 96 800 320/05 RMK AO2 CIG 005V009
14837KMSN MSN20020605043510706/05/02 04:35:31  5-MIN KMSN 051035Z 32005KT 10SM OVC008 13/12 A2992 870 96 800 310/05 RMK AO2 CIG 005V010
14837KMSN MSN20020605044010206/05/02 04:40:31  5-MIN KMSN 051040Z 32005KT 10SM BKN006 OVC010 13/12 A2992 870 96 800 320/05 RMK AO2
14837KMSN MSN20020605044510706/05/02 04:45:31  5-MIN KMSN 051045Z 33005KT 10SM OVC006 13/12 A2992 870 96 800 330/05 RMK AO2 CIG 006V010
14837KMSN MSN20020605045012406/05/02 04:50:31  5-MIN KMSN 051050Z 31005KT 10SM OVC006 13/12 A2992 860 96 800 310/05 RMK AO2 CIG 006V010 SLP132 T01280122
14837KMSN MSN20020605045509506/05/02 04:55:31  5-MIN KMSN 051055Z 31005KT 10SM OVC006 13/12 A2992 860 96 800 310/05 RMK AO2
14837KMSN MSN20020605050009506/05/02 05:00:31  5-MIN KMSN 051100Z 31003KT 10SM OVC006 13/12 A2993 860 96 800 310/03 RMK AO2
14837KMSN MSN20020605050509506/05/02 05:05:31  5-MIN KMSN 051105Z 29004KT 10SM OVC006 13/12 A2993 850 96 800 290/04 RMK AO2
14837KMSN MSN20020605051010706/05/02 05:10:31  5-MIN KMSN 051110Z VRB06KT 10SM OVC006 13/12 A2993 850 96 800 VRB/06 RMK AO2 CIG 006V009
14837KMSN MSN20020605051510706/05/02 05:15:31  5-MIN KMSN 051115Z 31006KT 10SM OVC006 13/12 A2994 850 93 800 310/06 RMK AO2 CIG 006V012
14837KMSN MSN20020605052011406/05/02 05:20:31  5-MIN KMSN 051120Z 31005KT 10SM BKN008 OVC012 13/12 A2994 850 93 800 300/05 RMK AO2 CIG 006V011
14837KMSN MSN20020605052511406/05/02 05:25:31  5-MIN KMSN 051125Z VRB04KT 10SM BKN008 OVC012 13/12 A2994 850 93 800 VRB/04 RMK AO2 CIG 006V011
14837KMSN MSN20020605053011306/05/02 05:30:31  5-MIN KMSN 051130Z 29006KT 9SM BKN008 OVC012 13/12 A2994 840 93 800 290/06 RMK AO2 CIG 006V011
14837KMSN MSN20020605053511306/05/02 05:35:31  5-MIN KMSN 051135Z 31008KT 7SM BKN008 OVC012 13/12 A2995 840 93 800 310/08 RMK AO2 CIG 006V011
14837KMSN MSN20020605054011606/05/02 05:40:31  5-MIN KMSN 051140Z 31006KT 6SM BR BKN008 OVC013 13/12 A2995 840 93 800 310/06 RMK AO2 CIG 006V011
14837KMSN MSN20020605054511306/05/02 05:45:31  5-MIN KMSN 051145Z 31005KT 7SM BKN008 OVC013 13/12 A2995 840 93 800 310/05 RMK AO2 CIG 006V011
14837KMSN MSN20020605055015406/05/02 05:50:31  5-MIN KMSN 051150Z 31005KT 8SM BKN008 OVC013 13/12 A2995 840 93 800 310/05 RMK AO2 CIG 006V010 SLP141 70031 T01280117 10139 20128 53011
14837KMSN MSN20020605055511306/05/02 05:55:31  5-MIN KMSN 051155Z 32006KT 8SM BKN008 OVC015 13/12 A2995 830 93 800 310/06 RMK AO2 CIG 006V013
14837KMSN MSN20020605060010106/05/02 06:00:31  5-MIN KMSN 051200Z 32007KT 9SM SCT008 OVC017 13/12 A2995 830 93 800 320/07 RMK AO2
14837KMSN MSN20020605060510206/05/02 06:05:31  5-MIN KMSN 051205Z 31008KT 10SM FEW008 OVC017 13/12 A2996 830 93 800 310/08 RMK AO2
14837KMSN MSN20020605061010206/05/02 06:10:31  5-MIN KMSN 051210Z 32007KT 10SM SCT008 OVC017 13/12 A2996 830 93 800 320/07 RMK AO2
14837KMSN MSN20020605061510106/05/02 06:15:31  5-MIN KMSN 051215Z 33009KT 9SM SCT008 OVC017 13/12 A2996 830 93 800 320/09 RMK AO2
14837KMSN MSN20020605062010206/05/02 06:20:31  5-MIN KMSN 051220Z 33006KT 10SM FEW008 OVC019 13/12 A2996 830 93 800 330/06 RMK AO2
14837KMSN MSN20020605062510206/05/02 06:25:31  5-MIN KMSN 051225Z 32008KT 10SM SCT008 OVC019 12/12 A2996 830 96 700 320/08 RMK AO2
14837KMSN MSN20020605063010106/05/02 06:30:31  5-MIN KMSN 051230Z 31007KT 8SM BKN008 OVC019 12/12 A2996 830 96 700 310/07 RMK AO2
14837KMSN MSN20020605063511606/05/02 06:35:31  5-MIN KMSN 051235Z 32007KT 5SM BR BKN008 OVC019 12/12 A2996 830 96 700 310/07 RMK AO2 CIG 006V011
14837KMSN MSN20020605064016206/05/02 06:40:31  5-MIN KMSN 051240Z 31007KT 280V340 2 1/2SM -DZ BR BKN008 OVC019 12/12 A2996 830 96 700 310/07 280V340 RMK AO2 SFC VIS 3 DZB36 CIG 005V011 P0000
14837KMSN MSN20020605064514606/05/02 06:45:31  5-MIN KMSN 051245Z 33006KT 2 1/2SM -DZ BR BKN006 OVC019 12/12 A2996 830 96 700 330/06 RMK AO2 SFC VIS 3 DZB36 CIG 005V009 P0000
14837KMSN MSN20020605065015606/05/02 06:50:31  5-MIN KMSN 051250Z 32007KT 2 1/2SM -DZ BR OVC006 12/12 A2996 820 96 700 310/07 RMK AO2 SFC VIS 3 DZB36 CIG 005V009 SLP147 P0000 T01220117
14837KMSN MSN20020605065513306/05/02 06:55:31  5-MIN KMSN 051255Z 32004KT 2 1/2SM -DZ BR OVC006 12/12 A2997 820 96 700 320/04 RMK AO2 SFC VIS 5 CIG 005V009 P0000
14837KMSN MSN20020605070012106/05/02 07:00:31  5-MIN KMSN 051300Z 32005KT 2 1/2SM -DZ BR OVC006 12/12 A2997 820 96 700 320/05 RMK AO2 SFC VIS 3 P0000
14837KMSN MSN20020605070512306/05/02 07:05:31  5-MIN KMSN 051305Z 32006KT 2 1/2SM BR OVC006 12/12 A2997 820 96 700 310/06 RMK AO2 SFC VIS 3 DZE02 P0000
14837KMSN MSN20020605071012306/05/02 07:10:31  5-MIN KMSN 051310Z 31005KT 2 1/2SM BR OVC006 12/12 A2997 820 96 700 310/05 RMK AO2 SFC VIS 3 DZE02 P0000
14837KMSN MSN20020605071510706/05/02 07:15:31  5-MIN KMSN 051315Z 30006KT 10SM OVC006 12/12 A2997 820 96 700 300/06 RMK AO2 DZE02 P0000
14837KMSN MSN20020605072010706/05/02 07:20:31  5-MIN KMSN 051320Z 31005KT 10SM OVC006 12/12 A2997 820 96 700 300/05 RMK AO2 DZE02 P0000
14837KMSN MSN20020605072511906/05/02 07:25:31  5-MIN KMSN 051325Z VRB05KT 10SM OVC006 12/12 A2998 810 96 700 VRB/05 RMK AO2 DZE02 CIG 005V010 P0000
14837KMSN MSN20020605073011906/05/02 07:30:31  5-MIN KMSN 051330Z VRB05KT 10SM OVC006 12/12 A2998 810 96 700 VRB/05 RMK AO2 DZE02 CIG 005V010 P0000
14837KMSN MSN20020605073511906/05/02 07:35:31  5-MIN KMSN 051335Z 30005KT 10SM OVC006 12/12 A2998 810 96 700 290/05 RMK AO2 DZE02 CIG 005V010 P0000
14837KMSN MSN20020605074010706/05/02 07:40:31  5-MIN KMSN 051340Z 29007KT 10SM OVC006 12/11 A2998 810 93 700 290/07 RMK AO2 DZE02 P0000
14837KMSN MSN20020605074510706/05/02 07:45:31  5-MIN KMSN 051345Z 31007KT 10SM OVC006 12/11 A2998 810 93 700 310/07 RMK AO2 DZE02 P0000
14837KMSN MSN20020605075013106/05/02 07:50:31  5-MIN KMSN 051350Z 30006KT 10SM BKN006 OVC012 12/11 A2998 810 93 700 300/06 RMK AO2 DZE02 SLP154 P0000 T01220111
14837KMSN MSN20020605075510706/05/02 07:55:31  5-MIN KMSN 051355Z 32006KT 10SM OVC008 13/11 A2999 800 89 800 320/06 RMK AO2 CIG 005V011
14837KMSN MSN20020605080010706/05/02 08:00:31  5-MIN KMSN 051400Z 32008KT 10SM OVC008 13/11 A2999 800 89 800 320/08 RMK AO2 CIG 006V013
14837KMSN MSN20020605080511406/05/02 08:05:31  5-MIN KMSN 051405Z 32007KT 10SM BKN008 OVC015 13/11 A2999 800 89 800 320/07 RMK AO2 CIG 006V012
14837KMSN MSN20020605081011406/05/02 08:10:31  5-MIN KMSN 051410Z VRB05KT 10SM BKN008 OVC013 13/12 A2999 800 93 800 VRB/05 RMK AO2 CIG 007V011
14837KMSN MSN20020605081509506/05/02 08:15:31  5-MIN KMSN 051415Z 32005KT 10SM OVC011 13/11 A2999 800 89 800 320/05 RMK AO2
14837KMSN MSN20020605082009506/05/02 08:20:31  5-MIN KMSN 051420Z 32008KT 10SM OVC011 13/11 A2999 800 89 800 320/08 RMK AO2
14837KMSN MSN20020605082509506/05/02 08:25:31  5-MIN KMSN 051425Z 32008KT 10SM OVC011 13/11 A2999 800 89 800 320/08 RMK AO2
14837KMSN MSN20020605083009506/05/02 08:30:31  5-MIN KMSN 051430Z VRB06KT 10SM OVC011 13/11 A2999 800 89 800 VRB/06 RMK AO2
14837KMSN MSN20020605083509406/05/02 08:35:31  5-MIN KMSN 051435Z VRB05KT 8SM OVC013 13/11 A3000 790 86 800 VRB/05 RMK AO2
14837KMSN MSN20020605084009406/05/02 08:40:31  5-MIN KMSN 051440Z 32007KT 8SM OVC013 13/12 A3000 790 89 800 310/07 RMK AO2
14837KMSN MSN20020605084509506/05/02 08:45:31  5-MIN KMSN 051445Z 31006KT 10SM OVC013 13/11 A2999 800 86 800 310/06 RMK AO2
14837KMSN MSN20020605085013106/05/02 08:50:31  5-MIN KMSN 051450Z VRB06KT 10SM BKN013 OVC018 13/11 A2999 800 86 800 VRB/06 RMK AO2 SLP156 60000 T01330111 53013
14837KMSN MSN20020605085509506/05/02 08:55:31  5-MIN KMSN 051455Z 30006KT 10SM OVC015 13/11 A2999 800 86 800 300/06 RMK AO2
14837KMSN MSN20020605090009506/05/02 09:00:31  5-MIN KMSN 051500Z 30006KT 10SM OVC015 14/11 A3000 790 83 900 300/06 RMK AO2
14837KMSN MSN20020605090509506/05/02 09:05:31  5-MIN KMSN 051505Z 32007KT 10SM OVC015 13/11 A3000 790 86 800 320/07 RMK AO2
14837KMSN MSN20020605091009506/05/02 09:10:31  5-MIN KMSN 051510Z VRB05KT 10SM OVC015 14/12 A3000 790 86 900 VRB/05 RMK AO2
14837KMSN MSN20020605091509506/05/02 09:15:31  5-MIN KMSN 051515Z 34005KT 10SM OVC015 14/12 A3000 790 86 900 340/05 RMK AO2
14837KMSN MSN20020605092009506/05/02 09:20:31  5-MIN KMSN 051520Z 33005KT 10SM OVC015 14/11 A3000 790 83 900 330/05 RMK AO2
14837KMSN MSN20020605092509506/05/02 09:25:31  5-MIN KMSN 051525Z VRB05KT 10SM OVC015 14/12 A3000 790 86 900 VRB/05 RMK AO2
14837KMSN MSN20020605093009506/05/02 09:30:31  5-MIN KMSN 051530Z 33006KT 10SM OVC015 14/12 A3000 790 86 900 330/06 RMK AO2
14837KMSN MSN20020605093509506/05/02 09:35:31  5-MIN KMSN 051535Z 34005KT 10SM OVC013 14/11 A3000 790 83 900 340/05 RMK AO2
14837KMSN MSN20020605094009506/05/02 09:40:31  5-MIN KMSN 051540Z 34006KT 10SM OVC013 14/12 A2999 800 86 900 340/06 RMK AO2
14837KMSN MSN20020605094509506/05/02 09:45:31  5-MIN KMSN 051545Z 34006KT 10SM OVC013 14/12 A3000 790 86 900 340/06 RMK AO2
14837KMSN MSN20020605095011206/05/02 09:50:31  5-MIN KMSN 051550Z 33005KT 10SM OVC013 14/12 A3000 790 86 900 330/05 RMK AO2 SLP157 T01390117
14837KMSN MSN20020605095509506/05/02 09:55:31  5-MIN KMSN 051555Z VRB06KT 10SM OVC013 13/12 A3000 790 89 800 VRB/06 RMK AO2
14837KMSN MSN20020605100009506/05/02 10:00:31  5-MIN KMSN 051600Z VRB06KT 10SM OVC013 13/12 A3000 790 89 800 VRB/06 RMK AO2
14837KMSN MSN20020605100509506/05/02 10:05:31  5-MIN KMSN 051605Z 32007KT 10SM OVC011 13/12 A3001 790 89 800 310/07 RMK AO2
14837KMSN MSN20020605101010706/05/02 10:10:31  5-MIN KMSN 051610Z 32007KT 10SM OVC011 13/11 A3001 780 86 800 320/07 RMK AO2 CIG 009V016
14837KMSN MSN20020605101509506/05/02 10:15:31  5-MIN KMSN 051615Z 32007KT 10SM OVC009 13/12 A3001 780 89 800 320/07 RMK AO2
14837KMSN MSN20020605102009506/05/02 10:20:31  5-MIN KMSN 051620Z 35005KT 10SM OVC009 13/12 A3001 780 89 800 350/05 RMK AO2
14837KMSN MSN20020605102509506/05/02 10:25:31  5-MIN KMSN 051625Z 33005KT 10SM OVC009 13/12 A3001 780 89 800 330/05 RMK AO2
14837KMSN MSN20020605103009506/05/02 10:30:31  5-MIN KMSN 051630Z 36008KT 10SM OVC009 13/12 A3001 780 89 800 360/08 RMK AO2
14837KMSN MSN20020605103511106/05/02 10:35:31  5-MIN KMSN 051635Z 34007KT 310V010 10SM OVC009 13/12 A3001 780 89 800 340/07 310V010 RMK AO2
14837KMSN MSN20020605104011106/05/02 10:40:31  5-MIN KMSN 051640Z 33007KT 300V360 10SM OVC009 13/11 A3001 780 86 800 320/07 300V360 RMK AO2
14837KMSN MSN20020605104509506/05/02 10:45:31  5-MIN KMSN 051645Z VRB05KT 10SM OVC009 13/12 A3001 780 89 800 VRB/05 RMK AO2
14837KMSN MSN20020605105011206/05/02 10:50:31  5-MIN KMSN 051650Z 31006KT 10SM OVC009 13/11 A3001 780 89 700 310/06 RMK AO2 SLP163 T01280111
14837KMSN MSN20020605105509506/05/02 10:55:31  5-MIN KMSN 051655Z 35006KT 10SM OVC009 13/11 A3001 780 89 700 350/06 RMK AO2
14837KMSN MSN20020605110009506/05/02 11:00:31  5-MIN KMSN 051700Z 36006KT 10SM OVC009 13/11 A3001 780 89 700 360/06 RMK AO2
14837KMSN MSN20020605110509506/05/02 11:05:31  5-MIN KMSN 051705Z 36007KT 10SM OVC009 13/12 A3001 780 89 800 360/07 RMK AO2
14837KMSN MSN20020605111009506/05/02 11:10:31  5-MIN KMSN 051710Z 34008KT 10SM OVC009 13/11 A3002 780 86 800 340/08 RMK AO2
14837KMSN MSN20020605111510206/05/02 11:15:31  5-MIN KMSN 051715Z 36007KT 10SM BKN009 OVC013 13/11 A3002 780 86 800 360/07 RMK AO2
14837KMSN MSN20020605112009506/05/02 11:20:31  5-MIN KMSN 051720Z 36008KT 10SM OVC013 14/11 A3002 780 83 900 360/08 RMK AO2
14837KMSN MSN20020605112509506/05/02 11:25:31  5-MIN KMSN 051725Z 36008KT 10SM OVC013 13/11 A3001 780 86 800 360/08 RMK AO2
14837KMSN MSN20020605113009506/05/02 11:30:31  5-MIN KMSN 051730Z 35005KT 10SM OVC013 13/11 A3002 780 86 800 350/05 RMK AO2
14837KMSN MSN20020605113511006/05/02 11:35:31  5-MIN KMSN 051735Z 35008KT 310V030 9SM OVC013 14/11 A3002 770 83 900 350/08 310V030 RMK AO2
14837KMSN MSN20020605114009506/05/02 11:40:31  5-MIN KMSN 051740Z 35006KT 10SM OVC013 14/11 A3002 770 83 900 350/06 RMK AO2
14837KMSN MSN20020605114509506/05/02 11:45:31  5-MIN KMSN 051745Z 01007KT 10SM OVC013 14/12 A3002 770 83 900 360/07 RMK AO2
14837KMSN MSN20020605115013606/05/02 11:50:31  5-MIN KMSN 051750Z 02008KT 10SM OVC013 14/11 A3002 770 83 900 020/08 RMK AO2 SLP167 60000 T01390111 10144 20122 51014
14837KMSN MSN20020605115510106/05/02 11:55:31  5-MIN KMSN 051755Z VRB06KT 8SM BKN013 OVC018 14/12 A3002 770 83 900 VRB/06 RMK AO2
14837KMSN MSN20020605120009406/05/02 12:00:31  5-MIN KMSN 051800Z 35008KT 8SM OVC015 14/12 A3003 770 83 900 350/08 RMK AO2
14837KMSN MSN20020605120509406/05/02 12:05:31  5-MIN KMSN 051805Z 35007KT 8SM OVC015 14/11 A3003 770 83 900 350/07 RMK AO2
14837KMSN MSN20020605121009406/05/02 12:10:31  5-MIN KMSN 051810Z 35006KT 8SM OVC015 14/11 A3003 760 83 900 350/06 RMK AO2
14837KMSN MSN20020605121509506/05/02 12:15:31  5-MIN KMSN 051815Z 03008KT 10SM OVC015 14/11 A3003 770 80 900 030/08 RMK AO2
14837KMSN MSN20020605122009606/05/02 12:20:31  5-MIN KMSN 051820Z 34006KT 10SM OVC017 15/12 A3003 760 80 1000 340/06 RMK AO2
14837KMSN MSN20020605122509506/05/02 12:25:31  5-MIN KMSN 051825Z 01008KT 10SM OVC017 14/11 A3003 770 80 900 360/08 RMK AO2
14837KMSN MSN20020605123009506/05/02 12:30:31  5-MIN KMSN 051830Z VRB06KT 10SM OVC017 14/11 A3003 770 80 900 VRB/06 RMK AO2
14837KMSN MSN20020605123509606/05/02 12:35:31  5-MIN KMSN 051835Z 03007KT 10SM BKN017 15/11 A3003 770 77 1000 020/07 RMK AO2
14837KMSN MSN20020605124009606/05/02 12:40:31  5-MIN KMSN 051840Z 03010KT 10SM BKN017 15/11 A3002 770 77 1000 030/10 RMK AO2
14837KMSN MSN20020605124509606/05/02 12:45:31  5-MIN KMSN 051845Z 02006KT 10SM BKN017 15/11 A3002 770 77 1000 020/06 RMK AO2
14837KMSN MSN20020605125011306/05/02 12:50:31  5-MIN KMSN 051850Z 01008KT 10SM BKN017 16/11 A3003 760 74 1000 010/08 RMK AO2 SLP168 T01560111
14837KMSN MSN20020605125509606/05/02 12:55:31  5-MIN KMSN 051855Z 02007KT 10SM BKN020 15/11 A3003 770 77 1000 020/07 RMK AO2
14837KMSN MSN20020605130009606/05/02 13:00:31  5-MIN KMSN 051900Z 02007KT 10SM BKN020 16/12 A3003 760 75 1100 020/07 RMK AO2
14837KMSN MSN20020605130509606/05/02 13:05:31  5-MIN KMSN 051905Z 01008KT 10SM BKN020 16/12 A3003 760 75 1100 010/08 RMK AO2
14837KMSN MSN20020605131009606/05/02 13:10:31  5-MIN KMSN 051910Z 04009KT 10SM BKN020 16/12 A3003 770 75 1100 030/09 RMK AO2
14837KMSN MSN20020605131509606/05/02 13:15:31  5-MIN KMSN 051915Z 04007KT 10SM SCT020 16/12 A3003 760 75 1100 040/07 RMK AO2
14837KMSN MSN20020605132009606/05/02 13:20:31  5-MIN KMSN 051920Z 02008KT 10SM SCT020 16/12 A3003 760 75 1100 020/08 RMK AO2
14837KMSN MSN20020605132509606/05/02 13:25:31  5-MIN KMSN 051925Z 05009KT 10SM SCT020 16/11 A3003 760 74 1000 050/09 RMK AO2
14837KMSN MSN20020605133009606/05/02 13:30:31  5-MIN KMSN 051930Z 04007KT 10SM SCT020 16/11 A3003 760 74 1000 040/07 RMK AO2
14837KMSN MSN20020605133509606/05/02 13:35:31  5-MIN KMSN 051935Z 03008KT 10SM BKN020 16/11 A3002 770 72 1100 030/08 RMK AO2
14837KMSN MSN20020605134009606/05/02 13:40:31  5-MIN KMSN 051940Z 36009KT 10SM BKN020 16/11 A3003 770 72 1100 360/09 RMK AO2
14837KMSN MSN20020605134509606/05/02 13:45:31  5-MIN KMSN 051945Z 36007KT 10SM BKN020 16/12 A3002 770 75 1100 360/07 RMK AO2
14837KMSN MSN20020605135011306/05/02 13:50:31  5-MIN KMSN 051950Z 03009KT 10SM BKN020 17/12 A3002 770 72 1200 020/09 RMK AO2 SLP167 T01670117
14837KMSN MSN20020605135509606/05/02 13:55:31  5-MIN KMSN 051955Z VRB06KT 10SM BKN020 16/11 A3003 760 72 1100 VRB/06 RMK AO2
14837KMSN MSN20020605140009606/05/02 14:00:31  5-MIN KMSN 052000Z VRB06KT 10SM BKN020 16/12 A3003 770 75 1100 VRB/06 RMK AO2
14837KMSN MSN20020605140509606/05/02 14:05:31  5-MIN KMSN 052005Z 04006KT 10SM BKN020 16/12 A3002 770 75 1100 040/06 RMK AO2
14837KMSN MSN20020605141009606/05/02 14:10:31  5-MIN KMSN 052010Z 03007KT 10SM BKN020 16/12 A3002 770 75 1100 030/07 RMK AO2
14837KMSN MSN20020605141509606/05/02 14:15:31  5-MIN KMSN 052015Z 03008KT 10SM SCT020 16/12 A3002 770 75 1100 030/08 RMK AO2
14837KMSN MSN20020605142009606/05/02 14:20:31  5-MIN KMSN 052020Z 04007KT 10SM SCT020 17/12 A3002 780 72 1200 040/07 RMK AO2
14837KMSN MSN20020605142509606/05/02 14:25:31  5-MIN KMSN 052025Z 03005KT 10SM SCT020 17/12 A3002 770 72 1200 030/05 RMK AO2
14837KMSN MSN20020605143009606/05/02 14:30:31  5-MIN KMSN 052030Z 02005KT 10SM SCT020 17/12 A3002 770 72 1200 020/05 RMK AO2
14837KMSN MSN20020605143509606/05/02 14:35:31  5-MIN KMSN 052035Z 36003KT 10SM SCT020 17/12 A3002 770 72 1200 360/03 RMK AO2
14837KMSN MSN20020605144009606/05/02 14:40:31  5-MIN KMSN 052040Z 04006KT 10SM SCT020 17/12 A3002 770 72 1200 040/06 RMK AO2
14837KMSN MSN20020605144509606/05/02 14:45:31  5-MIN KMSN 052045Z 03007KT 10SM SCT020 17/12 A3002 770 72 1200 030/07 RMK AO2
14837KMSN MSN20020605145011906/05/02 14:50:31  5-MIN KMSN 052050Z 03004KT 10SM SCT020 17/11 A3002 780 69 1200 030/04 RMK AO2 SLP164 T01670111 53010
14837KMSN MSN20020605145509606/05/02 14:55:31  5-MIN KMSN 052055Z 03005KT 10SM SCT024 17/12 A3001 780 72 1200 020/05 RMK AO2
14837KMSN MSN20020605150009606/05/02 15:00:31  5-MIN KMSN 052100Z 02006KT 10SM SCT024 17/12 A3001 780 72 1300 020/06 RMK AO2
14837KMSN MSN20020605150509606/05/02 15:05:31  5-MIN KMSN 052105Z 03009KT 10SM SCT024 17/12 A3001 780 69 1300 030/09 RMK AO2
14837KMSN MSN20020605151009606/05/02 15:10:31  5-MIN KMSN 052110Z 04010KT 10SM SCT024 17/11 A3001 780 69 1200 040/10 RMK AO2
14837KMSN MSN20020605151509606/05/02 15:15:31  5-MIN KMSN 052115Z 04010KT 10SM FEW024 17/11 A3002 780 67 1200 040/10 RMK AO2
14837KMSN MSN20020605152009606/05/02 15:20:31  5-MIN KMSN 052120Z 05009KT 10SM FEW024 17/11 A3002 770 67 1200 040/09 RMK AO2
14837KMSN MSN20020605152509606/05/02 15:25:31  5-MIN KMSN 052125Z 03009KT 10SM FEW024 17/11 A3003 770 67 1200 030/09 RMK AO2
14837KMSN MSN20020605153009606/05/02 15:30:31  5-MIN KMSN 052130Z 04011KT 10SM FEW024 17/10 A3002 770 64 1200 030/11 RMK AO2
14837KMSN MSN20020605153509606/05/02 15:35:31  5-MIN KMSN 052135Z 04010KT 10SM FEW024 16/09 A3003 770 64 1100 040/10 RMK AO2
14837KMSN MSN20020605154009606/05/02 15:40:31  5-MIN KMSN 052140Z 04010KT 10SM FEW024 16/10 A3003 770 67 1100 030/10 RMK AO2
14837KMSN MSN20020605154509606/05/02 15:45:31  5-MIN KMSN 052145Z 04008KT 10SM FEW024 16/09 A3003 760 64 1100 030/08 RMK AO2
14837KMSN MSN20020605155011306/05/02 15:50:31  5-MIN KMSN 052150Z 05008KT 10SM FEW024 17/10 A3003 770 64 1200 050/08 RMK AO2 SLP168 T01670100
14837KMSN MSN20020605155509306/05/02 15:55:31  5-MIN KMSN 052155Z 04009KT 10SM CLR 17/10 A3003 760 64 1200 040/09 RMK AO2
14837KMSN MSN20020605160009306/05/02 16:00:31  5-MIN KMSN 052200Z 05010KT 10SM CLR 16/09 A3003 760 64 1100 050/10 RMK AO2
14837KMSN MSN20020605160509306/05/02 16:05:31  5-MIN KMSN 052205Z 05011KT 10SM CLR 16/09 A3003 760 64 1100 050/11 RMK AO2
14837KMSN MSN20020605161009306/05/02 16:10:31  5-MIN KMSN 052210Z 05008KT 10SM CLR 16/10 A3003 760 67 1100 050/08 RMK AO2
14837KMSN MSN20020605161509306/05/02 16:15:31  5-MIN KMSN 052215Z 05008KT 10SM CLR 16/10 A3004 760 67 1100 050/08 RMK AO2
14837KMSN MSN20020605162009306/05/02 16:20:31  5-MIN KMSN 052220Z 05009KT 10SM CLR 16/10 A3003 760 67 1100 050/09 RMK AO2
14837KMSN MSN20020605162509306/05/02 16:25:31  5-MIN KMSN 052225Z 05008KT 10SM CLR 16/11 A3003 760 69 1100 050/08 RMK AO2
14837KMSN MSN20020605163009306/05/02 16:30:31  5-MIN KMSN 052230Z 06009KT 10SM CLR 17/11 A3003 760 67 1200 050/09 RMK AO2
14837KMSN MSN20020605163509306/05/02 16:35:31  5-MIN KMSN 052235Z 05006KT 10SM CLR 17/11 A3003 770 67 1200 050/06 RMK AO2
14837KMSN MSN20020605164009306/05/02 16:40:31  5-MIN KMSN 052240Z 04008KT 10SM CLR 17/11 A3003 770 67 1200 030/08 RMK AO2
14837KMSN MSN20020605164509306/05/02 16:45:31  5-MIN KMSN 052245Z 04007KT 10SM CLR 16/11 A3002 770 69 1100 040/07 RMK AO2
14837KMSN MSN20020605165011006/05/02 16:50:31  5-MIN KMSN 052250Z 05007KT 10SM CLR 16/11 A3002 770 69 1100 050/07 RMK AO2 SLP167 T01610106
14837KMSN MSN20020605165509306/05/02 16:55:31  5-MIN KMSN 052255Z 05007KT 10SM CLR 16/11 A3002 770 69 1100 050/07 RMK AO2
14837KMSN MSN20020605170009306/05/02 17:00:31  5-MIN KMSN 052300Z 03006KT 10SM CLR 16/11 A3002 780 69 1100 030/06 RMK AO2
14837KMSN MSN20020605170509306/05/02 17:05:31  5-MIN KMSN 052305Z 05006KT 10SM CLR 16/11 A3002 780 69 1100 050/06 RMK AO2
14837KMSN MSN20020605171009306/05/02 17:10:31  5-MIN KMSN 052310Z 04004KT 10SM CLR 16/11 A3002 770 74 1100 040/04 RMK AO2
14837KMSN MSN20020605171509306/05/02 17:15:31  5-MIN KMSN 052315Z 04005KT 10SM CLR 16/11 A3002 770 74 1100 040/05 RMK AO2
14837KMSN MSN20020605172009306/05/02 17:20:31  5-MIN KMSN 052320Z 07004KT 10SM CLR 16/11 A3002 770 72 1100 070/04 RMK AO2
14837KMSN MSN20020605172509306/05/02 17:25:31  5-MIN KMSN 052325Z 07003KT 10SM CLR 16/11 A3003 760 72 1100 070/03 RMK AO2
14837KMSN MSN20020605173009306/05/02 17:30:31  5-MIN KMSN 052330Z 07004KT 10SM CLR 16/11 A3003 770 74 1000 070/04 RMK AO2
14837KMSN MSN20020605173509306/05/02 17:35:31  5-MIN KMSN 052335Z 07004KT 10SM CLR 16/11 A3003 770 74 1100 070/04 RMK AO2
14837KMSN MSN20020605174009306/05/02 17:40:31  5-MIN KMSN 052340Z 07004KT 10SM CLR 16/12 A3002 770 77 1100 070/04 RMK AO2
14837KMSN MSN20020605174509306/05/02 17:45:31  5-MIN KMSN 052345Z 07004KT 10SM CLR 16/12 A3003 770 77 1100 070/04 RMK AO2
14837KMSN MSN20020605175012806/05/02 17:50:31  5-MIN KMSN 052350Z 07004KT 10SM CLR 16/11 A3003 760 72 1100 070/04 RMK AO2 SLP169 T01610111 10172 20139 58003
14837KMSN MSN20020605175509306/05/02 17:55:31  5-MIN KMSN 052355Z 07004KT 10SM CLR 16/11 A3003 760 72 1100 070/04 RMK AO2
14837KMSN MSN20020605180009306/05/02 18:00:31  5-MIN KMSN 060000Z 07003KT 10SM CLR 16/11 A3003 760 72 1100 070/03 RMK AO2
14837KMSN MSN20020605180509306/05/02 18:05:31  5-MIN KMSN 060005Z 00000KT 10SM CLR 16/12 A3003 760 75 1100 000/00 RMK AO2
14837KMSN MSN20020605181009306/05/02 18:10:31  5-MIN KMSN 060010Z 06003KT 10SM CLR 16/11 A3003 760 72 1000 060/03 RMK AO2
14837KMSN MSN20020605181509306/05/02 18:15:31  5-MIN KMSN 060015Z 00000KT 10SM CLR 16/12 A3003 760 77 1000 000/00 RMK AO2
14837KMSN MSN20020605182009306/05/02 18:20:31  5-MIN KMSN 060020Z 00000KT 10SM CLR 16/12 A3004 760 77 1000 000/00 RMK AO2
14837KMSN MSN20020605182509306/05/02 18:25:31  5-MIN KMSN 060025Z 00000KT 10SM CLR 16/11 A3003 760 74 1000 000/00 RMK AO2
14837KMSN MSN20020605183009306/05/02 18:30:31  5-MIN KMSN 060030Z 00000KT 10SM CLR 16/11 A3003 760 74 1000 000/00 RMK AO2
14837KMSN MSN20020605183509306/05/02 18:35:31  5-MIN KMSN 060035Z 00000KT 10SM CLR 15/12 A3003 760 83 1000 000/00 RMK AO2
14837KMSN MSN20020605184009206/05/02 18:40:31  5-MIN KMSN 060040Z 00000KT 10SM CLR 14/12 A3003 760 90 800 000/00 RMK AO2
14837KMSN MSN20020605184509206/05/02 18:45:31  5-MIN KMSN 060045Z 00000KT 10SM CLR 14/12 A3003 760 86 900 000/00 RMK AO2
14837KMSN MSN20020605185010906/05/02 18:50:31  5-MIN KMSN 060050Z 00000KT 10SM CLR 14/12 A3004 750 83 900 000/00 RMK AO2 SLP173 T01440117
14837KMSN MSN20020605185509206/05/02 18:55:31  5-MIN KMSN 060055Z 00000KT 10SM CLR 13/12 A3004 760 93 800 000/00 RMK AO2
14837KMSN MSN20020605190009206/05/02 19:00:31  5-MIN KMSN 060100Z 00000KT 10SM CLR 13/12 A3004 760 93 800 000/00 RMK AO2
14837KMSN MSN20020605190509206/05/02 19:05:31  5-MIN KMSN 060105Z 00000KT 10SM CLR 13/12 A3004 760 89 800 000/00 RMK AO2
14837KMSN MSN20020605191009206/05/02 19:10:31  5-MIN KMSN 060110Z 00000KT 10SM CLR 13/12 A3004 760 89 800 000/00 RMK AO2
14837KMSN MSN20020605191509206/05/02 19:15:31  5-MIN KMSN 060115Z 00000KT 10SM CLR 14/12 A3004 760 86 800 000/00 RMK AO2
14837KMSN MSN20020605192009206/05/02 19:20:31  5-MIN KMSN 060120Z 00000KT 10SM CLR 13/12 A3003 760 89 800 000/00 RMK AO2
14837KMSN MSN20020605192509206/05/02 19:25:31  5-MIN KMSN 060125Z 00000KT 10SM CLR 13/12 A3004 760 93 700 000/00 RMK AO2
14837KMSN MSN20020605193009206/05/02 19:30:31  5-MIN KMSN 060130Z 00000KT 10SM CLR 13/12 A3004 760 96 700 000/00 RMK AO2
14837KMSN MSN20020605193509206/05/02 19:35:31  5-MIN KMSN 060135Z 00000KT 10SM CLR 13/12 A3004 760 89 800 000/00 RMK AO2
14837KMSN MSN20020605194009206/05/02 19:40:31  5-MIN KMSN 060140Z 00000KT 10SM CLR 13/12 A3004 760 93 800 000/00 RMK AO2
14837KMSN MSN20020605194509306/05/02 19:45:31  5-MIN KMSN 060145Z 00000KT 10SM CLR 12/12 A3004 760 100 600 000/00 RMK AO2
14837KMSN MSN20020605195010806/05/02 19:50:31  5-MIN KMSN 060150Z 00000KT 9SM CLR 12/12 A3004 760 96 600 000/00 RMK AO2 SLP173 T01220117
14837KMSN MSN20020605195509206/05/02 19:55:31  5-MIN KMSN 060155Z 00000KT 9SM CLR 12/12 A3004 760 100 600 000/00 RMK AO2
14837KMSN MSN20020605200009106/05/02 20:00:31  5-MIN KMSN 060200Z 26003KT 9SM CLR 12/12 A3004 760 96 600 260/03 RMK AO2
14837KMSN MSN20020605200509106/05/02 20:05:31  5-MIN KMSN 060205Z 00000KT 9SM CLR 12/12 A3004 760 96 600 000/00 RMK AO2
14837KMSN MSN20020605201009206/05/02 20:10:31  5-MIN KMSN 060210Z 00000KT 8SM CLR 12/12 A3004 760 100 600 000/00 RMK AO2
14837KMSN MSN20020605201509106/05/02 20:15:31  5-MIN KMSN 060215Z 00000KT 9SM CLR 12/11 A3004 760 96 600 000/00 RMK AO2
14837KMSN MSN20020605202009106/05/02 20:20:31  5-MIN KMSN 060220Z 00000KT 9SM CLR 12/11 A3004 760 96 600 000/00 RMK AO2
14837KMSN MSN20020605202509106/05/02 20:25:31  5-MIN KMSN 060225Z 00000KT 9SM CLR 12/12 A3004 750 96 600 000/00 RMK AO2
14837KMSN MSN20020605203009206/05/02 20:30:31  5-MIN KMSN 060230Z 29003KT 8SM CLR 11/11 A3005 750 100 500 290/03 RMK AO2
14837KMSN MSN20020605203509206/05/02 20:35:31  5-MIN KMSN 060235Z 27003KT 8SM CLR 11/11 A3005 750 100 400 270/03 RMK AO2
14837KMSN MSN20020605204009106/05/02 20:40:31  5-MIN KMSN 060240Z 29003KT 8SM CLR 11/11 A3005 750 96 500 290/03 RMK AO2
14837KMSN MSN20020605204509106/05/02 20:45:31  5-MIN KMSN 060245Z 00000KT 8SM CLR 11/11 A3005 740 96 500 000/00 RMK AO2
14837KMSN MSN20020605205011606/05/02 20:50:31  5-MIN KMSN 060250Z 00000KT 10SM CLR 11/11 A3005 740 100 500 000/00 RMK AO2 SLP178 T01110111 51005
14837KMSN MSN20020605205509206/05/02 20:55:31  5-MIN KMSN 060255Z 00000KT 8SM CLR 11/11 A3005 740 100 500 000/00 RMK AO2
14837KMSN MSN20020605210009106/05/02 21:00:31  5-MIN KMSN 060300Z 00000KT 8SM CLR 11/11 A3006 740 96 500 000/00 RMK AO2
14837KMSN MSN20020605210509206/05/02 21:05:31  5-MIN KMSN 060305Z 00000KT 8SM CLR 11/11 A3006 740 100 500 000/00 RMK AO2
14837KMSN MSN20020605211009206/05/02 21:10:31  5-MIN KMSN 060310Z 00000KT 8SM CLR 11/11 A3006 740 100 400 000/00 RMK AO2
14837KMSN MSN20020605211509206/05/02 21:15:31  5-MIN KMSN 060315Z 00000KT 7SM CLR 11/11 A3006 740 100 400 000/00 RMK AO2
14837KMSN MSN20020605212009206/05/02 21:20:31  5-MIN KMSN 060320Z 00000KT 7SM CLR 11/11 A3006 740 100 400 000/00 RMK AO2
14837KMSN MSN20020605212509206/05/02 21:25:31  5-MIN KMSN 060325Z 00000KT 7SM CLR 11/11 A3006 740 100 500 000/00 RMK AO2
14837KMSN MSN20020605213009106/05/02 21:30:31  5-MIN KMSN 060330Z 00000KT 9SM CLR 11/11 A3006 740 96 500 000/00 RMK AO2
14837KMSN MSN20020605213509506/05/02 21:35:31  5-MIN KMSN 060335Z 00000KT 6SM BR CLR 11/11 A3006 740 100 400 000/00 RMK AO2
14837KMSN MSN20020605214009506/05/02 21:40:31  5-MIN KMSN 060340Z 00000KT 4SM BR CLR 11/11 A3006 740 100 400 000/00 RMK AO2
14837KMSN MSN20020605214509506/05/02 21:45:31  5-MIN KMSN 060345Z 00000KT 5SM BR CLR 11/11 A3006 740 100 400 000/00 RMK AO2
14837KMSN MSN20020605215011206/05/02 21:50:31  5-MIN KMSN 060350Z 00000KT 3SM BR CLR 10/10 A3006 740 100 400 000/00 RMK AO2 SLP180 T01000100
14837KMSN MSN20020605215509706/05/02 21:55:31  5-MIN KMSN 060355Z 00000KT 7SM MIFG CLR 11/11 A3006 740 100 400 000/00 RMK AO2
14837KMSN MSN20020605220009706/05/02 22:00:31  5-MIN KMSN 060400Z 00000KT 7SM MIFG CLR 10/10 A3006 740 100 400 000/00 RMK AO2
14837KMSN MSN20020605220509706/05/02 22:05:31  5-MIN KMSN 060405Z 00000KT 7SM MIFG CLR 10/10 A3006 740 100 400 000/00 RMK AO2
14837KMSN MSN20020605221009706/05/02 22:10:31  5-MIN KMSN 060410Z 00000KT 7SM MIFG CLR 10/10 A3006 740 100 400 000/00 RMK AO2
14837KMSN MSN20020605221509706/05/02 22:15:31  5-MIN KMSN 060415Z 00000KT 7SM MIFG CLR 10/10 A3006 740 100 400 000/00 RMK AO2
14837KMSN MSN20020605222010006/05/02 22:20:31  5-MIN KMSN 060420Z 00000KT 3SM BCFG BR CLR 09/09 A3006 730 100 200 000/00 RMK AO2
14837KMSN MSN20020605222510006/05/02 22:25:31  5-MIN KMSN 060425Z 00000KT 3SM BCFG BR CLR 09/09 A3006 730 100 300 000/00 RMK AO2
14837KMSN MSN20020605223010006/05/02 22:30:31  5-MIN KMSN 060430Z 00000KT 3SM BCFG BR CLR 09/09 A3006 730 100 300 000/00 RMK AO2
14837KMSN MSN20020605223510006/05/02 22:35:31  5-MIN KMSN 060435Z 00000KT 4SM BCFG BR CLR 09/09 A3006 730 100 200 000/00 RMK AO2
14837KMSN MSN20020605224010006/05/02 22:40:31  5-MIN KMSN 060440Z 00000KT 4SM BCFG BR CLR 09/09 A3006 730 100 300 000/00 RMK AO2
14837KMSN MSN20020605224510306/05/02 22:45:31  5-MIN KMSN 060445Z 00000KT 4SM BCFG BR FEW001 09/09 A3006 730 100 300 000/00 RMK AO2
14837KMSN MSN20020605225012006/05/02 22:50:31  5-MIN KMSN 060450Z 00000KT 5SM BCFG BR FEW001 09/09 A3007 730 100 300 000/00 RMK AO2 SLP184 T00940094
14837KMSN MSN20020605225510006/05/02 22:55:31  5-MIN KMSN 060455Z 00000KT 6SM BCFG BR CLR 09/09 A3007 730 100 200 000/00 RMK AO2
14837KMSN MSN20020605230010006/05/02 23:00:31  5-MIN KMSN 060500Z 00000KT 6SM BCFG BR CLR 09/09 A3007 730 100 300 000/00 RMK AO2
14837KMSN MSN20020605230510006/05/02 23:05:31  5-MIN KMSN 060505Z 00000KT 6SM BCFG BR CLR 10/10 A3007 730 100 300 000/00 RMK AO2
14837KMSN MSN20020605231010006/05/02 23:10:31  5-MIN KMSN 060510Z 00000KT 6SM BCFG BR CLR 09/09 A3007 730 100 300 000/00 RMK AO2
14837KMSN MSN20020605231510006/05/02 23:15:31  5-MIN KMSN 060515Z 00000KT 6SM BCFG BR CLR 09/09 A3007 730 100 300 000/00 RMK AO2
14837KMSN MSN20020605232010006/05/02 23:20:31  5-MIN KMSN 060520Z 00000KT 6SM BCFG BR CLR 09/09 A3007 730 100 300 000/00 RMK AO2
14837KMSN MSN20020605232510006/05/02 23:25:31  5-MIN KMSN 060525Z 00000KT 6SM BCFG BR CLR 09/09 A3007 730 100 200 000/00 RMK AO2
14837KMSN MSN20020605233010006/05/02 23:30:31  5-MIN KMSN 060530Z 00000KT 6SM BCFG BR CLR 09/09 A3007 730 100 200 000/00 RMK AO2
14837KMSN MSN20020605233510006/05/02 23:35:31  5-MIN KMSN 060535Z 00000KT 6SM BCFG BR CLR 09/09 A3007 730 100 300 000/00 RMK AO2
14837KMSN MSN20020605234010306/05/02 23:40:31  5-MIN KMSN 060540Z 00000KT 6SM BCFG BR FEW001 09/09 A3007 720 100 200 000/00 RMK AO2
14837KMSN MSN20020605234510006/05/02 23:45:31  5-MIN KMSN 060545Z 00000KT 1/2SM FG FEW001 08/08 A3007 720 100 100 000/00 RMK AO2
14837KMSN MSN20020605235014706/05/02 23:50:31  5-MIN KMSN 060550Z 00000KT 1 1/4SM BR FEW001 08/08 A3007 730 100 100 000/00 RMK AO2 SLP185 T00830083 10161 20083 401720083 53007
14837KMSN MSN20020605235510006/05/02 23:55:31  5-MIN KMSN 060555Z 00000KT 1SM BCFG FEW001 08/08 A3007 730 100 100 000/00 RMK AO2
14837KMSN MSN20020606000010006/06/02 00:00:31  5-MIN KMSN 060600Z 00000KT 1SM BCFG FEW001 08/08 A3007 730 100 100 000/00 RMK AO2
14837KMSN MSN20020606000510006/06/02 00:05:31  5-MIN KMSN 060605Z 00000KT 1SM BCFG FEW001 09/09 A3007 730 100 200 000/00 RMK AO2
14837KMSN MSN20020606001010006/06/02 00:10:31  5-MIN KMSN 060610Z 00000KT 1SM BCFG FEW001 08/08 A3006 730 100 100 000/00 RMK AO2
14837KMSN MSN20020606001510706/06/02 00:15:31  5-MIN KMSN 060615Z 00000KT 1/2SM FG SCT001 OVC009 08/08 A3006 730 100 100 000/00 RMK AO2
14837KMSN MSN20020606002010706/06/02 00:20:31  5-MIN KMSN 060620Z 00000KT 1/2SM FG SCT001 OVC009 08/08 A3006 730 100 100 000/00 RMK AO2
14837KMSN MSN20020606002510706/06/02 00:25:31  5-MIN KMSN 060625Z 00000KT 1/2SM FG SCT001 OVC009 08/08 A3006 730 100 100 000/00 RMK AO2
14837KMSN MSN20020606003010706/06/02 00:30:31  5-MIN KMSN 060630Z 00000KT 1/2SM FG SCT001 OVC009 08/08 A3007 730 100 100 000/00 RMK AO2
14837KMSN MSN20020606003510506/06/02 00:35:31  5-MIN KMSN 060635Z 00000KT 1/2SM FG SCT001 OVC009 07/07 A3006 730 100 0 000/00 RMK AO2
14837KMSN MSN20020606004010506/06/02 00:40:31  5-MIN KMSN 060640Z 00000KT 1/2SM FG SCT001 OVC009 07/07 A3006 730 100 0 000/00 RMK AO2
14837KMSN MSN20020606004510706/06/02 00:45:31  5-MIN KMSN 060645Z 00000KT 1/2SM FG SCT001 OVC009 08/08 A3006 730 100 100 000/00 RMK AO2
14837KMSN MSN20020606005011706/06/02 00:50:31  5-MIN KMSN 060650Z 00000KT 1/2SM FG FEW001 08/08 A3006 730 100 100 000/00 RMK AO2 SLP182 T00780078
14837KMSN MSN20020606005509906/06/02 00:55:31  5-MIN KMSN 060655Z 00000KT 1/2SM FG VV001 08/08 A3006 730 100 100 000/00 RMK AO2
14837KMSN MSN20020606010010006/06/02 01:00:31  5-MIN KMSN 060700Z 00000KT 1/2SM FG FEW001 08/08 A3006 730 100 100 000/00 RMK AO2
14837KMSN MSN20020606010509806/06/02 01:05:31  5-MIN KMSN 060705Z 00000KT 1/2SM FG FEW001 07/07 A3006 730 100 0 000/00 RMK AO2
14837KMSN MSN20020606011010006/06/02 01:10:31  5-MIN KMSN 060710Z 00000KT 1/2SM FG FEW001 08/08 A3007 730 100 100 000/00 RMK AO2
14837KMSN MSN20020606011510006/06/02 01:15:31  5-MIN KMSN 060715Z 00000KT 1/2SM FG FEW001 08/08 A3007 730 100 100 000/00 RMK AO2
14837KMSN MSN20020606012010006/06/02 01:20:31  5-MIN KMSN 060720Z 00000KT 1/2SM FG FEW001 08/08 A3007 730 100 100 000/00 RMK AO2
14837KMSN MSN20020606012509806/06/02 01:25:31  5-MIN KMSN 060725Z 00000KT 1/2SM FG FEW001 07/07 A3007 730 100 0 000/00 RMK AO2
14837KMSN MSN20020606013009806/06/02 01:30:31  5-MIN KMSN 060730Z 00000KT 1/2SM FG FEW001 07/07 A3007 730 100 0 000/00 RMK AO2
14837KMSN MSN20020606013509806/06/02 01:35:31  5-MIN KMSN 060735Z 00000KT 1/2SM FG FEW001 07/07 A3007 730 100 0 000/00 RMK AO2
14837KMSN MSN20020606014009806/06/02 01:40:31  5-MIN KMSN 060740Z 00000KT 1/2SM FG FEW001 07/07 A3007 730 100 0 000/00 RMK AO2
14837KMSN MSN20020606014509806/06/02 01:45:31  5-MIN KMSN 060745Z 00000KT 1/2SM FG FEW001 07/07 A3007 730 100 0 000/00 RMK AO2
14837KMSN MSN20020606015012206/06/02 01:50:31  5-MIN KMSN 060750Z 00000KT 1/2SM FG FEW001 SCT009 07/07 A3007 730 100 0 000/00 RMK AO2 SLP183 T00720072
14837KMSN MSN20020606015510506/06/02 01:55:31  5-MIN KMSN 060755Z 00000KT 1/2SM FG FEW001 SCT009 07/07 A3007 730 100 0 000/00 RMK AO2
14837KMSN MSN20020606020010506/06/02 02:00:31  5-MIN KMSN 060800Z 00000KT 1/2SM FG FEW001 SCT009 07/07 A3007 730 100 0 000/00 RMK AO2
14837KMSN MSN20020606020510506/06/02 02:05:31  5-MIN KMSN 060805Z 00000KT 1/2SM FG FEW001 SCT009 07/07 A3006 730 100 0 000/00 RMK AO2
14837KMSN MSN20020606021010506/06/02 02:10:31  5-MIN KMSN 060810Z 00000KT 1/2SM FG FEW001 SCT009 07/07 A3006 730 100 0 000/00 RMK AO2
14837KMSN MSN20020606021511106/06/02 02:15:31  5-MIN KMSN 060815Z 00000KT 1/2SM FG FEW001 SCT009 07/07 A3006 740 100 0 000/00 RMK AO2 P0001
14837KMSN MSN20020606022011106/06/02 02:20:31  5-MIN KMSN 060820Z 32003KT 1/2SM FG FEW001 SCT009 07/07 A3006 740 100 0 320/03 RMK AO2 P0001
14837KMSN MSN20020606022511106/06/02 02:25:31  5-MIN KMSN 060825Z 00000KT 1/2SM FG FEW001 SCT009 07/07 A3006 740 100 0 000/00 RMK AO2 P0001
14837KMSN MSN20020606023009706/06/02 02:30:31  5-MIN KMSN 060830Z 00000KT 4SM BCFG CLR 08/08 A3006 740 100 100 000/00 RMK AO2
14837KMSN MSN20020606023509706/06/02 02:35:31  5-MIN KMSN 060835Z 00000KT 4SM BCFG CLR 08/08 A3006 740 100 100 000/00 RMK AO2
14837KMSN MSN20020606024009706/06/02 02:40:31  5-MIN KMSN 060840Z 00000KT 4SM BCFG CLR 08/08 A3006 740 100 100 000/00 RMK AO2
14837KMSN MSN20020606024509706/06/02 02:45:31  5-MIN KMSN 060845Z 00000KT 4SM BCFG CLR 08/08 A3006 740 100 100 000/00 RMK AO2
14837KMSN MSN20020606025012006/06/02 02:50:31  5-MIN KMSN 060850Z 00000KT 4SM BCFG CLR 08/08 A3006 740 100 100 000/00 RMK AO2 SLP179 T00780078 51006
14837KMSN MSN20020606025509706/06/02 02:55:31  5-MIN KMSN 060855Z 00000KT 4SM BCFG CLR 08/08 A3006 740 100 100 000/00 RMK AO2
14837KMSN MSN20020606030009506/06/02 03:00:31  5-MIN KMSN 060900Z 00000KT 4SM BCFG CLR 07/07 A3006 740 100 0 000/00 RMK AO2
14837KMSN MSN20020606030509506/06/02 03:05:31  5-MIN KMSN 060905Z 00000KT 4SM BCFG CLR 07/07 A3005 740 100 0 000/00 RMK AO2
14837KMSN MSN20020606031009506/06/02 03:10:31  5-MIN KMSN 060910Z 00000KT 4SM BCFG CLR 07/07 A3006 740 100 0 000/00 RMK AO2
14837KMSN MSN20020606031509506/06/02 03:15:31  5-MIN KMSN 060915Z 00000KT 3SM BCFG CLR 07/07 A3006 740 100 0 000/00 RMK AO2
14837KMSN MSN20020606032009506/06/02 03:20:31  5-MIN KMSN 060920Z 00000KT 3SM BCFG CLR 07/07 A3006 740 100 0 000/00 RMK AO2
14837KMSN MSN20020606032509506/06/02 03:25:31  5-MIN KMSN 060925Z 00000KT 3SM BCFG CLR 07/07 A3006 740 100 0 000/00 RMK AO2
14837KMSN MSN20020606033009506/06/02 03:30:31  5-MIN KMSN 060930Z 31003KT 1/2SM FG CLR 07/07 A3005 740 100 0 310/03 RMK AO2
14837KMSN MSN20020606033509506/06/02 03:35:31  5-MIN KMSN 060935Z 31003KT 1/2SM FG CLR 07/07 A3005 740 100 0 310/03 RMK AO2
14837KMSN MSN20020606034009506/06/02 03:40:31  5-MIN KMSN 060940Z 00000KT 1/2SM FG CLR 07/07 A3005 740 100 0 000/00 RMK AO2
14837KMSN MSN20020606034509506/06/02 03:45:31  5-MIN KMSN 060945Z 31003KT 1/2SM FG CLR 07/07 A3005 740 100 0 310/03 RMK AO2
14837KMSN MSN20020606035011206/06/02 03:50:31  5-MIN KMSN 060950Z 00000KT 3SM BCFG CLR 07/07 A3005 740 100 0 000/00 RMK AO2 SLP178 T00720072
14837KMSN MSN20020606035509506/06/02 03:55:31  5-MIN KMSN 060955Z 00000KT 3SM BCFG CLR 07/07 A3005 740 100 0 000/00 RMK AO2
14837KMSN MSN20020606040009506/06/02 04:00:31  5-MIN KMSN 061000Z 00000KT 3SM BCFG CLR 07/07 A3005 740 100 0 000/00 RMK AO2
14837KMSN MSN20020606040509506/06/02 04:05:31  5-MIN KMSN 061005Z 00000KT 3SM BCFG CLR 07/07 A3005 740 100 0 000/00 RMK AO2
14837KMSN MSN20020606041009506/06/02 04:10:31  5-MIN KMSN 061010Z 00000KT 3SM BCFG CLR 07/07 A3006 740 100 0 000/00 RMK AO2
14837KMSN MSN20020606041509506/06/02 04:15:31  5-MIN KMSN 061015Z 00000KT 3SM BCFG CLR 07/07 A3006 740 100 0 000/00 RMK AO2
14837KMSN MSN20020606042009506/06/02 04:20:31  5-MIN KMSN 061020Z 00000KT 3SM BCFG CLR 07/07 A3006 740 100 0 000/00 RMK AO2
14837KMSN MSN20020606042509806/06/02 04:25:31  5-MIN KMSN 061025Z 00000KT 3SM BCFG CLR 06/06 A3006 740 100 -100 000/00 RMK AO2
14837KMSN MSN20020606043009506/06/02 04:30:31  5-MIN KMSN 061030Z 00000KT 3SM BCFG CLR 07/07 A3006 730 100 0 000/00 RMK AO2
14837KMSN MSN20020606043509506/06/02 04:35:31  5-MIN KMSN 061035Z 00000KT 3SM BCFG CLR 07/07 A3006 730 100 0 000/00 RMK AO2
14837KMSN MSN20020606044009506/06/02 04:40:31  5-MIN KMSN 061040Z 00000KT 3SM BCFG CLR 07/07 A3006 730 100 0 000/00 RMK AO2
14837KMSN MSN20020606044509506/06/02 04:45:31  5-MIN KMSN 061045Z 00000KT 3SM BCFG CLR 07/07 A3007 730 100 0 000/00 RMK AO2
14837KMSN MSN20020606045011206/06/02 04:50:31  5-MIN KMSN 061050Z 00000KT 5SM BCFG CLR 07/07 A3007 720 100 0 000/00 RMK AO2 SLP185 T00720072
14837KMSN MSN20020606045509706/06/02 04:55:31  5-MIN KMSN 061055Z 00000KT 5SM BCFG CLR 08/08 A3007 720 100 100 000/00 RMK AO2
14837KMSN MSN20020606050009706/06/02 05:00:31  5-MIN KMSN 061100Z 00000KT 5SM BCFG CLR 08/08 A3008 720 100 100 000/00 RMK AO2
14837KMSN MSN20020606050509506/06/02 05:05:31  5-MIN KMSN 061105Z 00000KT 5SM BCFG CLR 07/07 A3008 720 100 0 000/00 RMK AO2
14837KMSN MSN20020606051009506/06/02 05:10:31  5-MIN KMSN 061110Z 00000KT 5SM BCFG CLR 07/07 A3008 720 100 0 000/00 RMK AO2
14837KMSN MSN20020606051509506/06/02 05:15:31  5-MIN KMSN 061115Z 00000KT 5SM BCFG CLR 07/07 A3008 720 100 0 000/00 RMK AO2
14837KMSN MSN20020606052009606/06/02 05:20:31  5-MIN KMSN 061120Z 00000KT 5SM BCFG CLR 08/07 A3008 710 96 100 000/00 RMK AO2
14837KMSN MSN20020606052509406/06/02 05:25:31  5-MIN KMSN 061125Z 00000KT 6SM BR CLR 08/07 A3008 710 96 100 000/00 RMK AO2
14837KMSN MSN20020606053009206/06/02 05:30:31  5-MIN KMSN 061130Z 00000KT 7SM CLR 08/08 A3009 710 100 100 000/00 RMK AO2
14837KMSN MSN20020606053509106/06/02 05:35:31  5-MIN KMSN 061135Z 00000KT 7SM CLR 08/08 A3009 710 96 100 000/00 RMK AO2
14837KMSN MSN20020606054009106/06/02 05:40:31  5-MIN KMSN 061140Z 00000KT 7SM CLR 08/08 A3009 710 96 100 000/00 RMK AO2
14837KMSN MSN20020606054509506/06/02 05:45:31  5-MIN KMSN 061145Z 00000KT 6SM BR CLR 08/08 A3009 710 100 100 000/00 RMK AO2
14837KMSN MSN20020606055012906/06/02 05:50:31  5-MIN KMSN 061150Z 00000KT 6SM BR CLR 09/08 A3009 710 96 200 000/00 RMK AO2 SLP192 T00890083 10089 20061 58004
14837KMSN MSN20020606055509506/06/02 05:55:31  5-MIN KMSN 061155Z 00000KT 6SM BR CLR 09/09 A3009 700 100 200 000/00 RMK AO2
14837KMSN MSN20020606060009406/06/02 06:00:31  5-MIN KMSN 061200Z 00000KT 6SM BR CLR 09/09 A3009 700 96 200 000/00 RMK AO2
14837KMSN MSN20020606060509406/06/02 06:05:31  5-MIN KMSN 061205Z 00000KT 6SM BR CLR 09/09 A3009 710 96 200 000/00 RMK AO2
14837KMSN MSN20020606061009506/06/02 06:10:31  5-MIN KMSN 061210Z 00000KT 6SM BR CLR 09/09 A3009 700 100 200 000/00 RMK AO2
14837KMSN MSN20020606061509406/06/02 06:15:31  5-MIN KMSN 061215Z 00000KT 6SM BR CLR 10/09 A3010 700 96 300 000/00 RMK AO2
14837KMSN MSN20020606062009406/06/02 06:20:31  5-MIN KMSN 061220Z 00000KT 6SM BR CLR 10/09 A3010 700 96 300 000/00 RMK AO2
14837KMSN MSN20020606062509406/06/02 06:25:31  5-MIN KMSN 061225Z 00000KT 5SM BR CLR 11/09 A3010 700 93 400 000/00 RMK AO2
14837KMSN MSN20020606063009406/06/02 06:30:31  5-MIN KMSN 061230Z 00000KT 6SM BR CLR 11/09 A3010 700 93 400 000/00 RMK AO2
14837KMSN MSN20020606063509106/06/02 06:35:31  5-MIN KMSN 061235Z 00000KT 7SM CLR 11/09 A3010 700 89 400 000/00 RMK AO2
14837KMSN MSN20020606064009106/06/02 06:40:31  5-MIN KMSN 061240Z 00000KT 7SM CLR 12/09 A3010 700 86 500 000/00 RMK AO2
14837KMSN MSN20020606064509106/06/02 06:45:31  5-MIN KMSN 061245Z 00000KT 7SM CLR 12/09 A3010 700 86 500 000/00 RMK AO2
14837KMSN MSN20020606065010806/06/02 06:50:31  5-MIN KMSN 061250Z 15003KT 7SM CLR 12/09 A3010 700 86 500 150/03 RMK AO2 SLP193 T01170094
14837KMSN MSN20020606065509106/06/02 06:55:31  5-MIN KMSN 061255Z 00000KT 7SM CLR 12/09 A3010 700 83 600 000/00 RMK AO2
14837KMSN MSN20020606070009106/06/02 07:00:31  5-MIN KMSN 061300Z VRB03KT 7SM CLR 12/10 A3010 700 86 600 VRB/03 RMK AO2
14837KMSN MSN20020606070509206/06/02 07:05:31  5-MIN KMSN 061305Z 14004KT 10SM CLR 12/09 A3010 700 83 600 140/04 RMK AO2
14837KMSN MSN20020606071009206/06/02 07:10:31  5-MIN KMSN 061310Z 14004KT 10SM CLR 13/10 A3010 700 83 600 140/04 RMK AO2
14837KMSN MSN20020606071509206/06/02 07:15:31  5-MIN KMSN 061315Z 12004KT 10SM CLR 13/10 A3010 700 83 600 120/04 RMK AO2
14837KMSN MSN20020606072009206/06/02 07:20:31  5-MIN KMSN 061320Z 12004KT 10SM CLR 13/10 A3010 700 83 600 120/04 RMK AO2
14837KMSN MSN20020606072509206/06/02 07:25:31  5-MIN KMSN 061325Z 11005KT 10SM CLR 13/10 A3010 700 83 600 110/05 RMK AO2
14837KMSN MSN20020606073009206/06/02 07:30:31  5-MIN KMSN 061330Z 12003KT 10SM CLR 13/10 A3010 700 83 600 120/03 RMK AO2
14837KMSN MSN20020606073509206/06/02 07:35:31  5-MIN KMSN 061335Z 13003KT 10SM CLR 13/10 A3010 700 80 700 130/03 RMK AO2
14837KMSN MSN20020606074009206/06/02 07:40:31  5-MIN KMSN 061340Z VRB03KT 10SM CLR 13/10 A3009 710 80 700 VRB/03 RMK AO2
14837KMSN MSN20020606074509206/06/02 07:45:31  5-MIN KMSN 061345Z 14004KT 10SM CLR 13/11 A3009 710 83 700 140/04 RMK AO2
14837KMSN MSN20020606075010906/06/02 07:50:31  5-MIN KMSN 061350Z 13004KT 10SM CLR 13/10 A3009 700 80 700 130/04 RMK AO2 SLP192 T01330100
14837KMSN MSN20020606075509106/06/02 07:55:31  5-MIN KMSN 061355Z 00000KT 8SM CLR 14/11 A3009 710 80 800 000/00 RMK AO2
14837KMSN MSN20020606080009106/06/02 08:00:31  5-MIN KMSN 061400Z 10003KT 8SM CLR 14/11 A3009 710 77 800 100/03 RMK AO2
14837KMSN MSN20020606080509106/06/02 08:05:31  5-MIN KMSN 061405Z 00000KT 8SM CLR 14/11 A3009 700 80 800 000/00 RMK AO2
14837KMSN MSN20020606081009206/06/02 08:10:31  5-MIN KMSN 061410Z 00000KT 10SM CLR 14/10 A3009 700 74 800 000/00 RMK AO2
14837KMSN MSN20020606081509206/06/02 08:15:31  5-MIN KMSN 061415Z 00000KT 10SM CLR 14/10 A3009 710 74 800 000/00 RMK AO2
14837KMSN MSN20020606082009206/06/02 08:20:31  5-MIN KMSN 061420Z VRB03KT 10SM CLR 14/11 A3009 710 77 800 VRB/03 RMK AO2
14837KMSN MSN20020606082509306/06/02 08:25:31  5-MIN KMSN 061425Z 13004KT 10SM CLR 16/11 A3009 710 72 1000 130/04 RMK AO2
14837KMSN MSN20020606083009206/06/02 08:30:31  5-MIN KMSN 061430Z VRB03KT 10SM CLR 15/11 A3009 710 74 900 VRB/03 RMK AO2
14837KMSN MSN20020606083509306/06/02 08:35:31  5-MIN KMSN 061435Z 13003KT 10SM CLR 16/11 A3009 710 72 1000 130/03 RMK AO2
14837KMSN MSN20020606084009306/06/02 08:40:31  5-MIN KMSN 061440Z VRB03KT 10SM CLR 16/11 A3009 710 72 1000 VRB/03 RMK AO2
14837KMSN MSN20020606084509306/06/02 08:45:31  5-MIN KMSN 061445Z 14004KT 10SM CLR 16/11 A3009 710 72 1000 140/04 RMK AO2
14837KMSN MSN20020606085011606/06/02 08:50:31  5-MIN KMSN 061450Z VRB04KT 10SM CLR 16/11 A3009 710 72 1000 VRB/04 RMK AO2 SLP190 T01610111 53013
14837KMSN MSN20020606085509306/06/02 08:55:31  5-MIN KMSN 061455Z 16003KT 10SM CLR 16/11 A3009 710 69 1000 160/03 RMK AO2
14837KMSN MSN20020606090009306/06/02 09:00:31  5-MIN KMSN 061500Z 16003KT 10SM CLR 16/11 A3009 710 69 1000 160/03 RMK AO2
14837KMSN MSN20020606090509306/06/02 09:05:31  5-MIN KMSN 061505Z 12003KT 10SM CLR 16/11 A3009 710 69 1000 120/03 RMK AO2
14837KMSN MSN20020606091009306/06/02 09:10:31  5-MIN KMSN 061510Z VRB04KT 10SM CLR 17/11 A3009 710 67 1100 VRB/04 RMK AO2
14837KMSN MSN20020606091509306/06/02 09:15:31  5-MIN KMSN 061515Z 13005KT 10SM CLR 17/11 A3009 710 67 1200 130/05 RMK AO2
14837KMSN MSN20020606092009306/06/02 09:20:31  5-MIN KMSN 061520Z 00000KT 10SM CLR 17/11 A3009 710 67 1100 000/00 RMK AO2
14837KMSN MSN20020606092509306/06/02 09:25:31  5-MIN KMSN 061525Z VRB03KT 10SM CLR 17/11 A3009 710 64 1200 VRB/03 RMK AO2
14837KMSN MSN20020606093009306/06/02 09:30:31  5-MIN KMSN 061530Z 12006KT 10SM CLR 17/10 A3009 710 62 1200 120/06 RMK AO2
14837KMSN MSN20020606093509306/06/02 09:35:31  5-MIN KMSN 061535Z 12006KT 10SM CLR 17/11 A3009 710 64 1200 120/06 RMK AO2
14837KMSN MSN20020606094009306/06/02 09:40:31  5-MIN KMSN 061540Z VRB04KT 10SM CLR 17/11 A3009 710 64 1200 VRB/04 RMK AO2
14837KMSN MSN20020606094509306/06/02 09:45:31  5-MIN KMSN 061545Z 17005KT 10SM CLR 17/11 A3009 710 64 1200 170/05 RMK AO2
14837KMSN MSN20020606095011006/06/02 09:50:31  5-MIN KMSN 061550Z VRB05KT 10SM CLR 18/11 A3009 700 62 1200 VRB/05 RMK AO2 SLP191 T01780106
14837KMSN MSN20020606095509306/06/02 09:55:31  5-MIN KMSN 061555Z 14005KT 10SM CLR 18/11 A3009 700 62 1200 140/05 RMK AO2
14837KMSN MSN20020606100009306/06/02 10:00:31  5-MIN KMSN 061600Z VRB03KT 10SM CLR 18/11 A3009 700 64 1200 VRB/03 RMK AO2
14837KMSN MSN20020606100509306/06/02 10:05:31  5-MIN KMSN 061605Z 12005KT 10SM CLR 18/11 A3009 710 62 1200 120/05 RMK AO2
14837KMSN MSN20020606101009306/06/02 10:10:31  5-MIN KMSN 061610Z 11003KT 10SM CLR 18/11 A3009 710 62 1300 110/03 RMK AO2
14837KMSN MSN20020606101509306/06/02 10:15:31  5-MIN KMSN 061615Z 00000KT 10SM CLR 18/10 A3009 710 58 1300 000/00 RMK AO2
14837KMSN MSN20020606102009306/06/02 10:20:31  5-MIN KMSN 061620Z 08005KT 10SM CLR 19/12 A3009 710 62 1400 080/05 RMK AO2
14837KMSN MSN20020606102509306/06/02 10:25:31  5-MIN KMSN 061625Z 12004KT 10SM CLR 19/11 A3009 710 60 1400 120/04 RMK AO2
14837KMSN MSN20020606103009306/06/02 10:30:31  5-MIN KMSN 061630Z VRB03KT 10SM CLR 19/11 A3009 710 60 1400 VRB/03 RMK AO2
14837KMSN MSN20020606103509306/06/02 10:35:31  5-MIN KMSN 061635Z 08005KT 10SM CLR 19/11 A3009 710 60 1400 080/05 RMK AO2
14837KMSN MSN20020606104009306/06/02 10:40:31  5-MIN KMSN 061640Z 06004KT 10SM CLR 19/12 A3009 710 60 1400 060/04 RMK AO2
14837KMSN MSN20020606104509306/06/02 10:45:31  5-MIN KMSN 061645Z 00000KT 10SM CLR 19/11 A3009 710 60 1400 000/00 RMK AO2
14837KMSN MSN20020606105011006/06/02 10:50:31  5-MIN KMSN 061650Z 13005KT 10SM CLR 19/12 A3009 710 60 1400 120/05 RMK AO2 SLP191 T01940117
14837KMSN MSN20020606105509306/06/02 10:55:31  5-MIN KMSN 061655Z VRB03KT 10SM CLR 19/12 A3009 710 60 1400 VRB/03 RMK AO2
14837KMSN MSN20020606110009306/06/02 11:00:31  5-MIN KMSN 061700Z 00000KT 10SM CLR 19/11 A3009 710 56 1400 000/00 RMK AO2
14837KMSN MSN20020606110509306/06/02 11:05:31  5-MIN KMSN 061705Z 00000KT 10SM CLR 19/12 A3009 710 60 1400 000/00 RMK AO2
14837KMSN MSN20020606111009306/06/02 11:10:31  5-MIN KMSN 061710Z VRB03KT 10SM CLR 19/12 A3009 710 60 1400 VRB/03 RMK AO2
14837KMSN MSN20020606111509306/06/02 11:15:31  5-MIN KMSN 061715Z VRB04KT 10SM CLR 20/11 A3009 710 56 1500 VRB/04 RMK AO2
14837KMSN MSN20020606112009306/06/02 11:20:31  5-MIN KMSN 061720Z 07004KT 10SM CLR 20/12 A3009 710 58 1500 070/04 RMK AO2
14837KMSN MSN20020606112509306/06/02 11:25:31  5-MIN KMSN 061725Z 04003KT 10SM CLR 20/11 A3009 710 54 1500 040/03 RMK AO2
14837KMSN MSN20020606113009306/06/02 11:30:31  5-MIN KMSN 061730Z VRB03KT 10SM CLR 21/12 A3009 710 56 1600 VRB/03 RMK AO2
14837KMSN MSN20020606113509306/06/02 11:35:31  5-MIN KMSN 061735Z VRB05KT 10SM CLR 20/12 A3009 710 58 1500 VRB/05 RMK AO2
14837KMSN MSN20020606114009306/06/02 11:40:31  5-MIN KMSN 061740Z VRB04KT 10SM CLR 20/11 A3009 710 56 1500 VRB/04 RMK AO2
14837KMSN MSN20020606114509306/06/02 11:45:31  5-MIN KMSN 061745Z VRB06KT 10SM CLR 20/11 A3009 710 56 1500 VRB/06 RMK AO2
14837KMSN MSN20020606115012806/06/02 11:50:31  5-MIN KMSN 061750Z 09005KT 10SM CLR 21/12 A3009 710 56 1600 090/05 RMK AO2 SLP189 T02060117 10206 20089 58002
14837KMSN MSN20020606115509306/06/02 11:55:31  5-MIN KMSN 061755Z VRB03KT 10SM CLR 21/11 A3009 710 54 1600 VRB/03 RMK AO2
14837KMSN MSN20020606120009306/06/02 12:00:31  5-MIN KMSN 061800Z 14006KT 10SM CLR 21/12 A3009 710 56 1600 140/06 RMK AO2
14837KMSN MSN20020606120509306/06/02 12:05:31  5-MIN KMSN 061805Z VRB04KT 10SM CLR 21/11 A3009 710 54 1600 VRB/04 RMK AO2
14837KMSN MSN20020606121009306/06/02 12:10:31  5-MIN KMSN 061810Z 00000KT 10SM CLR 21/12 A3009 710 56 1600 000/00 RMK AO2
14837KMSN MSN20020606121509606/06/02 12:15:31  5-MIN KMSN 061815Z 13008KT 10SM FEW040 21/11 A3009 710 54 1600 130/08 RMK AO2
14837KMSN MSN20020606122009606/06/02 12:20:31  5-MIN KMSN 061820Z 11005KT 10SM FEW040 21/12 A3009 710 54 1600 110/05 RMK AO2
14837KMSN MSN20020606122509606/06/02 12:25:31  5-MIN KMSN 061825Z 00000KT 10SM FEW040 21/11 A3009 710 54 1600 000/00 RMK AO2
14837KMSN MSN20020606123009606/06/02 12:30:31  5-MIN KMSN 061830Z VRB04KT 10SM FEW040 21/11 A3009 710 52 1600 VRB/04 RMK AO2
14837KMSN MSN20020606123509606/06/02 12:35:31  5-MIN KMSN 061835Z 10006KT 10SM FEW040 22/12 A3009 710 52 1700 100/06 RMK AO2
14837KMSN MSN20020606124009606/06/02 12:40:31  5-MIN KMSN 061840Z 16005KT 10SM FEW040 21/11 A3009 710 52 1600 150/05 RMK AO2
14837KMSN MSN20020606124509606/06/02 12:45:31  5-MIN KMSN 061845Z VRB04KT 10SM FEW040 21/11 A3008 720 50 1600 VRB/04 RMK AO2
14837KMSN MSN20020606125011306/06/02 12:50:31  5-MIN KMSN 061850Z 12007KT 10SM FEW040 22/12 A3008 710 54 1700 120/07 RMK AO2 SLP187 T02170122
14837KMSN MSN20020606125509306/06/02 12:55:31  5-MIN KMSN 061855Z 13006KT 10SM CLR 21/11 A3008 710 52 1600 130/06 RMK AO2
14837KMSN MSN20020606130009606/06/02 13:00:31  5-MIN KMSN 061900Z VRB04KT 10SM FEW040 22/11 A3008 710 50 1700 VRB/04 RMK AO2
14837KMSN MSN20020606130509606/06/02 13:05:31  5-MIN KMSN 061905Z 10007KT 10SM FEW040 22/12 A3008 720 54 1700 100/07 RMK AO2
14837KMSN MSN20020606131009606/06/02 13:10:31  5-MIN KMSN 061910Z 13005KT 10SM FEW040 22/12 A3008 720 52 1700 130/05 RMK AO2
14837KMSN MSN20020606131509606/06/02 13:15:31  5-MIN KMSN 061915Z 09008KT 10SM FEW040 22/12 A3008 720 54 1700 090/08 RMK AO2
14837KMSN MSN20020606132009606/06/02 13:20:31  5-MIN KMSN 061920Z 06003KT 10SM FEW040 22/11 A3008 720 50 1700 060/03 RMK AO2
14837KMSN MSN20020606132509606/06/02 13:25:31  5-MIN KMSN 061925Z 00000KT 10SM FEW040 22/11 A3008 720 49 1700 000/00 RMK AO2
14837KMSN MSN20020606133009606/06/02 13:30:31  5-MIN KMSN 061930Z 13005KT 10SM FEW040 22/12 A3008 720 52 1700 130/05 RMK AO2
14837KMSN MSN20020606133509606/06/02 13:35:31  5-MIN KMSN 061935Z 10005KT 10SM FEW040 22/11 A3008 720 50 1700 090/05 RMK AO2
14837KMSN MSN20020606134009606/06/02 13:40:31  5-MIN KMSN 061940Z 14006KT 10SM FEW040 22/12 A3008 720 52 1700 140/06 RMK AO2
14837KMSN MSN20020606134509606/06/02 13:45:31  5-MIN KMSN 061945Z 12007KT 10SM FEW040 22/12 A3008 720 52 1700 120/07 RMK AO2
14837KMSN MSN20020606135011306/06/02 13:50:31  5-MIN KMSN 061950Z 11005KT 10SM FEW040 22/12 A3008 720 52 1700 110/05 RMK AO2 SLP187 T02170117
14837KMSN MSN20020606135509606/06/02 13:55:31  5-MIN KMSN 061955Z VRB05KT 10SM FEW040 22/12 A3008 720 52 1700 VRB/05 RMK AO2
14837KMSN MSN20020606140009606/06/02 14:00:31  5-MIN KMSN 062000Z 12003KT 10SM FEW040 22/11 A3008 720 50 1700 120/03 RMK AO2
14837KMSN MSN20020606140509606/06/02 14:05:31  5-MIN KMSN 062005Z 13005KT 10SM FEW040 22/11 A3008 720 49 1800 120/05 RMK AO2
14837KMSN MSN20020606141009606/06/02 14:10:31  5-MIN KMSN 062010Z VRB04KT 10SM FEW040 22/12 A3007 720 51 1800 VRB/04 RMK AO2
14837KMSN MSN20020606141509606/06/02 14:15:31  5-MIN KMSN 062015Z 10004KT 10SM FEW040 22/12 A3007 720 51 1800 100/04 RMK AO2
14837KMSN MSN20020606142009606/06/02 14:20:31  5-MIN KMSN 062020Z VRB03KT 10SM FEW040 22/12 A3007 730 51 1800 VRB/03 RMK AO2
14837KMSN MSN20020606142511806/06/02 14:25:31  5-MIN KMSN 062025Z 11009G15KT 080V150 10SM FEW040 22/13 A3007 730 54 1800 110/09G15 080V150 RMK AO2
14837KMSN MSN20020606143010206/06/02 14:30:31  5-MIN KMSN 062030Z 13007G15KT 10SM FEW040 22/12 A3007 730 52 1800 130/07G15 RMK AO2
14837KMSN MSN20020606143509606/06/02 14:35:31  5-MIN KMSN 062035Z 14006KT 10SM FEW040 22/12 A3007 720 51 1800 140/06 RMK AO2
14837KMSN MSN20020606144009606/06/02 14:40:31  5-MIN KMSN 062040Z VRB03KT 10SM FEW040 22/12 A3007 730 51 1800 VRB/03 RMK AO2
14837KMSN MSN20020606144509606/06/02 14:45:31  5-MIN KMSN 062045Z VRB04KT 10SM FEW045 22/11 A3007 730 49 1800 VRB/04 RMK AO2
14837KMSN MSN20020606145011906/06/02 14:50:31  5-MIN KMSN 062050Z 13006KT 10SM FEW045 22/13 A3007 730 54 1800 130/06 RMK AO2 SLP183 T02220128 58001
14837KMSN MSN20020606145509606/06/02 14:55:31  5-MIN KMSN 062055Z 14005KT 10SM FEW050 22/13 A3007 730 54 1800 140/05 RMK AO2
14837KMSN MSN20020606150009606/06/02 15:00:31  5-MIN KMSN 062100Z 12008KT 10SM SCT050 22/12 A3007 730 51 1800 120/08 RMK AO2
14837KMSN MSN20020606150509606/06/02 15:05:31  5-MIN KMSN 062105Z 14006KT 10SM SCT050 22/12 A3007 730 51 1800 130/06 RMK AO2
14837KMSN MSN20020606151009606/06/02 15:10:31  5-MIN KMSN 062110Z 10007KT 10SM SCT050 23/12 A3007 730 51 1800 100/07 RMK AO2
14837KMSN MSN20020606151509606/06/02 15:15:31  5-MIN KMSN 062115Z 10007KT 10SM SCT050 22/12 A3007 730 52 1800 100/07 RMK AO2
14837KMSN MSN20020606152009606/06/02 15:20:31  5-MIN KMSN 062120Z 11004KT 10SM SCT050 22/12 A3007 730 52 1700 110/04 RMK AO2
14837KMSN MSN20020606152509606/06/02 15:25:31  5-MIN KMSN 062125Z 10006KT 10SM SCT050 22/12 A3007 730 54 1700 100/06 RMK AO2
14837KMSN MSN20020606153009606/06/02 15:30:31  5-MIN KMSN 062130Z 09007KT 10SM SCT050 23/12 A3007 730 49 1800 080/07 RMK AO2
14837KMSN MSN20020606153509606/06/02 15:35:31  5-MIN KMSN 062135Z 11009KT 10SM SCT050 23/11 A3007 730 47 1800 100/09 RMK AO2
14837KMSN MSN20020606154009606/06/02 15:40:31  5-MIN KMSN 062140Z 14009KT 10SM SCT050 22/12 A3007 730 52 1800 130/09 RMK AO2
14837KMSN MSN20020606154509606/06/02 15:45:31  5-MIN KMSN 062145Z 12006KT 10SM SCT050 21/12 A3007 730 54 1700 120/06 RMK AO2
14837KMSN MSN20020606155011306/06/02 15:50:31  5-MIN KMSN 062150Z 11006KT 10SM FEW050 21/11 A3006 730 52 1700 110/06 RMK AO2 SLP181 T02110111
14837KMSN MSN20020606155509606/06/02 15:55:31  5-MIN KMSN 062155Z 11006KT 10SM FEW050 22/11 A3006 730 49 1800 110/06 RMK AO2
14837KMSN MSN20020606160009306/06/02 16:00:31  5-MIN KMSN 062200Z 12006KT 10SM CLR 22/12 A3006 740 51 1800 120/06 RMK AO2
14837KMSN MSN20020606160509306/06/02 16:05:31  5-MIN KMSN 062205Z 13008KT 10SM CLR 22/12 A3006 740 51 1800 130/08 RMK AO2
14837KMSN MSN20020606161009306/06/02 16:10:31  5-MIN KMSN 062210Z 11006KT 10SM CLR 22/11 A3006 740 49 1700 110/06 RMK AO2
14837KMSN MSN20020606161509306/06/02 16:15:31  5-MIN KMSN 062215Z 14007KT 10SM CLR 21/11 A3006 740 52 1700 140/07 RMK AO2
14837KMSN MSN20020606162009606/06/02 16:20:31  5-MIN KMSN 062220Z 15006KT 10SM FEW055 22/11 A3006 740 49 1800 150/06 RMK AO2
14837KMSN MSN20020606162509606/06/02 16:25:31  5-MIN KMSN 062225Z 14006KT 10SM FEW055 22/11 A3006 740 50 1700 140/06 RMK AO2
14837KMSN MSN20020606163009606/06/02 16:30:31  5-MIN KMSN 062230Z 18007KT 10SM FEW055 21/11 A3006 740 52 1700 180/07 RMK AO2
14837KMSN MSN20020606163509606/06/02 16:35:31  5-MIN KMSN 062235Z 14006KT 10SM FEW055 21/11 A3006 740 50 1700 140/06 RMK AO2
14837KMSN MSN20020606164009606/06/02 16:40:31  5-MIN KMSN 062240Z 16007KT 10SM FEW055 21/11 A3006 740 52 1700 160/07 RMK AO2
14837KMSN MSN20020606164509606/06/02 16:45:31  5-MIN KMSN 062245Z 14006KT 10SM FEW055 21/11 A3006 740 54 1600 140/06 RMK AO2
14837KMSN MSN20020606165011306/06/02 16:50:31  5-MIN KMSN 062250Z 15006KT 10SM FEW055 22/11 A3005 740 50 1700 150/06 RMK AO2 SLP178 T02170111
14837KMSN MSN20020606165509606/06/02 16:55:31  5-MIN KMSN 062255Z 12009KT 10SM FEW050 22/11 A3006 740 49 1800 120/09 RMK AO2
14837KMSN MSN20020606170009606/06/02 17:00:31  5-MIN KMSN 062300Z 16009KT 10SM FEW050 22/11 A3005 740 50 1700 150/09 RMK AO2
14837KMSN MSN20020606170509606/06/02 17:05:31  5-MIN KMSN 062305Z 12007KT 10SM FEW050 22/11 A3005 750 50 1700 120/07 RMK AO2
14837KMSN MSN20020606171009606/06/02 17:10:31  5-MIN KMSN 062310Z 14009KT 10SM SCT050 22/12 A3005 750 51 1800 140/09 RMK AO2
14837KMSN MSN20020606171509606/06/02 17:15:31  5-MIN KMSN 062315Z 14010KT 10SM SCT050 22/12 A3005 750 52 1700 140/10 RMK AO2
14837KMSN MSN20020606172009606/06/02 17:20:31  5-MIN KMSN 062320Z 13008KT 10SM FEW050 22/11 A3005 750 50 1700 130/08 RMK AO2
14837KMSN MSN20020606172509606/06/02 17:25:31  5-MIN KMSN 062325Z 13007KT 10SM FEW050 22/12 A3005 750 52 1700 130/07 RMK AO2
14837KMSN MSN20020606173009606/06/02 17:30:31  5-MIN KMSN 062330Z VRB06KT 10SM FEW050 22/11 A3005 750 50 1700 VRB/06 RMK AO2
14837KMSN MSN20020606173509606/06/02 17:35:31  5-MIN KMSN 062335Z 15008KT 10SM FEW050 22/11 A3005 740 50 1700 150/08 RMK AO2
14837KMSN MSN20020606174009306/06/02 17:40:31  5-MIN KMSN 062340Z 16008KT 10SM CLR 22/11 A3005 740 50 1700 150/08 RMK AO2
14837KMSN MSN20020606174509306/06/02 17:45:31  5-MIN KMSN 062345Z 18007KT 10SM CLR 21/11 A3005 740 50 1700 180/07 RMK AO2
14837KMSN MSN20020606175012806/06/02 17:50:31  5-MIN KMSN 062350Z 17009KT 10SM CLR 22/10 A3005 740 47 1700 170/09 RMK AO2 SLP177 T02170100 10228 20200 58005
14837KMSN MSN20020606175509306/06/02 17:55:31  5-MIN KMSN 062355Z 16009KT 10SM CLR 21/11 A3005 740 50 1700 160/09 RMK AO2
14837KMSN MSN20020606180009306/06/02 18:00:31  5-MIN KMSN 070000Z 17010KT 10SM CLR 21/11 A3005 740 50 1700 170/10 RMK AO2
14837KMSN MSN20020606180509306/06/02 18:05:31  5-MIN KMSN 070005Z 16009KT 10SM CLR 21/10 A3005 740 48 1700 160/09 RMK AO2
14837KMSN MSN20020606181009306/06/02 18:10:31  5-MIN KMSN 070010Z 17007KT 10SM CLR 21/10 A3005 740 48 1700 170/07 RMK AO2
14837KMSN MSN20020606181509306/06/02 18:15:31  5-MIN KMSN 070015Z 17008KT 10SM CLR 21/09 A3005 740 47 1700 160/08 RMK AO2
14837KMSN MSN20020606182009306/06/02 18:20:31  5-MIN KMSN 070020Z 14007KT 10SM CLR 21/09 A3006 740 48 1600 140/07 RMK AO2
14837KMSN MSN20020606182509306/06/02 18:25:31  5-MIN KMSN 070025Z 15007KT 10SM CLR 21/09 A3005 740 48 1600 150/07 RMK AO2
14837KMSN MSN20020606183009306/06/02 18:30:31  5-MIN KMSN 070030Z 15006KT 10SM CLR 20/09 A3005 740 50 1500 150/06 RMK AO2
14837KMSN MSN20020606183509306/06/02 18:35:31  5-MIN KMSN 070035Z 16007KT 10SM CLR 20/10 A3005 740 52 1500 160/07 RMK AO2
14837KMSN MSN20020606184009306/06/02 18:40:31  5-MIN KMSN 070040Z 15007KT 10SM CLR 20/10 A3005 740 52 1500 150/07 RMK AO2
14837KMSN MSN20020606184509306/06/02 18:45:31  5-MIN KMSN 070045Z 14008KT 10SM CLR 20/10 A3005 740 52 1500 140/08 RMK AO2
14837KMSN MSN20020606185011006/06/02 18:50:31  5-MIN KMSN 070050Z 13006KT 10SM CLR 19/11 A3005 750 56 1500 130/06 RMK AO2 SLP175 T01940106
14837KMSN MSN20020606185509306/06/02 18:55:31  5-MIN KMSN 070055Z 13009KT 10SM CLR 19/11 A3005 750 56 1500 130/09 RMK AO2
14837KMSN MSN20020606190009306/06/02 19:00:31  5-MIN KMSN 070100Z 14009KT 10SM CLR 19/11 A3005 750 56 1500 140/09 RMK AO2
14837KMSN MSN20020606190509306/06/02 19:05:31  5-MIN KMSN 070105Z 15007KT 10SM CLR 19/11 A3005 750 56 1500 150/07 RMK AO2
14837KMSN MSN20020606191009306/06/02 19:10:31  5-MIN KMSN 070110Z 15008KT 10SM CLR 19/11 A3004 750 58 1400 150/08 RMK AO2
14837KMSN MSN20020606191509306/06/02 19:15:31  5-MIN KMSN 070115Z 15008KT 10SM CLR 19/11 A3004 750 58 1400 150/08 RMK AO2
14837KMSN MSN20020606192009306/06/02 19:20:31  5-MIN KMSN 070120Z 15007KT 10SM CLR 19/11 A3005 750 58 1400 150/07 RMK AO2
14837KMSN MSN20020606192509306/06/02 19:25:31  5-MIN KMSN 070125Z 16006KT 10SM CLR 18/11 A3005 750 60 1400 160/06 RMK AO2
14837KMSN MSN20020606193009306/06/02 19:30:31  5-MIN KMSN 070130Z 16006KT 10SM CLR 18/11 A3004 750 64 1300 160/06 RMK AO2
14837KMSN MSN20020606193509306/06/02 19:35:31  5-MIN KMSN 070135Z 15007KT 10SM CLR 18/11 A3004 750 62 1300 150/07 RMK AO2
14837KMSN MSN20020606194009306/06/02 19:40:31  5-MIN KMSN 070140Z 15007KT 10SM CLR 18/11 A3004 750 62 1300 150/07 RMK AO2
14837KMSN MSN20020606194509306/06/02 19:45:31  5-MIN KMSN 070145Z 15007KT 10SM CLR 18/11 A3004 750 62 1300 150/07 RMK AO2
14837KMSN MSN20020606195011006/06/02 19:50:31  5-MIN KMSN 070150Z 15008KT 10SM CLR 18/11 A3005 750 62 1300 150/08 RMK AO2 SLP174 T01780106
14837KMSN MSN20020606195509306/06/02 19:55:31  5-MIN KMSN 070155Z 15007KT 10SM CLR 17/10 A3005 750 62 1200 150/07 RMK AO2
14837KMSN MSN20020606200009306/06/02 20:00:31  5-MIN KMSN 070200Z 15008KT 10SM CLR 17/10 A3005 750 62 1200 150/08 RMK AO2
14837KMSN MSN20020606200509306/06/02 20:05:31  5-MIN KMSN 070205Z 15006KT 10SM CLR 17/10 A3005 750 64 1200 150/06 RMK AO2
14837KMSN MSN20020606201009306/06/02 20:10:31  5-MIN KMSN 070210Z 15007KT 10SM CLR 17/10 A3005 750 64 1200 150/07 RMK AO2
14837KMSN MSN20020606201509306/06/02 20:15:31  5-MIN KMSN 070215Z 15007KT 10SM CLR 17/10 A3005 750 62 1200 150/07 RMK AO2
14837KMSN MSN20020606202009306/06/02 20:20:31  5-MIN KMSN 070220Z 15006KT 10SM CLR 17/10 A3005 750 62 1200 140/06 RMK AO2
14837KMSN MSN20020606202509306/06/02 20:25:31  5-MIN KMSN 070225Z 15006KT 10SM CLR 17/10 A3005 740 64 1100 150/06 RMK AO2
14837KMSN MSN20020606203009306/06/02 20:30:31  5-MIN KMSN 070230Z 16005KT 10SM CLR 17/10 A3006 740 64 1100 160/05 RMK AO2
14837KMSN MSN20020606203509306/06/02 20:35:31  5-MIN KMSN 070235Z 16004KT 10SM CLR 17/10 A3005 740 64 1100 160/04 RMK AO2
14837KMSN MSN20020606204009306/06/02 20:40:31  5-MIN KMSN 070240Z 17005KT 10SM CLR 17/10 A3006 740 64 1100 170/05 RMK AO2
14837KMSN MSN20020606204509306/06/02 20:45:31  5-MIN KMSN 070245Z 16006KT 10SM CLR 16/10 A3005 740 67 1100 160/06 RMK AO2
14837KMSN MSN20020606205011606/06/02 20:50:31  5-MIN KMSN 070250Z 16006KT 10SM CLR 16/10 A3005 740 67 1100 150/06 RMK AO2 SLP175 T01610100 56006
14837KMSN MSN20020606205509306/06/02 20:55:31  5-MIN KMSN 070255Z 15006KT 10SM CLR 16/09 A3005 740 67 1000 150/06 RMK AO2
14837KMSN MSN20020606210009306/06/02 21:00:31  5-MIN KMSN 070300Z 15007KT 10SM CLR 16/09 A3005 740 67 1000 150/07 RMK AO2
14837KMSN MSN20020606210509306/06/02 21:05:31  5-MIN KMSN 070305Z 16006KT 10SM CLR 16/09 A3005 740 67 1000 160/06 RMK AO2
14837KMSN MSN20020606211009306/06/02 21:10:31  5-MIN KMSN 070310Z 16005KT 10SM CLR 16/09 A3005 740 67 1000 160/05 RMK AO2
14837KMSN MSN20020606211509306/06/02 21:15:31  5-MIN KMSN 070315Z 16006KT 10SM CLR 16/09 A3005 740 64 1000 160/06 RMK AO2
14837KMSN MSN20020606212009306/06/02 21:20:31  5-MIN KMSN 070320Z 16006KT 10SM CLR 16/09 A3005 740 64 1000 160/06 RMK AO2
14837KMSN MSN20020606212509306/06/02 21:25:31  5-MIN KMSN 070325Z 15005KT 10SM CLR 16/09 A3005 740 64 1000 150/05 RMK AO2
14837KMSN MSN20020606213009306/06/02 21:30:31  5-MIN KMSN 070330Z 15006KT 10SM CLR 15/09 A3005 740 66 1000 150/06 RMK AO2
14837KMSN MSN20020606213509306/06/02 21:35:31  5-MIN KMSN 070335Z 15006KT 10SM CLR 15/09 A3005 740 66 1000 150/06 RMK AO2
14837KMSN MSN20020606214009306/06/02 21:40:31  5-MIN KMSN 070340Z 15006KT 10SM CLR 15/09 A3005 750 66 1000 150/06 RMK AO2
14837KMSN MSN20020606214509306/06/02 21:45:31  5-MIN KMSN 070345Z 15008KT 10SM CLR 15/09 A3004 750 66 1000 150/08 RMK AO2
14837KMSN MSN20020606215011006/06/02 21:50:31  5-MIN KMSN 070350Z 16006KT 10SM CLR 15/09 A3004 750 66 1000 160/06 RMK AO2 SLP172 T01500089
14837KMSN MSN20020606215509306/06/02 21:55:31  5-MIN KMSN 070355Z 19003KT 10SM CLR 15/09 A3005 750 66 1000 190/03 RMK AO2
14837KMSN MSN20020606220009306/06/02 22:00:31  5-MIN KMSN 070400Z 18005KT 10SM CLR 15/09 A3005 740 66 1000 180/05 RMK AO2
14837KMSN MSN20020606220509306/06/02 22:05:31  5-MIN KMSN 070405Z 18005KT 10SM CLR 16/09 A3005 740 64 1000 180/05 RMK AO2
14837KMSN MSN20020606221009306/06/02 22:10:31  5-MIN KMSN 070410Z 18005KT 10SM CLR 16/09 A3005 740 64 1000 180/05 RMK AO2
14837KMSN MSN20020606221509306/06/02 22:15:31  5-MIN KMSN 070415Z 17006KT 10SM CLR 16/08 A3005 750 62 1000 170/06 RMK AO2
14837KMSN MSN20020606222009306/06/02 22:20:31  5-MIN KMSN 070420Z 18006KT 10SM CLR 15/09 A3005 740 66 1000 180/06 RMK AO2
14837KMSN MSN20020606222509306/06/02 22:25:31  5-MIN KMSN 070425Z 17006KT 10SM CLR 15/09 A3006 740 66 1000 170/06 RMK AO2
14837KMSN MSN20020606223009306/06/02 22:30:31  5-MIN KMSN 070430Z 17005KT 10SM CLR 15/09 A3006 740 66 1000 170/05 RMK AO2
14837KMSN MSN20020606223509206/06/02 22:35:31  5-MIN KMSN 070435Z 18006KT 10SM CLR 15/09 A3006 730 66 900 180/06 RMK AO2
14837KMSN MSN20020606224009206/06/02 22:40:31  5-MIN KMSN 070440Z 18005KT 10SM CLR 15/09 A3006 730 66 900 170/05 RMK AO2
14837KMSN MSN20020606224509206/06/02 22:45:31  5-MIN KMSN 070445Z 17005KT 10SM CLR 15/09 A3007 730 66 900 170/05 RMK AO2
14837KMSN MSN20020606225010906/06/02 22:50:31  5-MIN KMSN 070450Z 17005KT 10SM CLR 15/09 A3007 730 66 900 170/05 RMK AO2 SLP181 T01500089
14837KMSN MSN20020606225509206/06/02 22:55:31  5-MIN KMSN 070455Z 18004KT 10SM CLR 15/09 A3008 720 66 900 170/04 RMK AO2
14837KMSN MSN20020606230009906/06/02 23:00:31  5-MIN KMSN 070500Z 17004KT 10SM CLR 15/09 A3008 710 66 900 170/04 RMK AO2 PRESRR
14837KMSN MSN20020606230509206/06/02 23:05:31  5-MIN KMSN 070505Z 16004KT 10SM CLR 14/09 A3009 710 69 900 160/04 RMK AO2
14837KMSN MSN20020606231009206/06/02 23:10:31  5-MIN KMSN 070510Z 16006KT 10SM CLR 14/09 A3008 720 69 900 160/06 RMK AO2
14837KMSN MSN20020606231509206/06/02 23:15:31  5-MIN KMSN 070515Z 16007KT 10SM CLR 14/09 A3007 720 71 800 160/07 RMK AO2
14837KMSN MSN20020606232009206/06/02 23:20:31  5-MIN KMSN 070520Z 16008KT 10SM CLR 14/09 A3007 730 71 800 160/08 RMK AO2
14837KMSN MSN20020606232509206/06/02 23:25:31  5-MIN KMSN 070525Z 18006KT 10SM CLR 14/09 A3007 720 69 900 180/06 RMK AO2
14837KMSN MSN20020606233009206/06/02 23:30:31  5-MIN KMSN 070530Z 17006KT 10SM CLR 14/09 A3007 730 69 900 170/06 RMK AO2
14837KMSN MSN20020606233509206/06/02 23:35:31  5-MIN KMSN 070535Z 17006KT 10SM CLR 14/09 A3007 730 69 900 170/06 RMK AO2
14837KMSN MSN20020606234009206/06/02 23:40:31  5-MIN KMSN 070540Z 17005KT 10SM CLR 14/09 A3007 730 72 900 170/05 RMK AO2
14837KMSN MSN20020606234509206/06/02 23:45:31  5-MIN KMSN 070545Z 17005KT 10SM CLR 14/09 A3007 720 72 900 170/05 RMK AO2
14837KMSN MSN20020606235013706/06/02 23:50:31  5-MIN KMSN 070550Z 16005KT 10SM CLR 14/09 A3007 720 74 800 160/05 RMK AO2 SLP182 T01390094 10211 20139 402280061 55001
14837KMSN MSN20020606235509206/06/02 23:55:31  5-MIN KMSN 070555Z 17006KT 10SM CLR 14/09 A3007 730 74 800 160/06 RMK AO2
14837KMSN MSN20020607000009206/07/02 00:00:31  5-MIN KMSN 070600Z 17006KT 10SM CLR 14/09 A3007 730 74 800 170/06 RMK AO2
14837KMSN MSN20020607000509206/07/02 00:05:31  5-MIN KMSN 070605Z 17005KT 10SM CLR 14/09 A3007 730 74 800 170/05 RMK AO2
14837KMSN MSN20020607001009206/07/02 00:10:31  5-MIN KMSN 070610Z 17005KT 10SM CLR 14/09 A3007 730 74 800 170/05 RMK AO2
14837KMSN MSN20020607001509206/07/02 00:15:31  5-MIN KMSN 070615Z 17005KT 10SM CLR 13/09 A3007 730 77 700 170/05 RMK AO2
14837KMSN MSN20020607002009206/07/02 00:20:31  5-MIN KMSN 070620Z 18006KT 10SM CLR 14/09 A3007 730 74 800 180/06 RMK AO2
14837KMSN MSN20020607002509206/07/02 00:25:31  5-MIN KMSN 070625Z 17005KT 10SM CLR 14/10 A3007 730 77 800 170/05 RMK AO2
14837KMSN MSN20020607003009206/07/02 00:30:31  5-MIN KMSN 070630Z 17006KT 10SM CLR 13/10 A3007 730 80 700 170/06 RMK AO2
14837KMSN MSN20020607003509206/07/02 00:35:31  5-MIN KMSN 070635Z 17005KT 10SM CLR 13/10 A3007 720 80 700 170/05 RMK AO2
14837KMSN MSN20020607004009206/07/02 00:40:31  5-MIN KMSN 070640Z 17005KT 10SM CLR 13/10 A3007 720 80 700 170/05 RMK AO2
14837KMSN MSN20020607004509206/07/02 00:45:31  5-MIN KMSN 070645Z 17006KT 10SM CLR 14/10 A3007 720 77 800 170/06 RMK AO2
14837KMSN MSN20020607005010906/07/02 00:50:31  5-MIN KMSN 070650Z 17005KT 10SM CLR 14/10 A3008 720 77 800 170/05 RMK AO2 SLP183 T01390100
14837KMSN MSN20020607005509206/07/02 00:55:31  5-MIN KMSN 070655Z 18005KT 10SM CLR 14/10 A3008 720 77 800 170/05 RMK AO2
14837KMSN MSN20020607010009206/07/02 01:00:31  5-MIN KMSN 070700Z 17005KT 10SM CLR 13/10 A3008 720 80 700 170/05 RMK AO2
14837KMSN MSN20020607010509206/07/02 01:05:31  5-MIN KMSN 070705Z 17006KT 10SM CLR 13/10 A3007 720 80 700 170/06 RMK AO2
14837KMSN MSN20020607011009206/07/02 01:10:31  5-MIN KMSN 070710Z 17005KT 10SM CLR 13/10 A3007 720 80 700 170/05 RMK AO2
14837KMSN MSN20020607011509206/07/02 01:15:31  5-MIN KMSN 070715Z 17005KT 10SM CLR 13/10 A3007 720 80 700 170/05 RMK AO2
14837KMSN MSN20020607012009206/07/02 01:20:31  5-MIN KMSN 070720Z 17005KT 10SM CLR 13/10 A3007 720 80 700 170/05 RMK AO2
14837KMSN MSN20020607012509206/07/02 01:25:31  5-MIN KMSN 070725Z 17005KT 10SM CLR 13/10 A3007 720 80 700 170/05 RMK AO2
14837KMSN MSN20020607013009206/07/02 01:30:31  5-MIN KMSN 070730Z 18006KT 10SM CLR 13/10 A3007 720 80 700 180/06 RMK AO2
14837KMSN MSN20020607013509206/07/02 01:35:31  5-MIN KMSN 070735Z 18005KT 10SM CLR 13/10 A3008 720 80 700 180/05 RMK AO2
14837KMSN MSN20020607014009106/07/02 01:40:31  5-MIN KMSN 070740Z 19007KT 9SM CLR 14/10 A3008 720 77 800 190/07 RMK AO2
14837KMSN MSN20020607014509106/07/02 01:45:31  5-MIN KMSN 070745Z 18008KT 9SM CLR 14/10 A3008 720 77 800 180/08 RMK AO2
14837KMSN MSN20020607015010806/07/02 01:50:31  5-MIN KMSN 070750Z 18008KT 9SM CLR 14/10 A3008 720 77 800 180/08 RMK AO2 SLP183 T01390100
14837KMSN MSN20020607015509106/07/02 01:55:31  5-MIN KMSN 070755Z 18008KT 9SM CLR 14/10 A3007 720 77 800 180/08 RMK AO2
14837KMSN MSN20020607020009106/07/02 02:00:31  5-MIN KMSN 070800Z 18009KT 8SM CLR 14/10 A3008 720 77 800 180/09 RMK AO2
14837KMSN MSN20020607020509106/07/02 02:05:31  5-MIN KMSN 070805Z 19008KT 8SM CLR 14/10 A3008 720 77 800 190/08 RMK AO2
14837KMSN MSN20020607021009106/07/02 02:10:31  5-MIN KMSN 070810Z 19008KT 8SM CLR 14/10 A3008 720 77 800 190/08 RMK AO2
14837KMSN MSN20020607021509106/07/02 02:15:31  5-MIN KMSN 070815Z 18008KT 8SM CLR 14/10 A3008 720 77 800 180/08 RMK AO2
14837KMSN MSN20020607022009106/07/02 02:20:31  5-MIN KMSN 070820Z 18008KT 8SM CLR 13/10 A3007 730 80 700 170/08 RMK AO2
14837KMSN MSN20020607022509106/07/02 02:25:31  5-MIN KMSN 070825Z 17009KT 7SM CLR 13/10 A3007 730 80 700 170/09 RMK AO2
14837KMSN MSN20020607023009106/07/02 02:30:31  5-MIN KMSN 070830Z 17008KT 7SM CLR 13/10 A3007 730 80 700 170/08 RMK AO2
14837KMSN MSN20020607023509106/07/02 02:35:31  5-MIN KMSN 070835Z 18007KT 7SM CLR 13/10 A3007 730 80 700 180/07 RMK AO2
14837KMSN MSN20020607024009106/07/02 02:40:31  5-MIN KMSN 070840Z 17006KT 7SM CLR 13/11 A3007 730 83 700 170/06 RMK AO2
14837KMSN MSN20020607024509406/07/02 02:45:31  5-MIN KMSN 070845Z 17005KT 6SM HZ CLR 13/10 A3006 730 80 700 170/05 RMK AO2
14837KMSN MSN20020607025011706/07/02 02:50:31  5-MIN KMSN 070850Z 17006KT 6SM HZ CLR 13/10 A3007 730 83 700 170/06 RMK AO2 SLP179 T01280100 53007
14837KMSN MSN20020607025509406/07/02 02:55:31  5-MIN KMSN 070855Z 17006KT 6SM HZ CLR 13/10 A3007 730 83 700 170/06 RMK AO2
14837KMSN MSN20020607030009406/07/02 03:00:31  5-MIN KMSN 070900Z 17005KT 6SM HZ CLR 13/10 A3007 730 83 700 170/05 RMK AO2
14837KMSN MSN20020607030509406/07/02 03:05:31  5-MIN KMSN 070905Z 18005KT 6SM HZ CLR 13/10 A3007 720 83 700 180/05 RMK AO2
14837KMSN MSN20020607031009406/07/02 03:10:31  5-MIN KMSN 070910Z 18005KT 6SM HZ CLR 13/10 A3007 720 83 700 180/05 RMK AO2
14837KMSN MSN20020607031509406/07/02 03:15:31  5-MIN KMSN 070915Z 17006KT 6SM BR CLR 13/11 A3007 720 86 700 170/06 RMK AO2
14837KMSN MSN20020607032009706/07/02 03:20:31  5-MIN KMSN 070920Z 18007KT 6SM HZ FEW100 13/11 A3007 720 83 700 180/07 RMK AO2
14837KMSN MSN20020607032509706/07/02 03:25:31  5-MIN KMSN 070925Z 18006KT 6SM HZ SCT100 13/11 A3008 720 83 700 180/06 RMK AO2
14837KMSN MSN20020607033009706/07/02 03:30:31  5-MIN KMSN 070930Z 18006KT 6SM HZ SCT100 13/11 A3008 720 83 700 180/06 RMK AO2
14837KMSN MSN20020607033509706/07/02 03:35:31  5-MIN KMSN 070935Z 18005KT 6SM HZ SCT100 13/11 A3008 720 83 700 180/05 RMK AO2
14837KMSN MSN20020607034009706/07/02 03:40:31  5-MIN KMSN 070940Z 17005KT 6SM HZ SCT100 13/11 A3008 720 83 700 170/05 RMK AO2
14837KMSN MSN20020607034509706/07/02 03:45:31  5-MIN KMSN 070945Z 17005KT 6SM HZ SCT095 13/11 A3008 720 83 700 170/05 RMK AO2
14837KMSN MSN20020607035011406/07/02 03:50:31  5-MIN KMSN 070950Z 17004KT 5SM BR SCT095 13/11 A3008 720 86 700 170/04 RMK AO2 SLP185 T01280106
14837KMSN MSN20020607035509706/07/02 03:55:31  5-MIN KMSN 070955Z 17004KT 5SM BR SCT095 13/11 A3008 720 86 700 170/04 RMK AO2
14837KMSN MSN20020607040009706/07/02 04:00:31  5-MIN KMSN 071000Z 17005KT 5SM BR SCT095 13/11 A3008 720 86 700 170/05 RMK AO2
14837KMSN MSN20020607040509706/07/02 04:05:31  5-MIN KMSN 071005Z 17005KT 5SM BR FEW095 13/11 A3008 720 86 700 170/05 RMK AO2
14837KMSN MSN20020607041009706/07/02 04:10:31  5-MIN KMSN 071010Z 17006KT 4SM BR FEW095 13/11 A3007 720 86 700 170/06 RMK AO2
14837KMSN MSN20020607041509706/07/02 04:15:31  5-MIN KMSN 071015Z 16005KT 4SM BR FEW095 12/11 A3007 720 89 600 160/05 RMK AO2
14837KMSN MSN20020607042009706/07/02 04:20:31  5-MIN KMSN 071020Z 16006KT 4SM BR FEW095 12/11 A3008 720 89 600 160/06 RMK AO2
14837KMSN MSN20020607042509406/07/02 04:25:31  5-MIN KMSN 071025Z 17005KT 3SM BR CLR 12/11 A3008 720 89 600 160/05 RMK AO2
14837KMSN MSN20020607043009706/07/02 04:30:31  5-MIN KMSN 071030Z 18006KT 3SM BR FEW095 12/11 A3008 720 89 600 180/06 RMK AO2
14837KMSN MSN20020607043509706/07/02 04:35:31  5-MIN KMSN 071035Z 18006KT 3SM BR FEW095 12/11 A3008 720 89 600 180/06 RMK AO2
14837KMSN MSN20020607044009706/07/02 04:40:31  5-MIN KMSN 071040Z 18004KT 3SM BR FEW095 13/11 A3008 710 86 700 180/04 RMK AO2
14837KMSN MSN20020607044509706/07/02 04:45:31  5-MIN KMSN 071045Z 17005KT 3SM BR FEW095 13/11 A3009 710 86 700 170/05 RMK AO2
14837KMSN MSN20020607045011406/07/02 04:50:31  5-MIN KMSN 071050Z 18005KT 3SM BR FEW095 12/11 A3009 710 93 600 180/05 RMK AO2 SLP187 T01220111
14837KMSN MSN20020607045509706/07/02 04:55:31  5-MIN KMSN 071055Z 18005KT 3SM BR FEW095 13/11 A3009 710 89 700 180/05 RMK AO2
14837KMSN MSN20020607050009706/07/02 05:00:31  5-MIN KMSN 071100Z 17005KT 3SM BR FEW095 12/11 A3009 710 89 600 170/05 RMK AO2
14837KMSN MSN20020607050509706/07/02 05:05:31  5-MIN KMSN 071105Z 18007KT 3SM BR FEW095 13/11 A3009 710 89 700 170/07 RMK AO2
14837KMSN MSN20020607051009706/07/02 05:10:31  5-MIN KMSN 071110Z 17005KT 3SM BR SCT095 12/11 A3009 710 89 600 170/05 RMK AO2
14837KMSN MSN20020607051509706/07/02 05:15:31  5-MIN KMSN 071115Z 18006KT 3SM BR SCT080 12/11 A3009 710 93 600 180/06 RMK AO2
14837KMSN MSN20020607052010106/07/02 05:20:31  5-MIN KMSN 071120Z 18007KT 2 1/2SM BR SCT080 13/11 A3009 700 89 600 180/07 RMK AO2
14837KMSN MSN20020607052510106/07/02 05:25:31  5-MIN KMSN 071125Z 18006KT 2 1/2SM BR SCT080 13/11 A3010 700 86 700 180/06 RMK AO2
14837KMSN MSN20020607053010106/07/02 05:30:31  5-MIN KMSN 071130Z 18005KT 2 1/2SM BR SCT080 13/12 A3010 700 89 700 180/05 RMK AO2
14837KMSN MSN20020607053510106/07/02 05:35:31  5-MIN KMSN 071135Z 18007KT 2 1/2SM BR SCT080 14/12 A3010 690 86 800 180/07 RMK AO2
14837KMSN MSN20020607054009706/07/02 05:40:31  5-MIN KMSN 071140Z 17007KT 4SM BR SCT080 13/12 A3011 690 89 700 170/07 RMK AO2
14837KMSN MSN20020607054509706/07/02 05:45:31  5-MIN KMSN 071145Z 17008KT 5SM BR SCT080 13/12 A3011 690 89 700 170/08 RMK AO2
14837KMSN MSN20020607055013206/07/02 05:50:31  5-MIN KMSN 071150Z 17007KT 3SM BR SCT080 14/12 A3011 690 86 800 170/07 RMK AO2 SLP193 T01390117 10139 20122 58001
14837KMSN MSN20020607055509706/07/02 05:55:31  5-MIN KMSN 071155Z 18008KT 4SM BR SCT085 14/12 A3011 690 86 800 180/08 RMK AO2
14837KMSN MSN20020607060009706/07/02 06:00:31  5-MIN KMSN 071200Z 17008KT 3SM BR SCT085 14/12 A3010 700 86 800 170/08 RMK AO2
14837KMSN MSN20020607060509706/07/02 06:05:31  5-MIN KMSN 071205Z 18009KT 3SM BR SCT085 14/12 A3010 700 86 800 180/09 RMK AO2
14837KMSN MSN20020607061009706/07/02 06:10:31  5-MIN KMSN 071210Z 18007KT 3SM HZ SCT085 14/12 A3010 690 83 800 180/07 RMK AO2
14837KMSN MSN20020607061509706/07/02 06:15:31  5-MIN KMSN 071215Z 18010KT 4SM HZ FEW085 14/12 A3011 690 83 800 180/10 RMK AO2
14837KMSN MSN20020607062009706/07/02 06:20:31  5-MIN KMSN 071220Z 18009KT 4SM BR FEW085 14/12 A3011 690 86 800 180/09 RMK AO2
14837KMSN MSN20020607062509706/07/02 06:25:31  5-MIN KMSN 071225Z 18008KT 4SM BR FEW085 14/12 A3010 690 86 800 180/08 RMK AO2
14837KMSN MSN20020607063009706/07/02 06:30:31  5-MIN KMSN 071230Z 18009KT 4SM HZ FEW085 15/12 A3011 690 83 900 170/09 RMK AO2
14837KMSN MSN20020607063509706/07/02 06:35:31  5-MIN KMSN 071235Z 18007KT 4SM HZ FEW085 15/12 A3011 690 83 900 180/07 RMK AO2
14837KMSN MSN20020607064009706/07/02 06:40:31  5-MIN KMSN 071240Z 18007KT 4SM HZ FEW085 15/12 A3011 690 83 900 180/07 RMK AO2
14837KMSN MSN20020607064509706/07/02 06:45:31  5-MIN KMSN 071245Z 18008KT 4SM HZ FEW085 15/12 A3011 690 83 900 180/08 RMK AO2
14837KMSN MSN20020607065011406/07/02 06:50:31  5-MIN KMSN 071250Z 18009KT 5SM HZ FEW085 15/12 A3010 690 83 900 180/09 RMK AO2 SLP193 T01500122
14837KMSN MSN20020607065509406/07/02 06:55:31  5-MIN KMSN 071255Z 18010KT 3SM BR CLR 15/13 A3010 700 86 900 180/10 RMK AO2
14837KMSN MSN20020607070009506/07/02 07:00:31  5-MIN KMSN 071300Z 17010KT 3SM HZ CLR 16/13 A3010 700 83 1000 170/10 RMK AO2
14837KMSN MSN20020607070509506/07/02 07:05:31  5-MIN KMSN 071305Z 18010KT 3SM HZ CLR 16/13 A3010 700 80 1000 180/10 RMK AO2
14837KMSN MSN20020607071010506/07/02 07:10:31  5-MIN KMSN 071310Z 18011KT 3SM HZ CLR 16/13 A3010 700 80 1000 180/11 RMK AO2 SFC VIS 3
14837KMSN MSN20020607071510506/07/02 07:15:31  5-MIN KMSN 071315Z 18009KT 3SM HZ CLR 16/13 A3011 690 83 1000 180/09 RMK AO2 SFC VIS 4
14837KMSN MSN20020607072010506/07/02 07:20:31  5-MIN KMSN 071320Z 18008KT 3SM HZ CLR 17/13 A3011 690 80 1100 180/08 RMK AO2 SFC VIS 4
14837KMSN MSN20020607072510506/07/02 07:25:31  5-MIN KMSN 071325Z 18010KT 3SM HZ CLR 17/13 A3011 690 80 1100 180/10 RMK AO2 SFC VIS 4
14837KMSN MSN20020607073010506/07/02 07:30:31  5-MIN KMSN 071330Z 18009KT 3SM HZ CLR 17/13 A3011 690 80 1100 180/09 RMK AO2 SFC VIS 4
14837KMSN MSN20020607073510706/07/02 07:35:31  5-MIN KMSN 071335Z 18010KT 3SM HZ CLR 17/14 A3011 690 80 1200 180/10 RMK AO2 SFC VIS 4 $
14837KMSN MSN20020607074010506/07/02 07:40:31  5-MIN KMSN 071340Z 18009KT 3SM HZ CLR 17/14 A3011 690 80 1100 180/09 RMK AO2 SFC VIS 5
14837KMSN MSN20020607074511006/07/02 07:45:31  5-MIN KMSN 071345Z 19010KT 3SM HZ FEW025 17/14 A3011 690 80 1100 190/10 RMK AO2 SFC VIS 5 $
14837KMSN MSN20020607075011506/07/02 07:50:31  5-MIN KMSN 071350Z 19011KT 5SM HZ FEW025 18/14 A3011 690 78 1200 190/11 RMK AO2 SLP194 T01780139
14837KMSN MSN20020607075509706/07/02 07:55:31  5-MIN KMSN 071355Z 18010KT 5SM HZ CLR 18/14 A3011 690 78 1200 180/10 RMK AO2 $
14837KMSN MSN20020607080010006/07/02 08:00:31  5-MIN KMSN 071400Z 17012KT 6SM HZ FEW025 18/14 A3011 690 75 1300 170/12 RMK AO2 $
14837KMSN MSN20020607080510006/07/02 08:05:31  5-MIN KMSN 071405Z 18013KT 6SM HZ FEW025 18/14 A3011 690 75 1300 180/13 RMK AO2 $
14837KMSN MSN20020607081010006/07/02 08:10:31  5-MIN KMSN 071410Z 18014KT 6SM HZ FEW025 18/13 A3012 680 72 1300 180/14 RMK AO2 $
14837KMSN MSN20020607081510006/07/02 08:15:31  5-MIN KMSN 071415Z 18013KT 6SM HZ FEW025 18/13 A3012 680 72 1300 180/13 RMK AO2 $
14837KMSN MSN20020607082010006/07/02 08:20:31  5-MIN KMSN 071420Z 18012KT 6SM HZ FEW025 18/14 A3011 690 75 1300 180/12 RMK AO2 $
14837KMSN MSN20020607082509706/07/02 08:25:31  5-MIN KMSN 071425Z 19013KT 7SM FEW025 18/14 A3011 690 75 1300 190/13 RMK AO2 $
14837KMSN MSN20020607083009706/07/02 08:30:31  5-MIN KMSN 071430Z 18012KT 7SM FEW025 19/14 A3011 690 72 1300 180/12 RMK AO2 $
14837KMSN MSN20020607083509706/07/02 08:35:31  5-MIN KMSN 071435Z 18011KT 7SM FEW025 19/14 A3012 680 72 1300 180/11 RMK AO2 $
14837KMSN MSN20020607084009706/07/02 08:40:31  5-MIN KMSN 071440Z 18012KT 7SM FEW025 18/13 A3011 690 72 1300 180/12 RMK AO2 $
14837KMSN MSN20020607084509706/07/02 08:45:31  5-MIN KMSN 071445Z 20011KT 7SM FEW025 19/13 A3011 690 70 1300 200/11 RMK AO2 $
14837KMSN MSN20020607085012606/07/02 08:50:31  5-MIN KMSN 071450Z 19013G16KT 7SM FEW025 19/13 A3011 690 70 1300 190/13G16 RMK AO2 SLP195 T01890133 53013 $
14837KMSN MSN20020607085510606/07/02 08:55:31  5-MIN KMSN 071455Z 21009G16KT 5SM HZ FEW023 19/14 A3012 680 72 1300 210/09G16 RMK AO2 $
14837KMSN MSN20020607090010306/07/02 09:00:31  5-MIN KMSN 071500Z 18013G16KT 6SM HZ CLR 19/14 A3012 680 70 1400 180/13G16 RMK AO2 $
14837KMSN MSN20020607090510006/07/02 09:05:31  5-MIN KMSN 071505Z 19012KT 6SM HZ FEW025 19/14 A3012 680 70 1400 190/12 RMK AO2 $
14837KMSN MSN20020607091010006/07/02 09:10:31  5-MIN KMSN 071510Z 20011KT 6SM HZ FEW025 19/13 A3011 690 67 1400 190/11 RMK AO2 $
14837KMSN MSN20020607091510006/07/02 09:15:31  5-MIN KMSN 071515Z 19012KT 6SM HZ FEW025 19/14 A3011 690 70 1400 190/12 RMK AO2 $
14837KMSN MSN20020607092010306/07/02 09:20:31  5-MIN KMSN 071520Z 20013G18KT 7SM FEW025 19/13 A3011 690 67 1400 200/13G18 RMK AO2 $
14837KMSN MSN20020607092510306/07/02 09:25:31  5-MIN KMSN 071525Z 18013G18KT 7SM FEW025 20/14 A3011 690 67 1500 180/13G18 RMK AO2 $
14837KMSN MSN20020607093009706/07/02 09:30:31  5-MIN KMSN 071530Z 19014KT 7SM FEW025 20/14 A3011 690 67 1500 190/14 RMK AO2 $
14837KMSN MSN20020607093509706/07/02 09:35:31  5-MIN KMSN 071535Z 18014KT 8SM FEW025 20/14 A3011 690 67 1500 180/14 RMK AO2 $
14837KMSN MSN20020607094009706/07/02 09:40:31  5-MIN KMSN 071540Z 18015KT 8SM FEW025 20/13 A3011 690 65 1500 170/15 RMK AO2 $
14837KMSN MSN20020607094509806/07/02 09:45:31  5-MIN KMSN 071545Z 18014KT 10SM FEW025 20/13 A3010 700 65 1500 180/14 RMK AO2 $
14837KMSN MSN20020607095011206/07/02 09:50:31  5-MIN KMSN 071550Z 17015KT 10SM CLR 21/13 A3010 700 63 1500 170/15 RMK AO2 SLP192 T02060133 $
14837KMSN MSN20020607095509406/07/02 09:55:31  5-MIN KMSN 071555Z 18015KT 7SM CLR 21/14 A3010 690 65 1500 180/15 RMK AO2 $
14837KMSN MSN20020607100009506/07/02 10:00:31  5-MIN KMSN 071600Z 17015KT 10SM CLR 21/14 A3010 700 65 1500 170/15 RMK AO2 $
14837KMSN MSN20020607100510106/07/02 10:05:31  5-MIN KMSN 071605Z 17016G19KT 10SM CLR 21/14 A3010 700 65 1500 170/16G19 RMK AO2 $
14837KMSN MSN20020607101010106/07/02 10:10:31  5-MIN KMSN 071610Z 19014G19KT 10SM CLR 21/14 A3010 700 65 1500 190/14G19 RMK AO2 $
14837KMSN MSN20020607101510106/07/02 10:15:31  5-MIN KMSN 071615Z 17013G18KT 10SM CLR 21/14 A3010 700 65 1500 170/13G18 RMK AO2 $
14837KMSN MSN20020607102009506/07/02 10:20:31  5-MIN KMSN 071620Z 18015KT 10SM CLR 21/14 A3010 700 65 1600 170/15 RMK AO2 $
14837KMSN MSN20020607102509506/07/02 10:25:31  5-MIN KMSN 071625Z 17013KT 10SM CLR 21/14 A3010 700 65 1600 170/13 RMK AO2 $
14837KMSN MSN20020607103010106/07/02 10:30:31  5-MIN KMSN 071630Z 18015G20KT 10SM CLR 21/14 A3010 700 63 1600 180/15G20 RMK AO2 $
14837KMSN MSN20020607103510106/07/02 10:35:31  5-MIN KMSN 071635Z 18013G20KT 10SM CLR 21/14 A3010 700 65 1600 180/13G20 RMK AO2 $
14837KMSN MSN20020607104009506/07/02 10:40:31  5-MIN KMSN 071640Z 18014KT 10SM CLR 21/14 A3009 700 65 1600 180/14 RMK AO2 $
14837KMSN MSN20020607104509506/07/02 10:45:31  5-MIN KMSN 071645Z 18014KT 10SM CLR 21/14 A3009 710 63 1600 180/14 RMK AO2 $
14837KMSN MSN20020607105011206/07/02 10:50:31  5-MIN KMSN 071650Z 19014KT 10SM CLR 21/13 A3009 710 61 1600 190/14 RMK AO2 SLP187 T02110133 $
14837KMSN MSN20020607105510006/07/02 10:55:31  5-MIN KMSN 071655Z 20012G17KT 9SM CLR 22/14 A3009 710 61 1700 200/12G17 RMK AO2 $
14837KMSN MSN20020607110009506/07/02 11:00:31  5-MIN KMSN 071700Z 18011KT 10SM CLR 22/13 A3008 710 58 1700 180/11 RMK AO2 $
14837KMSN MSN20020607110509506/07/02 11:05:31  5-MIN KMSN 071705Z 17015KT 10SM CLR 22/14 A3008 720 61 1800 170/15 RMK AO2 $
14837KMSN MSN20020607111009506/07/02 11:10:31  5-MIN KMSN 071710Z 18014KT 10SM CLR 22/14 A3008 720 59 1800 180/14 RMK AO2 $
14837KMSN MSN20020607111510106/07/02 11:15:31  5-MIN KMSN 071715Z 17014G20KT 10SM CLR 22/13 A3008 720 56 1800 170/14G20 RMK AO2 $
14837KMSN MSN20020607112009506/07/02 11:20:31  5-MIN KMSN 071720Z 17017KT 10SM CLR 22/13 A3008 720 56 1800 170/17 RMK AO2 $
14837KMSN MSN20020607112510106/07/02 11:25:31  5-MIN KMSN 071725Z 19014G20KT 10SM CLR 22/13 A3008 720 56 1800 190/14G20 RMK AO2 $
14837KMSN MSN20020607113009506/07/02 11:30:31  5-MIN KMSN 071730Z 19011KT 10SM CLR 22/13 A3007 720 56 1800 190/11 RMK AO2 $
14837KMSN MSN20020607113510106/07/02 11:35:31  5-MIN KMSN 071735Z 19015G18KT 10SM CLR 23/13 A3007 720 55 1800 190/15G18 RMK AO2 $
14837KMSN MSN20020607114009506/07/02 11:40:31  5-MIN KMSN 071740Z 19013KT 10SM CLR 22/13 A3008 720 56 1800 190/13 RMK AO2 $
14837KMSN MSN20020607114510106/07/02 11:45:31  5-MIN KMSN 071745Z 19015G21KT 10SM CLR 22/13 A3008 720 56 1800 190/15G21 RMK AO2 $
14837KMSN MSN20020607115013606/07/02 11:50:31  5-MIN KMSN 071750Z 19017G21KT 10SM CLR 23/13 A3007 720 55 1800 180/17G21 RMK AO2 SLP181 T02280133 10228 20139 53003 $
14837KMSN MSN20020607115510106/07/02 11:55:31  5-MIN KMSN 071755Z 18015G20KT 10SM CLR 23/13 A3007 720 55 1800 180/15G20 RMK AO2 $
14837KMSN MSN20020607120010106/07/02 12:00:31  5-MIN KMSN 071800Z 20013G19KT 10SM CLR 23/13 A3007 720 53 1800 190/13G19 RMK AO2 $
14837KMSN MSN20020607120510106/07/02 12:05:31  5-MIN KMSN 071805Z 18015G19KT 10SM CLR 23/13 A3007 720 55 1800 180/15G19 RMK AO2 $
14837KMSN MSN20020607121010106/07/02 12:10:31  5-MIN KMSN 071810Z 18016G19KT 10SM CLR 23/13 A3007 720 53 1800 180/16G19 RMK AO2 $
14837KMSN MSN20020607121509506/07/02 12:15:31  5-MIN KMSN 071815Z 19014KT 10SM CLR 23/13 A3007 730 53 1800 190/14 RMK AO2 $
14837KMSN MSN20020607122009406/07/02 12:20:31  5-MIN KMSN 071820Z 18014KT 8SM CLR 23/14 A3007 730 57 1800 180/14 RMK AO2 $
14837KMSN MSN20020607122510006/07/02 12:25:31  5-MIN KMSN 071825Z 18015G20KT 7SM CLR 23/14 A3006 730 57 1800 180/15G20 RMK AO2 $
14837KMSN MSN20020607123009506/07/02 12:30:31  5-MIN KMSN 071830Z 18015KT 10SM CLR 23/12 A3006 730 49 1900 180/15 RMK AO2 $
14837KMSN MSN20020607123509906/07/02 12:35:31  5-MIN KMSN 071835Z 19012G20KT 10SM CLR 23/12 A3006 730 49 1900 190/12G20 RMK AO2
14837KMSN MSN20020607124009306/07/02 12:40:31  5-MIN KMSN 071840Z 18012KT 10SM CLR 23/13 A3006 730 53 1800 180/12 RMK AO2
14837KMSN MSN20020607124509306/07/02 12:45:31  5-MIN KMSN 071845Z 19015KT 10SM CLR 23/12 A3006 730 49 1900 180/15 RMK AO2
14837KMSN MSN20020607125011006/07/02 12:50:31  5-MIN KMSN 071850Z 19011KT 10SM CLR 23/12 A3006 740 47 1900 190/11 RMK AO2 SLP177 T02330117
14837KMSN MSN20020607125509906/07/02 12:55:31  5-MIN KMSN 071855Z 18010G17KT 10SM CLR 24/12 A3006 740 47 2000 180/10G17 RMK AO2
14837KMSN MSN20020607130009906/07/02 13:00:31  5-MIN KMSN 071900Z 17014G19KT 10SM CLR 23/13 A3006 740 51 1900 170/14G19 RMK AO2
14837KMSN MSN20020607130511506/07/02 13:05:31  5-MIN KMSN 071905Z 19011G19KT 160V220 10SM CLR 24/13 A3005 740 49 2000 190/11G19 160V220 RMK AO2
14837KMSN MSN20020607131009306/07/02 13:10:31  5-MIN KMSN 071910Z 19013KT 10SM CLR 23/12 A3005 740 49 1900 190/13 RMK AO2
14837KMSN MSN20020607131509306/07/02 13:15:31  5-MIN KMSN 071915Z 18011KT 10SM CLR 24/13 A3005 740 49 2000 180/11 RMK AO2
14837KMSN MSN20020607132009306/07/02 13:20:31  5-MIN KMSN 071920Z 20009KT 10SM CLR 24/13 A3005 740 49 2000 200/09 RMK AO2
14837KMSN MSN20020607132509306/07/02 13:25:31  5-MIN KMSN 071925Z 18012KT 10SM CLR 24/13 A3005 750 49 2000 180/12 RMK AO2
14837KMSN MSN20020607133009906/07/02 13:30:31  5-MIN KMSN 071930Z 19013G20KT 10SM CLR 24/12 A3005 750 46 2000 190/13G20 RMK AO2
14837KMSN MSN20020607133509906/07/02 13:35:31  5-MIN KMSN 071935Z 19012G20KT 10SM CLR 23/12 A3004 750 49 1900 190/12G20 RMK AO2
14837KMSN MSN20020607134009906/07/02 13:40:31  5-MIN KMSN 071940Z 18015G20KT 10SM CLR 24/12 A3004 760 46 2000 180/15G20 RMK AO2
14837KMSN MSN20020607134509906/07/02 13:45:31  5-MIN KMSN 071945Z 18014G20KT 10SM CLR 23/12 A3003 760 47 1900 180/14G20 RMK AO2
14837KMSN MSN20020607135011006/07/02 13:50:31  5-MIN KMSN 071950Z 18013KT 10SM CLR 24/12 A3004 760 46 2000 180/13 RMK AO2 SLP169 T02390117
14837KMSN MSN20020607135509306/07/02 13:55:31  5-MIN KMSN 071955Z 19012KT 10SM CLR 24/12 A3003 760 46 2100 190/12 RMK AO2
14837KMSN MSN20020607140009306/07/02 14:00:31  5-MIN KMSN 072000Z 20012KT 10SM CLR 24/12 A3003 760 46 2000 200/12 RMK AO2
14837KMSN MSN20020607140509306/07/02 14:05:31  5-MIN KMSN 072005Z 19012KT 10SM CLR 24/12 A3003 760 44 2100 190/12 RMK AO2
14837KMSN MSN20020607141009506/07/02 14:10:31  5-MIN KMSN 072010Z 19013KT 10SM CLR 24/12 A3003 760 46 2100 190/13 RMK AO2 $
14837KMSN MSN20020607141510106/07/02 14:15:31  5-MIN KMSN 072015Z 18012G18KT 10SM CLR 24/12 A3003 760 46 2000 180/12G18 RMK AO2 $
14837KMSN MSN20020607142010106/07/02 14:20:31  5-MIN KMSN 072020Z 18014G19KT 10SM CLR 24/12 A3003 760 44 2100 180/14G19 RMK AO2 $
14837KMSN MSN20020607142510106/07/02 14:25:31  5-MIN KMSN 072025Z 18013G19KT 10SM CLR 24/12 A3002 770 44 2100 180/13G19 RMK AO2 $
14837KMSN MSN20020607143009506/07/02 14:30:31  5-MIN KMSN 072030Z 18016KT 10SM CLR 24/12 A3002 770 44 2100 180/16 RMK AO2 $
14837KMSN MSN20020607143509506/07/02 14:35:31  5-MIN KMSN 072035Z 19012KT 10SM CLR 24/12 A3002 770 44 2100 190/12 RMK AO2 $
14837KMSN MSN20020607144010106/07/02 14:40:31  5-MIN KMSN 072040Z 18013G18KT 10SM CLR 24/12 A3002 770 46 2100 180/13G18 RMK AO2 $
14837KMSN MSN20020607144509506/07/02 14:45:31  5-MIN KMSN 072045Z 19012KT 10SM CLR 24/12 A3002 770 44 2100 190/12 RMK AO2 $
14837KMSN MSN20020607145011806/07/02 14:50:31  5-MIN KMSN 072050Z 17015KT 10SM CLR 24/12 A3002 770 46 2100 170/15 RMK AO2 SLP165 T02440122 58014 $
14837KMSN MSN20020607145509506/07/02 14:55:31  5-MIN KMSN 072055Z 19013KT 10SM CLR 24/12 A3002 770 46 2100 190/13 RMK AO2 $
14837KMSN MSN20020607150009506/07/02 15:00:31  5-MIN KMSN 072100Z 19014KT 10SM CLR 24/12 A3002 770 44 2100 190/14 RMK AO2 $
14837KMSN MSN20020607150509506/07/02 15:05:31  5-MIN KMSN 072105Z 19013KT 10SM CLR 24/12 A3002 770 44 2100 190/13 RMK AO2 $
14837KMSN MSN20020607151009506/07/02 15:10:31  5-MIN KMSN 072110Z 18014KT 10SM CLR 24/12 A3002 780 46 2000 180/14 RMK AO2 $
14837KMSN MSN20020607151509506/07/02 15:15:31  5-MIN KMSN 072115Z 19014KT 10SM CLR 24/12 A3001 780 46 2000 190/14 RMK AO2 $
14837KMSN MSN20020607152009506/07/02 15:20:31  5-MIN KMSN 072120Z 17015KT 10SM CLR 24/12 A3001 780 47 2000 170/15 RMK AO2 $
14837KMSN MSN20020607152509506/07/02 15:25:31  5-MIN KMSN 072125Z 18012KT 10SM CLR 25/12 A3001 780 44 2200 180/12 RMK AO2 $
14837KMSN MSN20020607153009506/07/02 15:30:31  5-MIN KMSN 072130Z 18012KT 10SM CLR 24/12 A3001 780 46 2100 180/12 RMK AO2 $
14837KMSN MSN20020607153509506/07/02 15:35:31  5-MIN KMSN 072135Z 18012KT 10SM CLR 24/12 A3001 780 44 2100 180/12 RMK AO2 $
14837KMSN MSN20020607154010106/07/02 15:40:31  5-MIN KMSN 072140Z 19012G17KT 10SM CLR 24/12 A3001 780 44 2100 190/12G17 RMK AO2 $
14837KMSN MSN20020607154510106/07/02 15:45:31  5-MIN KMSN 072145Z 19012G17KT 10SM CLR 24/12 A3001 780 44 2100 190/12G17 RMK AO2 $
14837KMSN MSN20020607155011206/07/02 15:50:31  5-MIN KMSN 072150Z 19012KT 10SM CLR 24/11 A3000 790 42 2100 190/12 RMK AO2 SLP158 T02440111 $
14837KMSN MSN20020607155510106/07/02 15:55:31  5-MIN KMSN 072155Z 18014G19KT 10SM CLR 24/12 A3000 790 44 2100 180/14G19 RMK AO2 $
14837KMSN MSN20020607160009506/07/02 16:00:31  5-MIN KMSN 072200Z 18014KT 10SM CLR 24/11 A3000 790 42 2100 180/14 RMK AO2 $
14837KMSN MSN20020607160509306/07/02 16:05:31  5-MIN KMSN 072205Z 20012KT 10SM CLR 24/11 A3000 790 42 2100 200/12 RMK AO2
14837KMSN MSN20020607161009306/07/02 16:10:31  5-MIN KMSN 072210Z 18014KT 10SM CLR 24/12 A3000 790 44 2100 180/14 RMK AO2
14837KMSN MSN20020607161509306/07/02 16:15:31  5-MIN KMSN 072215Z 18013KT 10SM CLR 24/11 A3000 790 42 2100 180/13 RMK AO2
14837KMSN MSN20020607162009306/07/02 16:20:31  5-MIN KMSN 072220Z 17013KT 10SM CLR 24/12 A3000 790 46 2100 170/13 RMK AO2
14837KMSN MSN20020607162509906/07/02 16:25:31  5-MIN KMSN 072225Z 17015G19KT 10SM CLR 24/11 A2999 800 42 2100 170/15G19 RMK AO2
14837KMSN MSN20020607163009306/07/02 16:30:31  5-MIN KMSN 072230Z 17015KT 10SM CLR 24/11 A3000 790 42 2100 170/15 RMK AO2
14837KMSN MSN20020607163509306/07/02 16:35:31  5-MIN KMSN 072235Z 19012KT 10SM CLR 24/11 A3000 790 42 2000 190/12 RMK AO2
14837KMSN MSN20020607164009306/07/02 16:40:31  5-MIN KMSN 072240Z 20010KT 10SM CLR 24/11 A3000 790 44 2000 190/10 RMK AO2
14837KMSN MSN20020607164509306/07/02 16:45:31  5-MIN KMSN 072245Z 18012KT 10SM CLR 24/11 A3000 790 44 2000 180/12 RMK AO2
14837KMSN MSN20020607165011006/07/02 16:50:31  5-MIN KMSN 072250Z 19011KT 10SM CLR 24/11 A3000 790 44 2000 180/11 RMK AO2 SLP156 T02390111
14837KMSN MSN20020607165509306/07/02 16:55:31  5-MIN KMSN 072255Z 18011KT 10SM CLR 24/11 A3000 790 44 2000 180/11 RMK AO2
14837KMSN MSN20020607170009306/07/02 17:00:31  5-MIN KMSN 072300Z 18010KT 10SM CLR 24/12 A3001 790 46 2000 180/10 RMK AO2
14837KMSN MSN20020607170509306/07/02 17:05:31  5-MIN KMSN 072305Z 19010KT 10SM CLR 24/11 A3001 790 44 2000 190/10 RMK AO2
14837KMSN MSN20020607171009306/07/02 17:10:31  5-MIN KMSN 072310Z 19011KT 10SM CLR 24/11 A3001 790 44 2000 190/11 RMK AO2
14837KMSN MSN20020607171509306/07/02 17:15:31  5-MIN KMSN 072315Z 19012KT 10SM CLR 24/11 A3000 790 44 2000 190/12 RMK AO2
14837KMSN MSN20020607172009306/07/02 17:20:31  5-MIN KMSN 072320Z 19013KT 10SM CLR 24/11 A3000 790 44 2000 190/13 RMK AO2
14837KMSN MSN20020607172509306/07/02 17:25:31  5-MIN KMSN 072325Z 18013KT 10SM CLR 24/11 A3000 790 44 2000 170/13 RMK AO2
14837KMSN MSN20020607173009306/07/02 17:30:31  5-MIN KMSN 072330Z 18011KT 10SM CLR 24/11 A3000 790 44 2000 180/11 RMK AO2
14837KMSN MSN20020607173509306/07/02 17:35:31  5-MIN KMSN 072335Z 19011KT 10SM CLR 24/11 A3001 780 44 2000 190/11 RMK AO2
14837KMSN MSN20020607174009906/07/02 17:40:31  5-MIN KMSN 072340Z 19011G17KT 10SM CLR 24/12 A3000 790 46 2000 190/11G17 RMK AO2
14837KMSN MSN20020607174509306/07/02 17:45:31  5-MIN KMSN 072345Z 19014KT 10SM CLR 23/11 A3000 790 45 2000 190/14 RMK AO2
14837KMSN MSN20020607175012806/07/02 17:50:31  5-MIN KMSN 072350Z 18010KT 10SM CLR 23/11 A3000 790 44 2000 180/10 RMK AO2 SLP158 T02330106 10250 20228 56017
14837KMSN MSN20020607175509306/07/02 17:55:31  5-MIN KMSN 072355Z 19011KT 10SM CLR 23/11 A3001 780 45 2000 190/11 RMK AO2
14837KMSN MSN20020607180009306/07/02 18:00:31  5-MIN KMSN 080000Z 19011KT 10SM CLR 23/11 A3001 780 44 2000 180/11 RMK AO2
14837KMSN MSN20020607180510006/07/02 18:05:31  5-MIN KMSN 080005Z 20005KT 10SM CLR 23/11 A3002 770 45 2000 200/05 RMK AO2 PRESRR
14837KMSN MSN20020607181009306/07/02 18:10:31  5-MIN KMSN 080010Z 19007KT 10SM CLR 23/11 A3003 770 45 1900 190/07 RMK AO2
14837KMSN MSN20020607181509306/07/02 18:15:31  5-MIN KMSN 080015Z 22004KT 10SM CLR 23/11 A3003 760 45 1900 220/04 RMK AO2
14837KMSN MSN20020607182009606/07/02 18:20:31  5-MIN KMSN 080020Z 21005KT 10SM FEW120 23/12 A3003 760 49 1900 210/05 RMK AO2
14837KMSN MSN20020607182509606/07/02 18:25:31  5-MIN KMSN 080025Z 19008KT 10SM FEW120 23/12 A3003 760 49 1900 190/08 RMK AO2
14837KMSN MSN20020607183009606/07/02 18:30:31  5-MIN KMSN 080030Z 19008KT 10SM FEW120 23/12 A3003 760 49 1900 190/08 RMK AO2
14837KMSN MSN20020607183509606/07/02 18:35:31  5-MIN KMSN 080035Z 19007KT 10SM SCT120 23/12 A3003 760 49 1900 190/07 RMK AO2
14837KMSN MSN20020607184009606/07/02 18:40:31  5-MIN KMSN 080040Z 19007KT 10SM SCT120 23/12 A3003 770 49 1900 190/07 RMK AO2
14837KMSN MSN20020607184509606/07/02 18:45:31  5-MIN KMSN 080045Z 19006KT 10SM FEW120 23/12 A3003 770 49 1900 190/06 RMK AO2
14837KMSN MSN20020607185011306/07/02 18:50:31  5-MIN KMSN 080050Z 18007KT 10SM FEW120 22/12 A3003 760 51 1800 180/07 RMK AO2 SLP166 T02220117
14837KMSN MSN20020607185509606/07/02 18:55:31  5-MIN KMSN 080055Z 19007KT 10SM FEW120 22/12 A3003 760 52 1800 180/07 RMK AO2
14837KMSN MSN20020607190009606/07/02 19:00:31  5-MIN KMSN 080100Z 18007KT 10SM FEW120 22/12 A3003 770 52 1800 180/07 RMK AO2
14837KMSN MSN20020607190509306/07/02 19:05:31  5-MIN KMSN 080105Z 17008KT 10SM CLR 22/12 A3002 770 54 1800 170/08 RMK AO2
14837KMSN MSN20020607191009306/07/02 19:10:31  5-MIN KMSN 080110Z 18007KT 10SM CLR 22/12 A3003 770 54 1800 180/07 RMK AO2
14837KMSN MSN20020607191509606/07/02 19:15:31  5-MIN KMSN 080115Z 18005KT 10SM FEW120 22/12 A3003 760 54 1800 180/05 RMK AO2
14837KMSN MSN20020607192009606/07/02 19:20:31  5-MIN KMSN 080120Z VRB03KT 10SM SCT120 22/12 A3003 760 54 1800 VRB/03 RMK AO2
14837KMSN MSN20020607192509606/07/02 19:25:31  5-MIN KMSN 080125Z 18004KT 10SM SCT120 22/12 A3003 770 54 1800 180/04 RMK AO2
14837KMSN MSN20020607193009606/07/02 19:30:31  5-MIN KMSN 080130Z 17006KT 10SM SCT120 22/12 A3002 770 54 1800 170/06 RMK AO2
14837KMSN MSN20020607193509606/07/02 19:35:31  5-MIN KMSN 080135Z 18006KT 10SM SCT120 22/12 A3002 770 54 1800 180/06 RMK AO2
14837KMSN MSN20020607194009606/07/02 19:40:31  5-MIN KMSN 080140Z 18004KT 10SM SCT120 21/12 A3003 770 56 1700 180/04 RMK AO2
14837KMSN MSN20020607194509606/07/02 19:45:31  5-MIN KMSN 080145Z 18005KT 10SM FEW120 21/12 A3003 770 56 1700 180/05 RMK AO2
14837KMSN MSN20020607195011306/07/02 19:50:31  5-MIN KMSN 080150Z 18005KT 10SM FEW120 21/12 A3003 760 56 1700 180/05 RMK AO2 SLP165 T02110122
14837KMSN MSN20020607195509306/07/02 19:55:31  5-MIN KMSN 080155Z 17006KT 10SM CLR 21/12 A3003 760 56 1700 170/06 RMK AO2
14837KMSN MSN20020607200009306/07/02 20:00:31  5-MIN KMSN 080200Z 17006KT 10SM CLR 20/12 A3003 770 60 1600 170/06 RMK AO2
14837KMSN MSN20020607200509306/07/02 20:05:31  5-MIN KMSN 080205Z 17005KT 10SM CLR 19/13 A3003 760 67 1400 170/05 RMK AO2
14837KMSN MSN20020607201009306/07/02 20:10:31  5-MIN KMSN 080210Z 17006KT 10SM CLR 19/13 A3003 760 65 1500 170/06 RMK AO2
14837KMSN MSN20020607201509606/07/02 20:15:31  5-MIN KMSN 080215Z 17007KT 10SM FEW120 20/13 A3003 770 63 1600 170/07 RMK AO2
14837KMSN MSN20020607202009606/07/02 20:20:31  5-MIN KMSN 080220Z 17008KT 10SM SCT120 20/13 A3003 770 63 1600 170/08 RMK AO2
14837KMSN MSN20020607202509606/07/02 20:25:31  5-MIN KMSN 080225Z 18007KT 10SM SCT120 20/13 A3003 760 63 1600 180/07 RMK AO2
14837KMSN MSN20020607203009606/07/02 20:30:31  5-MIN KMSN 080230Z 18007KT 10SM BKN120 20/13 A3004 760 63 1600 180/07 RMK AO2
14837KMSN MSN20020607203509606/07/02 20:35:31  5-MIN KMSN 080235Z 18008KT 10SM BKN120 21/13 A3004 750 60 1600 180/08 RMK AO2
14837KMSN MSN20020607204009606/07/02 20:40:31  5-MIN KMSN 080240Z 18007KT 10SM BKN120 21/13 A3004 750 60 1600 180/07 RMK AO2
14837KMSN MSN20020607204509606/07/02 20:45:31  5-MIN KMSN 080245Z 17007KT 10SM BKN120 21/13 A3004 750 60 1600 170/07 RMK AO2
14837KMSN MSN20020607205011906/07/02 20:50:31  5-MIN KMSN 080250Z 18007KT 10SM SCT120 20/13 A3004 750 65 1500 180/07 RMK AO2 SLP171 T02000133 55005
14837KMSN MSN20020607205509606/07/02 20:55:31  5-MIN KMSN 080255Z 19007KT 10SM SCT120 21/13 A3004 750 60 1600 190/07 RMK AO2
14837KMSN MSN20020607210009606/07/02 21:00:31  5-MIN KMSN 080300Z 19006KT 10SM FEW120 21/13 A3005 750 60 1600 190/06 RMK AO2
14837KMSN MSN20020607210509306/07/02 21:05:31  5-MIN KMSN 080305Z VRB05KT 10SM CLR 21/13 A3004 750 60 1600 VRB/05 RMK AO2
14837KMSN MSN20020607211009306/07/02 21:10:31  5-MIN KMSN 080310Z 19007KT 10SM CLR 20/13 A3004 750 63 1600 190/07 RMK AO2
14837KMSN MSN20020607211509306/07/02 21:15:31  5-MIN KMSN 080315Z 18008KT 10SM CLR 20/13 A3003 760 63 1600 180/08 RMK AO2
14837KMSN MSN20020607212009306/07/02 21:20:31  5-MIN KMSN 080320Z 18007KT 10SM CLR 19/13 A3003 760 65 1500 180/07 RMK AO2
14837KMSN MSN20020607212509306/07/02 21:25:31  5-MIN KMSN 080325Z 18006KT 10SM CLR 19/13 A3003 760 65 1500 180/06 RMK AO2
14837KMSN MSN20020607213009306/07/02 21:30:31  5-MIN KMSN 080330Z 19005KT 10SM CLR 19/13 A3003 760 65 1500 180/05 RMK AO2
14837KMSN MSN20020607213509306/07/02 21:35:31  5-MIN KMSN 080335Z 19005KT 10SM CLR 19/13 A3004 760 65 1500 190/05 RMK AO2
14837KMSN MSN20020607214009306/07/02 21:40:31  5-MIN KMSN 080340Z 18007KT 10SM CLR 19/13 A3003 760 65 1500 180/07 RMK AO2
14837KMSN MSN20020607214509306/07/02 21:45:31  5-MIN KMSN 080345Z 18008KT 10SM CLR 19/13 A3003 760 65 1500 180/08 RMK AO2
14837KMSN MSN20020607215011006/07/02 21:50:31  5-MIN KMSN 080350Z 18008KT 10SM CLR 19/13 A3003 760 65 1500 180/08 RMK AO2 SLP166 T01940128
14837KMSN MSN20020607215509306/07/02 21:55:31  5-MIN KMSN 080355Z 18007KT 10SM CLR 19/13 A3003 760 65 1500 180/07 RMK AO2
14837KMSN MSN20020607220009306/07/02 22:00:31  5-MIN KMSN 080400Z 18007KT 10SM CLR 19/13 A3003 760 65 1500 180/07 RMK AO2
14837KMSN MSN20020607220509306/07/02 22:05:31  5-MIN KMSN 080405Z 17007KT 10SM CLR 19/13 A3003 760 67 1400 170/07 RMK AO2
14837KMSN MSN20020607221009306/07/02 22:10:31  5-MIN KMSN 080410Z 18007KT 10SM CLR 19/13 A3003 760 67 1400 180/07 RMK AO2
14837KMSN MSN20020607221509306/07/02 22:15:31  5-MIN KMSN 080415Z 18006KT 10SM CLR 19/13 A3003 760 67 1400 180/06 RMK AO2
14837KMSN MSN20020607222009306/07/02 22:20:31  5-MIN KMSN 080420Z 18006KT 10SM CLR 19/13 A3003 760 67 1400 180/06 RMK AO2
14837KMSN MSN20020607222509306/07/02 22:25:31  5-MIN KMSN 080425Z 17006KT 10SM CLR 19/13 A3003 760 67 1400 170/06 RMK AO2
14837KMSN MSN20020607223009306/07/02 22:30:31  5-MIN KMSN 080430Z 17007KT 10SM CLR 18/13 A3003 770 70 1400 170/07 RMK AO2
14837KMSN MSN20020607223509306/07/02 22:35:31  5-MIN KMSN 080435Z 17006KT 10SM CLR 18/13 A3003 770 72 1300 170/06 RMK AO2
14837KMSN MSN20020607224009306/07/02 22:40:31  5-MIN KMSN 080440Z 17006KT 10SM CLR 18/13 A3003 760 72 1300 170/06 RMK AO2
14837KMSN MSN20020607224509306/07/02 22:45:31  5-MIN KMSN 080445Z 17006KT 10SM CLR 18/13 A3003 760 70 1400 170/06 RMK AO2
14837KMSN MSN20020607225011006/07/02 22:50:31  5-MIN KMSN 080450Z 17005KT 10SM CLR 18/13 A3003 760 70 1400 170/05 RMK AO2 SLP167 T01830128
14837KMSN MSN20020607225509306/07/02 22:55:31  5-MIN KMSN 080455Z 17006KT 10SM CLR 18/13 A3003 760 70 1400 170/06 RMK AO2
14837KMSN MSN20020607230009306/07/02 23:00:31  5-MIN KMSN 080500Z 18005KT 10SM CLR 18/13 A3003 760 72 1300 180/05 RMK AO2
14837KMSN MSN20020607230509306/07/02 23:05:31  5-MIN KMSN 080505Z 19006KT 10SM CLR 18/13 A3003 760 70 1400 180/06 RMK AO2
14837KMSN MSN20020607231009306/07/02 23:10:31  5-MIN KMSN 080510Z VRB04KT 10SM CLR 18/13 A3004 760 70 1400 VRB/04 RMK AO2
14837KMSN MSN20020607231509306/07/02 23:15:31  5-MIN KMSN 080515Z 17006KT 10SM CLR 18/13 A3003 760 70 1400 170/06 RMK AO2
14837KMSN MSN20020607232009306/07/02 23:20:31  5-MIN KMSN 080520Z 17007KT 10SM CLR 17/13 A3002 770 75 1300 160/07 RMK AO2
14837KMSN MSN20020607232509306/07/02 23:25:31  5-MIN KMSN 080525Z 18007KT 10SM CLR 18/13 A3002 770 72 1300 180/07 RMK AO2
14837KMSN MSN20020607233009206/07/02 23:30:31  5-MIN KMSN 080530Z 18008KT 9SM CLR 18/13 A3002 780 72 1300 180/08 RMK AO2
14837KMSN MSN20020607233509206/07/02 23:35:31  5-MIN KMSN 080535Z 18008KT 9SM CLR 18/13 A3001 780 70 1400 180/08 RMK AO2
14837KMSN MSN20020607234009206/07/02 23:40:31  5-MIN KMSN 080540Z 17008KT 9SM CLR 18/13 A3001 780 70 1400 170/08 RMK AO2
14837KMSN MSN20020607234509206/07/02 23:45:31  5-MIN KMSN 080545Z 17008KT 9SM CLR 18/13 A3001 790 72 1300 170/08 RMK AO2
14837KMSN MSN20020607235013706/07/02 23:50:31  5-MIN KMSN 080550Z 17007KT 9SM CLR 18/13 A3001 790 72 1300 170/07 RMK AO2 SLP157 T01780128 10233 20172 402500122 51012
14837KMSN MSN20020607235509206/07/02 23:55:31  5-MIN KMSN 080555Z 18009KT 9SM CLR 18/13 A3000 790 72 1300 170/09 RMK AO2
14837KMSN MSN20020608000009206/08/02 00:00:31  5-MIN KMSN 080600Z 17008KT 9SM CLR 18/13 A3000 790 70 1400 170/08 RMK AO2
14837KMSN MSN20020608000509206/08/02 00:05:31  5-MIN KMSN 080605Z 19007KT 9SM CLR 18/14 A3000 790 75 1400 180/07 RMK AO2
14837KMSN MSN20020608001009206/08/02 00:10:31  5-MIN KMSN 080610Z 18007KT 9SM CLR 19/14 A3000 790 70 1500 180/07 RMK AO2
14837KMSN MSN20020608001509206/08/02 00:15:31  5-MIN KMSN 080615Z 18009KT 9SM CLR 18/12 A3000 790 67 1400 180/09 RMK AO2
14837KMSN MSN20020608002009206/08/02 00:20:31  5-MIN KMSN 080620Z 18008KT 9SM CLR 19/12 A2999 800 65 1500 180/08 RMK AO2
14837KMSN MSN20020608002509206/08/02 00:25:31  5-MIN KMSN 080625Z 17008KT 9SM CLR 18/12 A2998 810 67 1400 170/08 RMK AO2
14837KMSN MSN20020608003009206/08/02 00:30:31  5-MIN KMSN 080630Z 18008KT 9SM CLR 18/12 A2999 800 67 1400 180/08 RMK AO2
14837KMSN MSN20020608003509206/08/02 00:35:31  5-MIN KMSN 080635Z 18009KT 9SM CLR 18/12 A2999 800 67 1400 170/09 RMK AO2
14837KMSN MSN20020608004009206/08/02 00:40:31  5-MIN KMSN 080640Z 18009KT 9SM CLR 18/12 A2999 800 67 1400 180/09 RMK AO2
14837KMSN MSN20020608004509206/08/02 00:45:31  5-MIN KMSN 080645Z 18008KT 9SM CLR 18/12 A2999 800 67 1400 180/08 RMK AO2
14837KMSN MSN20020608005010906/08/02 00:50:31  5-MIN KMSN 080650Z 18008KT 9SM CLR 18/12 A2999 800 67 1400 180/08 RMK AO2 SLP150 T01830122
14837KMSN MSN20020608005509206/08/02 00:55:31  5-MIN KMSN 080655Z 18008KT 9SM CLR 18/12 A2999 800 67 1400 180/08 RMK AO2
14837KMSN MSN20020608010009206/08/02 01:00:31  5-MIN KMSN 080700Z 18007KT 9SM CLR 18/12 A2999 800 67 1400 180/07 RMK AO2
14837KMSN MSN20020608010509206/08/02 01:05:31  5-MIN KMSN 080705Z 17008KT 9SM CLR 18/12 A2999 800 67 1400 170/08 RMK AO2
14837KMSN MSN20020608011009206/08/02 01:10:31  5-MIN KMSN 080710Z 18007KT 9SM CLR 18/12 A2999 800 67 1400 180/07 RMK AO2
14837KMSN MSN20020608011509206/08/02 01:15:31  5-MIN KMSN 080715Z 18008KT 9SM CLR 18/12 A2999 800 67 1400 180/08 RMK AO2
14837KMSN MSN20020608012009206/08/02 01:20:31  5-MIN KMSN 080720Z 18007KT 9SM CLR 18/12 A2999 800 67 1400 180/07 RMK AO2
14837KMSN MSN20020608012509206/08/02 01:25:31  5-MIN KMSN 080725Z 18007KT 9SM CLR 18/12 A3000 790 67 1400 180/07 RMK AO2
14837KMSN MSN20020608013009206/08/02 01:30:31  5-MIN KMSN 080730Z 18007KT 9SM CLR 18/12 A3000 790 67 1400 180/07 RMK AO2
14837KMSN MSN20020608013509206/08/02 01:35:31  5-MIN KMSN 080735Z 19007KT 9SM CLR 18/12 A3000 790 67 1400 180/07 RMK AO2
14837KMSN MSN20020608014009206/08/02 01:40:31  5-MIN KMSN 080740Z 18008KT 9SM CLR 18/12 A3000 790 67 1400 180/08 RMK AO2
14837KMSN MSN20020608014509206/08/02 01:45:31  5-MIN KMSN 080745Z 18009KT 9SM CLR 18/12 A3000 790 67 1400 180/09 RMK AO2
14837KMSN MSN20020608015010906/08/02 01:50:31  5-MIN KMSN 080750Z 19009KT 8SM CLR 18/12 A3000 790 67 1400 180/09 RMK AO2 SLP154 T01830122
14837KMSN MSN20020608015509206/08/02 01:55:31  5-MIN KMSN 080755Z 19008KT 8SM CLR 18/12 A3000 790 67 1400 190/08 RMK AO2
14837KMSN MSN20020608020009206/08/02 02:00:31  5-MIN KMSN 080800Z 19008KT 8SM CLR 18/12 A3000 790 67 1400 190/08 RMK AO2
14837KMSN MSN20020608020509206/08/02 02:05:31  5-MIN KMSN 080805Z 19007KT 8SM CLR 18/12 A3000 790 67 1400 190/07 RMK AO2
14837KMSN MSN20020608021009206/08/02 02:10:31  5-MIN KMSN 080810Z 19007KT 8SM CLR 18/13 A3000 790 70 1400 190/07 RMK AO2
14837KMSN MSN20020608021509206/08/02 02:15:31  5-MIN KMSN 080815Z 19007KT 8SM CLR 18/13 A3001 790 70 1400 180/07 RMK AO2
14837KMSN MSN20020608022009206/08/02 02:20:31  5-MIN KMSN 080820Z 18008KT 8SM CLR 18/13 A3000 790 70 1400 180/08 RMK AO2
14837KMSN MSN20020608022509206/08/02 02:25:31  5-MIN KMSN 080825Z 19009KT 8SM CLR 18/13 A3001 790 70 1400 180/09 RMK AO2
14837KMSN MSN20020608023009206/08/02 02:30:31  5-MIN KMSN 080830Z 19009KT 8SM CLR 18/12 A3001 780 67 1400 190/09 RMK AO2
14837KMSN MSN20020608023509206/08/02 02:35:31  5-MIN KMSN 080835Z 19008KT 9SM CLR 18/12 A3001 780 67 1400 190/08 RMK AO2
14837KMSN MSN20020608024009206/08/02 02:40:31  5-MIN KMSN 080840Z 19006KT 9SM CLR 18/12 A3001 780 67 1400 190/06 RMK AO2
14837KMSN MSN20020608024509206/08/02 02:45:31  5-MIN KMSN 080845Z 19008KT 9SM CLR 18/12 A3002 770 67 1400 190/08 RMK AO2
14837KMSN MSN20020608025011506/08/02 02:50:31  5-MIN KMSN 080850Z 22004KT 9SM CLR 18/12 A3002 770 67 1400 220/04 RMK AO2 SLP162 T01830122 58013
14837KMSN MSN20020608025509206/08/02 02:55:31  5-MIN KMSN 080855Z 22004KT 9SM CLR 18/12 A3003 760 67 1400 220/04 RMK AO2
14837KMSN MSN20020608030009906/08/02 03:00:31  5-MIN KMSN 080900Z VRB03KT 9SM CLR 18/12 A3004 760 67 1400 VRB/03 RMK AO2 PRESRR
14837KMSN MSN20020608030509906/08/02 03:05:31  5-MIN KMSN 080905Z 27003KT 9SM CLR 18/12 A3005 750 67 1400 270/03 RMK AO2 PRESRR
14837KMSN MSN20020608031009206/08/02 03:10:31  5-MIN KMSN 080910Z 21003KT 8SM CLR 18/12 A3005 750 69 1300 210/03 RMK AO2
14837KMSN MSN20020608031509206/08/02 03:15:31  5-MIN KMSN 080915Z 19004KT 8SM CLR 18/13 A3004 750 72 1300 190/04 RMK AO2
14837KMSN MSN20020608032009206/08/02 03:20:31  5-MIN KMSN 080920Z 18004KT 8SM CLR 18/13 A3005 750 72 1300 180/04 RMK AO2
14837KMSN MSN20020608032509206/08/02 03:25:31  5-MIN KMSN 080925Z 20004KT 8SM CLR 18/12 A3005 750 69 1300 200/04 RMK AO2
14837KMSN MSN20020608033009206/08/02 03:30:31  5-MIN KMSN 080930Z 23003KT 8SM CLR 18/12 A3005 740 69 1300 230/03 RMK AO2
14837KMSN MSN20020608033509206/08/02 03:35:31  5-MIN KMSN 080935Z VRB03KT 8SM CLR 18/13 A3005 740 72 1300 VRB/03 RMK AO2
14837KMSN MSN20020608034009206/08/02 03:40:31  5-MIN KMSN 080940Z 21003KT 8SM CLR 18/13 A3006 740 72 1300 210/03 RMK AO2
14837KMSN MSN20020608034509206/08/02 03:45:31  5-MIN KMSN 080945Z 21003KT 8SM CLR 17/13 A3006 740 75 1200 210/03 RMK AO2
14837KMSN MSN20020608035010906/08/02 03:50:31  5-MIN KMSN 080950Z 21003KT 8SM CLR 17/13 A3006 740 75 1200 210/03 RMK AO2 SLP175 T01720128
14837KMSN MSN20020608035509206/08/02 03:55:31  5-MIN KMSN 080955Z 19004KT 8SM CLR 18/13 A3006 740 72 1300 190/04 RMK AO2
14837KMSN MSN20020608040009206/08/02 04:00:31  5-MIN KMSN 081000Z 19004KT 8SM CLR 18/13 A3006 740 72 1300 180/04 RMK AO2
14837KMSN MSN20020608040509206/08/02 04:05:31  5-MIN KMSN 081005Z 18005KT 8SM CLR 17/13 A3006 740 75 1200 180/05 RMK AO2
14837KMSN MSN20020608041009206/08/02 04:10:31  5-MIN KMSN 081010Z 19005KT 7SM CLR 17/13 A3006 740 75 1200 190/05 RMK AO2
14837KMSN MSN20020608041509206/08/02 04:15:31  5-MIN KMSN 081015Z 18003KT 7SM CLR 17/13 A3006 740 77 1100 180/03 RMK AO2
14837KMSN MSN20020608042009206/08/02 04:20:31  5-MIN KMSN 081020Z 18004KT 7SM CLR 16/13 A3006 740 80 1100 180/04 RMK AO2
14837KMSN MSN20020608042509206/08/02 04:25:31  5-MIN KMSN 081025Z 19005KT 7SM CLR 17/13 A3006 740 77 1100 190/05 RMK AO2
14837KMSN MSN20020608043009206/08/02 04:30:31  5-MIN KMSN 081030Z 19004KT 7SM CLR 17/13 A3006 730 75 1200 190/04 RMK AO2
14837KMSN MSN20020608043509506/08/02 04:35:31  5-MIN KMSN 081035Z 18004KT 6SM HZ CLR 17/13 A3006 730 75 1200 180/04 RMK AO2
14837KMSN MSN20020608044009506/08/02 04:40:31  5-MIN KMSN 081040Z 18004KT 6SM HZ CLR 17/13 A3006 740 75 1200 170/04 RMK AO2
14837KMSN MSN20020608044509506/08/02 04:45:31  5-MIN KMSN 081045Z 17006KT 6SM HZ CLR 17/13 A3006 740 77 1100 170/06 RMK AO2
14837KMSN MSN20020608045011206/08/02 04:50:31  5-MIN KMSN 081050Z 17005KT 6SM HZ CLR 17/13 A3006 740 77 1100 170/05 RMK AO2 SLP176 T01670128
14837KMSN MSN20020608045509506/08/02 04:55:31  5-MIN KMSN 081055Z 16003KT 6SM HZ CLR 16/13 A3006 740 80 1100 160/03 RMK AO2
14837KMSN MSN20020608050009506/08/02 05:00:31  5-MIN KMSN 081100Z 16004KT 6SM HZ CLR 16/13 A3006 740 83 1100 160/04 RMK AO2
14837KMSN MSN20020608050509506/08/02 05:05:31  5-MIN KMSN 081105Z 16004KT 6SM HZ CLR 16/13 A3006 740 83 1100 150/04 RMK AO2
14837KMSN MSN20020608051009506/08/02 05:10:31  5-MIN KMSN 081110Z 16003KT 6SM HZ CLR 16/13 A3006 740 83 1100 160/03 RMK AO2
14837KMSN MSN20020608051509506/08/02 05:15:31  5-MIN KMSN 081115Z 17004KT 6SM HZ CLR 17/13 A3005 740 80 1100 170/04 RMK AO2
14837KMSN MSN20020608052009506/08/02 05:20:31  5-MIN KMSN 081120Z 17004KT 6SM HZ CLR 17/13 A3005 740 80 1200 170/04 RMK AO2
14837KMSN MSN20020608052509506/08/02 05:25:31  5-MIN KMSN 081125Z 17005KT 6SM HZ CLR 16/13 A3005 750 83 1100 170/05 RMK AO2
14837KMSN MSN20020608053009506/08/02 05:30:31  5-MIN KMSN 081130Z 16007KT 6SM HZ CLR 16/13 A3004 750 83 1100 160/07 RMK AO2
14837KMSN MSN20020608053509506/08/02 05:35:31  5-MIN KMSN 081135Z 16006KT 6SM HZ CLR 17/13 A3004 750 80 1200 160/06 RMK AO2
14837KMSN MSN20020608054009506/08/02 05:40:31  5-MIN KMSN 081140Z 18005KT 6SM HZ CLR 17/13 A3005 750 80 1200 180/05 RMK AO2
14837KMSN MSN20020608054509506/08/02 05:45:31  5-MIN KMSN 081145Z 19006KT 6SM HZ CLR 17/13 A3004 750 78 1200 180/06 RMK AO2
14837KMSN MSN20020608055013006/08/02 05:50:31  5-MIN KMSN 081150Z 18006KT 5SM HZ CLR 17/13 A3004 750 75 1200 180/06 RMK AO2 SLP170 T01720128 10194 20161 53007
14837KMSN MSN20020608055509506/08/02 05:55:31  5-MIN KMSN 081155Z 18006KT 6SM HZ CLR 17/13 A3004 750 75 1200 180/06 RMK AO2
14837KMSN MSN20020608060009506/08/02 06:00:31  5-MIN KMSN 081200Z 19006KT 6SM HZ CLR 17/13 A3004 750 75 1200 190/06 RMK AO2
14837KMSN MSN20020608060509506/08/02 06:05:31  5-MIN KMSN 081205Z 18006KT 6SM HZ CLR 17/13 A3004 750 75 1200 180/06 RMK AO2
14837KMSN MSN20020608061009506/08/02 06:10:31  5-MIN KMSN 081210Z 19006KT 6SM HZ CLR 17/13 A3004 750 78 1200 190/06 RMK AO2
14837KMSN MSN20020608061509506/08/02 06:15:31  5-MIN KMSN 081215Z 18007KT 6SM HZ CLR 18/13 A3004 750 72 1300 180/07 RMK AO2
14837KMSN MSN20020608062009506/08/02 06:20:31  5-MIN KMSN 081220Z 18007KT 6SM HZ CLR 18/13 A3004 750 72 1300 180/07 RMK AO2
14837KMSN MSN20020608062509506/08/02 06:25:31  5-MIN KMSN 081225Z 19007KT 6SM HZ CLR 18/13 A3004 760 75 1300 190/07 RMK AO2
14837KMSN MSN20020608063009206/08/02 06:30:31  5-MIN KMSN 081230Z 18006KT 7SM CLR 18/13 A3004 760 75 1300 180/06 RMK AO2
14837KMSN MSN20020608063509206/08/02 06:35:31  5-MIN KMSN 081235Z 19006KT 7SM CLR 18/13 A3004 760 75 1300 190/06 RMK AO2
14837KMSN MSN20020608064009506/08/02 06:40:31  5-MIN KMSN 081240Z 19006KT 5SM HZ CLR 18/13 A3004 760 75 1300 190/06 RMK AO2
14837KMSN MSN20020608064509506/08/02 06:45:31  5-MIN KMSN 081245Z 18008KT 6SM HZ CLR 18/13 A3004 760 72 1400 180/08 RMK AO2
14837KMSN MSN20020608065010906/08/02 06:50:31  5-MIN KMSN 081250Z 18007KT 7SM CLR 18/13 A3004 760 72 1400 170/07 RMK AO2 SLP168 T01830133
14837KMSN MSN20020608065509206/08/02 06:55:31  5-MIN KMSN 081255Z 18008KT 7SM CLR 19/14 A3004 760 72 1400 180/08 RMK AO2
14837KMSN MSN20020608070009206/08/02 07:00:31  5-MIN KMSN 081300Z 19008KT 7SM CLR 19/14 A3004 750 70 1500 190/08 RMK AO2
14837KMSN MSN20020608070509206/08/02 07:05:31  5-MIN KMSN 081305Z 20008KT 7SM CLR 19/13 A3004 750 67 1500 200/08 RMK AO2
14837KMSN MSN20020608071009206/08/02 07:10:31  5-MIN KMSN 081310Z 20007KT 7SM CLR 20/14 A3005 750 67 1500 200/07 RMK AO2
14837KMSN MSN20020608071509506/08/02 07:15:31  5-MIN KMSN 081315Z 19008KT 6SM HZ CLR 21/14 A3005 750 65 1600 190/08 RMK AO2
14837KMSN MSN20020608072009506/08/02 07:20:31  5-MIN KMSN 081320Z 20007KT 6SM HZ CLR 21/13 A3005 740 63 1600 200/07 RMK AO2
14837KMSN MSN20020608072509506/08/02 07:25:31  5-MIN KMSN 081325Z 20006KT 6SM HZ CLR 21/14 A3005 740 65 1600 200/06 RMK AO2
14837KMSN MSN20020608073009506/08/02 07:30:31  5-MIN KMSN 081330Z 20008KT 6SM HZ CLR 21/14 A3005 740 65 1600 200/08 RMK AO2
14837KMSN MSN20020608073509506/08/02 07:35:31  5-MIN KMSN 081335Z 20009KT 6SM HZ CLR 21/13 A3005 740 63 1600 200/09 RMK AO2
14837KMSN MSN20020608074009506/08/02 07:40:31  5-MIN KMSN 081340Z 19010KT 6SM HZ CLR 21/14 A3005 740 63 1700 190/10 RMK AO2
14837KMSN MSN20020608074509506/08/02 07:45:31  5-MIN KMSN 081345Z 21011KT 6SM HZ CLR 21/13 A3005 740 63 1600 200/11 RMK AO2
14837KMSN MSN20020608075011206/08/02 07:50:31  5-MIN KMSN 081350Z 20008KT 6SM HZ CLR 21/13 A3006 740 63 1600 200/08 RMK AO2 SLP174 T02060133
14837KMSN MSN20020608075509206/08/02 07:55:31  5-MIN KMSN 081355Z 20009KT 7SM CLR 21/14 A3006 740 63 1700 200/09 RMK AO2
14837KMSN MSN20020608080009206/08/02 08:00:31  5-MIN KMSN 081400Z 21009KT 7SM CLR 21/14 A3006 730 65 1600 210/09 RMK AO2
14837KMSN MSN20020608080509206/08/02 08:05:31  5-MIN KMSN 081405Z 21009KT 7SM CLR 21/14 A3006 730 63 1700 210/09 RMK AO2
14837KMSN MSN20020608081009206/08/02 08:10:31  5-MIN KMSN 081410Z 21009KT 7SM CLR 21/14 A3006 730 63 1700 210/09 RMK AO2
14837KMSN MSN20020608081509206/08/02 08:15:31  5-MIN KMSN 081415Z 21007KT 7SM CLR 21/14 A3006 730 63 1700 210/07 RMK AO2
14837KMSN MSN20020608082009206/08/02 08:20:31  5-MIN KMSN 081420Z 20009KT 7SM CLR 21/14 A3006 740 65 1700 200/09 RMK AO2
14837KMSN MSN20020608082509206/08/02 08:25:31  5-MIN KMSN 081425Z 20008KT 7SM CLR 21/14 A3006 740 65 1700 200/08 RMK AO2
14837KMSN MSN20020608083009206/08/02 08:30:31  5-MIN KMSN 081430Z 21007KT 7SM CLR 22/14 A3006 740 63 1700 210/07 RMK AO2
14837KMSN MSN20020608083509206/08/02 08:35:31  5-MIN KMSN 081435Z 20008KT 7SM CLR 22/14 A3006 740 61 1800 200/08 RMK AO2
14837KMSN MSN20020608084009206/08/02 08:40:31  5-MIN KMSN 081440Z 19008KT 8SM CLR 22/15 A3005 740 63 1800 190/08 RMK AO2
14837KMSN MSN20020608084509206/08/02 08:45:31  5-MIN KMSN 081445Z 21007KT 8SM CLR 22/14 A3005 740 61 1800 210/07 RMK AO2
14837KMSN MSN20020608085011506/08/02 08:50:31  5-MIN KMSN 081450Z 20007KT 8SM CLR 22/14 A3005 740 61 1800 200/07 RMK AO2 SLP172 T02220144 50006
14837KMSN MSN20020608085509206/08/02 08:55:31  5-MIN KMSN 081455Z 20006KT 8SM CLR 23/14 A3005 740 59 1900 200/06 RMK AO2
14837KMSN MSN20020608090010806/08/02 09:00:31  5-MIN KMSN 081500Z 22007KT 180V240 8SM CLR 23/15 A3005 750 61 1900 210/07 180V240 RMK AO2
14837KMSN MSN20020608090510806/08/02 09:05:31  5-MIN KMSN 081505Z 21009KT 180V240 8SM CLR 23/15 A3005 750 59 1900 210/09 180V240 RMK AO2
14837KMSN MSN20020608091009206/08/02 09:10:31  5-MIN KMSN 081510Z 19008KT 8SM CLR 23/15 A3005 750 59 1900 190/08 RMK AO2
14837KMSN MSN20020608091509206/08/02 09:15:31  5-MIN KMSN 081515Z 21008KT 8SM CLR 23/16 A3005 750 61 1900 210/08 RMK AO2
14837KMSN MSN20020608092009206/08/02 09:20:31  5-MIN KMSN 081520Z 20009KT 8SM CLR 23/15 A3005 750 59 1900 200/09 RMK AO2
14837KMSN MSN20020608092509206/08/02 09:25:31  5-MIN KMSN 081525Z 21007KT 8SM CLR 24/15 A3005 750 57 2000 200/07 RMK AO2
14837KMSN MSN20020608093009206/08/02 09:30:31  5-MIN KMSN 081530Z 21006KT 9SM CLR 24/16 A3005 740 59 2000 210/06 RMK AO2
14837KMSN MSN20020608093509506/08/02 09:35:31  5-MIN KMSN 081535Z 21006KT 9SM FEW040 24/16 A3005 740 59 2000 210/06 RMK AO2
14837KMSN MSN20020608094009506/08/02 09:40:31  5-MIN KMSN 081540Z 21008KT 9SM FEW040 24/16 A3005 740 59 2000 210/08 RMK AO2
14837KMSN MSN20020608094509506/08/02 09:45:31  5-MIN KMSN 081545Z 20007KT 9SM FEW040 24/16 A3005 740 59 2000 200/07 RMK AO2
14837KMSN MSN20020608095011206/08/02 09:50:31  5-MIN KMSN 081550Z VRB04KT 9SM FEW040 24/16 A3005 740 59 2000 VRB/04 RMK AO2 SLP173 T02390156
14837KMSN MSN20020608095509206/08/02 09:55:31  5-MIN KMSN 081555Z 22007KT 9SM CLR 24/16 A3005 740 57 2000 220/07 RMK AO2
14837KMSN MSN20020608100009206/08/02 10:00:31  5-MIN KMSN 081600Z 25007KT 9SM CLR 24/16 A3006 740 59 2000 250/07 RMK AO2
14837KMSN MSN20020608100509206/08/02 10:05:31  5-MIN KMSN 081605Z VRB05KT 9SM CLR 24/16 A3006 740 57 2000 VRB/05 RMK AO2
14837KMSN MSN20020608101009306/08/02 10:10:31  5-MIN KMSN 081610Z VRB06KT 10SM CLR 24/16 A3006 740 57 2000 VRB/06 RMK AO2
14837KMSN MSN20020608101509306/08/02 10:15:31  5-MIN KMSN 081615Z VRB06KT 10SM CLR 24/16 A3006 740 57 2000 VRB/06 RMK AO2
14837KMSN MSN20020608102009306/08/02 10:20:31  5-MIN KMSN 081620Z 22006KT 10SM CLR 24/16 A3005 740 57 2000 220/06 RMK AO2
14837KMSN MSN20020608102510906/08/02 10:25:31  5-MIN KMSN 081625Z 23008KT 190V260 10SM CLR 24/16 A3005 740 57 2000 230/08 190V260 RMK AO2
14837KMSN MSN20020608103009506/08/02 10:30:31  5-MIN KMSN 081630Z 22008KT 9SM FEW040 25/16 A3005 740 57 2100 220/08 RMK AO2
14837KMSN MSN20020608103509506/08/02 10:35:31  5-MIN KMSN 081635Z 21006KT 9SM FEW040 24/16 A3005 740 59 2000 210/06 RMK AO2
14837KMSN MSN20020608104009506/08/02 10:40:31  5-MIN KMSN 081640Z 24008KT 9SM FEW040 25/16 A3005 740 57 2100 240/08 RMK AO2
14837KMSN MSN20020608104509506/08/02 10:45:31  5-MIN KMSN 081645Z 23007KT 9SM FEW040 24/16 A3005 740 57 2000 220/07 RMK AO2
14837KMSN MSN20020608105011206/08/02 10:50:31  5-MIN KMSN 081650Z 25009KT 9SM FEW040 25/16 A3005 740 57 2100 240/09 RMK AO2 SLP173 T02500161
14837KMSN MSN20020608105509206/08/02 10:55:31  5-MIN KMSN 081655Z VRB06KT 9SM CLR 25/16 A3005 740 55 2100 VRB/06 RMK AO2
14837KMSN MSN20020608110010906/08/02 11:00:31  5-MIN KMSN 081700Z 22007KT 190V270 10SM CLR 25/16 A3005 740 55 2100 220/07 190V270 RMK AO2
14837KMSN MSN20020608110509306/08/02 11:05:31  5-MIN KMSN 081705Z 24007KT 10SM CLR 25/16 A3005 740 57 2100 240/07 RMK AO2
14837KMSN MSN20020608111009206/08/02 11:10:31  5-MIN KMSN 081710Z 21005KT 9SM CLR 25/16 A3005 750 57 2100 210/05 RMK AO2
14837KMSN MSN20020608111509206/08/02 11:15:31  5-MIN KMSN 081715Z 24007KT 9SM CLR 25/16 A3004 750 57 2100 240/07 RMK AO2
14837KMSN MSN20020608112009306/08/02 11:20:31  5-MIN KMSN 081720Z 22005KT 10SM CLR 26/16 A3005 750 55 2200 220/05 RMK AO2
14837KMSN MSN20020608112509306/08/02 11:25:31  5-MIN KMSN 081725Z 21006KT 10SM CLR 26/16 A3005 750 53 2200 210/06 RMK AO2
14837KMSN MSN20020608113009306/08/02 11:30:31  5-MIN KMSN 081730Z VRB05KT 10SM CLR 26/17 A3005 750 55 2200 VRB/05 RMK AO2
14837KMSN MSN20020608113509306/08/02 11:35:31  5-MIN KMSN 081735Z VRB04KT 10SM CLR 26/17 A3005 750 55 2200 VRB/04 RMK AO2
14837KMSN MSN20020608114009306/08/02 11:40:31  5-MIN KMSN 081740Z VRB06KT 10SM CLR 26/17 A3005 750 55 2200 VRB/06 RMK AO2
14837KMSN MSN20020608114509306/08/02 11:45:31  5-MIN KMSN 081745Z 22006KT 10SM CLR 26/16 A3005 740 55 2200 220/06 RMK AO2
14837KMSN MSN20020608115012806/08/02 11:50:31  5-MIN KMSN 081750Z 23008KT 10SM CLR 26/16 A3005 750 55 2200 230/08 RMK AO2 SLP172 T02560161 10261 20172 50002
14837KMSN MSN20020608115509306/08/02 11:55:31  5-MIN KMSN 081755Z 21008KT 10SM CLR 26/16 A3005 740 55 2200 210/08 RMK AO2
14837KMSN MSN20020608120009306/08/02 12:00:31  5-MIN KMSN 081800Z 23006KT 10SM CLR 26/17 A3005 750 57 2200 230/06 RMK AO2
14837KMSN MSN20020608120509306/08/02 12:05:31  5-MIN KMSN 081805Z 22007KT 10SM CLR 26/17 A3005 750 55 2200 220/07 RMK AO2
14837KMSN MSN20020608121009306/08/02 12:10:31  5-MIN KMSN 081810Z 21007KT 10SM CLR 26/17 A3005 750 55 2200 210/07 RMK AO2
14837KMSN MSN20020608121509306/08/02 12:15:31  5-MIN KMSN 081815Z 21006KT 10SM CLR 27/17 A3004 750 53 2300 210/06 RMK AO2
14837KMSN MSN20020608122009306/08/02 12:20:31  5-MIN KMSN 081820Z 21008KT 10SM CLR 27/17 A3004 750 53 2300 210/08 RMK AO2
14837KMSN MSN20020608122509306/08/02 12:25:31  5-MIN KMSN 081825Z 22007KT 10SM CLR 27/17 A3004 750 55 2300 220/07 RMK AO2
14837KMSN MSN20020608123009306/08/02 12:30:31  5-MIN KMSN 081830Z VRB06KT 10SM CLR 27/17 A3004 750 55 2300 VRB/06 RMK AO2
14837KMSN MSN20020608123509606/08/02 12:35:31  5-MIN KMSN 081835Z 21006KT 10SM FEW040 27/17 A3004 760 54 2400 200/06 RMK AO2
14837KMSN MSN20020608124009606/08/02 12:40:31  5-MIN KMSN 081840Z 23006KT 10SM FEW040 27/17 A3004 760 53 2300 230/06 RMK AO2
14837KMSN MSN20020608124509606/08/02 12:45:31  5-MIN KMSN 081845Z VRB06KT 10SM FEW040 27/17 A3004 760 54 2400 VRB/06 RMK AO2
14837KMSN MSN20020608125011306/08/02 12:50:31  5-MIN KMSN 081850Z 21007KT 10SM FEW040 27/17 A3003 760 55 2300 210/07 RMK AO2 SLP165 T02670172
14837KMSN MSN20020608125509606/08/02 12:55:31  5-MIN KMSN 081855Z VRB06KT 10SM FEW040 27/17 A3003 760 54 2400 VRB/06 RMK AO2
14837KMSN MSN20020608130009606/08/02 13:00:31  5-MIN KMSN 081900Z VRB05KT 10SM FEW040 27/17 A3003 760 55 2300 VRB/05 RMK AO2
14837KMSN MSN20020608130509606/08/02 13:05:31  5-MIN KMSN 081905Z 21007KT 10SM FEW040 27/17 A3003 760 54 2400 210/07 RMK AO2
14837KMSN MSN20020608131009606/08/02 13:10:31  5-MIN KMSN 081910Z 21006KT 10SM FEW040 27/17 A3003 760 54 2400 210/06 RMK AO2
14837KMSN MSN20020608131509606/08/02 13:15:31  5-MIN KMSN 081915Z 23005KT 10SM FEW040 27/17 A3003 760 54 2400 230/05 RMK AO2
14837KMSN MSN20020608132009606/08/02 13:20:31  5-MIN KMSN 081920Z VRB06KT 10SM FEW040 27/17 A3003 770 54 2400 VRB/06 RMK AO2
14837KMSN MSN20020608132509606/08/02 13:25:31  5-MIN KMSN 081925Z VRB06KT 10SM FEW040 27/17 A3003 770 55 2300 VRB/06 RMK AO2
14837KMSN MSN20020608133009606/08/02 13:30:31  5-MIN KMSN 081930Z VRB05KT 10SM FEW040 27/17 A3003 770 55 2300 VRB/05 RMK AO2
14837KMSN MSN20020608133509606/08/02 13:35:31  5-MIN KMSN 081935Z 24007KT 10SM FEW040 27/17 A3003 770 54 2400 240/07 RMK AO2
14837KMSN MSN20020608134009606/08/02 13:40:31  5-MIN KMSN 081940Z 23005KT 10SM FEW040 27/17 A3003 760 54 2400 230/05 RMK AO2
14837KMSN MSN20020608134509606/08/02 13:45:31  5-MIN KMSN 081945Z VRB05KT 10SM FEW040 27/17 A3003 770 55 2300 VRB/05 RMK AO2
14837KMSN MSN20020608135011306/08/02 13:50:31  5-MIN KMSN 081950Z VRB05KT 10SM FEW040 27/18 A3003 760 56 2400 VRB/05 RMK AO2 SLP163 T02720178
14837KMSN MSN20020608135509306/08/02 13:55:31  5-MIN KMSN 081955Z VRB03KT 10SM CLR 27/18 A3003 770 56 2400 VRB/03 RMK AO2
14837KMSN MSN20020608140009606/08/02 14:00:31  5-MIN KMSN 082000Z 23006KT 10SM FEW040 28/18 A3003 770 54 2400 230/06 RMK AO2
14837KMSN MSN20020609150009606/09/02 15:00:31  5-MIN KMSN 092100Z 18012KT 10SM FEW060 29/15 A2998 810 41 2700 170/12 RMK AO2
14837KMSN MSN20020609150509606/09/02 15:05:31  5-MIN KMSN 092105Z 17012KT 10SM FEW060 29/14 A2997 820 40 2600 170/12 RMK AO2
14837KMSN MSN20020609151009606/09/02 15:10:31  5-MIN KMSN 092110Z 18011KT 10SM FEW060 29/14 A2997 820 39 2700 180/11 RMK AO2
14837KMSN MSN20020609151509606/09/02 15:15:31  5-MIN KMSN 092115Z 17011KT 10SM FEW060 29/15 A2997 820 41 2700 160/11 RMK AO2
14837KMSN MSN20020609152009606/09/02 15:20:31  5-MIN KMSN 092120Z 16011KT 10SM FEW060 29/15 A2996 830 41 2700 150/11 RMK AO2
14837KMSN MSN20020609152509606/09/02 15:25:31  5-MIN KMSN 092125Z 17011KT 10SM FEW060 29/15 A2996 830 41 2700 170/11 RMK AO2
14837KMSN MSN20020609153009606/09/02 15:30:31  5-MIN KMSN 092130Z 17012KT 10SM FEW060 29/14 A2996 830 40 2600 170/12 RMK AO2
14837KMSN MSN20020609153509606/09/02 15:35:31  5-MIN KMSN 092135Z 18013KT 10SM FEW060 29/14 A2996 830 39 2700 180/13 RMK AO2
14837KMSN MSN20020609154009606/09/02 15:40:31  5-MIN KMSN 092140Z 17011KT 10SM FEW060 29/15 A2996 830 41 2700 170/11 RMK AO2
14837KMSN MSN20020609154509606/09/02 15:45:31  5-MIN KMSN 092145Z 18011KT 10SM FEW060 29/15 A2995 830 41 2700 180/11 RMK AO2
14837KMSN MSN20020609155011306/09/02 15:50:31  5-MIN KMSN 092150Z 18011KT 10SM FEW060 29/14 A2995 840 39 2700 170/11 RMK AO2 SLP137 T02940144
14837KMSN MSN20020609155509306/09/02 15:55:31  5-MIN KMSN 092155Z 18013KT 10SM CLR 29/14 A2995 840 39 2700 180/13 RMK AO2
14837KMSN MSN20020609160009306/09/02 16:00:31  5-MIN KMSN 092200Z 19012KT 10SM CLR 29/14 A2995 840 39 2700 190/12 RMK AO2
14837KMSN MSN20020609160509306/09/02 16:05:31  5-MIN KMSN 092205Z 18011KT 10SM CLR 29/14 A2995 840 40 2700 180/11 RMK AO2
14837KMSN MSN20020609161009306/09/02 16:10:31  5-MIN KMSN 092210Z 17012KT 10SM CLR 29/14 A2995 840 39 2700 170/12 RMK AO2
14837KMSN MSN20020609161509306/09/02 16:15:31  5-MIN KMSN 092215Z 18011KT 10SM CLR 29/14 A2994 840 39 2700 180/11 RMK AO2
14837KMSN MSN20020609162009306/09/02 16:20:31  5-MIN KMSN 092220Z 18010KT 10SM CLR 29/14 A2994 850 40 2700 180/10 RMK AO2
14837KMSN MSN20020609162509306/09/02 16:25:31  5-MIN KMSN 092225Z 19008KT 10SM CLR 29/14 A2994 850 39 2700 190/08 RMK AO2
14837KMSN MSN20020609163009306/09/02 16:30:31  5-MIN KMSN 092230Z 19009KT 10SM CLR 29/14 A2994 850 39 2700 190/09 RMK AO2
14837KMSN MSN20020609163509306/09/02 16:35:31  5-MIN KMSN 092235Z 18007KT 10SM CLR 29/14 A2994 850 39 2700 180/07 RMK AO2
14837KMSN MSN20020609164009306/09/02 16:40:31  5-MIN KMSN 092240Z 17010KT 10SM CLR 29/15 A2994 850 41 2700 160/10 RMK AO2
14837KMSN MSN20020609164509306/09/02 16:45:31  5-MIN KMSN 092245Z 17010KT 10SM CLR 29/15 A2994 850 42 2700 170/10 RMK AO2
14837KMSN MSN20020609165011306/09/02 16:50:31  5-MIN KMSN 092250Z 18009KT 10SM FEW060 29/14 A2994 850 40 2700 180/09 RMK AO2 SLP133 T02890144
14837KMSN MSN20020609165509306/09/02 16:55:31  5-MIN KMSN 092255Z 18005KT 10SM CLR 29/15 A2993 850 42 2700 180/05 RMK AO2
14837KMSN MSN20020609170009306/09/02 17:00:31  5-MIN KMSN 092300Z 16008KT 10SM CLR 29/16 A2993 850 44 2700 160/08 RMK AO2
14837KMSN MSN20020609170509306/09/02 17:05:31  5-MIN KMSN 092305Z 17008KT 10SM CLR 29/15 A2994 850 42 2700 170/08 RMK AO2
14837KMSN MSN20020609171009306/09/02 17:10:31  5-MIN KMSN 092310Z 17007KT 10SM CLR 29/15 A2993 850 42 2700 170/07 RMK AO2
14837KMSN MSN20020609171509306/09/02 17:15:31  5-MIN KMSN 092315Z 17006KT 10SM CLR 29/16 A2994 850 44 2700 170/06 RMK AO2
14837KMSN MSN20020609172009606/09/02 17:20:31  5-MIN KMSN 092320Z 17007KT 10SM FEW070 29/16 A2994 850 44 2700 170/07 RMK AO2
14837KMSN MSN20020609172509606/09/02 17:25:31  5-MIN KMSN 092325Z 17007KT 10SM FEW070 29/16 A2994 850 45 2700 170/07 RMK AO2
14837KMSN MSN20020609173009306/09/02 17:30:31  5-MIN KMSN 092330Z 16007KT 10SM CLR 29/16 A2994 850 44 2700 160/07 RMK AO2
14837KMSN MSN20020609173509306/09/02 17:35:31  5-MIN KMSN 092335Z 17007KT 10SM CLR 28/16 A2994 850 45 2600 170/07 RMK AO2
14837KMSN MSN20020609174009306/09/02 17:40:31  5-MIN KMSN 092340Z 16007KT 10SM CLR 28/16 A2994 850 47 2600 160/07 RMK AO2
14837KMSN MSN20020609174509306/09/02 17:45:31  5-MIN KMSN 092345Z 16007KT 10SM CLR 28/16 A2994 850 47 2600 160/07 RMK AO2
14837KMSN MSN20020609175013106/09/02 17:50:31  5-MIN KMSN 092350Z 16006KT 10SM FEW060 28/16 A2994 850 48 2500 160/06 RMK AO2 SLP135 T02780161 10294 20278 58025
14837KMSN MSN20020609175509306/09/02 17:55:31  5-MIN KMSN 092355Z 16006KT 10SM CLR 28/16 A2994 850 48 2500 160/06 RMK AO2
14837KMSN MSN20020609180009306/09/02 18:00:31  5-MIN KMSN 100000Z 16007KT 10SM CLR 28/16 A2994 850 48 2600 160/07 RMK AO2
14837KMSN MSN20020609180509306/09/02 18:05:31  5-MIN KMSN 100005Z 16005KT 10SM CLR 27/17 A2994 850 52 2500 160/05 RMK AO2
14837KMSN MSN20020609181009306/09/02 18:10:31  5-MIN KMSN 100010Z 16006KT 10SM CLR 27/17 A2994 850 52 2500 160/06 RMK AO2
14837KMSN MSN20020609181509306/09/02 18:15:31  5-MIN KMSN 100015Z 17005KT 10SM CLR 27/17 A2994 850 52 2500 170/05 RMK AO2
14837KMSN MSN20020609182009306/09/02 18:20:31  5-MIN KMSN 100020Z 16005KT 10SM CLR 27/17 A2994 850 52 2500 160/05 RMK AO2
14837KMSN MSN20020609182509306/09/02 18:25:31  5-MIN KMSN 100025Z 16005KT 10SM CLR 27/16 A2994 850 50 2500 160/05 RMK AO2
14837KMSN MSN20020609183009606/09/02 18:30:31  5-MIN KMSN 100030Z 17004KT 10SM FEW075 27/17 A2994 850 52 2500 170/04 RMK AO2
14837KMSN MSN20020609183509606/09/02 18:35:31  5-MIN KMSN 100035Z 16004KT 10SM SCT075 27/17 A2994 850 52 2500 160/04 RMK AO2
14837KMSN MSN20020609184009606/09/02 18:40:31  5-MIN KMSN 100040Z 14005KT 10SM BKN075 27/17 A2994 850 52 2500 140/05 RMK AO2
14837KMSN MSN20020609184509606/09/02 18:45:31  5-MIN KMSN 100045Z 13004KT 10SM BKN075 27/17 A2994 850 52 2500 130/04 RMK AO2
14837KMSN MSN20020609185011306/09/02 18:50:31  5-MIN KMSN 100050Z 13005KT 10SM SCT075 27/17 A2994 850 52 2500 130/05 RMK AO2 SLP133 T02720167
14837KMSN MSN20020609185509606/09/02 18:55:31  5-MIN KMSN 100055Z 13005KT 10SM BKN075 27/17 A2994 850 53 2400 130/05 RMK AO2
14837KMSN MSN20020609190009606/09/02 19:00:31  5-MIN KMSN 100100Z 13006KT 10SM BKN075 27/17 A2994 850 53 2400 130/06 RMK AO2
14837KMSN MSN20020609190509606/09/02 19:05:31  5-MIN KMSN 100105Z 12013KT 10SM BKN070 27/17 A2994 840 53 2400 120/13 RMK AO2
14837KMSN MSN20020609191010106/09/02 19:10:31  5-MIN KMSN 100110Z 13014G19KT 9SM BKN075 27/16 A2995 840 52 2400 130/14G19 RMK AO2
14837KMSN MSN20020609191509506/09/02 19:15:31  5-MIN KMSN 100115Z 13010KT 9SM SCT070 26/16 A2994 840 53 2400 130/10 RMK AO2
14837KMSN MSN20020609192009506/09/02 19:20:31  5-MIN KMSN 100120Z 14014KT 8SM BKN070 26/16 A2994 840 53 2400 140/14 RMK AO2
14837KMSN MSN20020609192509506/09/02 19:25:31  5-MIN KMSN 100125Z 14011KT 9SM SCT075 26/16 A2994 840 51 2400 140/11 RMK AO2
14837KMSN MSN20020609193009506/09/02 19:30:31  5-MIN KMSN 100130Z 14010KT 9SM SCT075 26/16 A2994 850 51 2400 140/10 RMK AO2
14837KMSN MSN20020609193509506/09/02 19:35:31  5-MIN KMSN 100135Z 14010KT 9SM FEW075 26/16 A2994 850 53 2300 140/10 RMK AO2
14837KMSN MSN20020609194009506/09/02 19:40:31  5-MIN KMSN 100140Z 14009KT 9SM FEW075 26/16 A2994 850 53 2300 130/09 RMK AO2
14837KMSN MSN20020609194509506/09/02 19:45:31  5-MIN KMSN 100145Z 13008KT 9SM FEW075 25/16 A2994 850 55 2200 130/08 RMK AO2
14837KMSN MSN20020609195011206/09/02 19:50:31  5-MIN KMSN 100150Z 13009KT 9SM FEW070 26/16 A2994 850 53 2300 130/09 RMK AO2 SLP133 T02560156
14837KMSN MSN20020609195509206/09/02 19:55:31  5-MIN KMSN 100155Z 14009KT 8SM CLR 26/16 A2994 850 53 2300 140/09 RMK AO2
14837KMSN MSN20020609200009206/09/02 20:00:31  5-MIN KMSN 100200Z 13008KT 8SM CLR 25/16 A2994 850 55 2200 130/08 RMK AO2
14837KMSN MSN20020609200509206/09/02 20:05:31  5-MIN KMSN 100205Z 13008KT 9SM CLR 24/16 A2994 850 57 2200 130/08 RMK AO2
14837KMSN MSN20020609201009206/09/02 20:10:31  5-MIN KMSN 100210Z 14010KT 9SM CLR 25/15 A2994 850 53 2200 140/10 RMK AO2
14837KMSN MSN20020609201509206/09/02 20:15:31  5-MIN KMSN 100215Z 14008KT 9SM CLR 24/15 A2994 850 55 2200 140/08 RMK AO2
14837KMSN MSN20020609202009206/09/02 20:20:31  5-MIN KMSN 100220Z 13008KT 9SM CLR 24/15 A2994 840 55 2200 130/08 RMK AO2
14837KMSN MSN20020609202509206/09/02 20:25:31  5-MIN KMSN 100225Z 13006KT 9SM CLR 24/15 A2995 840 57 2100 130/06 RMK AO2
14837KMSN MSN20020609203009506/09/02 20:30:31  5-MIN KMSN 100230Z 13006KT 9SM FEW070 24/15 A2995 840 57 2100 130/06 RMK AO2
14837KMSN MSN20020609203509506/09/02 20:35:31  5-MIN KMSN 100235Z 13008KT 9SM SCT070 24/15 A2995 830 55 2200 130/08 RMK AO2
14837KMSN MSN20020609204009506/09/02 20:40:31  5-MIN KMSN 100240Z 14008KT 9SM BKN070 24/15 A2995 840 55 2200 130/08 RMK AO2
14837KMSN MSN20020609204509606/09/02 20:45:31  5-MIN KMSN 100245Z 13008KT 10SM SCT070 24/15 A2995 840 55 2200 130/08 RMK AO2
14837KMSN MSN20020609205011906/09/02 20:50:31  5-MIN KMSN 100250Z 13008KT 10SM SCT070 24/15 A2995 830 55 2200 130/08 RMK AO2 SLP138 T02440150 55013
14837KMSN MSN20020609205509606/09/02 20:55:31  5-MIN KMSN 100255Z 13006KT 10SM BKN070 24/15 A2996 830 57 2100 120/06 RMK AO2
14837KMSN MSN20020609210009606/09/02 21:00:31  5-MIN KMSN 100300Z 13007KT 10SM BKN065 24/15 A2996 830 57 2100 130/07 RMK AO2
14837KMSN MSN20020609210509506/09/02 21:05:31  5-MIN KMSN 100305Z 12009KT 9SM BKN065 24/15 A2996 830 57 2100 120/09 RMK AO2
14837KMSN MSN20020609211009606/09/02 21:10:31  5-MIN KMSN 100310Z 13009KT 10SM BKN065 24/15 A2996 830 57 2100 130/09 RMK AO2
14837KMSN MSN20020609211509606/09/02 21:15:31  5-MIN KMSN 100315Z 14007KT 10SM OVC065 24/15 A2996 830 57 2100 140/07 RMK AO2
14837KMSN MSN20020609212009606/09/02 21:20:31  5-MIN KMSN 100320Z 13009KT 10SM BKN065 24/14 A2996 830 55 2100 130/09 RMK AO2
14837KMSN MSN20020609212509606/09/02 21:25:31  5-MIN KMSN 100325Z 14008KT 10SM BKN065 24/14 A2996 830 55 2100 140/08 RMK AO2
14837KMSN MSN20020609213009606/09/02 21:30:31  5-MIN KMSN 100330Z 14008KT 10SM BKN065 24/14 A2996 830 55 2100 140/08 RMK AO2
14837KMSN MSN20020609213509606/09/02 21:35:31  5-MIN KMSN 100335Z 14005KT 10SM BKN070 24/15 A2996 830 57 2100 140/05 RMK AO2
14837KMSN MSN20020609214009606/09/02 21:40:31  5-MIN KMSN 100340Z 14007KT 10SM BKN070 24/14 A2996 830 55 2100 130/07 RMK AO2
14837KMSN MSN20020609214509606/09/02 21:45:31  5-MIN KMSN 100345Z 14007KT 10SM BKN070 24/14 A2996 830 55 2100 140/07 RMK AO2
14837KMSN MSN20020609215011306/09/02 21:50:31  5-MIN KMSN 100350Z 14008KT 10SM SCT065 24/14 A2996 830 55 2100 140/08 RMK AO2 SLP138 T02390144
14837KMSN MSN20020609215509606/09/02 21:55:31  5-MIN KMSN 100355Z 14007KT 10SM BKN065 24/14 A2996 830 55 2100 140/07 RMK AO2
14837KMSN MSN20020609220009606/09/02 22:00:31  5-MIN KMSN 100400Z 14007KT 10SM BKN065 23/14 A2996 830 57 2000 140/07 RMK AO2
14837KMSN MSN20020609220509606/09/02 22:05:31  5-MIN KMSN 100405Z 14008KT 10SM BKN065 24/14 A2996 830 55 2100 140/08 RMK AO2
14837KMSN MSN20020609221009606/09/02 22:10:31  5-MIN KMSN 100410Z 14008KT 10SM BKN065 23/14 A2996 830 57 2000 140/08 RMK AO2
14837KMSN MSN20020609221509606/09/02 22:15:31  5-MIN KMSN 100415Z 14008KT 10SM BKN065 23/14 A2995 830 57 2000 130/08 RMK AO2
14837KMSN MSN20020609222009606/09/02 22:20:31  5-MIN KMSN 100420Z 14007KT 10SM BKN065 23/14 A2995 830 57 2000 140/07 RMK AO2
14837KMSN MSN20020609222509606/09/02 22:25:31  5-MIN KMSN 100425Z 14006KT 10SM BKN065 23/14 A2995 830 57 2000 140/06 RMK AO2
14837KMSN MSN20020609223009606/09/02 22:30:31  5-MIN KMSN 100430Z 14006KT 10SM BKN065 23/14 A2996 830 57 2000 140/06 RMK AO2
14837KMSN MSN20020609223509606/09/02 22:35:31  5-MIN KMSN 100435Z 14006KT 10SM BKN065 23/14 A2995 830 57 2000 140/06 RMK AO2
14837KMSN MSN20020609224009606/09/02 22:40:31  5-MIN KMSN 100440Z 15007KT 10SM BKN065 23/14 A2995 830 57 2000 150/07 RMK AO2
14837KMSN MSN20020609224509606/09/02 22:45:31  5-MIN KMSN 100445Z 15006KT 10SM BKN065 23/14 A2995 830 57 2000 150/06 RMK AO2
14837KMSN MSN20020609225011306/09/02 22:50:31  5-MIN KMSN 100450Z 14007KT 10SM FEW065 23/14 A2995 840 57 2000 140/07 RMK AO2 SLP136 T02280139
14837KMSN MSN20020609225509606/09/02 22:55:31  5-MIN KMSN 100455Z 15008KT 10SM SCT065 23/14 A2995 830 57 2000 150/08 RMK AO2
14837KMSN MSN20020609230009606/09/02 23:00:31  5-MIN KMSN 100500Z 15007KT 10SM SCT065 23/14 A2995 840 57 2000 150/07 RMK AO2
14837KMSN MSN20020609230510306/09/02 23:05:31  5-MIN KMSN 100505Z 16008KT 10SM FEW060 SCT080 23/14 A2995 840 57 2000 150/08 RMK AO2
14837KMSN MSN20020609231010306/09/02 23:10:31  5-MIN KMSN 100510Z 15008KT 10SM FEW060 SCT080 23/14 A2995 840 57 2000 150/08 RMK AO2
14837KMSN MSN20020609231510306/09/02 23:15:31  5-MIN KMSN 100515Z 16008KT 10SM FEW060 SCT085 23/14 A2995 840 57 2000 160/08 RMK AO2
14837KMSN MSN20020609232009606/09/02 23:20:31  5-MIN KMSN 100520Z 15008KT 10SM FEW060 23/14 A2995 840 57 2000 150/08 RMK AO2
14837KMSN MSN20020609232509606/09/02 23:25:31  5-MIN KMSN 100525Z 16007KT 10SM FEW060 23/14 A2995 840 57 2000 160/07 RMK AO2
14837KMSN MSN20020609233009606/09/02 23:30:31  5-MIN KMSN 100530Z 15009KT 10SM FEW080 23/14 A2995 840 57 2000 150/09 RMK AO2
14837KMSN MSN20020609233509606/09/02 23:35:31  5-MIN KMSN 100535Z 16008KT 10SM FEW080 23/14 A2994 840 57 2000 160/08 RMK AO2
14837KMSN MSN20020609234009306/09/02 23:40:31  5-MIN KMSN 100540Z 16007KT 10SM CLR 23/14 A2994 840 57 2000 150/07 RMK AO2
14837KMSN MSN20020609234509306/09/02 23:45:31  5-MIN KMSN 100545Z 15009KT 10SM CLR 22/14 A2994 840 59 1900 150/09 RMK AO2
14837KMSN MSN20020609235013806/09/02 23:50:31  5-MIN KMSN 100550Z 16009KT 10SM CLR 22/14 A2994 850 59 1900 160/09 RMK AO2 SLP132 T02220139 10278 20222 402940139 53005
14837KMSN MSN20020609235509306/09/02 23:55:31  5-MIN KMSN 100555Z 17008KT 10SM CLR 23/14 A2994 840 57 2000 160/08 RMK AO2
14837KMSN MSN20020610000009306/10/02 00:00:31  5-MIN KMSN 100600Z 17007KT 10SM CLR 23/14 A2994 850 57 2000 160/07 RMK AO2
14837KMSN MSN20020610000509306/10/02 00:05:31  5-MIN KMSN 100605Z 16008KT 10SM CLR 22/14 A2994 850 61 1900 160/08 RMK AO2
14837KMSN MSN20020610001009306/10/02 00:10:31  5-MIN KMSN 100610Z 16008KT 10SM CLR 22/14 A2994 850 63 1900 160/08 RMK AO2
14837KMSN MSN20020610001509306/10/02 00:15:31  5-MIN KMSN 100615Z 16007KT 10SM CLR 22/14 A2994 850 59 1900 160/07 RMK AO2
14837KMSN MSN20020610002009306/10/02 00:20:31  5-MIN KMSN 100620Z 16007KT 10SM CLR 22/14 A2994 850 61 1900 160/07 RMK AO2
14837KMSN MSN20020610002509306/10/02 00:25:31  5-MIN KMSN 100625Z 17007KT 10SM CLR 22/14 A2993 850 59 1900 170/07 RMK AO2
14837KMSN MSN20020610003009606/10/02 00:30:31  5-MIN KMSN 100630Z 17007KT 10SM FEW060 22/14 A2993 850 59 1900 160/07 RMK AO2
14837KMSN MSN20020610003509606/10/02 00:35:31  5-MIN KMSN 100635Z 17006KT 10SM FEW060 22/14 A2994 850 59 1900 170/06 RMK AO2
14837KMSN MSN20020610004009606/10/02 00:40:31  5-MIN KMSN 100640Z 18006KT 10SM FEW060 22/14 A2994 850 59 1900 170/06 RMK AO2
14837KMSN MSN20020610004509606/10/02 00:45:31  5-MIN KMSN 100645Z 17006KT 10SM FEW060 22/14 A2993 850 63 1900 170/06 RMK AO2
14837KMSN MSN20020610005012006/10/02 00:50:31  5-MIN KMSN 100650Z 17006KT 10SM FEW060 SCT090 22/14 A2993 850 63 1900 170/06 RMK AO2 SLP130 T02170144
14837KMSN MSN20020610005510306/10/02 00:55:31  5-MIN KMSN 100655Z 17006KT 10SM FEW060 SCT090 22/14 A2993 850 63 1900 170/06 RMK AO2
14837KMSN MSN20020610010009606/10/02 01:00:31  5-MIN KMSN 100700Z 18007KT 10SM SCT085 22/14 A2993 850 63 1900 180/07 RMK AO2
14837KMSN MSN20020610010509506/10/02 01:05:31  5-MIN KMSN 100705Z 18007KT 9SM SCT085 22/14 A2993 850 61 1900 170/07 RMK AO2
14837KMSN MSN20020610011009506/10/02 01:10:31  5-MIN KMSN 100710Z 17007KT 9SM SCT085 22/15 A2993 850 63 1900 170/07 RMK AO2
14837KMSN MSN20020610011510206/10/02 01:15:31  5-MIN KMSN 100715Z 17007KT 9SM FEW060 SCT085 22/15 A2993 850 65 1900 170/07 RMK AO2
14837KMSN MSN20020610012010206/10/02 01:20:31  5-MIN KMSN 100720Z 18007KT 9SM FEW060 BKN080 22/15 A2993 860 63 1900 170/07 RMK AO2
14837KMSN MSN20020610012510206/10/02 01:25:31  5-MIN KMSN 100725Z 18007KT 9SM FEW060 BKN080 22/16 A2993 860 65 1900 180/07 RMK AO2
14837KMSN MSN20020610013010206/10/02 01:30:31  5-MIN KMSN 100730Z 18007KT 9SM FEW060 SCT080 22/16 A2993 860 65 1900 180/07 RMK AO2
14837KMSN MSN20020610013509506/10/02 01:35:31  5-MIN KMSN 100735Z 17007KT 9SM FEW060 22/16 A2993 860 65 1900 170/07 RMK AO2
14837KMSN MSN20020610014009506/10/02 01:40:31  5-MIN KMSN 100740Z 18006KT 9SM FEW060 22/16 A2993 860 65 1900 180/06 RMK AO2
14837KMSN MSN20020610014509506/10/02 01:45:31  5-MIN KMSN 100745Z 18007KT 8SM FEW060 22/16 A2993 860 68 1900 180/07 RMK AO2
14837KMSN MSN20020610015010906/10/02 01:50:31  5-MIN KMSN 100750Z 18007KT 8SM CLR 22/16 A2993 860 68 1900 180/07 RMK AO2 SLP128 T02220161
14837KMSN MSN20020610015509206/10/02 01:55:31  5-MIN KMSN 100755Z 18006KT 8SM CLR 22/16 A2993 860 70 1900 180/06 RMK AO2
14837KMSN MSN20020610020009206/10/02 02:00:31  5-MIN KMSN 100800Z 18007KT 8SM CLR 22/16 A2993 860 70 1900 180/07 RMK AO2
14837KMSN MSN20020610020509206/10/02 02:05:31  5-MIN KMSN 100805Z 18006KT 8SM CLR 22/16 A2993 860 70 1900 180/06 RMK AO2
14837KMSN MSN20020610021009206/10/02 02:10:31  5-MIN KMSN 100810Z 18006KT 8SM CLR 22/16 A2992 860 70 1900 180/06 RMK AO2
14837KMSN MSN20020610021509206/10/02 02:15:31  5-MIN KMSN 100815Z 18006KT 8SM CLR 22/17 A2992 860 73 1900 180/06 RMK AO2
14837KMSN MSN20020610022009206/10/02 02:20:31  5-MIN KMSN 100820Z 18006KT 7SM CLR 22/17 A2992 860 73 1900 180/06 RMK AO2
14837KMSN MSN20020610022509206/10/02 02:25:31  5-MIN KMSN 100825Z 18005KT 7SM CLR 22/17 A2992 860 73 1900 180/05 RMK AO2
14837KMSN MSN20020610023009206/10/02 02:30:31  5-MIN KMSN 100830Z 17005KT 7SM CLR 21/17 A2992 860 75 1800 170/05 RMK AO2
14837KMSN MSN20020610023509206/10/02 02:35:31  5-MIN KMSN 100835Z 17005KT 7SM CLR 21/17 A2992 860 78 1700 170/05 RMK AO2
14837KMSN MSN20020610024009206/10/02 02:40:31  5-MIN KMSN 100840Z 17004KT 7SM CLR 20/16 A2992 860 78 1700 170/04 RMK AO2
14837KMSN MSN20020610024509206/10/02 02:45:31  5-MIN KMSN 100845Z 19003KT 7SM CLR 20/17 A2992 860 81 1700 190/03 RMK AO2
14837KMSN MSN20020610025011506/10/02 02:50:31  5-MIN KMSN 100850Z 18003KT 7SM CLR 19/17 A2992 860 84 1600 180/03 RMK AO2 SLP126 T01940167 58004
14837KMSN MSN20020610025509506/10/02 02:55:31  5-MIN KMSN 100855Z 00000KT 6SM HZ CLR 19/16 A2992 870 84 1600 000/00 RMK AO2
14837KMSN MSN20020610030009506/10/02 03:00:31  5-MIN KMSN 100900Z 17003KT 6SM HZ CLR 19/17 A2992 870 84 1600 170/03 RMK AO2
14837KMSN MSN20020610030509506/10/02 03:05:31  5-MIN KMSN 100905Z VRB04KT 6SM HZ CLR 19/17 A2992 870 84 1600 VRB/04 RMK AO2
14837KMSN MSN20020610031009506/10/02 03:10:31  5-MIN KMSN 100910Z 18004KT 6SM HZ CLR 19/17 A2991 870 84 1600 180/04 RMK AO2
14837KMSN MSN20020610031509506/10/02 03:15:31  5-MIN KMSN 100915Z 18005KT 6SM HZ CLR 21/17 A2991 870 81 1800 180/05 RMK AO2
14837KMSN MSN20020610032009506/10/02 03:20:31  5-MIN KMSN 100920Z 19004KT 6SM HZ CLR 21/17 A2991 870 81 1800 180/04 RMK AO2
14837KMSN MSN20020610032509506/10/02 03:25:31  5-MIN KMSN 100925Z VRB03KT 6SM HZ CLR 19/17 A2991 870 84 1600 VRB/03 RMK AO2
14837KMSN MSN20020610033009506/10/02 03:30:31  5-MIN KMSN 100930Z 16003KT 6SM HZ CLR 20/17 A2991 870 84 1700 160/03 RMK AO2
14837KMSN MSN20020610033509506/10/02 03:35:31  5-MIN KMSN 100935Z 00000KT 6SM HZ CLR 19/17 A2991 880 84 1600 000/00 RMK AO2
14837KMSN MSN20020610034009506/10/02 03:40:31  5-MIN KMSN 100940Z 00000KT 6SM HZ CLR 20/17 A2991 880 84 1700 000/00 RMK AO2
14837KMSN MSN20020610034509506/10/02 03:45:31  5-MIN KMSN 100945Z 14003KT 6SM HZ CLR 20/17 A2991 870 84 1700 140/03 RMK AO2
14837KMSN MSN20020610035011206/10/02 03:50:31  5-MIN KMSN 100950Z 15003KT 6SM HZ CLR 20/17 A2991 870 84 1700 140/03 RMK AO2 SLP123 T02000172
14837KMSN MSN20020610035509506/10/02 03:55:31  5-MIN KMSN 100955Z 00000KT 6SM HZ CLR 20/17 A2992 870 84 1700 000/00 RMK AO2
14837KMSN MSN20020610040009506/10/02 04:00:31  5-MIN KMSN 101000Z 00000KT 5SM HZ CLR 20/17 A2991 870 84 1700 000/00 RMK AO2
14837KMSN MSN20020610040509506/10/02 04:05:31  5-MIN KMSN 101005Z 00000KT 5SM HZ CLR 20/17 A2991 870 84 1700 000/00 RMK AO2
14837KMSN MSN20020610041009506/10/02 04:10:31  5-MIN KMSN 101010Z 00000KT 5SM BR CLR 19/17 A2991 870 87 1600 000/00 RMK AO2
14837KMSN MSN20020610041509506/10/02 04:15:31  5-MIN KMSN 101015Z 18004KT 5SM BR CLR 19/17 A2991 870 87 1600 170/04 RMK AO2
14837KMSN MSN20020610042009506/10/02 04:20:31  5-MIN KMSN 101020Z VRB03KT 5SM HZ CLR 20/17 A2991 870 84 1700 VRB/03 RMK AO2
14837KMSN MSN20020610042509506/10/02 04:25:31  5-MIN KMSN 101025Z 00000KT 4SM BR CLR 19/17 A2991 870 87 1600 000/00 RMK AO2
14837KMSN MSN20020610043009506/10/02 04:30:31  5-MIN KMSN 101030Z VRB04KT 4SM BR CLR 20/18 A2992 870 87 1700 VRB/04 RMK AO2
14837KMSN MSN20020610043509506/10/02 04:35:31  5-MIN KMSN 101035Z 18005KT 4SM BR CLR 20/18 A2992 870 87 1700 180/05 RMK AO2
14837KMSN MSN20020610044009506/10/02 04:40:31  5-MIN KMSN 101040Z 17004KT 4SM BR CLR 20/18 A2992 870 87 1700 170/04 RMK AO2
14837KMSN MSN20020610044509506/10/02 04:45:31  5-MIN KMSN 101045Z 17004KT 3SM BR CLR 20/18 A2992 870 87 1700 170/04 RMK AO2
14837KMSN MSN20020610045011206/10/02 04:50:31  5-MIN KMSN 101050Z 17004KT 3SM BR CLR 20/18 A2992 870 87 1700 170/04 RMK AO2 SLP126 T02000178
14837KMSN MSN20020610045509506/10/02 04:55:31  5-MIN KMSN 101055Z 17004KT 3SM BR CLR 20/18 A2992 870 90 1700 170/04 RMK AO2
14837KMSN MSN20020610050009506/10/02 05:00:31  5-MIN KMSN 101100Z 18005KT 3SM BR CLR 21/18 A2992 870 87 1800 180/05 RMK AO2
14837KMSN MSN20020610050509506/10/02 05:05:31  5-MIN KMSN 101105Z 17004KT 3SM BR CLR 21/18 A2991 870 87 1800 170/04 RMK AO2
14837KMSN MSN20020610051009506/10/02 05:10:31  5-MIN KMSN 101110Z 19005KT 3SM BR CLR 21/18 A2992 870 87 1800 180/05 RMK AO2
14837KMSN MSN20020610051509506/10/02 05:15:31  5-MIN KMSN 101115Z 18006KT 3SM BR CLR 21/18 A2992 870 87 1800 180/06 RMK AO2
14837KMSN MSN20020610052009506/10/02 05:20:31  5-MIN KMSN 101120Z 17004KT 3SM BR CLR 21/18 A2992 870 87 1800 170/04 RMK AO2
14837KMSN MSN20020610052509506/10/02 05:25:31  5-MIN KMSN 101125Z 16005KT 3SM BR CLR 21/18 A2992 870 87 1800 160/05 RMK AO2
14837KMSN MSN20020610053009506/10/02 05:30:31  5-MIN KMSN 101130Z 16005KT 3SM BR CLR 21/19 A2992 870 87 1800 160/05 RMK AO2
14837KMSN MSN20020610053509506/10/02 05:35:31  5-MIN KMSN 101135Z 17006KT 4SM BR CLR 21/19 A2992 860 87 1800 170/06 RMK AO2
14837KMSN MSN20020610054009506/10/02 05:40:31  5-MIN KMSN 101140Z 17006KT 4SM BR CLR 21/19 A2992 860 87 1800 170/06 RMK AO2
14837KMSN MSN20020610054509506/10/02 05:45:31  5-MIN KMSN 101145Z 16007KT 4SM HZ CLR 22/19 A2992 860 84 1900 160/07 RMK AO2
14837KMSN MSN20020610055013006/10/02 05:50:31  5-MIN KMSN 101150Z 17007KT 4SM HZ CLR 22/19 A2992 860 84 1900 170/07 RMK AO2 SLP125 T02170189 10228 20189 56007
14837KMSN MSN20020610055509506/10/02 05:55:31  5-MIN KMSN 101155Z 16007KT 4SM HZ CLR 22/19 A2992 860 84 1900 160/07 RMK AO2
14837KMSN MSN20020610060009506/10/02 06:00:31  5-MIN KMSN 101200Z 17008KT 4SM HZ CLR 22/19 A2992 860 81 1900 170/08 RMK AO2
14837KMSN MSN20020610060509506/10/02 06:05:31  5-MIN KMSN 101205Z 16008KT 4SM HZ CLR 22/19 A2992 870 84 1900 160/08 RMK AO2
14837KMSN MSN20020610061009506/10/02 06:10:31  5-MIN KMSN 101210Z 17008KT 4SM HZ CLR 22/19 A2992 870 84 1900 160/08 RMK AO2
14837KMSN MSN20020610061509506/10/02 06:15:31  5-MIN KMSN 101215Z 18007KT 4SM HZ CLR 22/19 A2992 860 84 1900 180/07 RMK AO2
14837KMSN MSN20020610062009506/10/02 06:20:31  5-MIN KMSN 101220Z 18010KT 4SM HZ CLR 22/19 A2992 860 84 1900 180/10 RMK AO2
14837KMSN MSN20020610062509506/10/02 06:25:31  5-MIN KMSN 101225Z 18008KT 4SM HZ CLR 23/19 A2992 860 81 2000 180/08 RMK AO2
14837KMSN MSN20020610063009506/10/02 06:30:31  5-MIN KMSN 101230Z 17010KT 5SM HZ CLR 23/19 A2992 860 81 2000 170/10 RMK AO2
14837KMSN MSN20020610063509506/10/02 06:35:31  5-MIN KMSN 101235Z 17011KT 5SM HZ CLR 23/19 A2992 860 81 2000 170/11 RMK AO2
14837KMSN MSN20020610064009506/10/02 06:40:31  5-MIN KMSN 101240Z 17008KT 5SM HZ CLR 23/19 A2992 860 78 2100 170/08 RMK AO2
14837KMSN MSN20020610064509506/10/02 06:45:31  5-MIN KMSN 101245Z 18009KT 5SM HZ CLR 23/19 A2992 860 78 2100 180/09 RMK AO2
14837KMSN MSN20020610065011206/10/02 06:50:31  5-MIN KMSN 101250Z 18008KT 5SM HZ CLR 23/19 A2993 860 78 2100 180/08 RMK AO2 SLP128 T02330194
14837KMSN MSN20020610065509506/10/02 06:55:31  5-MIN KMSN 101255Z 19008KT 5SM HZ CLR 23/19 A2993 860 78 2100 180/08 RMK AO2
14837KMSN MSN20020610070009506/10/02 07:00:31  5-MIN KMSN 101300Z 18009KT 5SM HZ CLR 23/19 A2993 860 81 2000 180/09 RMK AO2
14837KMSN MSN20020610070509506/10/02 07:05:31  5-MIN KMSN 101305Z 18010KT 5SM HZ CLR 23/19 A2993 860 78 2100 180/10 RMK AO2
14837KMSN MSN20020610071009506/10/02 07:10:31  5-MIN KMSN 101310Z 18009KT 6SM HZ CLR 23/19 A2993 860 78 2100 180/09 RMK AO2
14837KMSN MSN20020610071509506/10/02 07:15:31  5-MIN KMSN 101315Z 17009KT 6SM HZ CLR 24/19 A2993 860 76 2100 170/09 RMK AO2
14837KMSN MSN20020610072009206/10/02 07:20:31  5-MIN KMSN 101320Z 18008KT 7SM CLR 24/20 A2993 860 76 2200 180/08 RMK AO2
14837KMSN MSN20020610072509206/10/02 07:25:31  5-MIN KMSN 101325Z 18010KT 7SM CLR 24/20 A2992 860 76 2200 180/10 RMK AO2
14837KMSN MSN20020610073009206/10/02 07:30:31  5-MIN KMSN 101330Z 18009KT 7SM CLR 24/20 A2993 860 78 2100 180/09 RMK AO2
14837KMSN MSN20020610073509206/10/02 07:35:31  5-MIN KMSN 101335Z 18011KT 7SM CLR 24/20 A2993 860 76 2200 180/11 RMK AO2
14837KMSN MSN20020610074009206/10/02 07:40:31  5-MIN KMSN 101340Z 18010KT 7SM CLR 24/20 A2993 860 76 2200 180/10 RMK AO2
14837KMSN MSN20020610074509206/10/02 07:45:31  5-MIN KMSN 101345Z 18009KT 7SM CLR 24/20 A2992 860 76 2200 180/09 RMK AO2
14837KMSN MSN20020610075011206/10/02 07:50:31  5-MIN KMSN 101350Z 19010KT 8SM FEW120 24/20 A2992 860 76 2200 190/10 RMK AO2 SLP127 T02440200
14837KMSN MSN20020610075509506/10/02 07:55:31  5-MIN KMSN 101355Z 18009KT 7SM BKN120 25/20 A2992 860 73 2300 180/09 RMK AO2
14837KMSN MSN20020610080009506/10/02 08:00:31  5-MIN KMSN 101400Z 18011KT 7SM BKN120 24/20 A2993 860 76 2200 180/11 RMK AO2
14837KMSN MSN20020610080509506/10/02 08:05:31  5-MIN KMSN 101405Z 18009KT 7SM BKN120 24/20 A2992 860 76 2200 180/09 RMK AO2
14837KMSN MSN20020610081009506/10/02 08:10:31  5-MIN KMSN 101410Z 18007KT 7SM BKN120 24/20 A2992 860 76 2200 180/07 RMK AO2
14837KMSN MSN20020610081509506/10/02 08:15:31  5-MIN KMSN 101415Z 18010KT 7SM BKN120 25/20 A2992 860 73 2300 180/10 RMK AO2
14837KMSN MSN20020610082009506/10/02 08:20:31  5-MIN KMSN 101420Z 18009KT 8SM SCT110 24/20 A2992 870 76 2200 180/09 RMK AO2
14837KMSN MSN20020610082509506/10/02 08:25:31  5-MIN KMSN 101425Z 17010KT 8SM SCT110 25/20 A2992 870 73 2300 170/10 RMK AO2
14837KMSN MSN20020610083009506/10/02 08:30:31  5-MIN KMSN 101430Z 19008KT 8SM SCT120 25/21 A2992 860 76 2300 180/08 RMK AO2
14837KMSN MSN20020610083509506/10/02 08:35:31  5-MIN KMSN 101435Z 19011KT 8SM SCT110 25/20 A2992 860 73 2300 190/11 RMK AO2
14837KMSN MSN20020610084009506/10/02 08:40:31  5-MIN KMSN 101440Z 18009KT 8SM BKN110 24/20 A2992 860 76 2200 180/09 RMK AO2
14837KMSN MSN20020610084509506/10/02 08:45:31  5-MIN KMSN 101445Z 18008KT 8SM BKN110 24/20 A2992 860 76 2200 180/08 RMK AO2
14837KMSN MSN20020610085012506/10/02 08:50:31  5-MIN KMSN 101450Z 18009KT 8SM FEW021 BKN110 24/20 A2992 860 76 2200 170/09 RMK AO2 SLP127 T02440200 53001
14837KMSN MSN20020610085510206/10/02 08:55:31  5-MIN KMSN 101455Z 17009KT 7SM FEW021 BKN110 24/20 A2992 870 76 2200 170/09 RMK AO2
14837KMSN MSN20020610090010206/10/02 09:00:31  5-MIN KMSN 101500Z 18008KT 7SM SCT021 BKN110 24/20 A2992 870 76 2200 180/08 RMK AO2
14837KMSN MSN20020610090510206/10/02 09:05:31  5-MIN KMSN 101505Z 17010KT 7SM SCT021 BKN110 25/20 A2992 870 73 2300 170/10 RMK AO2
14837KMSN MSN20020610091010206/10/02 09:10:31  5-MIN KMSN 101510Z 19008KT 7SM SCT021 BKN110 25/21 A2992 870 76 2300 190/08 RMK AO2
14837KMSN MSN20020610091510206/10/02 09:15:31  5-MIN KMSN 101515Z 17009KT 7SM SCT021 BKN110 25/21 A2992 870 76 2300 170/09 RMK AO2
14837KMSN MSN20020610092010206/10/02 09:20:31  5-MIN KMSN 101520Z 17012KT 7SM SCT021 SCT110 26/21 A2992 860 73 2300 170/12 RMK AO2
14837KMSN MSN20020610092510206/10/02 09:25:31  5-MIN KMSN 101525Z 18010KT 7SM SCT021 SCT110 26/21 A2992 860 73 2300 170/10 RMK AO2
14837KMSN MSN20020610093010206/10/02 09:30:31  5-MIN KMSN 101530Z 17012KT 7SM SCT023 SCT110 26/20 A2992 870 71 2300 170/12 RMK AO2
14837KMSN MSN20020610093509506/10/02 09:35:31  5-MIN KMSN 101535Z 16013KT 7SM BKN023 26/21 A2992 870 73 2300 160/13 RMK AO2
14837KMSN MSN20020610094010206/10/02 09:40:31  5-MIN KMSN 101540Z 17012KT 7SM SCT023 BKN028 26/21 A2992 870 71 2400 170/12 RMK AO2
14837KMSN MSN20020610094509506/10/02 09:45:31  5-MIN KMSN 101545Z 18013KT 7SM BKN025 26/21 A2992 870 73 2300 170/13 RMK AO2
14837KMSN MSN20020610095011206/10/02 09:50:31  5-MIN KMSN 101550Z 16013KT 7SM BKN026 26/21 A2991 870 73 2300 160/13 RMK AO2 SLP123 T02560206
14837KMSN MSN20020610095509506/10/02 09:55:31  5-MIN KMSN 101555Z 17012KT 8SM SCT026 27/21 A2991 870 71 2500 160/12 RMK AO2
14837KMSN MSN20020610100009506/10/02 10:00:31  5-MIN KMSN 101600Z 18009KT 7SM SCT026 26/21 A2991 870 73 2400 180/09 RMK AO2
14837KMSN MSN20020610100509506/10/02 10:05:31  5-MIN KMSN 101605Z 18011KT 8SM SCT028 26/21 A2991 870 71 2400 170/11 RMK AO2
14837KMSN MSN20020610101009506/10/02 10:10:31  5-MIN KMSN 101610Z 18010KT 8SM SCT028 26/21 A2991 870 71 2400 180/10 RMK AO2
14837KMSN MSN20020610101510206/10/02 10:15:31  5-MIN KMSN 101615Z 18011KT 8SM SCT024 SCT031 26/21 A2991 870 73 2300 180/11 RMK AO2
14837KMSN MSN20020610102010206/10/02 10:20:31  5-MIN KMSN 101620Z 18012KT 8SM BKN024 BKN030 26/20 A2991 870 71 2300 180/12 RMK AO2
14837KMSN MSN20020610102510206/10/02 10:25:31  5-MIN KMSN 101625Z 19011KT 8SM BKN024 BKN030 26/21 A2991 870 73 2300 180/11 RMK AO2
14837KMSN MSN20020610103010206/10/02 10:30:31  5-MIN KMSN 101630Z 18014KT 8SM BKN024 BKN030 26/21 A2992 870 73 2300 180/14 RMK AO2
14837KMSN MSN20020610103510206/10/02 10:35:31  5-MIN KMSN 101635Z 19011KT 8SM BKN024 OVC030 26/21 A2991 870 71 2400 190/11 RMK AO2
14837KMSN MSN20020610104010206/10/02 10:40:31  5-MIN KMSN 101640Z 18012KT 8SM BKN024 BKN030 27/21 A2991 870 69 2500 180/12 RMK AO2
14837KMSN MSN20020610104510206/10/02 10:45:31  5-MIN KMSN 101645Z 19011KT 8SM BKN024 BKN030 27/21 A2991 880 69 2500 190/11 RMK AO2
14837KMSN MSN20020610105012606/10/02 10:50:31  5-MIN KMSN 101650Z 18011KT 8SM FEW022 SCT030 BKN037 27/21 A2990 880 69 2500 180/11 RMK AO2 SLP120 T02720211
14837KMSN MSN20020610105510206/10/02 10:55:31  5-MIN KMSN 101655Z 17011KT 8SM SCT027 SCT037 27/21 A2990 880 69 2500 170/11 RMK AO2
14837KMSN MSN20020610110010206/10/02 11:00:31  5-MIN KMSN 101700Z 17012KT 8SM FEW027 SCT037 27/21 A2990 880 66 2500 170/12 RMK AO2
14837KMSN MSN20020610110511906/10/02 11:05:31  5-MIN KMSN 101705Z 19011KT 170V230 10SM FEW029 SCT037 27/21 A2990 880 66 2500 180/11 170V230 RMK AO2
14837KMSN MSN20020610111010306/10/02 11:10:31  5-MIN KMSN 101710Z 17011KT 10SM SCT029 BKN037 27/21 A2990 880 66 2500 170/11 RMK AO2
14837KMSN MSN20020610111510306/10/02 11:15:31  5-MIN KMSN 101715Z 18009KT 10SM SCT029 SCT035 28/21 A2990 890 66 2600 180/09 RMK AO2
14837KMSN MSN20020610112010306/10/02 11:20:31  5-MIN KMSN 101720Z 18013KT 10SM SCT029 BKN035 28/21 A2989 890 66 2600 180/13 RMK AO2
14837KMSN MSN20020610112510306/10/02 11:25:31  5-MIN KMSN 101725Z 18009KT 10SM SCT029 BKN035 27/21 A2989 890 69 2500 180/09 RMK AO2
14837KMSN MSN20020610113010306/10/02 11:30:31  5-MIN KMSN 101730Z 17012KT 10SM SCT029 BKN035 27/21 A2989 890 69 2500 170/12 RMK AO2
14837KMSN MSN20020610113510306/10/02 11:35:31  5-MIN KMSN 101735Z 17010KT 10SM FEW029 BKN035 27/21 A2989 890 69 2500 170/10 RMK AO2
14837KMSN MSN20020610114010306/10/02 11:40:31  5-MIN KMSN 101740Z 18011KT 10SM SCT029 BKN035 27/21 A2989 890 69 2500 180/11 RMK AO2
14837KMSN MSN20020610114512406/10/02 11:45:31  5-MIN KMSN 101745Z 19009KT 7SM RA SCT029 BKN035 BKN045 27/21 A2989 890 69 2500 180/09 RMK AO2 RAB45 P0000
14837KMSN MSN20020610115016506/10/02 11:50:31  5-MIN KMSN 101750Z 18012KT 7SM SCT029 BKN035 BKN048 27/21 A2989 900 71 2500 180/12 RMK AO2 RAB45E50 SLP115 P0000 60000 T02670211 10278 20217 58001
14837KMSN MSN20020610115510206/10/02 11:55:31  5-MIN KMSN 101755Z 18011KT 8SM SCT029 BKN035 27/21 A2989 900 71 2500 180/11 RMK AO2
14837KMSN MSN20020610120010906/10/02 12:00:31  5-MIN KMSN 101800Z 18010KT 8SM FEW029 BKN033 BKN042 28/21 A2988 900 66 2600 180/10 RMK AO2
14837KMSN MSN20020610120511006/10/02 12:05:31  5-MIN KMSN 101805Z 17013KT 10SM FEW029 BKN036 BKN055 28/21 A2988 900 66 2600 170/13 RMK AO2
14837KMSN MSN20020610121011006/10/02 12:10:31  5-MIN KMSN 101810Z 18013KT 10SM SCT029 BKN036 BKN045 28/21 A2988 900 66 2600 180/13 RMK AO2
14837KMSN MSN20020610121510306/10/02 12:15:31  5-MIN KMSN 101815Z 17014KT 10SM BKN029 BKN038 28/21 A2988 900 64 2600 170/14 RMK AO2
14837KMSN MSN20020610122010306/10/02 12:20:31  5-MIN KMSN 101820Z 18012KT 10SM SCT031 BKN044 28/21 A2988 900 64 2600 180/12 RMK AO2
14837KMSN MSN20020610122511006/10/02 12:25:31  5-MIN KMSN 101825Z 19010KT 10SM FEW029 SCT034 BKN044 28/21 A2988 900 64 2700 190/10 RMK AO2
14837KMSN MSN20020610123010306/10/02 12:30:31  5-MIN KMSN 101830Z 18012KT 10SM SCT031 SCT040 28/21 A2988 910 64 2700 180/12 RMK AO2
14837KMSN MSN20020610123511006/10/02 12:35:31  5-MIN KMSN 101835Z 18012KT 10SM FEW029 SCT034 SCT042 28/21 A2987 910 64 2700 180/12 RMK AO2
14837KMSN MSN20020610124010306/10/02 12:40:31  5-MIN KMSN 101840Z 18014KT 10SM FEW033 SCT042 28/21 A2987 910 64 2700 170/14 RMK AO2
14837KMSN MSN20020610124510306/10/02 12:45:31  5-MIN KMSN 101845Z 20010KT 10SM FEW035 SCT046 28/21 A2987 910 62 2700 200/10 RMK AO2
14837KMSN MSN20020610125011906/10/02 12:50:31  5-MIN KMSN 101850Z 18015G19KT 10SM FEW037 29/21 A2987 910 60 2800 180/15G19 RMK AO2 SLP108 T02890206
14837KMSN MSN20020610125510206/10/02 12:55:31  5-MIN KMSN 101855Z 19011G19KT 10SM FEW037 28/21 A2987 910 62 2700 190/11G19 RMK AO2
14837KMSN MSN20020610130010106/10/02 13:00:31  5-MIN KMSN 101900Z 20010G18KT 9SM SCT037 28/21 A2986 920 62 2700 190/10G18 RMK AO2
14837KMSN MSN20020610130510206/10/02 13:05:31  5-MIN KMSN 101905Z 19012G16KT 10SM SCT037 28/21 A2987 920 62 2700 190/12G16 RMK AO2
14837KMSN MSN20020610131009606/10/02 13:10:31  5-MIN KMSN 101910Z 18012KT 10SM SCT037 29/21 A2986 920 60 2800 180/12 RMK AO2
14837KMSN MSN20020610131509606/10/02 13:15:31  5-MIN KMSN 101915Z 18013KT 10SM SCT037 28/21 A2986 920 62 2700 180/13 RMK AO2
14837KMSN MSN20020610132009606/10/02 13:20:31  5-MIN KMSN 101920Z 19013KT 10SM SCT037 28/21 A2986 920 62 2700 190/13 RMK AO2
14837KMSN MSN20020610132509606/10/02 13:25:31  5-MIN KMSN 101925Z 19012KT 10SM SCT035 29/21 A2986 920 60 2800 190/12 RMK AO2
14837KMSN MSN20020610133009606/10/02 13:30:31  5-MIN KMSN 101930Z 18015KT 10SM SCT035 29/21 A2986 920 60 2800 180/15 RMK AO2
14837KMSN MSN20020610133509606/10/02 13:35:31  5-MIN KMSN 101935Z 18014KT 10SM SCT035 28/21 A2986 920 64 2600 180/14 RMK AO2
14837KMSN MSN20020610134016106/10/02 13:40:31  5-MIN KMSN 101940Z 20012KT 7SM -TSRA SCT035 BKN048 27/21 A2987 910 69 2600 200/12 RMK AO2 TSB39RAB39 OCNL LTGIC VC SW-W TS VC SW-W MOV N P0002
14837KMSN MSN20020610134516106/10/02 13:45:31  5-MIN KMSN 101945Z VRB04KT 10SM -TSRA SCT026 SCT038 BKN048 25/22 A2986 920 81 2300 VRB/04 RMK AO2 TSB39RAB39 OCNL LTGIC OHD TS OHD MOV N P0005
14837KMSN MSN20020610135018206/10/02 13:50:31  5-MIN KMSN 101950Z 19006KT 10SM TS SCT026 SCT038 BKN048 26/22 A2985 930 79 2400 190/06 RMK AO2 TSB39RAB39E50 SLP104 OCNL LTGCGIC VC N TS VC N MOV N P0005 T02560217
14837KMSN MSN20020610135511206/10/02 13:55:31  5-MIN KMSN 101955Z 19011KT 9SM TS FEW036 SCT048 SCT095 27/22 A2985 930 76 2500 190/11 RMK AO2
14837KMSN MSN20020610140011306/10/02 14:00:31  5-MIN KMSN 102000Z 21010KT 10SM TS FEW032 SCT048 SCT095 28/22 A2985 930 69 2700 210/10 RMK AO2
14837KMSN MSN20020610140509906/10/02 14:05:31  5-MIN KMSN 102005Z 18010KT 10SM TS FEW032 28/22 A2985 930 69 2700 180/10 RMK AO2
14837KMSN MSN20020610141014006/10/02 14:10:31  5-MIN KMSN 102010Z 19009KT 10SM FEW032 SCT095 28/22 A2984 940 69 2700 190/09 RMK AO2 TSE08 OCNL LTGCGIC DSNT N TS N MOV N
14837KMSN MSN20020610141514006/10/02 14:15:31  5-MIN KMSN 102015Z 19011KT 10SM FEW032 SCT095 28/21 A2984 940 66 2700 190/11 RMK AO2 TSE08 OCNL LTGCGIC DSNT N TS N MOV N
14837KMSN MSN20020610142014006/10/02 14:20:31  5-MIN KMSN 102020Z 18012KT 10SM FEW032 SCT095 28/22 A2984 940 66 2700 180/12 RMK AO2 TSE08 OCNL LTGCGIC DSNT N TS N MOV N
14837KMSN MSN20020610142514606/10/02 14:25:31  5-MIN KMSN 102025Z 19014G18KT 10SM FEW032 SCT095 28/21 A2984 940 64 2700 190/14G18 RMK AO2 TSE08 OCNL LTGCGIC DSNT N TS N MOV N
14837KMSN MSN20020610143014006/10/02 14:30:31  5-MIN KMSN 102030Z 18012KT 10SM FEW032 SCT095 28/21 A2984 940 64 2700 180/12 RMK AO2 TSE08 OCNL LTGCGIC DSNT N TS N MOV N
14837KMSN MSN20020610143512206/10/02 14:35:31  5-MIN KMSN 102035Z 19009G17KT 10SM FEW035 SCT043 SCT050 28/21 A2983 950 66 2700 190/09G17 RMK AO2 TSE08
14837KMSN MSN20020610144011506/10/02 14:40:31  5-MIN KMSN 102040Z 18010G17KT 10SM FEW035 SCT041 28/21 A2983 950 64 2700 180/10G17 RMK AO2 TSE08
14837KMSN MSN20020610144510806/10/02 14:45:31  5-MIN KMSN 102045Z 18013G18KT 10SM SCT037 29/21 A2983 950 62 2800 180/13G18 RMK AO2 TSE08
14837KMSN MSN20020610145013706/10/02 14:50:31  5-MIN KMSN 102050Z 18011G18KT 10SM SCT037 28/21 A2983 950 62 2700 180/11G18 RMK AO2 TSE08 SLP094 60005 T02830206 58010
14837KMSN MSN20020610145512506/10/02 14:55:31  5-MIN KMSN 102055Z 19014G18KT 170V230 10SM SCT039 SCT048 29/21 A2983 950 58 2900 190/14G18 170V230 RMK AO2
14837KMSN MSN20020610150009606/10/02 15:00:31  5-MIN KMSN 102100Z 18015KT 10SM SCT039 29/21 A2983 950 60 2800 180/15 RMK AO2
14837KMSN MSN20020610150510306/10/02 15:05:31  5-MIN KMSN 102105Z 18018KT 10SM SCT039 SCT046 29/21 A2983 950 60 2800 180/18 RMK AO2
14837KMSN MSN20020610151010906/10/02 15:10:31  5-MIN KMSN 102110Z 18013G21KT 10SM SCT041 BKN055 28/20 A2982 950 60 2700 180/13G21 RMK AO2
14837KMSN MSN20020610151511606/10/02 15:15:31  5-MIN KMSN 102115Z 18017G21KT 10SM FEW041 SCT047 BKN060 28/20 A2982 950 60 2700 180/17G21 RMK AO2
14837KMSN MSN20020610152011606/10/02 15:20:31  5-MIN KMSN 102120Z 17018G24KT 10SM FEW041 SCT060 BKN070 29/20 A2982 960 58 2800 170/18G24 RMK AO2
14837KMSN MSN20020610152511606/10/02 15:25:31  5-MIN KMSN 102125Z 18016G24KT 10SM FEW041 SCT047 SCT065 28/20 A2982 960 60 2700 180/16G24 RMK AO2
14837KMSN MSN20020610153010906/10/02 15:30:31  5-MIN KMSN 102130Z 18018G23KT 10SM FEW043 SCT060 29/19 A2982 960 56 2800 180/18G23 RMK AO2
14837KMSN MSN20020610153510206/10/02 15:35:31  5-MIN KMSN 102135Z 19016G23KT 10SM FEW048 29/19 A2982 960 54 2800 190/16G23 RMK AO2
14837KMSN MSN20020610154009606/10/02 15:40:31  5-MIN KMSN 102140Z 18017KT 10SM FEW046 29/19 A2982 960 56 2800 180/17 RMK AO2
14837KMSN MSN20020610154510206/10/02 15:45:31  5-MIN KMSN 102145Z 19019G24KT 10SM FEW046 29/19 A2982 960 54 2800 190/19G24 RMK AO2
14837KMSN MSN20020610155011906/10/02 15:50:31  5-MIN KMSN 102150Z 18015G24KT 10SM FEW046 29/19 A2982 960 54 2800 180/15G24 RMK AO2 SLP093 T02890189
14837KMSN MSN20020610155509906/10/02 15:55:31  5-MIN KMSN 102155Z 18018G23KT 10SM CLR 29/19 A2982 960 54 2800 180/18G23 RMK AO2
14837KMSN MSN20020610160010206/10/02 16:00:31  5-MIN KMSN 102200Z 18015G23KT 10SM FEW110 29/19 A2982 960 54 2800 180/15G23 RMK AO2
14837KMSN MSN20020610160510206/10/02 16:05:31  5-MIN KMSN 102205Z 19015G21KT 10SM FEW110 29/19 A2982 960 54 2800 190/15G21 RMK AO2
14837KMSN MSN20020610161010206/10/02 16:10:31  5-MIN KMSN 102210Z 19010G19KT 10SM FEW110 28/18 A2982 950 54 2700 190/10G19 RMK AO2
14837KMSN MSN20020610161510206/10/02 16:15:31  5-MIN KMSN 102215Z 19010G17KT 10SM FEW110 28/19 A2982 960 56 2700 190/10G17 RMK AO2
14837KMSN MSN20020610162010206/10/02 16:20:31  5-MIN KMSN 102220Z 19016G22KT 10SM FEW045 28/19 A2982 960 56 2700 190/16G22 RMK AO2
14837KMSN MSN20020610162510206/10/02 16:25:31  5-MIN KMSN 102225Z 18012G22KT 10SM FEW045 28/19 A2982 960 56 2700 180/12G22 RMK AO2
14837KMSN MSN20020610163009606/10/02 16:30:31  5-MIN KMSN 102230Z 19012KT 10SM FEW045 28/19 A2982 960 56 2700 180/12 RMK AO2
14837KMSN MSN20020610163509606/10/02 16:35:31  5-MIN KMSN 102235Z 19013KT 10SM FEW045 28/19 A2982 960 58 2700 180/13 RMK AO2
14837KMSN MSN20020610164009606/10/02 16:40:31  5-MIN KMSN 102240Z 19012KT 10SM FEW045 28/19 A2982 960 58 2700 180/12 RMK AO2
14837KMSN MSN20020610164509606/10/02 16:45:31  5-MIN KMSN 102245Z 19012KT 10SM SCT110 28/19 A2982 950 58 2700 190/12 RMK AO2
14837KMSN MSN20020610165012006/10/02 16:50:31  5-MIN KMSN 102250Z 18012KT 10SM FEW045 SCT110 28/19 A2982 960 58 2700 180/12 RMK AO2 SLP092 T02780189
14837KMSN MSN20020610165510206/10/02 16:55:31  5-MIN KMSN 102255Z 18014G18KT 10SM SCT110 28/19 A2982 960 60 2700 180/14G18 RMK AO2
14837KMSN MSN20020610170009606/10/02 17:00:31  5-MIN KMSN 102300Z 19014KT 10SM SCT110 28/19 A2982 960 60 2700 190/14 RMK AO2
14837KMSN MSN20020610170510206/10/02 17:05:31  5-MIN KMSN 102305Z 18014G21KT 10SM SCT110 28/19 A2982 960 60 2700 180/14G21 RMK AO2
14837KMSN MSN20020610171010206/10/02 17:10:31  5-MIN KMSN 102310Z 18010G21KT 10SM SCT100 28/19 A2982 960 60 2700 180/10G21 RMK AO2
14837KMSN MSN20020610171509606/10/02 17:15:31  5-MIN KMSN 102315Z 20008KT 10SM SCT110 28/20 A2982 960 62 2700 200/08 RMK AO2
14837KMSN MSN20020610172011806/10/02 17:20:31  5-MIN KMSN 102320Z 19010G14KT 160V220 10SM SCT110 28/20 A2981 960 62 2700 190/10G14 160V220 RMK AO2
14837KMSN MSN20020610172509606/10/02 17:25:31  5-MIN KMSN 102325Z 19009KT 10SM FEW110 28/20 A2981 960 62 2700 190/09 RMK AO2
14837KMSN MSN20020610173009606/10/02 17:30:31  5-MIN KMSN 102330Z 18009KT 10SM FEW110 28/20 A2981 970 62 2700 180/09 RMK AO2
14837KMSN MSN20020610173509606/10/02 17:35:31  5-MIN KMSN 102335Z 19009KT 10SM FEW110 28/20 A2981 970 62 2700 190/09 RMK AO2
14837KMSN MSN20020610174009606/10/02 17:40:31  5-MIN KMSN 102340Z 18008KT 10SM FEW050 28/20 A2981 970 62 2700 180/08 RMK AO2
14837KMSN MSN20020610174509606/10/02 17:45:31  5-MIN KMSN 102345Z 18010KT 10SM FEW055 28/20 A2981 970 62 2700 180/10 RMK AO2
14837KMSN MSN20020610175013706/10/02 17:50:31  5-MIN KMSN 102350Z 18010KT 10SM FEW060 28/20 A2981 970 62 2700 180/10 RMK AO2 SLP087 60005 T02780200 10294 20250 58021
14837KMSN MSN20020610175509606/10/02 17:55:31  5-MIN KMSN 102355Z 18009KT 10SM FEW060 27/20 A2981 960 64 2600 180/09 RMK AO2
14837KMSN MSN20020610180015306/10/02 18:00:31  5-MIN KMSN 110000Z 21013G19KT 10SM FEW042 SCT060 28/20 A2984 940 62 2700 210/13G19 RMK AO2 PRESRR FRQ LTGICCC DSNT S-SW TS S-SW MOV NE
14837KMSN MSN20020610180518706/10/02 18:05:31  5-MIN KMSN 110005Z 22015G30KT 10SM -TSRA FEW038 BKN060 BKN070 25/17 A2983 940 61 2400 220/15G30 RMK AO2 PK WND 24030/0001 TSB03RAB03 FRQ LTGICCC OHD TS OHD MOV NE P0000
14837KMSN MSN20020610181018706/10/02 18:10:31  5-MIN KMSN 110010Z 21014G30KT 10SM -TSRA FEW038 SCT060 BKN080 23/18 A2984 940 70 2200 210/14G30 RMK AO2 PK WND 24030/0001 TSB03RAB03 FRQ LTGICCC OHD TS OHD MOV NE P0000
14837KMSN MSN20020610181519706/10/02 18:15:31  5-MIN KMSN 110015Z 20016G21KT 10SM -TSRA FEW044 SCT060 BKN080 22/17 A2986 920 73 2000 200/16G21 RMK AO2 PK WND 24030/0001 TSB03RAB03 PRESRR CONS LTGCGICCC OHD TS OHD MOV NE P0000
14837KMSN MSN20020610182018906/10/02 18:20:31  5-MIN KMSN 110020Z 19011G23KT 3SM -TSRA FEW039 BKN070 OVC085 21/18 A2986 920 81 1900 190/11G23 RMK AO2 PK WND 24030/0001 TSB03RAB03 CONS LTGCGICCC OHD TS OHD MOV NE P0001
14837KMSN MSN20020610182519606/10/02 18:25:31  5-MIN KMSN 110025Z 19009G23KT 2 1/2SM -TSRA BR SCT021 BKN055 OVC080 21/18 A2986 920 87 1800 190/09G23 RMK AO2 PK WND 24030/0001 TSB03RAB03 CONS LTGCGICCC OHD TS OHD MOV NE P0009
14837KMSN MSN20020610183019206/10/02 18:30:31  5-MIN KMSN 110030Z 19011G17KT 2SM -TSRA BR BKN019 BKN040 OVC080 20/18 A2987 910 90 1700 190/11G17 RMK AO2 PK WND 24030/0001 TSB03RAB03 CONS LTGCGICCC OHD TS OHD MOV NE P0018
14837KMSN MSN20020610183520206/10/02 18:35:31  5-MIN KMSN 110035Z 20008G17KT 2SM -TSRA BR BKN019 BKN055 OVC080 20/18 A2986 920 90 1800 200/08G17 RMK AO2 PK WND 24030/0001 TWR VIS 4 TSB03RAB03 CONS LTGCGICCC OHD TS OHD MOV NE P0021
14837KMSN MSN20020610184017906/10/02 18:40:31  5-MIN KMSN 110040Z 19008KT 4SM -TSRA BR BKN025 OVC050 20/18 A2985 930 90 1800 190/08 RMK AO2 PK WND 24030/0001 TSB03RAB03 CONS LTGCGICCC OHD TS OHD MOV NE P0022
14837KMSN MSN20020610184516906/10/02 18:45:31  5-MIN KMSN 110045Z 18009KT 7SM -TSRA OVC037 21/18 A2985 930 87 1800 180/09 RMK AO2 PK WND 24030/0001 TSB03RAB03 CONS LTGCGICCC OHD TS OHD MOV NE P0022
14837KMSN MSN20020610185018606/10/02 18:50:31  5-MIN KMSN 110050Z 17009KT 9SM -TSRA OVC044 21/19 A2985 930 90 1800 170/09 RMK AO2 PK WND 24030/0001 TSB03RAB03 SLP104 OCNL LTGCGICCC OHD TS OHD MOV NE P0022 T02060189
14837KMSN MSN20020610185510806/10/02 18:55:31  5-MIN KMSN 110055Z 18009KT 10SM -TSRA OVC048 21/19 A2984 930 90 1800 180/09 RMK AO2 P0000
14837KMSN MSN20020610190014406/10/02 19:00:31  5-MIN KMSN 110100Z 17009KT 9SM -TSRA OVC048 21/19 A2984 940 90 1800 170/09 RMK AO2 OCNL LTGCGICCC VC NE TS VC NE MOV NE P0001
14837KMSN MSN20020610190514406/10/02 19:05:31  5-MIN KMSN 110105Z 17009KT 7SM -TSRA OVC050 21/19 A2983 950 90 1900 170/09 RMK AO2 OCNL LTGCGICCC VC NE TS VC NE MOV NE P0002
14837KMSN MSN20020610191015106/10/02 19:10:31  5-MIN KMSN 110110Z 16009KT 7SM -TSRA OVC050 21/19 A2982 950 90 1900 160/09 RMK AO2 PRESFR OCNL LTGCGICCC VC NE TS VC NE MOV NE P0002
14837KMSN MSN20020610191514406/10/02 19:15:31  5-MIN KMSN 110115Z 17008KT 7SM -TSRA OVC045 21/19 A2982 950 90 1900 170/08 RMK AO2 OCNL LTGCGICCC VC NE TS VC NE MOV NE P0003
14837KMSN MSN20020610192014906/10/02 19:20:31  5-MIN KMSN 110120Z 18008KT 7SM -TSRA BKN040 BKN080 21/19 A2983 950 90 1900 180/08 RMK AO2 OCNL LTGICCC VC NE TS VC NE MOV NE P0003
14837KMSN MSN20020610192515606/10/02 19:25:31  5-MIN KMSN 110125Z 19012KT 7SM -TSRA BKN040 BKN060 OVC080 21/19 A2982 960 90 1900 190/12 RMK AO2 OCNL LTGICCC VC NE TS VC NE MOV NE P0004
14837KMSN MSN20020610193014906/10/02 19:30:31  5-MIN KMSN 110130Z 21007KT 7SM -TSRA BKN040 OVC060 21/19 A2982 950 87 1900 210/07 RMK AO2 OCNL LTGICCC VC NE TS VC NE MOV NE P0004
14837KMSN MSN20020610193514906/10/02 19:35:31  5-MIN KMSN 110135Z 20006KT 7SM -TSRA BKN038 OVC060 21/19 A2982 950 90 1900 200/06 RMK AO2 OCNL LTGICCC VC NE TS VC NE MOV NE P0005
14837KMSN MSN20020610194015606/10/02 19:40:31  5-MIN KMSN 110140Z VRB06KT 7SM -TSRA BKN040 BKN060 OVC075 21/19 A2982 950 87 1900 VRB/06 RMK AO2 OCNL LTGICCC VC NE TS VC NE MOV NE P0006
14837KMSN MSN20020610194514906/10/02 19:45:31  5-MIN KMSN 110145Z 22005KT 6SM -TSRA BR BKN047 OVC075 21/19 A2983 950 87 1900 220/05 RMK AO2 OCNL LTG DSNT N-SE TS DSNT N-SE P0006
14837KMSN MSN20020610195016006/10/02 19:50:31  5-MIN KMSN 110150Z 21007KT 6SM -RA OVC047 22/19 A2983 950 84 2000 210/07 RMK AO2 TSE46 SLP096 OCNL LTG DSNT N-SE TS DSNT N-SE P0007 T02170189
14837KMSN MSN20020610195510506/10/02 19:55:31  5-MIN KMSN 110155Z 21007KT 8SM -RA OVC049 22/19 A2983 950 87 2000 210/07 RMK AO2 P0000
14837KMSN MSN20020610200010806/10/02 20:00:31  5-MIN KMSN 110200Z 21008KT 10SM BKN055 22/19 A2983 950 84 2000 210/08 RMK AO2 RAE00 P0000
14837KMSN MSN20020610200510806/10/02 20:05:31  5-MIN KMSN 110205Z 20008KT 10SM BKN055 22/19 A2983 950 84 2000 200/08 RMK AO2 RAE00 P0000
14837KMSN MSN20020610201010806/10/02 20:10:31  5-MIN KMSN 110210Z 19010KT 10SM SCT055 22/19 A2983 950 84 2000 190/10 RMK AO2 RAE00 P0000
14837KMSN MSN20020610201510806/10/02 20:15:31  5-MIN KMSN 110215Z 19010KT 10SM SCT055 22/19 A2983 950 84 2000 190/10 RMK AO2 RAE00 P0000
14837KMSN MSN20020610202010806/10/02 20:20:31  5-MIN KMSN 110220Z 19010KT 10SM FEW060 23/19 A2983 950 78 2100 190/10 RMK AO2 RAE00 P0000
14837KMSN MSN20020610202510506/10/02 20:25:31  5-MIN KMSN 110225Z 19011KT 10SM CLR 23/19 A2983 950 78 2100 190/11 RMK AO2 RAE00 P0000
14837KMSN MSN20020610203010506/10/02 20:30:31  5-MIN KMSN 110230Z 19010KT 10SM CLR 22/19 A2983 950 81 2000 190/10 RMK AO2 RAE00 P0000
14837KMSN MSN20020610203510506/10/02 20:35:31  5-MIN KMSN 110235Z 19012KT 10SM CLR 22/19 A2983 950 81 2000 190/12 RMK AO2 RAE00 P0000
14837KMSN MSN20020610204010506/10/02 20:40:31  5-MIN KMSN 110240Z 19011KT 10SM CLR 22/19 A2983 950 81 2000 190/11 RMK AO2 RAE00 P0000
14837KMSN MSN20020610204510506/10/02 20:45:31  5-MIN KMSN 110245Z 19011KT 10SM CLR 23/19 A2983 950 78 2100 190/11 RMK AO2 RAE00 P0000
14837KMSN MSN20020610205013406/10/02 20:50:31  5-MIN KMSN 110250Z 19010KT 10SM CLR 22/19 A2983 950 81 2000 190/10 RMK AO2 RAE00 SLP096 P0000 60029 T02220189 58004
14837KMSN MSN20020610205509606/10/02 20:55:31  5-MIN KMSN 110255Z 19010KT 10SM FEW110 22/19 A2983 950 81 2000 180/10 RMK AO2
14837KMSN MSN20020610210009606/10/02 21:00:31  5-MIN KMSN 110300Z 19009KT 10SM FEW110 22/19 A2983 950 81 2000 180/09 RMK AO2
14837KMSN MSN20020610210509606/10/02 21:05:31  5-MIN KMSN 110305Z 19010KT 10SM FEW110 22/19 A2983 950 84 2000 190/10 RMK AO2
14837KMSN MSN20020610211009306/10/02 21:10:31  5-MIN KMSN 110310Z 19010KT 10SM CLR 22/19 A2983 950 84 2000 190/10 RMK AO2
14837KMSN MSN20020610211509306/10/02 21:15:31  5-MIN KMSN 110315Z 18010KT 10SM CLR 23/19 A2983 950 81 2100 180/10 RMK AO2
14837KMSN MSN20020610212009606/10/02 21:20:31  5-MIN KMSN 110320Z 18008KT 10SM FEW090 23/19 A2983 950 81 2100 180/08 RMK AO2
14837KMSN MSN20020610212510306/10/02 21:25:31  5-MIN KMSN 110325Z 18009KT 10SM SCT090 SCT110 23/19 A2983 950 81 2100 180/09 RMK AO2
14837KMSN MSN20020610213010306/10/02 21:30:31  5-MIN KMSN 110330Z 18008KT 10SM FEW090 SCT110 22/19 A2982 950 84 2100 180/08 RMK AO2
14837KMSN MSN20020610213509606/10/02 21:35:31  5-MIN KMSN 110335Z 18009KT 10SM FEW090 22/19 A2982 950 84 2100 180/09 RMK AO2
14837KMSN MSN20020610214009606/10/02 21:40:31  5-MIN KMSN 110340Z 18009KT 10SM FEW090 22/19 A2982 950 84 2100 180/09 RMK AO2
14837KMSN MSN20020610214509606/10/02 21:45:31  5-MIN KMSN 110345Z 18009KT 10SM FEW090 22/19 A2982 960 84 2100 180/09 RMK AO2
14837KMSN MSN20020610215011306/10/02 21:50:31  5-MIN KMSN 110350Z 18009KT 10SM FEW100 23/19 A2982 960 81 2100 180/09 RMK AO2 SLP092 T02280194
14837KMSN MSN20020610215509306/10/02 21:55:31  5-MIN KMSN 110355Z 18010KT 10SM CLR 23/19 A2981 960 81 2100 180/10 RMK AO2
14837KMSN MSN20020610220009306/10/02 22:00:31  5-MIN KMSN 110400Z 18009KT 10SM CLR 22/19 A2981 960 84 2100 180/09 RMK AO2
14837KMSN MSN20020610220509306/10/02 22:05:31  5-MIN KMSN 110405Z 18010KT 10SM CLR 22/20 A2981 960 87 2100 180/10 RMK AO2
14837KMSN MSN20020610221009306/10/02 22:10:31  5-MIN KMSN 110410Z 18010KT 10SM CLR 23/20 A2981 970 84 2100 180/10 RMK AO2
14837KMSN MSN20020610221509306/10/02 22:15:31  5-MIN KMSN 110415Z 18010KT 10SM CLR 23/20 A2981 970 84 2100 180/10 RMK AO2
14837KMSN MSN20020610222009206/10/02 22:20:31  5-MIN KMSN 110420Z 18009KT 9SM CLR 23/20 A2981 970 84 2100 180/09 RMK AO2
14837KMSN MSN20020610222509206/10/02 22:25:31  5-MIN KMSN 110425Z 18011KT 9SM CLR 22/20 A2981 970 87 2100 180/11 RMK AO2
14837KMSN MSN20020610223009206/10/02 22:30:31  5-MIN KMSN 110430Z 19010KT 9SM CLR 23/20 A2981 960 84 2100 190/10 RMK AO2
14837KMSN MSN20020610223509306/10/02 22:35:31  5-MIN KMSN 110435Z 19010KT 10SM CLR 23/20 A2981 960 84 2100 190/10 RMK AO2
14837KMSN MSN20020610224009306/10/02 22:40:31  5-MIN KMSN 110440Z 19009KT 10SM CLR 23/20 A2981 960 84 2100 190/09 RMK AO2
14837KMSN MSN20020610224509306/10/02 22:45:31  5-MIN KMSN 110445Z 19010KT 10SM CLR 23/19 A2981 960 81 2100 180/10 RMK AO2
14837KMSN MSN20020610225011006/10/02 22:50:31  5-MIN KMSN 110450Z 18008KT 10SM CLR 23/20 A2981 970 84 2100 180/08 RMK AO2 SLP089 T02280200
14837KMSN MSN20020610225509306/10/02 22:55:31  5-MIN KMSN 110455Z 18010KT 10SM CLR 23/20 A2981 960 84 2100 180/10 RMK AO2
14837KMSN MSN20020610230009306/10/02 23:00:31  5-MIN KMSN 110500Z 19010KT 10SM CLR 23/19 A2981 960 81 2100 180/10 RMK AO2
14837KMSN MSN20020610230509306/10/02 23:05:31  5-MIN KMSN 110505Z 18009KT 10SM CLR 23/19 A2981 960 81 2100 180/09 RMK AO2
14837KMSN MSN20020610231009306/10/02 23:10:31  5-MIN KMSN 110510Z 19011KT 10SM CLR 23/19 A2981 970 81 2100 180/11 RMK AO2
14837KMSN MSN20020610231509306/10/02 23:15:31  5-MIN KMSN 110515Z 18010KT 10SM CLR 23/19 A2981 970 81 2100 180/10 RMK AO2
14837KMSN MSN20020610232009306/10/02 23:20:31  5-MIN KMSN 110520Z 18009KT 10SM CLR 23/19 A2981 970 81 2100 180/09 RMK AO2
14837KMSN MSN20020610232509306/10/02 23:25:31  5-MIN KMSN 110525Z 18009KT 10SM CLR 23/19 A2981 970 81 2100 170/09 RMK AO2
14837KMSN MSN20020610233009306/10/02 23:30:31  5-MIN KMSN 110530Z 18010KT 10SM CLR 23/19 A2981 960 81 2100 180/10 RMK AO2
14837KMSN MSN20020610233509306/10/02 23:35:31  5-MIN KMSN 110535Z 19009KT 10SM CLR 23/19 A2981 960 81 2100 180/09 RMK AO2
14837KMSN MSN20020610234009606/10/02 23:40:31  5-MIN KMSN 110540Z 19010KT 10SM FEW024 23/19 A2981 970 81 2100 190/10 RMK AO2
14837KMSN MSN20020610234509606/10/02 23:45:31  5-MIN KMSN 110545Z 19009KT 10SM SCT026 23/19 A2981 970 81 2100 180/09 RMK AO2
14837KMSN MSN20020610235015406/10/02 23:50:31  5-MIN KMSN 110550Z 19008KT 10SM FEW026 SCT100 23/19 A2981 970 81 2100 190/08 RMK AO2 SLP088 60029 T02280194 10278 20200 402940189 50006
14837KMSN MSN20020610235510306/10/02 23:55:31  5-MIN KMSN 110555Z 19010KT 10SM FEW026 BKN100 23/19 A2981 970 81 2100 190/10 RMK AO2
14837KMSN MSN20020611000010306/11/02 00:00:31  5-MIN KMSN 110600Z 18008KT 10SM FEW026 BKN100 23/19 A2981 970 81 2100 180/08 RMK AO2
14837KMSN MSN20020611000510306/11/02 00:05:31  5-MIN KMSN 110605Z 19008KT 10SM FEW026 BKN100 23/19 A2981 970 81 2100 190/08 RMK AO2
14837KMSN MSN20020611001010306/11/02 00:10:31  5-MIN KMSN 110610Z 19010KT 10SM FEW024 BKN110 23/19 A2981 970 81 2100 190/10 RMK AO2
14837KMSN MSN20020611001510306/11/02 00:15:31  5-MIN KMSN 110615Z 19009KT 10SM FEW022 BKN100 23/19 A2981 970 81 2100 190/09 RMK AO2
14837KMSN MSN20020611002010306/11/02 00:20:31  5-MIN KMSN 110620Z 19010KT 10SM FEW022 SCT110 23/19 A2981 970 81 2100 190/10 RMK AO2
14837KMSN MSN20020611002511006/11/02 00:25:31  5-MIN KMSN 110625Z 19010KT 10SM FEW022 SCT037 SCT110 22/19 A2981 970 84 2100 180/10 RMK AO2
14837KMSN MSN20020611003010306/11/02 00:30:31  5-MIN KMSN 110630Z 18012KT 10SM SCT037 BKN110 23/19 A2980 970 81 2100 180/12 RMK AO2
14837KMSN MSN20020611003509606/11/02 00:35:31  5-MIN KMSN 110635Z 18011KT 10SM BKN037 22/19 A2980 980 84 2100 180/11 RMK AO2
14837KMSN MSN20020611004009606/11/02 00:40:31  5-MIN KMSN 110640Z 18011KT 10SM BKN037 22/19 A2980 980 84 2100 180/11 RMK AO2
14837KMSN MSN20020611004509606/11/02 00:45:31  5-MIN KMSN 110645Z 18012KT 10SM BKN037 22/19 A2979 990 84 2100 180/12 RMK AO2
14837KMSN MSN20020611005011306/11/02 00:50:31  5-MIN KMSN 110650Z 18011KT 10SM BKN037 22/19 A2979 990 84 2100 170/11 RMK AO2 SLP080 T02220194
14837KMSN MSN20020611005509606/11/02 00:55:31  5-MIN KMSN 110655Z 17010KT 10SM BKN037 22/19 A2978 990 87 2000 170/10 RMK AO2
14837KMSN MSN20020611010009606/11/02 01:00:31  5-MIN KMSN 110700Z 18010KT 10SM SCT037 22/19 A2978 990 87 2000 180/10 RMK AO2
14837KMSN MSN20020613093010306/13/02 09:30:31  5-MIN KMSN 131530Z 10004KT 10SM FEW024 OVC070 16/12 A2990 880 77 1300 100/04 RMK AO2
14837KMSN MSN20020613093510306/13/02 09:35:31  5-MIN KMSN 131535Z 12004KT 10SM FEW025 OVC070 16/12 A2990 880 77 1300 120/04 RMK AO2
14837KMSN MSN20020613094010306/13/02 09:40:31  5-MIN KMSN 131540Z 12004KT 10SM FEW025 OVC070 16/12 A2990 890 77 1300 120/04 RMK AO2
14837KMSN MSN20020613094510306/13/02 09:45:31  5-MIN KMSN 131545Z 11004KT 10SM FEW025 OVC070 16/12 A2990 890 75 1300 110/04 RMK AO2
14837KMSN MSN20020613095012006/13/02 09:50:31  5-MIN KMSN 131550Z 14003KT 10SM FEW025 OVC070 16/12 A2989 890 77 1300 130/03 RMK AO2 SLP121 T01610122
14837KMSN MSN20020613095510306/13/02 09:55:31  5-MIN KMSN 131555Z 08003KT 10SM FEW025 OVC070 16/12 A2989 890 77 1300 080/03 RMK AO2
14837KMSN MSN20020613100010306/13/02 10:00:31  5-MIN KMSN 131600Z 08004KT 10SM FEW025 OVC070 16/12 A2989 890 77 1300 080/04 RMK AO2
14837KMSN MSN20020613100509606/13/02 10:05:31  5-MIN KMSN 131605Z 09003KT 10SM OVC070 17/12 A2989 890 75 1300 090/03 RMK AO2
14837KMSN MSN20020613101009606/13/02 10:10:31  5-MIN KMSN 131610Z 06003KT 10SM OVC075 17/12 A2989 890 75 1300 050/03 RMK AO2
14837KMSN MSN20020613101509606/13/02 10:15:31  5-MIN KMSN 131615Z VRB03KT 10SM OVC075 17/13 A2989 890 77 1300 VRB/03 RMK AO2
14837KMSN MSN20020613102009606/13/02 10:20:31  5-MIN KMSN 131620Z VRB03KT 10SM OVC075 17/13 A2989 890 75 1400 VRB/03 RMK AO2
14837KMSN MSN20020613102509606/13/02 10:25:31  5-MIN KMSN 131625Z 08005KT 10SM OVC080 17/13 A2989 890 78 1400 080/05 RMK AO2
14837KMSN MSN20020613103009606/13/02 10:30:31  5-MIN KMSN 131630Z 07005KT 10SM OVC080 17/13 A2989 890 77 1300 070/05 RMK AO2
14837KMSN MSN20020613103509606/13/02 10:35:31  5-MIN KMSN 131635Z 08006KT 10SM OVC080 17/13 A2989 890 75 1400 080/06 RMK AO2
14837KMSN MSN20020613104009606/13/02 10:40:31  5-MIN KMSN 131640Z 10007KT 10SM OVC080 17/13 A2989 890 77 1300 100/07 RMK AO2
14837KMSN MSN20020613104509606/13/02 10:45:31  5-MIN KMSN 131645Z 09005KT 10SM OVC085 17/13 A2990 890 75 1400 080/05 RMK AO2
14837KMSN MSN20020613105012006/13/02 10:50:31  5-MIN KMSN 131650Z 07006KT 10SM FEW018 OVC085 17/13 A2990 890 78 1400 070/06 RMK AO2 SLP122 T01720133
14837KMSN MSN20020613105510306/13/02 10:55:31  5-MIN KMSN 131655Z 06005KT 10SM SCT018 OVC085 17/13 A2990 880 78 1400 060/05 RMK AO2
14837KMSN MSN20020613110010306/13/02 11:00:31  5-MIN KMSN 131700Z VRB04KT 10SM SCT018 OVC085 17/13 A2989 890 78 1400 VRB/04 RMK AO2
14837KMSN MSN20020613110510306/13/02 11:05:31  5-MIN KMSN 131705Z 06005KT 10SM BKN018 OVC085 17/13 A2989 890 75 1400 060/05 RMK AO2
14837KMSN MSN20020613111010306/13/02 11:10:31  5-MIN KMSN 131710Z 08005KT 10SM BKN018 BKN090 17/13 A2989 890 78 1400 080/05 RMK AO2
14837KMSN MSN20020613111510306/13/02 11:15:31  5-MIN KMSN 131715Z VRB03KT 10SM BKN018 BKN090 17/13 A2989 890 75 1400 VRB/03 RMK AO2
14837KMSN MSN20020613112009606/13/02 11:20:31  5-MIN KMSN 131720Z 08005KT 10SM BKN018 17/13 A2989 890 78 1400 080/05 RMK AO2
14837KMSN MSN20020613112509606/13/02 11:25:31  5-MIN KMSN 131725Z 06006KT 10SM SCT018 18/13 A2989 890 75 1500 060/06 RMK AO2
14837KMSN MSN20020613113010306/13/02 11:30:31  5-MIN KMSN 131730Z VRB03KT 10SM SCT018 SCT075 18/13 A2989 890 72 1500 VRB/03 RMK AO2
14837KMSN MSN20020613113510306/13/02 11:35:31  5-MIN KMSN 131735Z VRB05KT 10SM FEW018 SCT075 18/13 A2989 900 72 1500 VRB/05 RMK AO2
14837KMSN MSN20020613114009606/13/02 11:40:31  5-MIN KMSN 131740Z 11004KT 10SM SCT018 18/13 A2988 900 72 1500 110/04 RMK AO2
14837KMSN MSN20020613114509606/13/02 11:45:31  5-MIN KMSN 131745Z 08006KT 10SM FEW018 18/13 A2988 900 72 1500 080/06 RMK AO2
14837KMSN MSN20020613115013706/13/02 11:50:31  5-MIN KMSN 131750Z 08006KT 10SM SCT018 18/13 A2988 900 72 1500 070/06 RMK AO2 SLP116 60002 T01830133 10183 20144 58001
14837KMSN MSN20020613115509606/13/02 11:55:31  5-MIN KMSN 131755Z 09006KT 10SM SCT018 19/14 A2988 900 72 1600 090/06 RMK AO2
14837KMSN MSN20020613120009606/13/02 12:00:31  5-MIN KMSN 131800Z 00000KT 10SM SCT018 18/13 A2988 900 72 1500 000/00 RMK AO2
14837KMSN MSN20020613120509606/13/02 12:05:31  5-MIN KMSN 131805Z 09007KT 10SM SCT018 19/14 A2988 900 72 1600 090/07 RMK AO2
14837KMSN MSN20020613121009606/13/02 12:10:31  5-MIN KMSN 131810Z 05005KT 10SM SCT018 19/14 A2988 900 72 1600 050/05 RMK AO2
14837KMSN MSN20020613121509606/13/02 12:15:31  5-MIN KMSN 131815Z 09006KT 10SM SCT018 20/14 A2988 900 70 1700 090/06 RMK AO2
14837KMSN MSN20020613122009606/13/02 12:20:31  5-MIN KMSN 131820Z 08005KT 10SM SCT018 19/13 A2988 910 67 1700 080/05 RMK AO2
14837KMSN MSN20020613122509606/13/02 12:25:31  5-MIN KMSN 131825Z 10006KT 10SM SCT018 19/14 A2987 910 70 1700 090/06 RMK AO2
14837KMSN MSN20020613123009606/13/02 12:30:31  5-MIN KMSN 131830Z 08008KT 10SM SCT018 20/14 A2987 910 67 1700 080/08 RMK AO2
14837KMSN MSN20020613123509606/13/02 12:35:31  5-MIN KMSN 131835Z 08006KT 10SM SCT018 19/13 A2987 920 67 1700 080/06 RMK AO2
14837KMSN MSN20020613124009606/13/02 12:40:31  5-MIN KMSN 131840Z 05008KT 10SM SCT018 19/14 A2986 920 70 1700 050/08 RMK AO2
14837KMSN MSN20020613124511206/13/02 12:45:31  5-MIN KMSN 131845Z 09008KT 050V120 10SM SCT018 21/14 A2986 920 65 1800 090/08 050V120 RMK AO2
14837KMSN MSN20020613125011306/13/02 12:50:31  5-MIN KMSN 131850Z 08008KT 10SM SCT018 20/13 A2986 920 65 1800 070/08 RMK AO2 SLP110 T02000133
14837KMSN MSN20020613125509606/13/02 12:55:31  5-MIN KMSN 131855Z 08009KT 10SM FEW024 20/14 A2986 920 67 1800 080/09 RMK AO2
14837KMSN MSN20020613130009606/13/02 13:00:31  5-MIN KMSN 131900Z 07007KT 10SM FEW024 20/13 A2986 920 65 1800 070/07 RMK AO2
14837KMSN MSN20020613130509606/13/02 13:05:31  5-MIN KMSN 131905Z 10007KT 10SM FEW024 21/14 A2986 920 65 1800 100/07 RMK AO2
14837KMSN MSN20020613131009606/13/02 13:10:31  5-MIN KMSN 131910Z 06006KT 10SM FEW026 21/14 A2986 920 65 1800 060/06 RMK AO2
14837KMSN MSN20020613131510306/13/02 13:15:31  5-MIN KMSN 131915Z 03005KT 10SM FEW026 SCT085 20/13 A2986 920 65 1800 030/05 RMK AO2
14837KMSN MSN20020613132010306/13/02 13:20:31  5-MIN KMSN 131920Z VRB05KT 10SM SCT026 BKN085 21/14 A2987 910 65 1800 VRB/05 RMK AO2
14837KMSN MSN20020613132510306/13/02 13:25:31  5-MIN KMSN 131925Z VRB05KT 10SM SCT026 BKN085 21/14 A2987 910 63 1900 VRB/05 RMK AO2
14837KMSN MSN20020613133010306/13/02 13:30:31  5-MIN KMSN 131930Z 08005KT 10SM SCT026 BKN085 21/14 A2987 920 65 1800 070/05 RMK AO2
14837KMSN MSN20020613133510306/13/02 13:35:31  5-MIN KMSN 131935Z 05005KT 10SM SCT028 BKN085 21/13 A2987 920 63 1800 050/05 RMK AO2
14837KMSN MSN20020613134010306/13/02 13:40:31  5-MIN KMSN 131940Z VRB03KT 10SM FEW028 BKN085 20/13 A2987 920 65 1700 VRB/03 RMK AO2
14837KMSN MSN20020613134510306/13/02 13:45:31  5-MIN KMSN 131945Z VRB04KT 10SM FEW028 BKN085 20/13 A2986 920 65 1800 VRB/04 RMK AO2
14837KMSN MSN20020613135012006/13/02 13:50:31  5-MIN KMSN 131950Z 09004KT 10SM FEW028 BKN085 20/13 A2986 920 65 1800 090/04 RMK AO2 SLP110 T02000133
14837KMSN MSN20020613135510306/13/02 13:55:31  5-MIN KMSN 131955Z 01004KT 10SM SCT030 BKN090 21/13 A2986 920 63 1800 010/04 RMK AO2
14837KMSN MSN20020613140010306/13/02 14:00:31  5-MIN KMSN 132000Z 00000KT 10SM SCT030 BKN090 20/13 A2986 920 63 1800 000/00 RMK AO2
14837KMSN MSN20020613140510306/13/02 14:05:31  5-MIN KMSN 132005Z 00000KT 10SM BKN030 BKN090 20/13 A2986 920 65 1800 000/00 RMK AO2
14837KMSN MSN20020613141010306/13/02 14:10:31  5-MIN KMSN 132010Z 00000KT 10SM SCT030 BKN095 20/13 A2986 920 65 1800 000/00 RMK AO2
14837KMSN MSN20020613141510306/13/02 14:15:31  5-MIN KMSN 132015Z 03003KT 10SM SCT030 OVC100 20/13 A2986 920 65 1800 030/03 RMK AO2
14837KMSN MSN20020613142010306/13/02 14:20:31  5-MIN KMSN 132020Z 32003KT 10SM SCT030 OVC095 19/13 A2986 920 67 1700 320/03 RMK AO2
14837KMSN MSN20020613142510306/13/02 14:25:31  5-MIN KMSN 132025Z 34004KT 10SM SCT032 OVC095 19/13 A2986 920 67 1700 340/04 RMK AO2
14837KMSN MSN20020613143011006/13/02 14:30:31  5-MIN KMSN 132030Z 32003KT 10SM SCT034 BKN080 OVC100 19/14 A2986 920 70 1700 320/03 RMK AO2
14837KMSN MSN20020613143512606/13/02 14:35:31  5-MIN KMSN 132035Z 31004KT 10SM -RA FEW031 BKN080 OVC100 19/14 A2986 920 70 1700 310/04 RMK AO2 RAB33 P0000
14837KMSN MSN20020613144012506/13/02 14:40:31  5-MIN KMSN 132040Z 33004KT 9SM -RA SCT033 BKN046 OVC090 19/14 A2985 930 70 1700 330/04 RMK AO2 RAB33 P0000
14837KMSN MSN20020613144511806/13/02 14:45:31  5-MIN KMSN 132045Z 33004KT 8SM -RA BKN033 OVC080 20/15 A2985 930 72 1800 330/04 RMK AO2 RAB33 P0001
14837KMSN MSN20020613145015506/13/02 14:50:31  5-MIN KMSN 132050Z 35005KT 10SM -RA FEW020 BKN030 BKN070 19/15 A2985 930 75 1700 340/05 RMK AO2 RAB33 SLP107 P0001 60001 T01940150 58006
14837KMSN MSN20020613145511606/13/02 14:55:31  5-MIN KMSN 132055Z 35004KT 10SM SCT030 BKN060 BKN080 19/14 A2985 930 72 1700 350/04 RMK AO2 RAE54
14837KMSN MSN20020613150011106/13/02 15:00:31  5-MIN KMSN 132100Z 34004KT 10SM SCT030 BKN060 19/14 A2985 930 72 1700 340/04 RMK AO2 RAE2054
14837KMSN MSN20020613150511806/13/02 15:05:31  5-MIN KMSN 132105Z 33004KT 10SM FEW030 SCT060 SCT100 19/14 A2985 930 70 1700 330/04 RMK AO2 RAE2054
14837KMSN MSN20020613151011106/13/02 15:10:31  5-MIN KMSN 132110Z 34004KT 10SM FEW030 BKN095 19/14 A2984 930 70 1700 340/04 RMK AO2 RAE2054
14837KMSN MSN20020613151511106/13/02 15:15:31  5-MIN KMSN 132115Z 35005KT 10SM FEW032 BKN090 19/14 A2984 940 72 1600 350/05 RMK AO2 RAE2054
14837KMSN MSN20020613152010406/13/02 15:20:31  5-MIN KMSN 132120Z 35004KT 10SM BKN090 19/14 A2984 940 72 1700 350/04 RMK AO2 RAE2054
14837KMSN MSN20020613152510406/13/02 15:25:31  5-MIN KMSN 132125Z 36005KT 10SM BKN090 19/14 A2984 940 75 1700 360/05 RMK AO2 RAE2054
14837KMSN MSN20020613153012406/13/02 15:30:31  5-MIN KMSN 132130Z VRB04KT 10SM -RA FEW030 BKN090 19/14 A2983 940 75 1700 VRB/04 RMK AO2 RAE2054B26 P0000
14837KMSN MSN20020613153513006/13/02 15:35:31  5-MIN KMSN 132135Z 34004KT 7SM -RA FEW030 SCT065 BKN090 19/15 A2983 950 78 1700 340/04 RMK AO2 RAE2054B26 P0000
14837KMSN MSN20020613154013006/13/02 15:40:31  5-MIN KMSN 132140Z 35003KT 6SM -RA FEW030 SCT065 BKN090 19/16 A2983 950 81 1700 350/03 RMK AO2 RAE2054B26 P0000
14837KMSN MSN20020613154513006/13/02 15:45:31  5-MIN KMSN 132145Z 01005KT 7SM -RA FEW030 SCT065 BKN090 19/15 A2983 950 78 1700 360/05 RMK AO2 RAE2054B26 P0000
14837KMSN MSN20020613155014806/13/02 15:50:31  5-MIN KMSN 132150Z VRB03KT 10SM -RA FEW030 SCT065 BKN085 18/15 A2983 950 81 1600 VRB/03 RMK AO2 RAE2054B26 SLP099 P0000 T01830150
14837KMSN MSN20020613155511306/13/02 15:55:31  5-MIN KMSN 132155Z 00000KT 10SM -RA FEW028 SCT085 19/15 A2983 950 78 1700 000/00 RMK AO2 P0000
14837KMSN MSN20020613160011206/13/02 16:00:31  5-MIN KMSN 132200Z 00000KT 8SM -RA FEW028 SCT085 19/15 A2982 950 78 1700 000/00 RMK AO2 P0001
14837KMSN MSN20020613160511206/13/02 16:05:31  5-MIN KMSN 132205Z 00000KT 8SM -RA FEW036 SCT085 19/14 A2981 960 75 1700 000/00 RMK AO2 P0001
14837KMSN MSN20020613161011306/13/02 16:10:31  5-MIN KMSN 132210Z 00000KT 10SM -RA FEW055 BKN080 19/14 A2981 970 75 1700 000/00 RMK AO2 P0001
14837KMSN MSN20020613161511506/13/02 16:15:31  5-MIN KMSN 132215Z 04003KT 10SM FEW055 BKN080 19/14 A2981 970 75 1700 040/03 RMK AO2 RAE11 P0001
14837KMSN MSN20020613162011506/13/02 16:20:31  5-MIN KMSN 132220Z 00000KT 10SM FEW050 BKN080 19/14 A2981 970 75 1700 000/00 RMK AO2 RAE11 P0001
14837KMSN MSN20020613162510806/13/02 16:25:31  5-MIN KMSN 132225Z 00000KT 10SM BKN080 19/15 A2980 970 75 1800 000/00 RMK AO2 RAE11 P0001
14837KMSN MSN20020613163010806/13/02 16:30:31  5-MIN KMSN 132230Z VRB03KT 10SM OVC085 19/14 A2980 980 72 1800 VRB/03 RMK AO2 RAE11 P0001
14837KMSN MSN20020613163510806/13/02 16:35:31  5-MIN KMSN 132235Z 36003KT 10SM BKN085 20/14 A2979 980 67 1800 360/03 RMK AO2 RAE11 P0001
14837KMSN MSN20020613164011506/13/02 16:40:31  5-MIN KMSN 132240Z VRB05KT 10SM SCT080 BKN090 20/14 A2979 990 67 1800 VRB/05 RMK AO2 RAE11 P0001
14837KMSN MSN20020613164511506/13/02 16:45:31  5-MIN KMSN 132245Z 08005KT 10SM BKN085 20/14 A2978 990 70 1800 080/05 RMK AO2 RAE11 PRESFR P0001
14837KMSN MSN20020613165013206/13/02 16:50:31  5-MIN KMSN 132250Z 04004KT 10SM FEW035 SCT090 20/14 A2979 990 70 1800 040/04 RMK AO2 RAE11 SLP085 P0001 T02000144
14837KMSN MSN20020613165509606/13/02 16:55:31  5-MIN KMSN 132255Z 09005KT 10SM FEW090 20/14 A2979 990 70 1800 090/05 RMK AO2
14837KMSN MSN20020613170009606/13/02 17:00:31  5-MIN KMSN 132300Z 08006KT 10SM FEW090 20/14 A2979 990 70 1800 080/06 RMK AO2
14837KMSN MSN20020613170509306/13/02 17:05:31  5-MIN KMSN 132305Z 08006KT 10SM CLR 20/14 A2979 990 67 1800 080/06 RMK AO2
14837KMSN MSN20020613171009306/13/02 17:10:31  5-MIN KMSN 132310Z 06006KT 10SM CLR 20/13 A2979 990 65 1800 060/06 RMK AO2
14837KMSN MSN20020613171509306/13/02 17:15:31  5-MIN KMSN 132315Z 08005KT 10SM CLR 20/14 A2978 990 67 1800 080/05 RMK AO2
14837KMSN MSN20020613172009306/13/02 17:20:31  5-MIN KMSN 132320Z 10005KT 10SM CLR 20/14 A2978 990 67 1800 100/05 RMK AO2
14837KMSN MSN20020613172509306/13/02 17:25:31  5-MIN KMSN 132325Z 11005KT 10SM CLR 20/14 A2979 990 67 1800 110/05 RMK AO2
14837KMSN MSN20020613173009306/13/02 17:30:31  5-MIN KMSN 132330Z 11004KT 10SM CLR 19/13 A2979 990 67 1800 110/04 RMK AO2
14837KMSN MSN20020613173509306/13/02 17:35:31  5-MIN KMSN 132335Z 12005KT 10SM CLR 19/14 A2979 990 70 1800 110/05 RMK AO2
14837KMSN MSN20020613174009606/13/02 17:40:31  5-MIN KMSN 132340Z 12004KT 10SM FEW120 19/14 A2979 980 72 1700 120/04 RMK AO2
14837KMSN MSN20020613174509606/13/02 17:45:31  5-MIN KMSN 132345Z 00000KT 10SM SCT120 19/14 A2979 980 70 1800 000/00 RMK AO2
14837KMSN MSN20020613175015106/13/02 17:50:31  5-MIN KMSN 132350Z 00000KT 10SM FEW035 SCT085 BKN110 19/14 A2980 980 72 1700 000/00 RMK AO2 SLP089 60002 T01890139 10211 20183 56010
14837KMSN MSN20020613175509506/13/02 17:55:31  5-MIN KMSN 132355Z 00000KT 9SM BKN110 18/15 A2980 970 81 1600 000/00 RMK AO2
14837KMSN MSN20020613180009506/13/02 18:00:31  5-MIN KMSN 140000Z 29003KT 9SM BKN100 18/14 A2980 970 78 1600 290/03 RMK AO2
14837KMSN MSN20020613180509606/13/02 18:05:31  5-MIN KMSN 140005Z 31003KT 10SM OVC100 18/15 A2981 970 81 1600 300/03 RMK AO2
14837KMSN MSN20020613181009606/13/02 18:10:31  5-MIN KMSN 140010Z 29003KT 10SM OVC100 18/14 A2981 970 78 1600 290/03 RMK AO2
14837KMSN MSN20020613181511006/13/02 18:15:31  5-MIN KMSN 140015Z 00000KT 10SM FEW075 BKN090 OVC110 18/15 A2981 970 81 1600 000/00 RMK AO2
14837KMSN MSN20020613182010306/13/02 18:20:31  5-MIN KMSN 140020Z 30003KT 10SM BKN085 OVC110 18/15 A2981 960 81 1600 300/03 RMK AO2
14837KMSN MSN20020613182510906/13/02 18:25:31  5-MIN KMSN 140025Z 29003KT 9SM FEW042 BKN085 OVC110 18/14 A2981 960 78 1600 290/03 RMK AO2
14837KMSN MSN20020613183012506/13/02 18:30:31  5-MIN KMSN 140030Z 29005KT 7SM -RA SCT027 BKN080 OVC090 18/14 A2981 960 78 1600 290/05 RMK AO2 RAB28 P0000
14837KMSN MSN20020613183512506/13/02 18:35:31  5-MIN KMSN 140035Z 29005KT 7SM -RA SCT021 BKN075 OVC085 18/14 A2982 960 78 1600 290/05 RMK AO2 RAB28 P0000
14837KMSN MSN20020613184011806/13/02 18:40:31  5-MIN KMSN 140040Z 29005KT 8SM -RA SCT025 BKN080 18/14 A2982 960 81 1500 290/05 RMK AO2 RAB28 P0000
14837KMSN MSN20020613184512506/13/02 18:45:31  5-MIN KMSN 140045Z 29005KT 8SM -RA SCT025 BKN070 BKN080 18/14 A2982 960 81 1500 290/05 RMK AO2 RAB28 P0000
14837KMSN MSN20020613185014206/13/02 18:50:31  5-MIN KMSN 140050Z 30006KT 8SM -RA SCT025 BKN065 BKN080 18/15 A2982 960 83 1500 300/06 RMK AO2 RAB28 SLP096 P0000 T01780150
14837KMSN MSN20020613185511906/13/02 18:55:31  5-MIN KMSN 140055Z 30009KT 7SM -RA SCT022 BKN030 BKN065 18/15 A2982 960 83 1500 300/09 RMK AO2 P0000
14837KMSN MSN20020613190012606/13/02 19:00:31  5-MIN KMSN 140100Z 31011KT 6SM BR FEW014 BKN027 BKN065 17/15 A2982 950 87 1500 310/11 RMK AO2 RAE0059 P0000
14837KMSN MSN20020613190516306/13/02 19:05:31  5-MIN KMSN 140105Z 31010KT 8SM -TSRA SCT016 BKN028 OVC065 16/14 A2982 960 86 1300 300/10 RMK AO2 TSB01 OCNL LTGIC VC S-SW TS VC S-SW MOV E P0000
14837KMSN MSN20020613191016306/13/02 19:10:31  5-MIN KMSN 140110Z 28008KT 8SM -TSRA SCT019 BKN031 OVC065 16/13 A2982 950 80 1300 280/08 RMK AO2 TSB01 OCNL LTGIC VC S-SW TS VC S-SW MOV E P0001
14837KMSN MSN20020613191516306/13/02 19:15:31  5-MIN KMSN 140115Z 27005KT 6SM -TSRA FEW014 BKN028 OVC060 16/13 A2982 960 83 1300 270/05 RMK AO2 TSB01 OCNL LTGIC VC S-SW TS VC S-SW MOV E P0002
14837KMSN MSN20020613192016306/13/02 19:20:31  5-MIN KMSN 140120Z VRB04KT 5SM -TSRA FEW014 BKN026 OVC055 16/13 A2982 960 86 1300 VRB/04 RMK AO2 TSB01 OCNL LTGIC VC S-SW TS VC S-SW MOV E P0003
14837KMSN MSN20020613192516306/13/02 19:25:31  5-MIN KMSN 140125Z 00000KT 5SM -TSRA FEW014 BKN030 OVC055 15/13 A2981 970 90 1200 000/00 RMK AO2 TSB01 OCNL LTGIC VC S-SW TS VC S-SW MOV E P0004
14837KMSN MSN20020613193016306/13/02 19:30:31  5-MIN KMSN 140130Z 00000KT 5SM -TSRA FEW021 BKN038 OVC080 15/13 A2980 970 90 1200 000/00 RMK AO2 TSB01 OCNL LTGIC VC SE-S TS VC SE-S MOV E P0005
14837KMSN MSN20020613193516306/13/02 19:35:31  5-MIN KMSN 140135Z 30004KT 6SM -TSRA BKN046 BKN060 OVC080 15/14 A2981 970 93 1200 300/04 RMK AO2 TSB01 OCNL LTGIC VC SE-S TS VC SE-S MOV E P0005
14837KMSN MSN20020613194013706/13/02 19:40:31  5-MIN KMSN 140140Z 00000KT 8SM -RA BKN042 BKN050 BKN080 15/13 A2981 970 90 1200 000/00 RMK AO2 TSB01E40 TS MOV E P0005
14837KMSN MSN20020613194512806/13/02 19:45:31  5-MIN KMSN 140145Z 00000KT 8SM -RA BKN042 BKN050 BKN080 15/13 A2980 980 90 1200 000/00 RMK AO2 TSB01E40 P0005
14837KMSN MSN20020613195014706/13/02 19:50:31  5-MIN KMSN 140150Z 00000KT 10SM SCT045 SCT080 BKN110 15/13 A2980 970 90 1200 000/00 RMK AO2 TSB01E40RAE48 SLP091 P0005 T01500133
14837KMSN MSN20020613195511006/13/02 19:55:31  5-MIN KMSN 140155Z 36003KT 10SM FEW055 SCT080 BKN100 15/13 A2981 970 90 1200 360/03 RMK AO2
14837KMSN MSN20020613200010306/13/02 20:00:31  5-MIN KMSN 140200Z 04003KT 10SM FEW047 BKN095 14/14 A2980 970 96 1200 030/03 RMK AO2
14837KMSN MSN20020613200511006/13/02 20:05:31  5-MIN KMSN 140205Z 00000KT 10SM FEW050 BKN100 BKN110 14/13 A2980 970 93 1200 000/00 RMK AO2
14837KMSN MSN20020613201010306/13/02 20:10:31  5-MIN KMSN 140210Z 36004KT 10SM SCT100 BKN110 14/13 A2981 970 93 1200 350/04 RMK AO2
14837KMSN MSN20020613201510306/13/02 20:15:31  5-MIN KMSN 140215Z 01004KT 10SM SCT100 BKN110 14/13 A2980 970 90 1200 010/04 RMK AO2
14837KMSN MSN20020613202010306/13/02 20:20:31  5-MIN KMSN 140220Z 01003KT 10SM SCT100 BKN110 14/13 A2980 970 90 1200 010/03 RMK AO2
14837KMSN MSN20020613202510306/13/02 20:25:31  5-MIN KMSN 140225Z 00000KT 10SM FEW095 SCT110 14/13 A2980 980 93 1100 000/00 RMK AO2
14837KMSN MSN20020613203009606/13/02 20:30:31  5-MIN KMSN 140230Z 00000KT 10SM FEW110 14/13 A2980 980 96 1100 000/00 RMK AO2
14837KMSN MSN20020613203509206/13/02 20:35:31  5-MIN KMSN 140235Z 00000KT 9SM CLR 13/13 A2980 970 96 1000 000/00 RMK AO2
14837KMSN MSN20020613204009206/13/02 20:40:31  5-MIN KMSN 140240Z 29003KT 7SM CLR 13/13 A2980 970 96 1000 290/03 RMK AO2
14837KMSN MSN20020613204509506/13/02 20:45:31  5-MIN KMSN 140245Z 30003KT 6SM BR CLR 13/12 A2980 970 96 1000 300/03 RMK AO2
14837KMSN MSN20020613205013006/13/02 20:50:31  5-MIN KMSN 140250Z 31003KT 6SM BR CLR 13/12 A2980 980 96 1000 310/03 RMK AO2 SLP091 P0001 60007 T01280122 55016
14837KMSN MSN20020613205509206/13/02 20:55:31  5-MIN KMSN 140255Z 00000KT 7SM CLR 13/13 A2980 980 96 1100 000/00 RMK AO2
14837KMSN MSN20020613210009206/13/02 21:00:31  5-MIN KMSN 140300Z 00000KT 8SM CLR 13/13 A2980 980 96 1000 000/00 RMK AO2
14837KMSN MSN20020613210509206/13/02 21:05:31  5-MIN KMSN 140305Z 30004KT 7SM CLR 13/12 A2980 980 96 1000 300/04 RMK AO2
14837KMSN MSN20020613211009506/13/02 21:10:31  5-MIN KMSN 140310Z 30003KT 6SM BR CLR 13/12 A2980 970 96 1000 300/03 RMK AO2
14837KMSN MSN20020613211509506/13/02 21:15:31  5-MIN KMSN 140315Z 29003KT 6SM BR CLR 13/12 A2980 970 96 1000 290/03 RMK AO2
14837KMSN MSN20020613212009506/13/02 21:20:31  5-MIN KMSN 140320Z 00000KT 6SM BR CLR 13/12 A2980 970 96 1000 000/00 RMK AO2
14837KMSN MSN20020613212509506/13/02 21:25:31  5-MIN KMSN 140325Z 00000KT 3SM BR CLR 13/12 A2980 970 96 1000 000/00 RMK AO2
14837KMSN MSN20020613213009706/13/02 21:30:31  5-MIN KMSN 140330Z 26003KT 10SM MIFG CLR 12/12 A2981 970 96 900 260/03 RMK AO2
14837KMSN MSN20020613213509806/13/02 21:35:31  5-MIN KMSN 140335Z 27003KT 10SM MIFG CLR 13/12 A2981 970 96 1000 270/03 RMK AO2
14837KMSN MSN20020613214009806/13/02 21:40:31  5-MIN KMSN 140340Z 29005KT 10SM MIFG CLR 13/12 A2982 960 96 1000 290/05 RMK AO2
14837KMSN MSN20020613214509806/13/02 21:45:31  5-MIN KMSN 140345Z 32005KT 10SM MIFG CLR 13/12 A2981 960 96 1000 320/05 RMK AO2
14837KMSN MSN20020613215011306/13/02 21:50:31  5-MIN KMSN 140350Z 32004KT 10SM FEW070 13/13 A2981 960 96 1000 320/04 RMK AO2 SLP095 T01330128
14837KMSN MSN20020613215509506/13/02 21:55:31  5-MIN KMSN 140355Z 31003KT 9SM FEW070 13/13 A2981 970 96 1000 310/03 RMK AO2
14837KMSN MSN20020613220009206/13/02 22:00:31  5-MIN KMSN 140400Z 27003KT 7SM CLR 13/12 A2981 970 93 1000 270/03 RMK AO2
14837KMSN MSN20020613220509206/13/02 22:05:31  5-MIN KMSN 140405Z 00000KT 7SM CLR 13/13 A2981 970 96 1000 000/00 RMK AO2
14837KMSN MSN20020613221009506/13/02 22:10:31  5-MIN KMSN 140410Z 00000KT 7SM FEW080 13/12 A2981 970 93 1000 000/00 RMK AO2
14837KMSN MSN20020613221509506/13/02 22:15:31  5-MIN KMSN 140415Z 20003KT 7SM SCT080 13/12 A2980 970 93 1000 200/03 RMK AO2
14837KMSN MSN20020613222009506/13/02 22:20:31  5-MIN KMSN 140420Z 24003KT 7SM BKN085 13/13 A2980 970 96 1000 240/03 RMK AO2
14837KMSN MSN20020613222509506/13/02 22:25:31  5-MIN KMSN 140425Z 22003KT 8SM BKN085 13/13 A2980 970 96 1000 220/03 RMK AO2
14837KMSN MSN20020613223009506/13/02 22:30:31  5-MIN KMSN 140430Z 24003KT 8SM SCT085 14/13 A2980 980 93 1100 240/03 RMK AO2
14837KMSN MSN20020613223509506/13/02 22:35:31  5-MIN KMSN 140435Z 00000KT 7SM SCT085 13/12 A2980 980 96 1000 000/00 RMK AO2
14837KMSN MSN20020613224009706/13/02 22:40:31  5-MIN KMSN 140440Z 00000KT 5SM BR SCT085 12/12 A2980 980 96 900 000/00 RMK AO2
14837KMSN MSN20020613224509806/13/02 22:45:31  5-MIN KMSN 140445Z 24004KT 4SM BR FEW085 12/12 A2980 970 100 900 240/04 RMK AO2
14837KMSN MSN20020613225011206/13/02 22:50:31  5-MIN KMSN 140450Z 24004KT 6SM BR CLR 13/12 A2980 980 96 1000 240/04 RMK AO2 SLP091 T01280122
14837KMSN MSN20020613225509706/13/02 22:55:31  5-MIN KMSN 140455Z 24003KT 6SM MIFG CLR 13/12 A2980 980 96 1000 240/03 RMK AO2
14837KMSN MSN20020613230009706/13/02 23:00:31  5-MIN KMSN 140500Z 00000KT 7SM MIFG CLR 13/12 A2980 980 96 1000 000/00 RMK AO2
14837KMSN MSN20020613230509706/13/02 23:05:31  5-MIN KMSN 140505Z 00000KT 8SM MIFG CLR 13/12 A2980 980 93 1100 000/00 RMK AO2
14837KMSN MSN20020613231009706/13/02 23:10:31  5-MIN KMSN 140510Z 00000KT 8SM MIFG CLR 13/12 A2979 980 93 1100 000/00 RMK AO2
14837KMSN MSN20020613231510806/13/02 23:15:31  5-MIN KMSN 140515Z 04003KT 2 1/2SM MIFG CLR 12/11 A2979 980 96 900 040/03 RMK AO2 VIS 1V5
14837KMSN MSN20020613232009606/13/02 23:20:31  5-MIN KMSN 140520Z 05003KT 5SM MIFG CLR 12/11 A2979 980 96 900 050/03 RMK AO2
14837KMSN MSN20020613232509706/13/02 23:25:31  5-MIN KMSN 140525Z 00000KT 5SM MIFG CLR 11/11 A2979 980 100 800 000/00 RMK AO2
14837KMSN MSN20020613233009606/13/02 23:30:31  5-MIN KMSN 140530Z 04003KT 5SM MIFG CLR 12/11 A2979 980 93 900 040/03 RMK AO2
14837KMSN MSN20020613233509706/13/02 23:35:31  5-MIN KMSN 140535Z 00000KT 5SM MIFG CLR 12/12 A2979 990 100 900 000/00 RMK AO2
14837KMSN MSN20020613234009606/13/02 23:40:31  5-MIN KMSN 140540Z 00000KT 5SM MIFG CLR 12/12 A2978 990 96 900 000/00 RMK AO2
14837KMSN MSN20020613234509606/13/02 23:45:31  5-MIN KMSN 140545Z 00000KT 5SM MIFG CLR 12/12 A2978 990 96 900 000/00 RMK AO2
14837KMSN MSN20020613235014806/13/02 23:50:31  5-MIN KMSN 140550Z 00000KT 5SM MIFG CLR 11/11 A2978 990 100 800 000/00 RMK AO2 SLP085 60006 T01110111 10183 20111 402110111 58001
14837KMSN MSN20020613235509706/13/02 23:55:31  5-MIN KMSN 140555Z 00000KT 4SM MIFG CLR 11/11 A2978 990 100 800 000/00 RMK AO2
14837KMSN MSN20020614000009606/14/02 00:00:31  5-MIN KMSN 140600Z 00000KT 4SM MIFG CLR 11/11 A2978 990 96 800 000/00 RMK AO2
14837KMSN MSN20020614000509606/14/02 00:05:31  5-MIN KMSN 140605Z 00000KT 4SM MIFG CLR 11/11 A2978 990 96 800 000/00 RMK AO2
14837KMSN MSN20020614001009806/14/02 00:10:31  5-MIN KMSN 140610Z 30003KT 4SM MIFG CLR 11/11 A2978 1000 100 800 300/03 RMK AO2
14837KMSN MSN20020614001510006/14/02 00:15:31  5-MIN KMSN 140615Z 00000KT 3SM MIFG FEW002 12/11 A2978 1000 96 900 000/00 RMK AO2
14837KMSN MSN20020614002010106/14/02 00:20:31  5-MIN KMSN 140620Z 31003KT 4SM MIFG SCT002 12/12 A2978 1000 100 900 310/03 RMK AO2
14837KMSN MSN20020614002510006/14/02 00:25:31  5-MIN KMSN 140625Z VRB03KT 4SM MIFG SCT002 12/11 A2978 1000 96 900 VRB/03 RMK AO2
14837KMSN MSN20020614003010106/14/02 00:30:31  5-MIN KMSN 140630Z VRB03KT 1/2SM FG BKN002 12/12 A2977 1000 100 900 VRB/03 RMK AO2
14837KMSN MSN20020614003510106/14/02 00:35:31  5-MIN KMSN 140635Z VRB03KT 1/2SM FG BKN002 12/12 A2977 1000 100 900 VRB/03 RMK AO2
14837KMSN MSN20020614004010206/14/02 00:40:31  5-MIN KMSN 140640Z VRB03KT 1/2SM FG OVC002 12/12 A2977 1000 100 1000 VRB/03 RMK AO2
14837KMSN MSN20020614004510206/14/02 00:45:31  5-MIN KMSN 140645Z 27004KT 1/2SM FG OVC002 12/12 A2977 1010 100 1000 270/04 RMK AO2
14837KMSN MSN20020614005011906/14/02 00:50:31  5-MIN KMSN 140650Z VRB03KT 1/2SM FG OVC002 12/12 A2976 1010 100 1000 VRB/03 RMK AO2 SLP077 T01220122
14837KMSN MSN20020614005510206/14/02 00:55:31  5-MIN KMSN 140655Z 31003KT 1/2SM FG OVC002 12/12 A2976 1010 100 1000 310/03 RMK AO2
14837KMSN MSN20020614010010206/14/02 01:00:31  5-MIN KMSN 140700Z 31004KT 1/2SM FG OVC002 12/12 A2976 1010 100 1000 310/04 RMK AO2
14837KMSN MSN20020614010510206/14/02 01:05:31  5-MIN KMSN 140705Z 32006KT 1/2SM FG OVC002 12/12 A2976 1010 100 1000 310/06 RMK AO2
14837KMSN MSN20020614011010206/14/02 01:10:31  5-MIN KMSN 140710Z 31004KT 1/2SM FG OVC002 12/12 A2976 1020 100 1000 310/04 RMK AO2
14837KMSN MSN20020614011510206/14/02 01:15:31  5-MIN KMSN 140715Z 31004KT 1/2SM FG OVC002 12/12 A2976 1020 100 1000 310/04 RMK AO2
14837KMSN MSN20020614012010206/14/02 01:20:31  5-MIN KMSN 140720Z 31005KT 1SM MIFG OVC002 12/12 A2976 1020 100 1000 310/05 RMK AO2
14837KMSN MSN20020614012510206/14/02 01:25:31  5-MIN KMSN 140725Z VRB03KT 1SM MIFG OVC002 12/12 A2975 1020 100 1000 VRB/03 RMK AO2
14837KMSN MSN20020614013010106/14/02 01:30:31  5-MIN KMSN 140730Z 32003KT 1SM MIFG OVC002 13/12 A2976 1020 96 1000 320/03 RMK AO2
14837KMSN MSN20020614013510106/14/02 01:35:31  5-MIN KMSN 140735Z 01004KT 1SM MIFG OVC002 13/12 A2976 1020 96 1000 010/04 RMK AO2
14837KMSN MSN20020614014010106/14/02 01:40:31  5-MIN KMSN 140740Z 36005KT 1SM MIFG OVC002 13/12 A2976 1020 96 1000 360/05 RMK AO2
14837KMSN MSN20020614014511306/14/02 01:45:31  5-MIN KMSN 140745Z 36004KT 1SM MIFG OVC002 13/12 A2975 1020 96 1000 360/04 RMK AO2 CIG 001V005
14837KMSN MSN20020614015013006/14/02 01:50:31  5-MIN KMSN 140750Z 36003KT 1SM MIFG OVC002 13/12 A2975 1020 96 1000 360/03 RMK AO2 CIG 001V005 SLP074 T01280122
14837KMSN MSN20020614015510206/14/02 01:55:31  5-MIN KMSN 140755Z 36003KT 1SM MIFG OVC002 12/12 A2975 1020 100 1000 360/03 RMK AO2
14837KMSN MSN20020614020010206/14/02 02:00:31  5-MIN KMSN 140800Z 36003KT 1SM MIFG OVC002 12/12 A2975 1020 100 1000 360/03 RMK AO2
14837KMSN MSN20020614020510106/14/02 02:05:31  5-MIN KMSN 140805Z 00000KT 1SM MIFG OVC002 12/12 A2975 1020 96 1000 000/00 RMK AO2
14837KMSN MSN20020614021010106/14/02 02:10:31  5-MIN KMSN 140810Z 00000KT 1SM MIFG OVC002 12/12 A2975 1030 96 1000 000/00 RMK AO2
14837KMSN MSN20020614021511306/14/02 02:15:31  5-MIN KMSN 140815Z 00000KT 1SM MIFG OVC002 12/12 A2974 1030 96 1000 000/00 RMK AO2 CIG 001V004
14837KMSN MSN20020614022010106/14/02 02:20:31  5-MIN KMSN 140820Z VRB03KT 1SM MIFG OVC002 12/12 A2974 1030 96 1000 VRB/03 RMK AO2
14837KMSN MSN20020614022510806/14/02 02:25:31  5-MIN KMSN 140825Z 34003KT 1SM MIFG BKN002 BKN006 12/12 A2974 1030 96 1000 340/03 RMK AO2
14837KMSN MSN20020614023011306/14/02 02:30:31  5-MIN KMSN 140830Z 00000KT 1SM MIFG BKN002 12/12 A2974 1030 100 900 000/00 RMK AO2 CIG 001V006
14837KMSN MSN20020614023510106/14/02 02:35:31  5-MIN KMSN 140835Z 00000KT 1/2SM FG BKN002 12/12 A2974 1030 100 900 000/00 RMK AO2
14837KMSN MSN20020614024010706/14/02 02:40:31  5-MIN KMSN 140840Z 00000KT 1/2SM FG BKN002 BKN005 12/11 A2974 1030 96 900 000/00 RMK AO2
14837KMSN MSN20020614024510806/14/02 02:45:31  5-MIN KMSN 140845Z 00000KT 1/2SM FG BKN002 BKN007 12/12 A2974 1030 100 900 000/00 RMK AO2
14837KMSN MSN20020614025013106/14/02 02:50:31  5-MIN KMSN 140850Z 00000KT 1/2SM FG SCT002 BKN007 12/12 A2974 1030 100 900 000/00 RMK AO2 SLP069 T01170117 58005
14837KMSN MSN20020614025510006/14/02 02:55:31  5-MIN KMSN 140855Z 00000KT 1/2SM FG VV002 12/12 A2974 1040 96 1000 000/00 RMK AO2
14837KMSN MSN20020614030010806/14/02 03:00:31  5-MIN KMSN 140900Z 00000KT 1/2SM FG SCT002 SCT007 12/12 A2974 1040 100 900 000/00 RMK AO2
14837KMSN MSN20020614030510806/14/02 03:05:31  5-MIN KMSN 140905Z 00000KT 1/2SM FG SCT002 SCT007 12/12 A2974 1030 100 900 000/00 RMK AO2
14837KMSN MSN20020614031010806/14/02 03:10:31  5-MIN KMSN 140910Z 00000KT 1/2SM FG SCT002 SCT007 11/11 A2974 1040 100 900 000/00 RMK AO2
14837KMSN MSN20020614031510806/14/02 03:15:31  5-MIN KMSN 140915Z 00000KT 1/2SM FG SCT002 SCT007 11/11 A2974 1040 100 800 000/00 RMK AO2
14837KMSN MSN20020614032010706/14/02 03:20:31  5-MIN KMSN 140920Z 29003KT 1/2SM FG SCT002 SCT007 11/11 A2974 1030 96 900 290/03 RMK AO2
14837KMSN MSN20020614032510006/14/02 03:25:31  5-MIN KMSN 140925Z 30003KT 2SM BCFG FEW002 12/11 A2974 1030 96 900 300/03 RMK AO2
14837KMSN MSN20020614033010406/14/02 03:30:31  5-MIN KMSN 140930Z 30004KT 1 1/4SM BCFG FEW002 12/11 A2974 1030 96 900 290/04 RMK AO2
14837KMSN MSN20020614033510406/14/02 03:35:31  5-MIN KMSN 140935Z VRB04KT 1 3/4SM BCFG FEW002 12/11 A2974 1030 96 900 VRB/04 RMK AO2
14837KMSN MSN20020614034010406/14/02 03:40:31  5-MIN KMSN 140940Z 30004KT 1 3/4SM BCFG FEW002 12/11 A2974 1030 96 900 300/04 RMK AO2
14837KMSN MSN20020614034510406/14/02 03:45:31  5-MIN KMSN 140945Z 31004KT 1 3/4SM BCFG FEW002 12/11 A2974 1030 96 900 310/04 RMK AO2
14837KMSN MSN20020614035011706/14/02 03:50:31  5-MIN KMSN 140950Z 30004KT 3SM BCFG FEW002 12/11 A2974 1030 96 900 300/04 RMK AO2 SLP069 T01170111
14837KMSN MSN20020614035509706/14/02 03:55:31  5-MIN KMSN 140955Z 29004KT 9SM BCFG CLR 12/11 A2974 1030 96 900 290/04 RMK AO2
14837KMSN MSN20020614040009706/14/02 04:00:31  5-MIN KMSN 141000Z 29004KT 9SM BCFG CLR 12/11 A2974 1030 96 900 280/04 RMK AO2
14837KMSN MSN20020614040509706/14/02 04:05:31  5-MIN KMSN 141005Z VRB03KT 9SM BCFG CLR 12/11 A2974 1030 96 900 VRB/03 RMK AO2
14837KMSN MSN20020614041009706/14/02 04:10:31  5-MIN KMSN 141010Z VRB04KT 8SM BCFG CLR 12/11 A2974 1030 93 900 VRB/04 RMK AO2
14837KMSN MSN20020614041509206/14/02 04:15:31  5-MIN KMSN 141015Z 29004KT 7SM CLR 12/11 A2974 1030 93 900 290/04 RMK AO2
14837KMSN MSN20020614042009506/14/02 04:20:31  5-MIN KMSN 141020Z 27004KT 6SM BR CLR 12/11 A2974 1030 93 900 270/04 RMK AO2
14837KMSN MSN20020614042509506/14/02 04:25:31  5-MIN KMSN 141025Z 27003KT 5SM BR CLR 12/11 A2974 1030 93 900 270/03 RMK AO2
14837KMSN MSN20020614043009506/14/02 04:30:31  5-MIN KMSN 141030Z VRB03KT 5SM BR CLR 12/11 A2974 1030 93 900 VRB/03 RMK AO2
14837KMSN MSN20020614043509506/14/02 04:35:31  5-MIN KMSN 141035Z 29004KT 5SM BR CLR 12/11 A2974 1030 93 900 290/04 RMK AO2
14837KMSN MSN20020614044009506/14/02 04:40:31  5-MIN KMSN 141040Z VRB03KT 5SM BR CLR 12/11 A2974 1030 93 900 VRB/03 RMK AO2
14837KMSN MSN20020614044509506/14/02 04:45:31  5-MIN KMSN 141045Z 00000KT 5SM BR CLR 12/11 A2974 1030 93 900 000/00 RMK AO2
14837KMSN MSN20020614045011206/14/02 04:50:31  5-MIN KMSN 141050Z VRB03KT 5SM BR CLR 12/11 A2974 1030 93 900 VRB/03 RMK AO2 SLP070 T01170106
14837KMSN MSN20020614045509506/14/02 04:55:31  5-MIN KMSN 141055Z VRB03KT 5SM BR CLR 12/11 A2974 1030 93 900 VRB/03 RMK AO2
14837KMSN MSN20020614050009506/14/02 05:00:31  5-MIN KMSN 141100Z 31004KT 6SM BR CLR 12/11 A2974 1030 93 900 310/04 RMK AO2
14837KMSN MSN20020614050509506/14/02 05:05:31  5-MIN KMSN 141105Z VRB03KT 6SM BR CLR 12/11 A2974 1030 93 900 VRB/03 RMK AO2
14837KMSN MSN20020614051009506/14/02 05:10:31  5-MIN KMSN 141110Z 32003KT 6SM BR CLR 12/11 A2974 1030 96 900 320/03 RMK AO2
14837KMSN MSN20020614051509606/14/02 05:15:31  5-MIN KMSN 141115Z 33003KT 6SM BR CLR 12/11 A2974 1030 93 1000 330/03 RMK AO2
14837KMSN MSN20020614052009306/14/02 05:20:31  5-MIN KMSN 141120Z 31005KT 7SM CLR 12/11 A2974 1030 93 1000 310/05 RMK AO2
14837KMSN MSN20020614052509306/14/02 05:25:31  5-MIN KMSN 141125Z VRB04KT 7SM CLR 12/11 A2974 1030 93 1000 VRB/04 RMK AO2
14837KMSN MSN20020614053009306/14/02 05:30:31  5-MIN KMSN 141130Z 30005KT 8SM CLR 12/11 A2974 1030 93 1000 300/05 RMK AO2
14837KMSN MSN20020614053509306/14/02 05:35:31  5-MIN KMSN 141135Z 30005KT 8SM CLR 12/11 A2974 1030 93 1000 300/05 RMK AO2
14837KMSN MSN20020614054009306/14/02 05:40:31  5-MIN KMSN 141140Z 29004KT 9SM CLR 13/11 A2974 1030 89 1100 290/04 RMK AO2
14837KMSN MSN20020614054509306/14/02 05:45:31  5-MIN KMSN 141145Z 29004KT 9SM CLR 13/11 A2974 1040 89 1100 290/04 RMK AO2
14837KMSN MSN20020614055013506/14/02 05:50:31  5-MIN KMSN 141150Z 29006KT 10SM CLR 13/11 A2974 1040 89 1100 290/06 RMK AO2 SLP067 70011 T01280111 10128 20106 56015
14837KMSN MSN20020614055509406/14/02 05:55:31  5-MIN KMSN 141155Z 28005KT 10SM CLR 13/11 A2973 1040 86 1100 280/05 RMK AO2
14837KMSN MSN20020614060009406/14/02 06:00:31  5-MIN KMSN 141200Z 28006KT 10SM CLR 13/11 A2973 1040 86 1100 270/06 RMK AO2
14837KMSN MSN20020614060509406/14/02 06:05:31  5-MIN KMSN 141205Z 28005KT 10SM CLR 13/11 A2973 1040 83 1100 280/05 RMK AO2
14837KMSN MSN20020614061009406/14/02 06:10:31  5-MIN KMSN 141210Z VRB04KT 10SM CLR 13/11 A2973 1040 86 1100 VRB/04 RMK AO2
14837KMSN MSN20020614061509706/14/02 06:15:31  5-MIN KMSN 141215Z VRB06KT 10SM FEW005 13/11 A2973 1040 83 1100 VRB/06 RMK AO2
14837KMSN MSN20020614062009706/14/02 06:20:31  5-MIN KMSN 141220Z VRB04KT 10SM FEW005 13/11 A2973 1040 83 1100 VRB/04 RMK AO2
14837KMSN MSN20020614062509706/14/02 06:25:31  5-MIN KMSN 141225Z 31006KT 10SM FEW005 13/11 A2973 1040 83 1100 310/06 RMK AO2
14837KMSN MSN20020614063009706/14/02 06:30:31  5-MIN KMSN 141230Z 32006KT 10SM FEW005 13/11 A2973 1040 83 1100 320/06 RMK AO2
14837KMSN MSN20020614063509706/14/02 06:35:31  5-MIN KMSN 141235Z 30005KT 10SM SCT012 13/11 A2973 1040 86 1100 300/05 RMK AO2
14837KMSN MSN20020614064009706/14/02 06:40:31  5-MIN KMSN 141240Z 31006KT 10SM SCT012 13/11 A2973 1040 86 1100 310/06 RMK AO2
14837KMSN MSN20020614064509706/14/02 06:45:31  5-MIN KMSN 141245Z 31006KT 10SM BKN012 13/11 A2973 1040 86 1100 310/06 RMK AO2
14837KMSN MSN20020614065011406/14/02 06:50:31  5-MIN KMSN 141250Z 30005KT 10SM BKN012 13/11 A2973 1040 89 1100 300/05 RMK AO2 SLP068 T01280111
14837KMSN MSN20020614065509706/14/02 06:55:31  5-MIN KMSN 141255Z 31007KT 10SM BKN012 13/11 A2974 1030 89 1100 310/07 RMK AO2
14837KMSN MSN20020614070009606/14/02 07:00:31  5-MIN KMSN 141300Z 31005KT 9SM OVC012 13/11 A2974 1030 86 1100 310/05 RMK AO2
14837KMSN MSN20020614070509706/14/02 07:05:31  5-MIN KMSN 141305Z 30005KT 10SM OVC012 13/11 A2974 1030 86 1000 300/05 RMK AO2
14837KMSN MSN20020614071009706/14/02 07:10:31  5-MIN KMSN 141310Z 30005KT 10SM OVC012 13/11 A2974 1030 86 1100 300/05 RMK AO2
14837KMSN MSN20020614071510406/14/02 07:15:31  5-MIN KMSN 141315Z VRB04KT 10SM BKN012 OVC021 13/11 A2974 1030 86 1100 VRB/04 RMK AO2
14837KMSN MSN20020614072010406/14/02 07:20:31  5-MIN KMSN 141320Z 28004KT 10SM BKN012 BKN021 13/11 A2973 1040 86 1100 280/04 RMK AO2
14837KMSN MSN20020614072510406/14/02 07:25:31  5-MIN KMSN 141325Z 28005KT 10SM BKN012 BKN021 13/11 A2973 1040 86 1100 280/05 RMK AO2
14837KMSN MSN20020614073010406/14/02 07:30:31  5-MIN KMSN 141330Z 29006KT 10SM BKN014 BKN021 13/11 A2974 1040 86 1100 290/06 RMK AO2
14837KMSN MSN20020614073510406/14/02 07:35:31  5-MIN KMSN 141335Z 30005KT 10SM BKN014 BKN021 13/11 A2974 1030 83 1100 300/05 RMK AO2
14837KMSN MSN20020614074010406/14/02 07:40:31  5-MIN KMSN 141340Z 29007KT 10SM BKN014 BKN021 13/11 A2974 1030 86 1100 290/07 RMK AO2
14837KMSN MSN20020614074509706/14/02 07:45:31  5-MIN KMSN 141345Z VRB04KT 10SM BKN014 13/11 A2974 1040 86 1100 VRB/04 RMK AO2
14837KMSN MSN20020614075011406/14/02 07:50:31  5-MIN KMSN 141350Z 31004KT 10SM BKN014 13/11 A2974 1040 86 1100 300/04 RMK AO2 SLP069 T01330111
14837KMSN MSN20020614075510406/14/02 07:55:31  5-MIN KMSN 141355Z 32005KT 10SM BKN014 OVC018 13/11 A2974 1040 86 1100 320/05 RMK AO2
14837KMSN MSN20020614080009706/14/02 08:00:31  5-MIN KMSN 141400Z VRB04KT 10SM OVC014 13/11 A2973 1040 86 1100 VRB/04 RMK AO2
14837KMSN MSN20020614080509706/14/02 08:05:31  5-MIN KMSN 141405Z 32009KT 10SM OVC014 13/11 A2974 1040 86 1100 320/09 RMK AO2
14837KMSN MSN20020614081009706/14/02 08:10:31  5-MIN KMSN 141410Z 31006KT 10SM OVC014 13/11 A2974 1040 86 1100 310/06 RMK AO2
14837KMSN MSN20020614081509706/14/02 08:15:31  5-MIN KMSN 141415Z 33008KT 10SM OVC014 13/11 A2973 1040 86 1100 330/08 RMK AO2
14837KMSN MSN20020614082009706/14/02 08:20:31  5-MIN KMSN 141420Z 34007KT 10SM OVC012 13/11 A2973 1040 89 1100 340/07 RMK AO2
14837KMSN MSN20020614082509706/14/02 08:25:31  5-MIN KMSN 141425Z 31007KT 10SM OVC012 13/11 A2973 1040 86 1100 310/07 RMK AO2
14837KMSN MSN20020614083009706/14/02 08:30:31  5-MIN KMSN 141430Z 32006KT 10SM OVC012 13/11 A2973 1040 86 1100 310/06 RMK AO2
14837KMSN MSN20020614083509706/14/02 08:35:31  5-MIN KMSN 141435Z 32005KT 10SM OVC012 13/11 A2973 1040 86 1100 320/05 RMK AO2
14837KMSN MSN20020614084009706/14/02 08:40:31  5-MIN KMSN 141440Z 32005KT 10SM OVC012 13/11 A2973 1040 86 1100 320/05 RMK AO2
14837KMSN MSN20020614084509706/14/02 08:45:31  5-MIN KMSN 141445Z VRB05KT 10SM OVC012 13/11 A2973 1040 86 1100 VRB/05 RMK AO2
14837KMSN MSN20020614085012006/14/02 08:50:31  5-MIN KMSN 141450Z 29006KT 10SM OVC012 13/11 A2973 1040 86 1100 290/06 RMK AO2 SLP069 T01330111 58001
14837KMSN MSN20020614085510306/14/02 08:55:31  5-MIN KMSN 141455Z 29007KT 8SM BKN012 OVC016 13/11 A2973 1040 86 1100 280/07 RMK AO2
14837KMSN MSN20020614090010306/14/02 09:00:31  5-MIN KMSN 141500Z 30004KT 8SM BKN012 OVC016 13/11 A2973 1040 86 1100 300/04 RMK AO2
14837KMSN MSN20020614090509606/14/02 09:05:31  5-MIN KMSN 141505Z 29008KT 8SM OVC012 14/11 A2973 1040 83 1200 290/08 RMK AO2
14837KMSN MSN20020614091009606/14/02 09:10:31  5-MIN KMSN 141510Z VRB04KT 8SM OVC012 14/12 A2973 1040 86 1200 VRB/04 RMK AO2
14837KMSN MSN20020614091509606/14/02 09:15:31  5-MIN KMSN 141515Z 30006KT 8SM OVC012 14/12 A2973 1040 86 1200 300/06 RMK AO2
14837KMSN MSN20020614092010306/14/02 09:20:31  5-MIN KMSN 141520Z 30007KT 8SM BKN012 OVC020 14/11 A2973 1040 80 1300 300/07 RMK AO2
14837KMSN MSN20020614092511906/14/02 09:25:31  5-MIN KMSN 141525Z 29008KT 260V320 8SM BKN012 OVC020 14/11 A2973 1040 80 1300 290/08 260V320 RMK AO2
14837KMSN MSN20020614093010406/14/02 09:30:31  5-MIN KMSN 141530Z 29009KT 10SM SCT012 OVC022 14/11 A2973 1040 80 1300 290/09 RMK AO2
14837KMSN MSN20020614093511106/14/02 09:35:31  5-MIN KMSN 141535Z 31008KT 10SM FEW012 BKN019 OVC048 15/11 A2973 1040 77 1300 310/08 RMK AO2
14837KMSN MSN20020614094011106/14/02 09:40:31  5-MIN KMSN 141540Z 31009KT 10SM SCT014 BKN021 OVC048 15/11 A2973 1040 77 1300 310/09 RMK AO2
14837KMSN MSN20020614094511106/14/02 09:45:31  5-MIN KMSN 141545Z 30009KT 10SM SCT016 BKN021 OVC070 15/11 A2973 1040 74 1300 300/09 RMK AO2
14837KMSN MSN20020614095012806/14/02 09:50:31  5-MIN KMSN 141550Z 32008KT 10SM SCT018 BKN024 OVC070 14/11 A2973 1040 77 1300 320/08 RMK AO2 SLP068 T01440106
14837KMSN MSN20020614095511106/14/02 09:55:31  5-MIN KMSN 141555Z 29008KT 10SM SCT016 BKN024 OVC075 15/11 A2973 1040 74 1300 290/08 RMK AO2
14837KMSN MSN20020614100011106/14/02 10:00:31  5-MIN KMSN 141600Z 29009KT 10SM SCT016 BKN050 OVC085 14/11 A2973 1040 77 1300 290/09 RMK AO2
14837KMSN MSN20020614100511106/14/02 10:05:31  5-MIN KMSN 141605Z 29008KT 10SM FEW016 BKN070 OVC090 15/11 A2973 1040 77 1300 290/08 RMK AO2
14837KMSN MSN20020614101011106/14/02 10:10:31  5-MIN KMSN 141610Z 27009KT 10SM SCT016 SCT024 BKN070 15/11 A2973 1040 77 1300 270/09 RMK AO2
14837KMSN MSN20020614101511106/14/02 10:15:31  5-MIN KMSN 141615Z 28006KT 10SM SCT016 SCT024 BKN060 15/11 A2973 1040 77 1300 280/06 RMK AO2
14837KMSN MSN20020614102011106/14/02 10:20:31  5-MIN KMSN 141620Z 30010KT 10SM FEW016 SCT024 BKN060 16/11 A2973 1040 74 1400 300/10 RMK AO2
14837KMSN MSN20020614102511106/14/02 10:25:31  5-MIN KMSN 141625Z 29007KT 10SM FEW016 BKN055 BKN090 15/11 A2973 1040 77 1300 290/07 RMK AO2
14837KMSN MSN20020614103011106/14/02 10:30:31  5-MIN KMSN 141630Z VRB05KT 10SM FEW016 BKN055 OVC090 16/11 A2973 1040 74 1400 VRB/05 RMK AO2
14837KMSN MSN20020614103512706/14/02 10:35:31  5-MIN KMSN 141635Z 30008KT 250V320 10SM SCT016 BKN037 OVC055 15/11 A2973 1040 77 1300 290/08 250V320 RMK AO2
14837KMSN MSN20020614104011106/14/02 10:40:31  5-MIN KMSN 141640Z 30008KT 10SM FEW018 BKN026 OVC055 15/11 A2973 1040 74 1300 300/08 RMK AO2
14837KMSN MSN20020614104511106/14/02 10:45:31  5-MIN KMSN 141645Z 29007KT 10SM FEW018 SCT024 BKN055 15/11 A2973 1040 74 1300 290/07 RMK AO2
14837KMSN MSN20020614105012806/14/02 10:50:31  5-MIN KMSN 141650Z 29008KT 10SM FEW018 SCT024 BKN055 16/11 A2973 1040 74 1400 290/08 RMK AO2 SLP066 T01560111
14837KMSN MSN20020614105512706/14/02 10:55:31  5-MIN KMSN 141655Z 29007KT 230V360 10SM FEW018 SCT024 BKN055 17/11 A2973 1040 69 1500 290/07 230V360 RMK AO2
14837KMSN MSN20020614110011106/14/02 11:00:31  5-MIN KMSN 141700Z 33010KT 10SM SCT021 SCT026 BKN036 16/11 A2973 1040 72 1500 330/10 RMK AO2
14837KMSN MSN20020614110511706/14/02 11:05:31  5-MIN KMSN 141705Z 31010G14KT 10SM FEW021 BKN025 BKN055 16/11 A2973 1040 72 1400 310/10G14 RMK AO2
14837KMSN MSN20020614111011706/14/02 11:10:31  5-MIN KMSN 141710Z 32010G14KT 10SM SCT021 SCT033 BKN041 15/10 A2973 1040 72 1300 320/10G14 RMK AO2
14837KMSN MSN20020614111511706/14/02 11:15:31  5-MIN KMSN 141715Z 31011KT 10SM FEW017 BKN037 OVC060 14/11 A2973 1040 77 1300 310/11 RMK AO2 P0001
14837KMSN MSN20020614112011706/14/02 11:20:31  5-MIN KMSN 141720Z 30009KT 10SM FEW017 BKN042 OVC055 14/11 A2973 1040 83 1200 290/09 RMK AO2 P0001
14837KMSN MSN20020614112511106/14/02 11:25:31  5-MIN KMSN 141725Z 29007KT 10SM FEW017 SCT024 OVC042 14/11 A2973 1040 83 1200 290/07 RMK AO2
14837KMSN MSN20020614113011106/14/02 11:30:31  5-MIN KMSN 141730Z 29007KT 10SM FEW019 BKN043 OVC050 14/11 A2973 1040 83 1200 290/07 RMK AO2
14837KMSN MSN20020614113511106/14/02 11:35:31  5-MIN KMSN 141735Z 29007KT 10SM FEW017 BKN043 OVC050 14/11 A2973 1040 80 1300 290/07 RMK AO2
14837KMSN MSN20020614114012706/14/02 11:40:31  5-MIN KMSN 141740Z 26007KT 240V300 10SM FEW020 BKN043 OVC050 15/11 A2973 1040 77 1300 260/07 240V300 RMK AO2
14837KMSN MSN20020614114511106/14/02 11:45:31  5-MIN KMSN 141745Z VRB05KT 10SM SCT043 BKN050 OVC080 16/12 A2973 1040 80 1400 VRB/05 RMK AO2
14837KMSN MSN20020614115014606/14/02 11:50:31  5-MIN KMSN 141750Z VRB04KT 10SM FEW039 BKN050 BKN060 16/11 A2972 1050 72 1500 VRB/04 RMK AO2 SLP066 T01610111 10167 20128 51001
14837KMSN MSN20020614115511106/14/02 11:55:31  5-MIN KMSN 141755Z 30007KT 10SM FEW027 BKN055 BKN080 16/11 A2973 1040 74 1400 300/07 RMK AO2
14837KMSN MSN20020614120012906/14/02 12:00:31  5-MIN KMSN 141800Z 29009KT 10SM -RA FEW018 SCT031 BKN050 15/11 A2973 1040 77 1300 290/09 RMK AO2 RAB1757 P0000
14837KMSN MSN20020614120512806/14/02 12:05:31  5-MIN KMSN 141805Z 29008KT 10SM FEW025 SCT038 BKN047 14/11 A2973 1040 80 1300 290/08 RMK AO2 RAB1757E05 P0000
14837KMSN MSN20020614121012806/14/02 12:10:31  5-MIN KMSN 141810Z 29006KT 10SM FEW031 SCT045 BKN060 14/11 A2973 1040 77 1300 290/06 RMK AO2 RAB1757E05 P0000
14837KMSN MSN20020614121512806/14/02 12:15:31  5-MIN KMSN 141815Z 30008KT 10SM FEW031 SCT047 BKN060 15/11 A2973 1040 77 1300 300/08 RMK AO2 RAB1757E05 P0000
14837KMSN MSN20020614122012806/14/02 12:20:31  5-MIN KMSN 141820Z 29008KT 10SM FEW031 SCT047 BKN060 15/11 A2973 1040 77 1300 290/08 RMK AO2 RAB1757E05 P0000
14837KMSN MSN20020614122512106/14/02 12:25:31  5-MIN KMSN 141825Z 27008KT 10SM FEW033 BKN060 16/12 A2973 1040 77 1400 270/08 RMK AO2 RAB1757E05 P0000
14837KMSN MSN20020614123012106/14/02 12:30:31  5-MIN KMSN 141830Z 32007KT 10SM FEW045 SCT060 16/12 A2973 1050 75 1500 320/07 RMK AO2 RAB1757E05 P0000
14837KMSN MSN20020614123511406/14/02 12:35:31  5-MIN KMSN 141835Z 28008KT 10SM SCT060 17/12 A2972 1050 72 1600 280/08 RMK AO2 RAB1757E05 P0000
14837KMSN MSN20020614124013706/14/02 12:40:31  5-MIN KMSN 141840Z 33008KT 290V010 10SM FEW024 SCT060 17/12 A2972 1050 72 1600 330/08 290V010 RMK AO2 RAB1757E05 P0000
14837KMSN MSN20020614124512106/14/02 12:45:31  5-MIN KMSN 141845Z 31010KT 10SM SCT024 SCT060 17/12 A2972 1050 69 1600 310/10 RMK AO2 RAB1757E05 P0000
14837KMSN MSN20020614125013806/14/02 12:50:31  5-MIN KMSN 141850Z 31011KT 10SM SCT022 BKN060 17/12 A2972 1050 72 1500 310/11 RMK AO2 RAB1757E05 SLP064 P0000 T01670117
14837KMSN MSN20020614125509706/14/02 12:55:31  5-MIN KMSN 141855Z 32009KT 10SM SCT024 18/12 A2972 1050 67 1700 320/09 RMK AO2
14837KMSN MSN20020614130011306/14/02 13:00:31  5-MIN KMSN 141900Z 30008KT 260V320 10SM SCT024 18/12 A2972 1050 67 1700 290/08 260V320 RMK AO2
14837KMSN MSN20020614130512706/14/02 13:05:31  5-MIN KMSN 141905Z 32010KT 280V340 10SM SCT024 BKN028 BKN034 18/12 A2972 1050 65 1700 320/10 280V340 RMK AO2
14837KMSN MSN20020614131012706/14/02 13:10:31  5-MIN KMSN 141910Z 33010KT 290V350 10SM FEW022 SCT028 BKN034 18/11 A2972 1050 62 1700 330/10 290V350 RMK AO2
14837KMSN MSN20020614131510406/14/02 13:15:31  5-MIN KMSN 141915Z 32008KT 10SM SCT024 SCT034 18/12 A2972 1050 65 1700 310/08 RMK AO2
14837KMSN MSN20020614132012606/14/02 13:20:31  5-MIN KMSN 141920Z 31010G16KT 280V350 10SM FEW026 SCT034 18/11 A2972 1050 62 1700 310/10G16 280V350 RMK AO2
14837KMSN MSN20020614132511006/14/02 13:25:31  5-MIN KMSN 141925Z 32011G16KT 10SM FEW024 SCT032 19/12 A2972 1050 62 1800 320/11G16 RMK AO2
14837KMSN MSN20020614133011006/14/02 13:30:31  5-MIN KMSN 141930Z 31008G16KT 10SM SCT030 SCT035 19/12 A2972 1050 62 1800 310/08G16 RMK AO2
14837KMSN MSN20020614133513306/14/02 13:35:31  5-MIN KMSN 141935Z 32011G16KT 290V350 10SM SCT030 SCT035 SCT055 18/11 A2972 1050 62 1700 320/11G16 290V350 RMK AO2
14837KMSN MSN20020614134011706/14/02 13:40:31  5-MIN KMSN 141940Z 33013G19KT 10SM SCT030 SCT035 BKN055 17/12 A2973 1040 72 1500 330/13G19 RMK AO2
14837KMSN MSN20020614134513206/14/02 13:45:31  5-MIN KMSN 141945Z 33010G19KT 10SM SCT030 SCT035 BKN055 15/11 A2973 1040 77 1300 330/10G19 RMK AO2 RAB42E44 P0000
14837KMSN MSN20020614135014306/14/02 13:50:31  5-MIN KMSN 141950Z 32008KT 10SM SCT030 SCT035 BKN055 15/11 A2973 1040 77 1300 310/08 RMK AO2 RAB42E44 SLP068 P0000 T01500111
14837KMSN MSN20020614135511106/14/02 13:55:31  5-MIN KMSN 141955Z 32006KT 10SM FEW030 SCT050 BKN075 16/12 A2973 1040 77 1400 310/06 RMK AO2
14837KMSN MSN20020614140011106/14/02 14:00:31  5-MIN KMSN 142000Z 32007KT 10SM FEW032 SCT050 BKN095 16/12 A2973 1040 77 1500 320/07 RMK AO2
14837KMSN MSN20020614140511106/14/02 14:05:31  5-MIN KMSN 142005Z 32008KT 10SM FEW027 SCT075 BKN095 16/12 A2973 1040 75 1500 320/08 RMK AO2
14837KMSN MSN20020614141011106/14/02 14:10:31  5-MIN KMSN 142010Z 33008KT 10SM FEW050 SCT075 SCT100 17/13 A2973 1040 75 1600 330/08 RMK AO2
14837KMSN MSN20020614141510406/14/02 14:15:31  5-MIN KMSN 142015Z 32009KT 10SM FEW021 SCT100 18/13 A2973 1040 72 1700 310/09 RMK AO2
14837KMSN MSN20020614142011106/14/02 14:20:31  5-MIN KMSN 142020Z 31009KT 10SM FEW025 SCT080 SCT100 18/13 A2972 1050 70 1700 310/09 RMK AO2
14837KMSN MSN20020614142510406/14/02 14:25:31  5-MIN KMSN 142025Z 31010KT 10SM SCT025 BKN070 18/12 A2973 1040 69 1700 310/10 RMK AO2
14837KMSN MSN20020614143013306/14/02 14:30:31  5-MIN KMSN 142030Z 32009G16KT 10SM -RA FEW025 BKN041 BKN060 17/12 A2972 1050 69 1600 320/09G16 RMK AO2 RAB26 P0000
14837KMSN MSN20020614143513306/14/02 14:35:31  5-MIN KMSN 142035Z 32008G16KT 10SM -RA FEW021 SCT034 BKN090 17/12 A2972 1050 69 1600 320/08G16 RMK AO2 RAB26 P0000
14837KMSN MSN20020614144013206/14/02 14:40:31  5-MIN KMSN 142040Z 31012G16KT 10SM SCT024 SCT033 BKN048 17/12 A2973 1040 69 1600 310/12G16 RMK AO2 RAB26E40 P0000
14837KMSN MSN20020614144512706/14/02 14:45:31  5-MIN KMSN 142045Z 32010KT 10SM -RA SCT028 BKN038 BKN050 17/12 A2973 1040 72 1500 310/10 RMK AO2 RAB26 P0000
14837KMSN MSN20020614145016106/14/02 14:50:31  5-MIN KMSN 142050Z 32010G18KT 10SM FEW028 BKN048 OVC090 16/11 A2973 1040 72 1500 320/10G18 RMK AO2 RAB26E48 SLP068 P0000 60000 T01610111 56003
14837KMSN MSN20020614145511706/14/02 14:55:31  5-MIN KMSN 142055Z 33011G18KT 10SM FEW019 SCT048 BKN060 16/11 A2973 1040 69 1400 330/11G18 RMK AO2
14837KMSN MSN20020614150011106/14/02 15:00:31  5-MIN KMSN 142100Z 32010KT 10SM FEW034 SCT048 BKN055 16/11 A2973 1040 69 1400 320/10 RMK AO2
14837KMSN MSN20020614150511106/14/02 15:05:31  5-MIN KMSN 142105Z 32009KT 10SM FEW034 BKN055 OVC070 16/11 A2973 1040 72 1400 320/09 RMK AO2
14837KMSN MSN20020614151011106/14/02 15:10:31  5-MIN KMSN 142110Z 32007KT 10SM FEW048 SCT055 OVC075 17/11 A2973 1040 69 1500 320/07 RMK AO2
14837KMSN MSN20020614151511106/14/02 15:15:31  5-MIN KMSN 142115Z 31008KT 10SM SCT055 BKN075 BKN100 17/12 A2973 1040 69 1600 310/08 RMK AO2
14837KMSN MSN20020614152011106/14/02 15:20:31  5-MIN KMSN 142120Z 31009KT 10SM FEW055 BKN070 BKN100 18/12 A2973 1040 67 1600 310/09 RMK AO2
14837KMSN MSN20020614152511106/14/02 15:25:31  5-MIN KMSN 142125Z 31012KT 10SM FEW031 BKN070 BKN110 18/12 A2973 1040 67 1700 310/12 RMK AO2
14837KMSN MSN20020614153011106/14/02 15:30:31  5-MIN KMSN 142130Z 30012KT 10SM FEW029 BKN070 OVC100 18/12 A2973 1040 67 1600 300/12 RMK AO2
14837KMSN MSN20020614153511106/14/02 15:35:31  5-MIN KMSN 142135Z 33010KT 10SM SCT029 BKN044 OVC100 18/12 A2973 1040 67 1600 330/10 RMK AO2
14837KMSN MSN20020614154011706/14/02 15:40:31  5-MIN KMSN 142140Z 31012G18KT 10SM FEW027 BKN034 OVC110 18/12 A2973 1040 67 1600 310/12G18 RMK AO2
14837KMSN MSN20020614154511706/14/02 15:45:31  5-MIN KMSN 142145Z 32012G20KT 10SM SCT031 BKN043 OVC110 18/11 A2973 1040 64 1600 320/12G20 RMK AO2
14837KMSN MSN20020614155013406/14/02 15:50:31  5-MIN KMSN 142150Z 32012G20KT 10SM SCT031 BKN043 BKN080 17/11 A2973 1040 67 1600 320/12G20 RMK AO2 SLP068 T01720111
14837KMSN MSN20020614155511706/14/02 15:55:31  5-MIN KMSN 142155Z 31013G18KT 10SM FEW029 BKN047 OVC080 17/11 A2973 1040 67 1600 310/13G18 RMK AO2
14837KMSN MSN20020614160011706/14/02 16:00:31  5-MIN KMSN 142200Z 33010G18KT 10SM FEW029 BKN049 OVC080 17/11 A2973 1040 67 1600 330/10G18 RMK AO2
14837KMSN MSN20020614160513306/14/02 16:05:31  5-MIN KMSN 142205Z 33010G15KT 300V360 10SM FEW031 BKN080 OVC095 18/12 A2973 1040 67 1600 330/10G15 300V360 RMK AO2
14837KMSN MSN20020614161011706/14/02 16:10:31  5-MIN KMSN 142210Z 33013G18KT 10SM FEW031 BKN050 OVC090 17/12 A2974 1040 69 1600 330/13G18 RMK AO2
14837KMSN MSN20020614161511706/14/02 16:15:31  5-MIN KMSN 142215Z 33010G21KT 10SM FEW042 SCT050 OVC085 17/11 A2974 1030 67 1600 330/10G21 RMK AO2
14837KMSN MSN20020614162011606/14/02 16:20:31  5-MIN KMSN 142220Z 35013G21KT 7SM FEW022 BKN050 OVC085 17/12 A2975 1030 72 1500 350/13G21 RMK AO2
14837KMSN MSN20020614162513206/14/02 16:25:31  5-MIN KMSN 142225Z 34009G16KT 6SM -RA FEW024 BKN055 OVC080 16/13 A2975 1020 83 1400 340/09G16 RMK AO2 RAB21 P0000
14837KMSN MSN20020614163012606/14/02 16:30:31  5-MIN KMSN 142230Z 34010KT 8SM -RA FEW021 BKN055 OVC090 15/13 A2975 1020 86 1300 340/10 RMK AO2 RAB21 P0000
14837KMSN MSN20020614163512706/14/02 16:35:31  5-MIN KMSN 142235Z 34010KT 10SM -RA FEW022 BKN048 OVC080 15/12 A2975 1020 83 1300 330/10 RMK AO2 RAB21 P0000
14837KMSN MSN20020614164012606/14/02 16:40:31  5-MIN KMSN 142240Z 34008KT 10SM FEW022 BKN046 OVC085 15/12 A2975 1020 83 1300 340/08 RMK AO2 RAB21E38 P0000
14837KMSN MSN20020614164512606/14/02 16:45:31  5-MIN KMSN 142245Z 34009KT 10SM FEW022 BKN046 OVC075 15/12 A2975 1020 83 1300 340/09 RMK AO2 RAB21E38 P0000
14837KMSN MSN20020614165014306/14/02 16:50:31  5-MIN KMSN 142250Z 36009KT 10SM SCT035 BKN046 OVC070 16/13 A2975 1020 80 1400 360/09 RMK AO2 RAB21E38 SLP076 P0000 T01610128
14837KMSN MSN20020614165511106/14/02 16:55:31  5-MIN KMSN 142255Z 34008KT 10SM BKN037 BKN046 OVC070 16/13 A2976 1020 83 1400 340/08 RMK AO2
14837KMSN MSN20020614170010406/14/02 17:00:31  5-MIN KMSN 142300Z 34007KT 10SM BKN037 OVC046 16/12 A2976 1020 80 1400 340/07 RMK AO2
14837KMSN MSN20020614170511106/14/02 17:05:31  5-MIN KMSN 142305Z 33009KT 10SM BKN037 BKN045 OVC049 16/12 A2976 1010 80 1400 330/09 RMK AO2
14837KMSN MSN20020614171011106/14/02 17:10:31  5-MIN KMSN 142310Z 34010KT 10SM SCT037 BKN044 OVC049 16/12 A2976 1010 80 1400 340/10 RMK AO2
14837KMSN MSN20020614171511106/14/02 17:15:31  5-MIN KMSN 142315Z 33009KT 10SM SCT036 BKN044 OVC080 16/12 A2976 1010 80 1400 330/09 RMK AO2
14837KMSN MSN20020614172011106/14/02 17:20:31  5-MIN KMSN 142320Z 33008KT 10SM BKN041 BKN050 OVC075 16/13 A2976 1010 83 1400 330/08 RMK AO2
14837KMSN MSN20020614172511106/14/02 17:25:31  5-MIN KMSN 142325Z 33007KT 10SM SCT042 BKN050 OVC070 16/13 A2976 1010 83 1400 330/07 RMK AO2
14837KMSN MSN20020614173011106/14/02 17:30:31  5-MIN KMSN 142330Z 35009KT 10SM SCT044 SCT050 OVC075 16/13 A2976 1010 83 1300 350/09 RMK AO2
14837KMSN MSN20020614173510406/14/02 17:35:31  5-MIN KMSN 142335Z 33007KT 10SM FEW044 OVC075 16/13 A2977 1010 83 1300 330/07 RMK AO2
14837KMSN MSN20020614174011106/14/02 17:40:31  5-MIN KMSN 142340Z 35008KT 10SM FEW055 BKN075 OVC090 16/13 A2977 1010 83 1300 350/08 RMK AO2
14837KMSN MSN20020614174510406/14/02 17:45:31  5-MIN KMSN 142345Z 34006KT 10SM BKN075 OVC090 16/13 A2977 1010 80 1400 340/06 RMK AO2
14837KMSN MSN20020614175014506/14/02 17:50:31  5-MIN KMSN 142350Z 35009KT 10SM BKN075 BKN090 17/13 A2977 1010 77 1500 350/09 RMK AO2 SLP079 60000 T01670128 10194 20144 53003
14837KMSN MSN20020614175510406/14/02 17:55:31  5-MIN KMSN 142355Z 35009KT 10SM SCT080 BKN090 16/13 A2977 1010 80 1400 350/09 RMK AO2
14837KMSN MSN20020614180012006/14/02 18:00:31  5-MIN KMSN 150000Z 34009KT 300V360 10SM FEW018 BKN085 16/13 A2977 1010 83 1300 340/09 300V360 RMK AO2
14837KMSN MSN20020614180511106/14/02 18:05:31  5-MIN KMSN 150005Z 33006KT 10SM SCT018 SCT070 OVC090 16/13 A2976 1010 83 1400 320/06 RMK AO2
14837KMSN MSN20020614181011106/14/02 18:10:31  5-MIN KMSN 150010Z 34007KT 10SM FEW018 SCT070 OVC090 17/13 A2976 1010 77 1500 340/07 RMK AO2
14837KMSN MSN20020614181510406/14/02 18:15:31  5-MIN KMSN 150015Z 34007KT 10SM SCT018 OVC090 17/13 A2976 1010 77 1500 330/07 RMK AO2
14837KMSN MSN20020614182011706/14/02 18:20:31  5-MIN KMSN 150020Z 33009G14KT 10SM FEW016 SCT020 OVC095 16/13 A2976 1010 80 1400 330/09G14 RMK AO2
14837KMSN MSN20020614182510406/14/02 18:25:31  5-MIN KMSN 150025Z 35009KT 10SM SCT016 BKN095 17/12 A2976 1010 75 1500 350/09 RMK AO2
14837KMSN MSN20020614183010406/14/02 18:30:31  5-MIN KMSN 150030Z 34007KT 10SM FEW016 BKN095 17/13 A2976 1010 77 1500 340/07 RMK AO2
14837KMSN MSN20020614183510406/14/02 18:35:31  5-MIN KMSN 150035Z 32009KT 10SM SCT016 BKN095 17/13 A2977 1010 77 1500 320/09 RMK AO2
14837KMSN MSN20020614184010406/14/02 18:40:31  5-MIN KMSN 150040Z 34009KT 10SM SCT016 BKN095 17/12 A2977 1010 75 1500 340/09 RMK AO2
14837KMSN MSN20020614184510406/14/02 18:45:31  5-MIN KMSN 150045Z 32007KT 10SM FEW016 BKN095 16/12 A2977 1010 77 1400 320/07 RMK AO2
14837KMSN MSN20020614185012106/14/02 18:50:31  5-MIN KMSN 150050Z 33007KT 10SM FEW018 SCT095 16/12 A2977 1000 77 1400 330/07 RMK AO2 SLP081 T01610122
14837KMSN MSN20020614185510406/14/02 18:55:31  5-MIN KMSN 150055Z 34007KT 10SM FEW018 SCT095 16/12 A2977 1000 77 1400 340/07 RMK AO2
14837KMSN MSN20020614190010406/14/02 19:00:31  5-MIN KMSN 150100Z 33007KT 10SM FEW018 SCT095 16/12 A2977 1000 80 1300 330/07 RMK AO2
14837KMSN MSN20020614190509706/14/02 19:05:31  5-MIN KMSN 150105Z 32006KT 10SM SCT095 16/12 A2977 1000 80 1300 320/06 RMK AO2
14837KMSN MSN20020614191009706/14/02 19:10:31  5-MIN KMSN 150110Z 32006KT 10SM BKN095 16/12 A2978 1000 80 1300 320/06 RMK AO2
14837KMSN MSN20020614191509706/14/02 19:15:31  5-MIN KMSN 150115Z 32006KT 10SM BKN095 15/12 A2978 1000 83 1300 320/06 RMK AO2
14837KMSN MSN20020614192009706/14/02 19:20:31  5-MIN KMSN 150120Z 32005KT 10SM BKN095 15/12 A2978 1000 83 1300 320/05 RMK AO2
14837KMSN MSN20020614192509606/14/02 19:25:31  5-MIN KMSN 150125Z 32006KT 10SM BKN095 15/12 A2978 990 83 1300 320/06 RMK AO2
14837KMSN MSN20020614193009606/14/02 19:30:31  5-MIN KMSN 150130Z 32006KT 10SM BKN095 15/12 A2978 990 83 1300 320/06 RMK AO2
14837KMSN MSN20020614193509606/14/02 19:35:31  5-MIN KMSN 150135Z 32006KT 10SM BKN095 15/12 A2979 990 80 1300 320/06 RMK AO2
14837KMSN MSN20020614194009606/14/02 19:40:31  5-MIN KMSN 150140Z 32007KT 10SM SCT095 15/12 A2979 990 80 1300 320/07 RMK AO2
14837KMSN MSN20020614194510306/14/02 19:45:31  5-MIN KMSN 150145Z 32005KT 10SM FEW032 SCT095 14/12 A2979 990 83 1200 320/05 RMK AO2
14837KMSN MSN20020614195011306/14/02 19:50:31  5-MIN KMSN 150150Z 32005KT 10SM FEW095 14/12 A2979 990 83 1200 320/05 RMK AO2 SLP088 T01440117
14837KMSN MSN20020614195509306/14/02 19:55:31  5-MIN KMSN 150155Z 32005KT 10SM CLR 14/12 A2979 980 83 1200 320/05 RMK AO2
14837KMSN MSN20020614200009306/14/02 20:00:31  5-MIN KMSN 150200Z 32007KT 10SM CLR 14/12 A2979 980 83 1200 320/07 RMK AO2
14837KMSN MSN20020614200509306/14/02 20:05:31  5-MIN KMSN 150205Z 32005KT 10SM CLR 14/12 A2979 980 83 1200 320/05 RMK AO2
14837KMSN MSN20020614201009306/14/02 20:10:31  5-MIN KMSN 150210Z 31005KT 10SM CLR 14/12 A2980 980 86 1100 310/05 RMK AO2
14837KMSN MSN20020614201509306/14/02 20:15:31  5-MIN KMSN 150215Z 32005KT 10SM CLR 14/12 A2980 980 83 1200 310/05 RMK AO2
14837KMSN MSN20020614202009306/14/02 20:20:31  5-MIN KMSN 150220Z 31005KT 10SM CLR 14/12 A2980 980 86 1100 310/05 RMK AO2
14837KMSN MSN20020614202509306/14/02 20:25:31  5-MIN KMSN 150225Z 31004KT 10SM CLR 14/12 A2980 980 86 1100 310/04 RMK AO2
14837KMSN MSN20020614203009306/14/02 20:30:31  5-MIN KMSN 150230Z 31004KT 10SM CLR 14/12 A2980 980 86 1100 310/04 RMK AO2
14837KMSN MSN20020614203509306/14/02 20:35:31  5-MIN KMSN 150235Z 31003KT 10SM CLR 14/12 A2980 980 86 1100 310/03 RMK AO2
14837KMSN MSN20020614204009306/14/02 20:40:31  5-MIN KMSN 150240Z 31004KT 10SM CLR 14/12 A2980 980 86 1100 310/04 RMK AO2
14837KMSN MSN20020614204509306/14/02 20:45:31  5-MIN KMSN 150245Z 31004KT 10SM CLR 14/12 A2980 980 86 1100 310/04 RMK AO2
14837KMSN MSN20020614205011606/14/02 20:50:31  5-MIN KMSN 150250Z 30003KT 10SM CLR 14/12 A2980 980 86 1100 300/03 RMK AO2 SLP091 T01390117 53011
14837KMSN MSN20020614205509306/14/02 20:55:31  5-MIN KMSN 150255Z VRB03KT 10SM CLR 14/12 A2980 980 86 1100 VRB/03 RMK AO2
14837KMSN MSN20020614210009306/14/02 21:00:31  5-MIN KMSN 150300Z 00000KT 10SM CLR 14/12 A2980 980 86 1100 000/00 RMK AO2
14837KMSN MSN20020614210509306/14/02 21:05:31  5-MIN KMSN 150305Z 00000KT 10SM CLR 14/12 A2979 980 86 1100 000/00 RMK AO2
14837KMSN MSN20020614211009306/14/02 21:10:31  5-MIN KMSN 150310Z 00000KT 10SM CLR 14/12 A2979 980 86 1100 000/00 RMK AO2
14837KMSN MSN20020614211509306/14/02 21:15:31  5-MIN KMSN 150315Z 27003KT 10SM CLR 13/11 A2980 980 86 1100 270/03 RMK AO2
14837KMSN MSN20020614212009306/14/02 21:20:31  5-MIN KMSN 150320Z 29003KT 10SM CLR 13/12 A2980 980 89 1100 290/03 RMK AO2
14837KMSN MSN20020614212509306/14/02 21:25:31  5-MIN KMSN 150325Z 00000KT 10SM CLR 13/12 A2979 980 89 1100 000/00 RMK AO2
14837KMSN MSN20020614213009306/14/02 21:30:31  5-MIN KMSN 150330Z 00000KT 10SM CLR 13/12 A2979 980 89 1100 000/00 RMK AO2
14837KMSN MSN20020614213509306/14/02 21:35:31  5-MIN KMSN 150335Z 00000KT 10SM CLR 13/12 A2979 980 89 1100 000/00 RMK AO2
14837KMSN MSN20020614214009306/14/02 21:40:31  5-MIN KMSN 150340Z 25003KT 10SM CLR 13/12 A2979 990 89 1100 250/03 RMK AO2
14837KMSN MSN20020614214509306/14/02 21:45:31  5-MIN KMSN 150345Z 26004KT 10SM CLR 13/12 A2979 990 89 1100 260/04 RMK AO2
14837KMSN MSN20020614215011006/14/02 21:50:31  5-MIN KMSN 150350Z VRB03KT 10SM CLR 13/12 A2979 990 93 1000 VRB/03 RMK AO2 SLP087 T01280117
14837KMSN MSN20020614215509306/14/02 21:55:31  5-MIN KMSN 150355Z VRB04KT 10SM CLR 13/12 A2978 990 93 1000 VRB/04 RMK AO2
14837KMSN MSN20020614220009306/14/02 22:00:31  5-MIN KMSN 150400Z VRB03KT 10SM CLR 13/12 A2978 990 93 1000 VRB/03 RMK AO2
14837KMSN MSN20020614220509306/14/02 22:05:31  5-MIN KMSN 150405Z VRB03KT 10SM CLR 13/12 A2978 990 93 1000 VRB/03 RMK AO2
14837KMSN MSN20020614221009306/14/02 22:10:31  5-MIN KMSN 150410Z 25004KT 10SM CLR 13/12 A2978 990 89 1100 250/04 RMK AO2
14837KMSN MSN20020614221509406/14/02 22:15:31  5-MIN KMSN 150415Z 25004KT 10SM CLR 13/12 A2978 1000 89 1100 240/04 RMK AO2
14837KMSN MSN20020614222009306/14/02 22:20:31  5-MIN KMSN 150420Z 26005KT 10SM CLR 13/12 A2978 990 89 1100 260/05 RMK AO2
14837KMSN MSN20020614222509406/14/02 22:25:31  5-MIN KMSN 150425Z 25004KT 10SM CLR 13/12 A2978 1000 89 1100 250/04 RMK AO2
14837KMSN MSN20020614223009406/14/02 22:30:31  5-MIN KMSN 150430Z VRB04KT 10SM CLR 13/12 A2978 1000 89 1100 VRB/04 RMK AO2
14837KMSN MSN20020614223509406/14/02 22:35:31  5-MIN KMSN 150435Z 27004KT 10SM CLR 13/12 A2978 1000 89 1100 270/04 RMK AO2
14837KMSN MSN20020614224009406/14/02 22:40:31  5-MIN KMSN 150440Z VRB04KT 10SM CLR 13/12 A2977 1000 89 1100 VRB/04 RMK AO2
14837KMSN MSN20020614224509406/14/02 22:45:31  5-MIN KMSN 150445Z VRB04KT 10SM CLR 13/12 A2977 1000 89 1100 VRB/04 RMK AO2
14837KMSN MSN20020614225011106/14/02 22:50:31  5-MIN KMSN 150450Z VRB04KT 10SM CLR 13/12 A2977 1000 89 1100 VRB/04 RMK AO2 SLP081 T01330117
14837KMSN MSN20020614225509406/14/02 22:55:31  5-MIN KMSN 150455Z VRB05KT 10SM CLR 13/12 A2977 1000 89 1100 VRB/05 RMK AO2
14837KMSN MSN20020614230009406/14/02 23:00:31  5-MIN KMSN 150500Z VRB05KT 10SM CLR 13/12 A2977 1000 89 1100 VRB/05 RMK AO2
14837KMSN MSN20020614230509406/14/02 23:05:31  5-MIN KMSN 150505Z 28005KT 10SM CLR 13/12 A2977 1000 89 1100 280/05 RMK AO2
14837KMSN MSN20020614231009406/14/02 23:10:31  5-MIN KMSN 150510Z VRB05KT 10SM CLR 13/12 A2977 1000 89 1100 VRB/05 RMK AO2
14837KMSN MSN20020614231509406/14/02 23:15:31  5-MIN KMSN 150515Z 29006KT 10SM CLR 13/12 A2977 1000 89 1100 290/06 RMK AO2
14837KMSN MSN20020614232009406/14/02 23:20:31  5-MIN KMSN 150520Z 29005KT 10SM CLR 13/12 A2977 1000 89 1100 290/05 RMK AO2
14837KMSN MSN20020614232509406/14/02 23:25:31  5-MIN KMSN 150525Z 29004KT 10SM CLR 13/12 A2977 1010 89 1100 290/04 RMK AO2
14837KMSN MSN20020614233009406/14/02 23:30:31  5-MIN KMSN 150530Z VRB04KT 10SM CLR 13/12 A2977 1010 89 1100 VRB/04 RMK AO2
14837KMSN MSN20020614233509406/14/02 23:35:31  5-MIN KMSN 150535Z VRB05KT 10SM CLR 13/12 A2977 1010 89 1100 VRB/05 RMK AO2
14837KMSN MSN20020614234009406/14/02 23:40:31  5-MIN KMSN 150540Z 28005KT 10SM CLR 13/12 A2977 1010 89 1100 280/05 RMK AO2
14837KMSN MSN20020614234509406/14/02 23:45:31  5-MIN KMSN 150545Z VRB05KT 10SM CLR 13/12 A2977 1010 89 1100 VRB/05 RMK AO2
14837KMSN MSN20020614235013906/14/02 23:50:31  5-MIN KMSN 150550Z 29005KT 10SM CLR 13/12 A2977 1010 89 1100 290/05 RMK AO2 SLP079 T01330117 10167 20128 401940106 53010
14837KMSN MSN20020614235509406/14/02 23:55:31  5-MIN KMSN 150555Z 30005KT 10SM CLR 13/12 A2977 1010 89 1100 300/05 RMK AO2
14837KMSN MSN20020615000009406/15/02 00:00:31  5-MIN KMSN 150600Z VRB04KT 10SM CLR 13/11 A2977 1010 86 1100 VRB/04 RMK AO2
14837KMSN MSN20020615000509406/15/02 00:05:31  5-MIN KMSN 150605Z VRB04KT 10SM CLR 13/11 A2977 1010 86 1100 VRB/04 RMK AO2
14837KMSN MSN20020615001009406/15/02 00:10:31  5-MIN KMSN 150610Z VRB04KT 10SM CLR 13/11 A2977 1010 86 1100 VRB/04 RMK AO2
14837KMSN MSN20020615001509406/15/02 00:15:31  5-MIN KMSN 150615Z 28005KT 10SM CLR 13/11 A2976 1010 86 1100 280/05 RMK AO2
14837KMSN MSN20020615002009406/15/02 00:20:31  5-MIN KMSN 150620Z 30004KT 10SM CLR 13/11 A2977 1010 86 1100 300/04 RMK AO2
14837KMSN MSN20020615002510006/15/02 00:25:31  5-MIN KMSN 150625Z 00000KT 10SM CLR 13/11 A2976 1010 89 1000 000/00 RMK AO2 P0001
14837KMSN MSN20020615003009406/15/02 00:30:31  5-MIN KMSN 150630Z 00000KT 10SM CLR 13/11 A2976 1010 89 1000 000/00 RMK AO2
14837KMSN MSN20020615003509406/15/02 00:35:31  5-MIN KMSN 150635Z 00000KT 10SM CLR 13/11 A2976 1010 89 1000 000/00 RMK AO2
14837KMSN MSN20020615004009406/15/02 00:40:31  5-MIN KMSN 150640Z 29003KT 10SM CLR 13/11 A2976 1010 89 1000 290/03 RMK AO2
14837KMSN MSN20020615004509406/15/02 00:45:31  5-MIN KMSN 150645Z 27004KT 10SM CLR 12/11 A2976 1010 93 1000 270/04 RMK AO2
14837KMSN MSN20020615005011106/15/02 00:50:31  5-MIN KMSN 150650Z VRB05KT 10SM CLR 12/11 A2977 1010 93 1000 VRB/05 RMK AO2 SLP080 T01220111
14837KMSN MSN20020615005509406/15/02 00:55:31  5-MIN KMSN 150655Z 28005KT 10SM CLR 13/11 A2976 1010 89 1000 280/05 RMK AO2
14837KMSN MSN20020615010009406/15/02 01:00:31  5-MIN KMSN 150700Z 28005KT 10SM CLR 13/11 A2976 1010 89 1000 280/05 RMK AO2
14837KMSN MSN20020615010509406/15/02 01:05:31  5-MIN KMSN 150705Z 30005KT 10SM CLR 13/11 A2976 1010 89 1000 290/05 RMK AO2
14837KMSN MSN20020615011009406/15/02 01:10:31  5-MIN KMSN 150710Z 29005KT 10SM CLR 13/11 A2976 1010 89 1000 280/05 RMK AO2
14837KMSN MSN20020615011509406/15/02 01:15:31  5-MIN KMSN 150715Z 30004KT 10SM CLR 13/11 A2976 1010 89 1000 300/04 RMK AO2
14837KMSN MSN20020615012009406/15/02 01:20:31  5-MIN KMSN 150720Z 29006KT 10SM CLR 13/11 A2976 1010 89 1000 290/06 RMK AO2
14837KMSN MSN20020615012509406/15/02 01:25:31  5-MIN KMSN 150725Z 29005KT 10SM CLR 13/11 A2976 1010 89 1000 290/05 RMK AO2
14837KMSN MSN20020615013009406/15/02 01:30:31  5-MIN KMSN 150730Z 31005KT 10SM CLR 13/11 A2976 1010 89 1000 310/05 RMK AO2
14837KMSN MSN20020615013509406/15/02 01:35:31  5-MIN KMSN 150735Z 29004KT 10SM CLR 13/11 A2976 1010 89 1000 290/04 RMK AO2
14837KMSN MSN20020615014009406/15/02 01:40:31  5-MIN KMSN 150740Z 31005KT 10SM CLR 13/11 A2976 1010 89 1000 310/05 RMK AO2
14837KMSN MSN20020615014509406/15/02 01:45:31  5-MIN KMSN 150745Z VRB04KT 10SM CLR 13/11 A2976 1010 89 1000 VRB/04 RMK AO2
14837KMSN MSN20020615015011106/15/02 01:50:31  5-MIN KMSN 150750Z 34004KT 10SM CLR 13/11 A2976 1010 89 1000 340/04 RMK AO2 SLP079 T01280111
14837KMSN MSN20020615015509406/15/02 01:55:31  5-MIN KMSN 150755Z 34003KT 10SM CLR 13/11 A2976 1010 89 1000 330/03 RMK AO2
14837KMSN MSN20020615020009406/15/02 02:00:31  5-MIN KMSN 150800Z 28003KT 10SM CLR 12/11 A2976 1010 93 1000 280/03 RMK AO2
14837KMSN MSN20020615020509406/15/02 02:05:31  5-MIN KMSN 150805Z 29003KT 10SM CLR 12/11 A2976 1010 89 1000 290/03 RMK AO2
14837KMSN MSN20020615021009406/15/02 02:10:31  5-MIN KMSN 150810Z 00000KT 10SM CLR 12/11 A2976 1020 93 1000 000/00 RMK AO2
14837KMSN MSN20020615021509406/15/02 02:15:31  5-MIN KMSN 150815Z 00000KT 10SM CLR 12/11 A2976 1020 89 1000 000/00 RMK AO2
14837KMSN MSN20020615022009406/15/02 02:20:31  5-MIN KMSN 150820Z 00000KT 10SM CLR 12/11 A2976 1020 93 1000 000/00 RMK AO2
14837KMSN MSN20020615022509406/15/02 02:25:31  5-MIN KMSN 150825Z 27003KT 10SM CLR 12/11 A2976 1010 93 1000 260/03 RMK AO2
14837KMSN MSN20020615023009406/15/02 02:30:31  5-MIN KMSN 150830Z 28004KT 10SM CLR 12/11 A2976 1010 89 1000 280/04 RMK AO2
14837KMSN MSN20020615023509406/15/02 02:35:31  5-MIN KMSN 150835Z 29005KT 10SM CLR 12/11 A2976 1020 89 1000 290/05 RMK AO2
14837KMSN MSN20020615024009406/15/02 02:40:31  5-MIN KMSN 150840Z 28005KT 10SM CLR 12/11 A2976 1020 89 1000 280/05 RMK AO2
14837KMSN MSN20020615024509406/15/02 02:45:31  5-MIN KMSN 150845Z 29006KT 10SM CLR 12/11 A2975 1020 89 1000 290/06 RMK AO2
14837KMSN MSN20020615025011706/15/02 02:50:31  5-MIN KMSN 150850Z 28006KT 10SM CLR 12/11 A2976 1020 93 1000 280/06 RMK AO2 SLP076 T01220111 56010
14837KMSN MSN20020615025509406/15/02 02:55:31  5-MIN KMSN 150855Z 29007KT 10SM CLR 12/11 A2976 1020 93 1000 290/07 RMK AO2
14837KMSN MSN20020615030009406/15/02 03:00:31  5-MIN KMSN 150900Z 29006KT 10SM CLR 13/11 A2976 1020 86 1000 280/06 RMK AO2
14837KMSN MSN20020615030509406/15/02 03:05:31  5-MIN KMSN 150905Z 28006KT 10SM CLR 13/11 A2976 1010 86 1000 280/06 RMK AO2
14837KMSN MSN20020615031009406/15/02 03:10:31  5-MIN KMSN 150910Z 29006KT 10SM CLR 13/11 A2976 1020 86 1000 280/06 RMK AO2
14837KMSN MSN20020615031509406/15/02 03:15:31  5-MIN KMSN 150915Z 28007KT 10SM CLR 13/11 A2976 1020 86 1000 280/07 RMK AO2
14837KMSN MSN20020615032009406/15/02 03:20:31  5-MIN KMSN 150920Z 29007KT 10SM CLR 12/11 A2976 1020 89 1000 290/07 RMK AO2
14837KMSN MSN20020615032509406/15/02 03:25:31  5-MIN KMSN 150925Z 28007KT 10SM CLR 12/11 A2976 1020 89 1000 280/07 RMK AO2
14837KMSN MSN20020615033009406/15/02 03:30:31  5-MIN KMSN 150930Z 29006KT 10SM CLR 12/11 A2976 1010 89 1000 290/06 RMK AO2
14837KMSN MSN20020615033509406/15/02 03:35:31  5-MIN KMSN 150935Z 29007KT 10SM CLR 12/11 A2976 1010 89 1000 290/07 RMK AO2
14837KMSN MSN20020615034009406/15/02 03:40:31  5-MIN KMSN 150940Z 28005KT 10SM CLR 12/11 A2976 1010 89 1000 280/05 RMK AO2
14837KMSN MSN20020615034509406/15/02 03:45:31  5-MIN KMSN 150945Z 28005KT 10SM CLR 12/11 A2976 1010 89 1000 280/05 RMK AO2
14837KMSN MSN20020615154517306/15/02 15:45:31  5-MIN KMSN 152145Z 28009G16KT 10SM TS FEW036 SCT055 SCT090 18/08 A2975 1020 52 1700 280/09G16 RMK AO2 TSB02RAB29E42 OCNL LTGCG VC NE TS VC NE MOV SE P0000
14837KMSN MSN20020615155018406/15/02 15:50:31  5-MIN KMSN 152150Z 29006KT 10SM TS FEW036 SCT055 SCT090 20/09 A2975 1030 48 1900 290/06 RMK AO2 TSB02RAB29E42 SLP071 OCNL LTGCG VC NE TS VC NE MOV SE P0000 T02000089
14837KMSN MSN20020615155511106/15/02 15:55:31  5-MIN KMSN 152155Z 31008KT 10SM FEW040 SCT075 BKN090 21/08 A2974 1030 43 2000 310/08 RMK AO2
14837KMSN MSN20020615160011706/15/02 16:00:31  5-MIN KMSN 152200Z 31009G14KT 10SM FEW042 SCT080 BKN090 21/08 A2974 1030 42 2000 310/09G14 RMK AO2
14837KMSN MSN20020615160511106/15/02 16:05:31  5-MIN KMSN 152205Z 33009KT 10SM FEW022 SCT080 SCT090 21/09 A2975 1030 46 1900 330/09 RMK AO2
14837KMSN MSN20020615161012706/15/02 16:10:31  5-MIN KMSN 152210Z 32010KT 10SM -RA FEW021 SCT075 SCT090 19/10 A2975 1020 54 1800 320/10 RMK AO2 RAB07 P0000
14837KMSN MSN20020615161516006/15/02 16:15:31  5-MIN KMSN 152215Z 32008KT 10SM -TSRA FEW021 SCT075 19/11 A2975 1020 60 1800 320/08 RMK AO2 TSB13RAB07 OCNL LTGIC VC NW TS VC NE MOV SE P0000
14837KMSN MSN20020615162016706/15/02 16:20:31  5-MIN KMSN 152220Z 31007KT 10SM -TSRA FEW033 SCT070 SCT100 18/12 A2975 1020 65 1700 310/07 RMK AO2 TSB13RAB07 OCNL LTGIC VC NW TS VC NE MOV SE P0000
14837KMSN MSN20020615162516706/15/02 16:25:31  5-MIN KMSN 152225Z 31007KT 10SM -TSRA FEW055 SCT085 BKN100 18/12 A2975 1020 65 1700 310/07 RMK AO2 TSB13RAB07 OCNL LTGIC VC NW TS VC NE MOV SE P0000
14837KMSN MSN20020615163016906/15/02 16:30:31  5-MIN KMSN 152230Z 29006KT 10SM -TSRA FEW055 BKN085 BKN100 18/12 A2975 1020 65 1700 290/06 RMK AO2 TSB13RAB07 OCNL LTGIC VC NW TS VC NE MOV SE P0000 $
14837KMSN MSN20020615163516506/15/02 16:35:31  5-MIN KMSN 152235Z VRB05KT 10SM TS FEW055 SCT085 SCT100 19/12 A2975 1020 60 1800 VRB/05 RMK AO2 TSB13RAB07E31 OCNL LTGIC OHD TS OHD MOV SE P0000 $
14837KMSN MSN20020615164016506/15/02 16:40:31  5-MIN KMSN 152240Z VRB05KT 10SM TS FEW055 SCT085 SCT100 19/11 A2975 1030 58 1800 VRB/05 RMK AO2 TSB13RAB07E31 OCNL LTGIC OHD TS OHD MOV SE P0000 $
14837KMSN MSN20020615164516506/15/02 16:45:31  5-MIN KMSN 152245Z 29004KT 10SM TS FEW055 SCT085 SCT100 19/11 A2975 1030 58 1800 280/04 RMK AO2 TSB13RAB07E31 OCNL LTGIC OHD TS OHD MOV SE P0000 $
14837KMSN MSN20020615165018206/15/02 16:50:31  5-MIN KMSN 152250Z VRB04KT 10SM TS FEW055 SCT085 SCT100 20/11 A2975 1030 54 1900 VRB/04 RMK AO2 TSB13RAB07E31 SLP071 OCNL LTGIC OHD TS OHD MOV SE P0000 T02000106 $
14837KMSN MSN20020615165509906/15/02 16:55:31  5-MIN KMSN 152255Z VRB04KT 10SM FEW060 21/11 A2975 1030 50 2000 VRB/04 RMK AO2 $
14837KMSN MSN20020615170009606/15/02 17:00:31  5-MIN KMSN 152300Z 32008KT 10SM CLR 21/10 A2975 1030 48 2000 320/08 RMK AO2 $
14837KMSN MSN20020615170509606/15/02 17:05:31  5-MIN KMSN 152305Z 31006KT 10SM CLR 21/10 A2975 1020 48 2000 310/06 RMK AO2 $
14837KMSN MSN20020615171009606/15/02 17:10:31  5-MIN KMSN 152310Z 31005KT 10SM CLR 21/10 A2975 1030 50 1900 310/05 RMK AO2 $
14837KMSN MSN20020615171509606/15/02 17:15:31  5-MIN KMSN 152315Z 32005KT 10SM CLR 21/11 A2975 1030 52 2000 310/05 RMK AO2 $
14837KMSN MSN20020615172009606/15/02 17:20:31  5-MIN KMSN 152320Z 33005KT 10SM CLR 22/11 A2975 1020 50 2100 330/05 RMK AO2 $
14837KMSN MSN20020615172509606/15/02 17:25:31  5-MIN KMSN 152325Z 34008KT 10SM CLR 22/11 A2975 1020 49 2100 340/08 RMK AO2 $
14837KMSN MSN20020615173009606/15/02 17:30:31  5-MIN KMSN 152330Z 32007KT 10SM CLR 22/10 A2975 1020 47 2100 320/07 RMK AO2 $
14837KMSN MSN20020615173509606/15/02 17:35:31  5-MIN KMSN 152335Z 33011KT 10SM CLR 22/09 A2975 1020 45 2100 330/11 RMK AO2 $
14837KMSN MSN20020615174009606/15/02 17:40:31  5-MIN KMSN 152340Z 33009KT 10SM CLR 22/09 A2975 1020 43 2100 330/09 RMK AO2 $
14837KMSN MSN20020615174509606/15/02 17:45:31  5-MIN KMSN 152345Z 33011KT 10SM CLR 22/09 A2975 1020 45 2100 330/11 RMK AO2 $
14837KMSN MSN20020615175014606/15/02 17:50:31  5-MIN KMSN 152350Z 32012G17KT 10SM FEW035 22/09 A2975 1020 43 2100 320/12G17 RMK AO2 SLP072 60000 T02170089 10233 20183 55006 $
14837KMSN MSN20020615175510206/15/02 17:55:31  5-MIN KMSN 152355Z 33011G17KT 10SM CLR 22/09 A2975 1020 43 2100 330/11G17 RMK AO2 $
14837KMSN MSN20020615180009606/15/02 18:00:31  5-MIN KMSN 160000Z 32012KT 10SM CLR 22/09 A2975 1020 43 2100 320/12 RMK AO2 $
14837KMSN MSN20020615180509606/15/02 18:05:31  5-MIN KMSN 160005Z 32007KT 10SM CLR 22/08 A2975 1020 42 2100 320/07 RMK AO2 $
14837KMSN MSN20020615181009606/15/02 18:10:31  5-MIN KMSN 160010Z 31009KT 10SM CLR 21/08 A2975 1020 43 2000 310/09 RMK AO2 $
14837KMSN MSN20020615181509606/15/02 18:15:31  5-MIN KMSN 160015Z 32009KT 10SM CLR 21/08 A2975 1020 43 2000 320/09 RMK AO2 $
14837KMSN MSN20020615182009606/15/02 18:20:31  5-MIN KMSN 160020Z 32007KT 10SM CLR 21/08 A2975 1020 43 2000 320/07 RMK AO2 $
14837KMSN MSN20020615182509606/15/02 18:25:31  5-MIN KMSN 160025Z 32007KT 10SM CLR 21/08 A2976 1020 43 2000 320/07 RMK AO2 $
14837KMSN MSN20020615183009606/15/02 18:30:31  5-MIN KMSN 160030Z 32008KT 10SM CLR 21/08 A2976 1020 43 2000 320/08 RMK AO2 $
14837KMSN MSN20020615183509606/15/02 18:35:31  5-MIN KMSN 160035Z 32008KT 10SM CLR 21/08 A2976 1020 42 2000 320/08 RMK AO2 $
14837KMSN MSN20020615184009606/15/02 18:40:31  5-MIN KMSN 160040Z 32009KT 10SM CLR 21/08 A2976 1010 42 2000 320/09 RMK AO2 $
14837KMSN MSN20020615184509606/15/02 18:45:31  5-MIN KMSN 160045Z 32007KT 10SM CLR 21/08 A2976 1010 43 1900 320/07 RMK AO2 $
14837KMSN MSN20020615185011606/15/02 18:50:31  5-MIN KMSN 160050Z 32008KT 10SM FEW040 21/08 A2976 1010 43 1900 310/08 RMK AO2 SLP075 T02060078 $
14837KMSN MSN20020615185509606/15/02 18:55:31  5-MIN KMSN 160055Z 32009KT 10SM CLR 20/07 A2976 1010 43 1900 320/09 RMK AO2 $
14837KMSN MSN20020615190009606/15/02 19:00:31  5-MIN KMSN 160100Z 33008KT 10SM CLR 20/07 A2977 1010 43 1900 330/08 RMK AO2 $
14837KMSN MSN20020615190509906/15/02 19:05:31  5-MIN KMSN 160105Z 33006KT 10SM FEW095 20/08 A2977 1010 45 1900 330/06 RMK AO2 $
14837KMSN MSN20020615191009906/15/02 19:10:31  5-MIN KMSN 160110Z 33008KT 10SM SCT095 20/08 A2977 1000 45 1900 330/08 RMK AO2 $
14837KMSN MSN20020615191509906/15/02 19:15:31  5-MIN KMSN 160115Z 34006KT 10SM BKN090 20/08 A2978 1000 45 1900 340/06 RMK AO2 $
14837KMSN MSN20020615192009906/15/02 19:20:31  5-MIN KMSN 160120Z 35005KT 10SM BKN090 19/08 A2978 1000 48 1800 350/05 RMK AO2 $
14837KMSN MSN20020615192510506/15/02 19:25:31  5-MIN KMSN 160125Z 36009KT 10SM FEW065 BKN090 19/08 A2978 990 48 1800 360/09 RMK AO2 $
14837KMSN MSN20020615193011206/15/02 19:30:31  5-MIN KMSN 160130Z 36009KT 10SM FEW065 SCT080 BKN090 19/09 A2979 990 52 1700 360/09 RMK AO2 $
14837KMSN MSN20020615193511806/15/02 19:35:31  5-MIN KMSN 160135Z 01015G18KT 10SM FEW065 SCT080 OVC090 19/08 A2979 990 50 1700 010/15G18 RMK AO2 $
14837KMSN MSN20020615194011806/15/02 19:40:31  5-MIN KMSN 160140Z 36013G18KT 10SM SCT065 BKN080 OVC090 19/08 A2979 980 50 1700 360/13G18 RMK AO2 $
14837KMSN MSN20020615194511206/15/02 19:45:31  5-MIN KMSN 160145Z 01010KT 10SM SCT065 BKN080 OVC095 18/08 A2979 980 52 1600 010/10 RMK AO2 $
14837KMSN MSN20020615195012206/15/02 19:50:31  5-MIN KMSN 160150Z 36009KT 10SM FEW065 SCT085 18/08 A2980 980 52 1600 360/09 RMK AO2 SLP088 T01830083 $
14837KMSN MSN20020615195510506/15/02 19:55:31  5-MIN KMSN 160155Z 36009KT 10SM BKN075 BKN090 18/08 A2980 980 53 1600 360/09 RMK AO2 $
14837KMSN MSN20020615200010506/15/02 20:00:31  5-MIN KMSN 160200Z 01009KT 10SM SCT075 SCT090 17/08 A2980 970 55 1500 360/09 RMK AO2 $
14837KMSN MSN20020615200510506/15/02 20:05:31  5-MIN KMSN 160205Z 36009KT 10SM SCT075 SCT090 17/08 A2981 970 55 1500 360/09 RMK AO2 $
14837KMSN MSN20020615201009806/15/02 20:10:31  5-MIN KMSN 160210Z 36008KT 10SM SCT085 17/08 A2981 970 57 1400 360/08 RMK AO2 $
14837KMSN MSN20020615201509806/15/02 20:15:31  5-MIN KMSN 160215Z 36007KT 10SM SCT085 17/08 A2981 960 57 1400 360/07 RMK AO2 $
14837KMSN MSN20020615202009806/15/02 20:20:31  5-MIN KMSN 160220Z 36008KT 10SM BKN085 17/09 A2981 960 60 1400 360/08 RMK AO2 $
14837KMSN MSN20020615202509806/15/02 20:25:31  5-MIN KMSN 160225Z 36006KT 10SM BKN080 17/09 A2982 960 60 1400 360/06 RMK AO2 $
14837KMSN MSN20020615203009806/15/02 20:30:31  5-MIN KMSN 160230Z 36006KT 10SM BKN080 17/09 A2982 950 60 1400 360/06 RMK AO2 $
14837KMSN MSN20020615203509806/15/02 20:35:31  5-MIN KMSN 160235Z 35006KT 10SM BKN080 17/09 A2983 950 60 1400 350/06 RMK AO2 $
14837KMSN MSN20020615204009806/15/02 20:40:31  5-MIN KMSN 160240Z 36006KT 10SM OVC080 17/09 A2983 950 60 1400 360/06 RMK AO2 $
14837KMSN MSN20020615204509806/15/02 20:45:31  5-MIN KMSN 160245Z 36007KT 10SM BKN080 16/09 A2983 950 62 1300 360/07 RMK AO2 $
14837KMSN MSN20020615205012106/15/02 20:50:31  5-MIN KMSN 160250Z 36008KT 10SM FEW080 16/09 A2983 950 64 1300 360/08 RMK AO2 SLP099 T01560089 51006 $
14837KMSN MSN20020615205509806/15/02 20:55:31  5-MIN KMSN 160255Z 36007KT 10SM SCT080 15/09 A2983 950 66 1200 360/07 RMK AO2 $
14837KMSN MSN20020615210009806/15/02 21:00:31  5-MIN KMSN 160300Z 36006KT 10SM FEW080 15/09 A2984 940 66 1200 360/06 RMK AO2 $
14837KMSN MSN20020615210509806/15/02 21:05:31  5-MIN KMSN 160305Z 35006KT 10SM FEW080 16/09 A2984 940 64 1300 350/06 RMK AO2 $
14837KMSN MSN20020615211009506/15/02 21:10:31  5-MIN KMSN 160310Z 35004KT 10SM CLR 15/09 A2984 940 66 1200 350/04 RMK AO2 $
14837KMSN MSN20020615211509506/15/02 21:15:31  5-MIN KMSN 160315Z 35004KT 10SM CLR 15/09 A2984 940 66 1200 340/04 RMK AO2 $
14837KMSN MSN20020615212009506/15/02 21:20:31  5-MIN KMSN 160320Z 35004KT 10SM CLR 15/09 A2984 940 66 1200 350/04 RMK AO2 $
14837KMSN MSN20020615212509506/15/02 21:25:31  5-MIN KMSN 160325Z 35005KT 10SM CLR 15/09 A2984 940 66 1200 350/05 RMK AO2 $
14837KMSN MSN20020615213009506/15/02 21:30:31  5-MIN KMSN 160330Z 35004KT 10SM CLR 15/09 A2984 940 66 1200 350/04 RMK AO2 $
14837KMSN MSN20020615213509506/15/02 21:35:31  5-MIN KMSN 160335Z 34004KT 10SM CLR 15/09 A2984 940 66 1200 340/04 RMK AO2 $
14837KMSN MSN20020615214009506/15/02 21:40:31  5-MIN KMSN 160340Z 32004KT 10SM CLR 15/09 A2984 940 66 1200 320/04 RMK AO2 $
14837KMSN MSN20020615214509506/15/02 21:45:31  5-MIN KMSN 160345Z 32004KT 10SM CLR 14/09 A2984 930 69 1100 320/04 RMK AO2 $
14837KMSN MSN20020615215011206/15/02 21:50:31  5-MIN KMSN 160350Z 32005KT 10SM CLR 14/09 A2984 930 69 1100 320/05 RMK AO2 SLP105 T01440089 $
14837KMSN MSN20020615215509506/15/02 21:55:31  5-MIN KMSN 160355Z 32005KT 10SM CLR 14/09 A2985 930 69 1100 320/05 RMK AO2 $
14837KMSN MSN20020615220009506/15/02 22:00:31  5-MIN KMSN 160400Z 33005KT 10SM CLR 14/09 A2985 930 69 1100 320/05 RMK AO2 $
14837KMSN MSN20020615220509506/15/02 22:05:31  5-MIN KMSN 160405Z 32004KT 10SM CLR 14/09 A2985 930 69 1100 320/04 RMK AO2 $
14837KMSN MSN20020615221009506/15/02 22:10:31  5-MIN KMSN 160410Z 30004KT 10SM CLR 14/09 A2986 920 69 1100 300/04 RMK AO2 $
14837KMSN MSN20020615221509506/15/02 22:15:31  5-MIN KMSN 160415Z 31005KT 10SM CLR 14/09 A2986 920 69 1100 310/05 RMK AO2 $
14837KMSN MSN20020615222009506/15/02 22:20:31  5-MIN KMSN 160420Z 31005KT 10SM CLR 14/09 A2986 920 69 1100 310/05 RMK AO2 $
14837KMSN MSN20020615222509506/15/02 22:25:31  5-MIN KMSN 160425Z 31005KT 10SM CLR 14/09 A2986 920 69 1100 310/05 RMK AO2 $
14837KMSN MSN20020615223009506/15/02 22:30:31  5-MIN KMSN 160430Z 31005KT 10SM CLR 14/09 A2986 920 69 1100 310/05 RMK AO2 $
14837KMSN MSN20020615223509506/15/02 22:35:31  5-MIN KMSN 160435Z 30004KT 10SM CLR 14/09 A2986 920 69 1100 300/04 RMK AO2 $
14837KMSN MSN20020615224009506/15/02 22:40:31  5-MIN KMSN 160440Z 29003KT 10SM CLR 14/09 A2986 920 71 1000 290/03 RMK AO2 $
14837KMSN MSN20020615224509506/15/02 22:45:31  5-MIN KMSN 160445Z 31005KT 10SM CLR 14/09 A2986 920 69 1100 310/05 RMK AO2 $
14837KMSN MSN20020615225011206/15/02 22:50:31  5-MIN KMSN 160450Z 31005KT 10SM CLR 14/09 A2986 920 71 1000 310/05 RMK AO2 SLP110 T01390089 $
14837KMSN MSN20020615225509506/15/02 22:55:31  5-MIN KMSN 160455Z 31004KT 10SM CLR 14/09 A2986 920 71 1000 310/04 RMK AO2 $
14837KMSN MSN20020615230009506/15/02 23:00:31  5-MIN KMSN 160500Z VRB03KT 10SM CLR 14/09 A2986 920 71 1000 VRB/03 RMK AO2 $
14837KMSN MSN20020615230509506/15/02 23:05:31  5-MIN KMSN 160505Z 28003KT 10SM CLR 14/09 A2986 920 74 1000 280/03 RMK AO2 $
14837KMSN MSN20020615231009506/15/02 23:10:31  5-MIN KMSN 160510Z VRB03KT 10SM CLR 14/09 A2986 920 74 1000 VRB/03 RMK AO2 $
14837KMSN MSN20020615231509506/15/02 23:15:31  5-MIN KMSN 160515Z 29003KT 10SM CLR 13/09 A2986 920 77 1000 290/03 RMK AO2 $
14837KMSN MSN20020615232009406/15/02 23:20:31  5-MIN KMSN 160520Z 29003KT 10SM CLR 13/09 A2986 920 80 900 290/03 RMK AO2 $
14837KMSN MSN20020615232509406/15/02 23:25:31  5-MIN KMSN 160525Z 31003KT 10SM CLR 13/09 A2986 920 80 900 300/03 RMK AO2 $
14837KMSN MSN20020615233009406/15/02 23:30:31  5-MIN KMSN 160530Z 31003KT 10SM CLR 13/09 A2986 920 77 900 310/03 RMK AO2 $
14837KMSN MSN20020615233509406/15/02 23:35:31  5-MIN KMSN 160535Z 32004KT 10SM CLR 13/09 A2986 920 77 900 320/04 RMK AO2 $
14837KMSN MSN20020615234009406/15/02 23:40:31  5-MIN KMSN 160540Z 32005KT 10SM CLR 13/09 A2986 920 77 900 320/05 RMK AO2 $
14837KMSN MSN20020615234509506/15/02 23:45:31  5-MIN KMSN 160545Z 33005KT 10SM CLR 13/09 A2986 920 74 1000 330/05 RMK AO2 $
14837KMSN MSN20020615235014006/15/02 23:50:31  5-MIN KMSN 160550Z 32005KT 10SM CLR 13/09 A2986 920 74 1000 320/05 RMK AO2 SLP108 T01330089 10217 20122 402330122 53026 $
14837KMSN MSN20020615235509506/15/02 23:55:31  5-MIN KMSN 160555Z 32004KT 10SM CLR 13/09 A2986 920 74 1000 320/04 RMK AO2 $
14837KMSN MSN20020616000009506/16/02 00:00:31  5-MIN KMSN 160600Z 32004KT 10SM CLR 13/09 A2986 920 77 1000 320/04 RMK AO2 $
14837KMSN MSN20020616000509506/16/02 00:05:31  5-MIN KMSN 160605Z 32004KT 10SM CLR 13/09 A2986 920 77 1000 320/04 RMK AO2 $
14837KMSN MSN20020616001009406/16/02 00:10:31  5-MIN KMSN 160610Z 32003KT 10SM CLR 13/08 A2986 920 74 900 320/03 RMK AO2 $
14837KMSN MSN20020616001509406/16/02 00:15:31  5-MIN KMSN 160615Z VRB03KT 10SM CLR 13/08 A2986 920 74 900 VRB/03 RMK AO2 $
14837KMSN MSN20020616002009406/16/02 00:20:31  5-MIN KMSN 160620Z 00000KT 10SM CLR 12/08 A2986 920 77 800 000/00 RMK AO2 $
14837KMSN MSN20020616002509406/16/02 00:25:31  5-MIN KMSN 160625Z 35003KT 10SM CLR 12/08 A2986 920 80 800 350/03 RMK AO2 $
14837KMSN MSN20020616003009406/16/02 00:30:31  5-MIN KMSN 160630Z 35004KT 10SM CLR 11/08 A2985 930 83 700 350/04 RMK AO2 $
14837KMSN MSN20020616003509406/16/02 00:35:31  5-MIN KMSN 160635Z 34004KT 10SM CLR 12/08 A2986 920 80 800 340/04 RMK AO2 $
14837KMSN MSN20020616004009406/16/02 00:40:31  5-MIN KMSN 160640Z 34004KT 10SM CLR 12/08 A2985 930 80 800 340/04 RMK AO2 $
14837KMSN MSN20020616004509406/16/02 00:45:31  5-MIN KMSN 160645Z 35004KT 10SM CLR 12/08 A2985 930 80 800 350/04 RMK AO2 $
14837KMSN MSN20020616005011106/16/02 00:50:31  5-MIN KMSN 160650Z 34003KT 10SM CLR 12/08 A2985 930 80 800 340/03 RMK AO2 SLP108 T01170083 $
14837KMSN MSN20020616005509406/16/02 00:55:31  5-MIN KMSN 160655Z 34003KT 10SM CLR 11/08 A2986 920 83 700 340/03 RMK AO2 $
14837KMSN MSN20020616010009406/16/02 01:00:31  5-MIN KMSN 160700Z 33003KT 10SM CLR 12/08 A2986 920 80 800 330/03 RMK AO2 $
14837KMSN MSN20020616010509406/16/02 01:05:31  5-MIN KMSN 160705Z 32003KT 10SM CLR 12/08 A2985 930 77 900 320/03 RMK AO2 $
14837KMSN MSN20020616011009406/16/02 01:10:31  5-MIN KMSN 160710Z 31003KT 10SM CLR 12/08 A2985 930 77 900 310/03 RMK AO2 $
14837KMSN MSN20020616011509406/16/02 01:15:31  5-MIN KMSN 160715Z 31003KT 10SM CLR 12/08 A2985 930 77 900 310/03 RMK AO2 $
14837KMSN MSN20020616012009406/16/02 01:20:31  5-MIN KMSN 160720Z 31004KT 10SM CLR 12/08 A2985 930 77 900 310/04 RMK AO2 $
14837KMSN MSN20020616012509406/16/02 01:25:31  5-MIN KMSN 160725Z 31004KT 10SM CLR 13/08 A2985 930 74 900 310/04 RMK AO2 $
14837KMSN MSN20020616013009406/16/02 01:30:31  5-MIN KMSN 160730Z VRB03KT 10SM CLR 12/08 A2985 930 77 900 VRB/03 RMK AO2 $
14837KMSN MSN20020616013509406/16/02 01:35:31  5-MIN KMSN 160735Z 30004KT 10SM CLR 12/08 A2985 930 77 900 300/04 RMK AO2 $
14837KMSN MSN20020616014009406/16/02 01:40:31  5-MIN KMSN 160740Z 30003KT 10SM CLR 12/08 A2985 930 77 900 300/03 RMK AO2 $
14837KMSN MSN20020616014509406/16/02 01:45:31  5-MIN KMSN 160745Z 29004KT 10SM CLR 12/08 A2985 930 77 900 290/04 RMK AO2 $
14837KMSN MSN20020616015011106/16/02 01:50:31  5-MIN KMSN 160750Z 27003KT 10SM CLR 12/08 A2985 930 80 800 260/03 RMK AO2 SLP107 T01170083 $
14837KMSN MSN20020616015509406/16/02 01:55:31  5-MIN KMSN 160755Z 28004KT 10SM CLR 12/08 A2985 930 80 800 270/04 RMK AO2 $
14837KMSN MSN20020616020009406/16/02 02:00:31  5-MIN KMSN 160800Z 28004KT 10SM CLR 12/08 A2985 930 80 800 280/04 RMK AO2 $
14837KMSN MSN20020616020509406/16/02 02:05:31  5-MIN KMSN 160805Z 28004KT 10SM CLR 12/08 A2985 930 80 800 280/04 RMK AO2 $
14837KMSN MSN20020616021009406/16/02 02:10:31  5-MIN KMSN 160810Z 28005KT 10SM CLR 12/08 A2985 930 80 800 280/05 RMK AO2 $
14837KMSN MSN20020616021509406/16/02 02:15:31  5-MIN KMSN 160815Z 28005KT 10SM CLR 12/08 A2985 930 77 900 280/05 RMK AO2 $
14837KMSN MSN20020616022009406/16/02 02:20:31  5-MIN KMSN 160820Z 29006KT 10SM CLR 12/08 A2985 930 80 800 290/06 RMK AO2 $
14837KMSN MSN20020616022509406/16/02 02:25:31  5-MIN KMSN 160825Z 28006KT 10SM CLR 12/08 A2985 930 80 800 280/06 RMK AO2 $
14837KMSN MSN20020616023009406/16/02 02:30:31  5-MIN KMSN 160830Z 28005KT 10SM CLR 12/08 A2985 930 80 800 280/05 RMK AO2 $
14837KMSN MSN20020616023509406/16/02 02:35:31  5-MIN KMSN 160835Z 28006KT 10SM CLR 12/08 A2985 930 80 800 280/06 RMK AO2 $
14837KMSN MSN20020616024009406/16/02 02:40:31  5-MIN KMSN 160840Z 29005KT 10SM CLR 12/08 A2985 930 80 800 290/05 RMK AO2 $
14837KMSN MSN20020616024509406/16/02 02:45:31  5-MIN KMSN 160845Z 29004KT 10SM CLR 12/08 A2985 930 80 800 280/04 RMK AO2 $
14837KMSN MSN20020616025011706/16/02 02:50:31  5-MIN KMSN 160850Z 29005KT 10SM CLR 12/08 A2985 930 80 800 290/05 RMK AO2 SLP106 T01170083 50008 $
14837KMSN MSN20020616025509406/16/02 02:55:31  5-MIN KMSN 160855Z 29005KT 10SM CLR 11/08 A2985 930 83 700 290/05 RMK AO2 $
14837KMSN MSN20020616030009406/16/02 03:00:31  5-MIN KMSN 160900Z 29004KT 10SM CLR 11/08 A2985 930 83 700 290/04 RMK AO2 $
14837KMSN MSN20020616030509406/16/02 03:05:31  5-MIN KMSN 160905Z 30004KT 10SM CLR 11/08 A2985 930 86 700 300/04 RMK AO2 $
14837KMSN MSN20020616031009406/16/02 03:10:31  5-MIN KMSN 160910Z 29004KT 10SM CLR 11/08 A2985 930 83 700 290/04 RMK AO2 $
14837KMSN MSN20020616031509406/16/02 03:15:31  5-MIN KMSN 160915Z 28004KT 10SM CLR 11/08 A2985 930 83 700 280/04 RMK AO2 $
14837KMSN MSN20020616032009406/16/02 03:20:31  5-MIN KMSN 160920Z 29004KT 10SM CLR 11/08 A2986 920 86 700 290/04 RMK AO2 $
14837KMSN MSN20020616032509406/16/02 03:25:31  5-MIN KMSN 160925Z 29004KT 10SM CLR 11/08 A2986 920 86 700 290/04 RMK AO2 $
14837KMSN MSN20020616033009406/16/02 03:30:31  5-MIN KMSN 160930Z 30004KT 10SM CLR 11/08 A2986 920 86 700 300/04 RMK AO2 $
14837KMSN MSN20020616033509406/16/02 03:35:31  5-MIN KMSN 160935Z 30004KT 10SM CLR 11/08 A2986 920 86 700 300/04 RMK AO2 $
14837KMSN MSN20020616034009406/16/02 03:40:31  5-MIN KMSN 160940Z 29004KT 10SM CLR 11/08 A2986 920 86 700 290/04 RMK AO2 $
14837KMSN MSN20020616034509406/16/02 03:45:31  5-MIN KMSN 160945Z 29004KT 10SM CLR 11/08 A2986 920 86 600 290/04 RMK AO2 $
14837KMSN MSN20020616035011106/16/02 03:50:31  5-MIN KMSN 160950Z 29004KT 10SM CLR 11/08 A2986 920 86 600 290/04 RMK AO2 SLP112 T01060083 $
14837KMSN MSN20020616035509406/16/02 03:55:31  5-MIN KMSN 160955Z 29005KT 10SM CLR 11/08 A2986 920 86 600 290/05 RMK AO2 $
14837KMSN MSN20020616040009406/16/02 04:00:31  5-MIN KMSN 161000Z 28005KT 10SM CLR 11/08 A2986 920 86 600 280/05 RMK AO2 $
14837KMSN MSN20020616040509406/16/02 04:05:31  5-MIN KMSN 161005Z 29004KT 10SM CLR 11/08 A2986 920 86 600 290/04 RMK AO2 $
14837KMSN MSN20020616041009406/16/02 04:10:31  5-MIN KMSN 161010Z 29004KT 10SM CLR 11/08 A2986 920 86 600 290/04 RMK AO2 $
14837KMSN MSN20020616041509406/16/02 04:15:31  5-MIN KMSN 161015Z 30003KT 10SM CLR 11/08 A2986 920 86 600 300/03 RMK AO2 $
14837KMSN MSN20020616042009406/16/02 04:20:31  5-MIN KMSN 161020Z 30003KT 10SM CLR 11/08 A2986 920 83 600 300/03 RMK AO2 $
14837KMSN MSN20020616042509406/16/02 04:25:31  5-MIN KMSN 161025Z 29003KT 10SM CLR 11/08 A2986 920 86 600 290/03 RMK AO2 $
14837KMSN MSN20020616043009406/16/02 04:30:31  5-MIN KMSN 161030Z 28003KT 10SM CLR 10/08 A2986 920 86 600 280/03 RMK AO2 $
14837KMSN MSN20020616043509406/16/02 04:35:31  5-MIN KMSN 161035Z 27003KT 10SM CLR 10/08 A2986 920 89 600 270/03 RMK AO2 $
14837KMSN MSN20020616044009406/16/02 04:40:31  5-MIN KMSN 161040Z 27005KT 10SM CLR 11/08 A2986 920 86 600 270/05 RMK AO2 $
14837KMSN MSN20020616044509406/16/02 04:45:31  5-MIN KMSN 161045Z 27005KT 10SM CLR 11/08 A2987 920 86 600 270/05 RMK AO2 $
14837KMSN MSN20020616045011106/16/02 04:50:31  5-MIN KMSN 161050Z 28005KT 10SM CLR 11/08 A2987 910 83 700 270/05 RMK AO2 SLP114 T01110083 $
14837KMSN MSN20020616045509406/16/02 04:55:31  5-MIN KMSN 161055Z 29005KT 10SM CLR 11/08 A2987 910 83 700 280/05 RMK AO2 $
14837KMSN MSN20020616050009406/16/02 05:00:31  5-MIN KMSN 161100Z 29004KT 10SM CLR 11/08 A2987 910 83 700 280/04 RMK AO2 $
14837KMSN MSN20020616050509406/16/02 05:05:31  5-MIN KMSN 161105Z 27005KT 10SM CLR 11/08 A2987 910 83 700 270/05 RMK AO2 $
14837KMSN MSN20020616051009406/16/02 05:10:31  5-MIN KMSN 161110Z 27004KT 10SM CLR 12/08 A2987 910 80 800 270/04 RMK AO2 $
14837KMSN MSN20020616051509406/16/02 05:15:31  5-MIN KMSN 161115Z 28004KT 10SM CLR 12/08 A2988 900 80 800 280/04 RMK AO2 $
14837KMSN MSN20020616052009406/16/02 05:20:31  5-MIN KMSN 161120Z 28005KT 10SM CLR 12/08 A2988 900 80 800 280/05 RMK AO2 $
14837KMSN MSN20020616052509406/16/02 05:25:31  5-MIN KMSN 161125Z 29005KT 10SM CLR 12/08 A2988 900 80 800 280/05 RMK AO2 $
14837KMSN MSN20020616053009406/16/02 05:30:31  5-MIN KMSN 161130Z 29006KT 10SM CLR 12/08 A2988 900 80 800 290/06 RMK AO2 $
14837KMSN MSN20020616053509406/16/02 05:35:31  5-MIN KMSN 161135Z 29005KT 10SM CLR 12/08 A2988 900 77 800 290/05 RMK AO2 $
14837KMSN MSN20020616054009406/16/02 05:40:31  5-MIN KMSN 161140Z 29005KT 10SM CLR 12/08 A2988 900 77 800 290/05 RMK AO2 $
14837KMSN MSN20020616054509406/16/02 05:45:31  5-MIN KMSN 161145Z 29005KT 10SM CLR 12/09 A2988 900 80 800 290/05 RMK AO2 $
14837KMSN MSN20020616055012906/16/02 05:50:31  5-MIN KMSN 161150Z VRB03KT 10SM CLR 13/09 A2988 900 77 900 VRB/03 RMK AO2 SLP118 T01280089 10133 20094 55002 $
14837KMSN MSN20020616055509406/16/02 05:55:31  5-MIN KMSN 161155Z 29005KT 10SM CLR 13/09 A2989 900 77 900 290/05 RMK AO2 $
14837KMSN MSN20020616060009406/16/02 06:00:31  5-MIN KMSN 161200Z 29006KT 10SM CLR 13/09 A2989 900 77 900 290/06 RMK AO2 $
14837KMSN MSN20020616060509406/16/02 06:05:31  5-MIN KMSN 161205Z 29005KT 10SM CLR 13/09 A2989 900 74 900 290/05 RMK AO2 $
14837KMSN MSN20020616061009406/16/02 06:10:31  5-MIN KMSN 161210Z 28005KT 10SM CLR 13/09 A2989 890 74 900 280/05 RMK AO2 $
14837KMSN MSN20020616061509406/16/02 06:15:31  5-MIN KMSN 161215Z 29005KT 10SM CLR 13/09 A2989 890 74 900 290/05 RMK AO2 $
14837KMSN MSN20020616062009506/16/02 06:20:31  5-MIN KMSN 161220Z 29003KT 10SM CLR 14/09 A2989 890 74 1000 290/03 RMK AO2 $
14837KMSN MSN20020616062509506/16/02 06:25:31  5-MIN KMSN 161225Z 29005KT 10SM CLR 14/09 A2989 890 74 1000 290/05 RMK AO2 $
14837KMSN MSN20020616063009506/16/02 06:30:31  5-MIN KMSN 161230Z 29005KT 10SM CLR 14/09 A2990 890 72 1100 290/05 RMK AO2 $
14837KMSN MSN20020616063509506/16/02 06:35:31  5-MIN KMSN 161235Z 30006KT 10SM CLR 14/09 A2990 890 69 1100 300/06 RMK AO2 $
14837KMSN MSN20020616064009506/16/02 06:40:31  5-MIN KMSN 161240Z 31006KT 10SM CLR 15/09 A2990 890 69 1100 310/06 RMK AO2 $
14837KMSN MSN20020616064509506/16/02 06:45:31  5-MIN KMSN 161245Z VRB05KT 10SM CLR 15/09 A2990 890 69 1100 VRB/05 RMK AO2 $
14837KMSN MSN20020616065011206/16/02 06:50:31  5-MIN KMSN 161250Z 30006KT 10SM CLR 16/09 A2990 890 64 1200 300/06 RMK AO2 SLP121 T01560089 $
14837KMSN MSN20020616065509506/16/02 06:55:31  5-MIN KMSN 161255Z 30007KT 10SM CLR 16/09 A2990 890 67 1200 300/07 RMK AO2 $
14837KMSN MSN20020616070009506/16/02 07:00:31  5-MIN KMSN 161300Z 30006KT 10SM CLR 16/09 A2990 890 64 1200 300/06 RMK AO2 $
14837KMSN MSN20020616070509506/16/02 07:05:31  5-MIN KMSN 161305Z 31007KT 10SM CLR 16/09 A2990 880 62 1300 310/07 RMK AO2 $
14837KMSN MSN20020616071009506/16/02 07:10:31  5-MIN KMSN 161310Z 32006KT 10SM CLR 17/09 A2990 880 60 1300 320/06 RMK AO2 $
14837KMSN MSN20020616071509506/16/02 07:15:31  5-MIN KMSN 161315Z 31007KT 10SM CLR 17/09 A2990 880 60 1300 310/07 RMK AO2 $
14837KMSN MSN20020616072009506/16/02 07:20:31  5-MIN KMSN 161320Z 29006KT 10SM CLR 17/08 A2990 880 57 1300 290/06 RMK AO2 $
14837KMSN MSN20020616072509506/16/02 07:25:31  5-MIN KMSN 161325Z 30007KT 10SM CLR 17/08 A2990 880 57 1300 300/07 RMK AO2 $
14837KMSN MSN20020616073009506/16/02 07:30:31  5-MIN KMSN 161330Z 31007KT 10SM CLR 17/08 A2990 880 55 1400 310/07 RMK AO2 $
14837KMSN MSN20020616073509506/16/02 07:35:31  5-MIN KMSN 161335Z 30008KT 10SM CLR 17/08 A2990 880 55 1400 300/08 RMK AO2 $
14837KMSN MSN20020616074009506/16/02 07:40:31  5-MIN KMSN 161340Z 30008KT 10SM CLR 17/08 A2990 880 55 1400 300/08 RMK AO2 $
14837KMSN MSN20020616074509506/16/02 07:45:31  5-MIN KMSN 161345Z VRB05KT 10SM CLR 18/09 A2990 880 55 1500 VRB/05 RMK AO2 $
14837KMSN MSN20020616075012806/16/02 07:50:31  5-MIN KMSN 161350Z 29007KT 270V330 10SM CLR 18/08 A2990 880 53 1500 290/07 270V330 RMK AO2 SLP123 T01780083 $
14837KMSN MSN20020616075509506/16/02 07:55:31  5-MIN KMSN 161355Z 29007KT 10SM CLR 18/08 A2990 880 53 1500 290/07 RMK AO2 $
14837KMSN MSN20020616080011106/16/02 08:00:31  5-MIN KMSN 161400Z 30007KT 260V320 10SM CLR 18/08 A2990 880 52 1500 300/07 260V320 RMK AO2 $
14837KMSN MSN20020616080509506/16/02 08:05:31  5-MIN KMSN 161405Z 32009KT 10SM CLR 18/08 A2990 880 52 1500 320/09 RMK AO2 $
14837KMSN MSN20020616081009506/16/02 08:10:31  5-MIN KMSN 161410Z 31009KT 10SM CLR 19/08 A2990 880 50 1600 310/09 RMK AO2 $
14837KMSN MSN20020616081509506/16/02 08:15:31  5-MIN KMSN 161415Z 32008KT 10SM CLR 18/08 A2991 880 52 1500 320/08 RMK AO2 $
14837KMSN MSN20020616082009506/16/02 08:20:31  5-MIN KMSN 161420Z VRB06KT 10SM CLR 19/08 A2990 880 50 1600 VRB/06 RMK AO2 $
14837KMSN MSN20020616082509506/16/02 08:25:31  5-MIN KMSN 161425Z VRB06KT 10SM CLR 19/09 A2991 880 52 1600 VRB/06 RMK AO2 $
14837KMSN MSN20020616083009506/16/02 08:30:31  5-MIN KMSN 161430Z 31008KT 10SM CLR 19/08 A2990 880 48 1600 310/08 RMK AO2 $
14837KMSN MSN20020616083509506/16/02 08:35:31  5-MIN KMSN 161435Z 30006KT 10SM CLR 19/09 A2990 880 50 1600 300/06 RMK AO2 $
14837KMSN MSN20020616084009506/16/02 08:40:31  5-MIN KMSN 161440Z VRB06KT 10SM CLR 20/09 A2990 880 50 1700 VRB/06 RMK AO2 $
14837KMSN MSN20020616084509506/16/02 08:45:31  5-MIN KMSN 161445Z 30007KT 10SM CLR 20/09 A2990 880 48 1700 300/07 RMK AO2 $
14837KMSN MSN20020616085011806/16/02 08:50:31  5-MIN KMSN 161450Z 31007KT 10SM CLR 20/08 A2990 880 46 1700 310/07 RMK AO2 SLP124 T02000083 53012 $
14837KMSN MSN20020616085509506/16/02 08:55:31  5-MIN KMSN 161455Z 30007KT 10SM CLR 20/09 A2990 880 48 1700 300/07 RMK AO2 $
14837KMSN MSN20020616090009506/16/02 09:00:31  5-MIN KMSN 161500Z 27008KT 10SM CLR 20/09 A2990 880 48 1700 270/08 RMK AO2 $
14837KMSN MSN20020616090509506/16/02 09:05:31  5-MIN KMSN 161505Z 30009KT 10SM CLR 21/09 A2990 880 46 1800 300/09 RMK AO2 $
14837KMSN MSN20020616091009506/16/02 09:10:31  5-MIN KMSN 161510Z 32009KT 10SM CLR 21/08 A2990 880 45 1800 310/09 RMK AO2 $
14837KMSN MSN20020616091509506/16/02 09:15:31  5-MIN KMSN 161515Z 31010KT 10SM CLR 21/08 A2990 880 43 1800 310/10 RMK AO2 $
14837KMSN MSN20020616092009506/16/02 09:20:31  5-MIN KMSN 161520Z 28011KT 10SM CLR 21/08 A2990 880 45 1800 280/11 RMK AO2 $
14837KMSN MSN20020616092509506/16/02 09:25:31  5-MIN KMSN 161525Z 30009KT 10SM CLR 20/08 A2990 890 46 1700 290/09 RMK AO2 $
14837KMSN MSN20020616093009506/16/02 09:30:31  5-MIN KMSN 161530Z 29011KT 10SM CLR 21/08 A2990 890 45 1800 290/11 RMK AO2 $
14837KMSN MSN20020616093509506/16/02 09:35:31  5-MIN KMSN 161535Z 31009KT 10SM CLR 21/08 A2990 890 43 1800 310/09 RMK AO2 $
14837KMSN MSN20020616094011106/16/02 09:40:31  5-MIN KMSN 161540Z 32010KT 290V350 10SM CLR 21/09 A2990 890 45 1800 320/10 290V350 RMK AO2 $
14837KMSN MSN20020616094509506/16/02 09:45:31  5-MIN KMSN 161545Z VRB06KT 10SM CLR 22/08 A2990 890 42 1900 VRB/06 RMK AO2 $
14837KMSN MSN20020616095012806/16/02 09:50:31  5-MIN KMSN 161550Z 30009KT 270V330 10SM CLR 22/08 A2990 890 42 1900 300/09 270V330 RMK AO2 SLP121 T02170083 $
14837KMSN MSN20020616095509506/16/02 09:55:31  5-MIN KMSN 161555Z 30010KT 10SM CLR 21/08 A2990 890 43 1800 300/10 RMK AO2 $
14837KMSN MSN20020616100009506/16/02 10:00:31  5-MIN KMSN 161600Z 29009KT 10SM CLR 21/08 A2990 890 43 1800 290/09 RMK AO2 $
14837KMSN MSN20020616100511106/16/02 10:05:31  5-MIN KMSN 161605Z 29009KT 260V330 10SM CLR 21/08 A2990 890 42 1800 290/09 260V330 RMK AO2 $
14837KMSN MSN20020616101010106/16/02 10:10:31  5-MIN KMSN 161610Z 29009G15KT 10SM CLR 22/08 A2990 890 42 1900 290/09G15 RMK AO2 $
14837KMSN MSN20020616101511706/16/02 10:15:31  5-MIN KMSN 161615Z 30009G15KT 250V330 10SM CLR 22/08 A2990 890 42 1900 300/09G15 250V330 RMK AO2 $
14837KMSN MSN20020616102009506/16/02 10:20:31  5-MIN KMSN 161620Z 33008KT 10SM CLR 22/08 A2989 890 40 2000 330/08 RMK AO2 $
14837KMSN MSN20020616102511406/16/02 10:25:31  5-MIN KMSN 161625Z 29009KT 260V320 10SM FEW100 22/09 A2990 890 42 2000 290/09 260V320 RMK AO2 $
14837KMSN MSN20020616103012006/16/02 10:30:31  5-MIN KMSN 161630Z 30008G15KT 260V330 10SM FEW100 22/08 A2990 890 39 2000 300/08G15 260V330 RMK AO2 $
14837KMSN MSN20020616103509806/16/02 10:35:31  5-MIN KMSN 161635Z 31009KT 10SM FEW045 23/09 A2990 890 40 2000 310/09 RMK AO2 $
14837KMSN MSN20020616104010406/16/02 10:40:31  5-MIN KMSN 161640Z 30011G16KT 10SM FEW045 23/08 A2990 890 39 2000 300/11G16 RMK AO2 $
14837KMSN MSN20020616104511106/16/02 10:45:31  5-MIN KMSN 161645Z 34008G16KT 10SM FEW045 SCT085 22/08 A2990 890 40 1900 340/08G16 RMK AO2 $
14837KMSN MSN20020616105012806/16/02 10:50:31  5-MIN KMSN 161650Z 29009G16KT 10SM FEW045 SCT085 22/09 A2990 880 42 2000 290/09G16 RMK AO2 SLP122 T02220089 $
14837KMSN MSN20020616105510406/16/02 10:55:31  5-MIN KMSN 161655Z 30012G16KT 10SM FEW085 22/08 A2990 880 40 2000 300/12G16 RMK AO2 $
14837KMSN MSN20020616110010406/16/02 11:00:31  5-MIN KMSN 161700Z 31009G16KT 10SM SCT080 22/07 A2990 890 37 2000 310/09G16 RMK AO2 $
14837KMSN MSN20020616110509806/16/02 11:05:31  5-MIN KMSN 161705Z VRB05KT 10SM SCT080 23/08 A2990 890 37 2000 VRB/05 RMK AO2 $
14837KMSN MSN20020616111010506/16/02 11:10:31  5-MIN KMSN 161710Z 33008KT 10SM FEW065 BKN080 23/08 A2990 890 39 2000 330/08 RMK AO2 $
14837KMSN MSN20020616111511106/16/02 11:15:31  5-MIN KMSN 161715Z 31009G14KT 10SM FEW065 BKN080 21/07 A2990 880 40 1800 310/09G14 RMK AO2 $
14837KMSN MSN20020616112012106/16/02 11:20:31  5-MIN KMSN 161720Z 30008KT 270V340 10SM FEW065 BKN080 21/06 A2990 880 37 1800 300/08 270V340 RMK AO2 $
14837KMSN MSN20020616112510506/16/02 11:25:31  5-MIN KMSN 161725Z 33006KT 10SM FEW065 BKN080 22/08 A2990 890 39 2000 330/06 RMK AO2 $
14837KMSN MSN20020616113010506/16/02 11:30:31  5-MIN KMSN 161730Z VRB06KT 10SM FEW065 SCT080 23/08 A2989 890 38 2100 VRB/06 RMK AO2 $
14837KMSN MSN20020616113510506/16/02 11:35:31  5-MIN KMSN 161735Z VRB05KT 10SM FEW065 SCT080 23/08 A2989 890 37 2000 VRB/05 RMK AO2 $
14837KMSN MSN20020616114009806/16/02 11:40:31  5-MIN KMSN 161740Z 31005KT 10SM FEW080 23/08 A2989 890 37 2000 310/05 RMK AO2 $
14837KMSN MSN20020616114512106/16/02 11:45:31  5-MIN KMSN 161745Z 28009KT 230V300 10SM FEW065 SCT080 23/08 A2988 900 37 2000 280/09 230V300 RMK AO2 $
14837KMSN MSN20020616115014006/16/02 11:50:31  5-MIN KMSN 161750Z VRB05KT 10SM FEW065 SCT085 23/09 A2988 900 40 2000 VRB/05 RMK AO2 SLP117 T02280089 10233 20128 51006 $
14837KMSN MSN20020616115509806/16/02 11:55:31  5-MIN KMSN 161755Z 28008KT 10SM FEW070 23/08 A2989 900 39 2000 280/08 RMK AO2 $
14837KMSN MSN20020616120009806/16/02 12:00:31  5-MIN KMSN 161800Z VRB04KT 10SM FEW070 23/08 A2988 900 37 2000 VRB/04 RMK AO2 $
14837KMSN MSN20020616120509806/16/02 12:05:31  5-MIN KMSN 161805Z VRB03KT 10SM SCT070 22/07 A2988 900 37 2000 VRB/03 RMK AO2 $
14837KMSN MSN20020616121009806/16/02 12:10:31  5-MIN KMSN 161810Z VRB05KT 10SM SCT070 22/08 A2988 900 40 1900 VRB/05 RMK AO2 $
14837KMSN MSN20020616121510406/16/02 12:15:31  5-MIN KMSN 161815Z 31008G14KT 10SM FEW070 23/09 A2988 900 41 2100 310/08G14 RMK AO2 $
14837KMSN MSN20020616122012706/16/02 12:20:31  5-MIN KMSN 161820Z 32008G14KT 270V350 10SM FEW070 SCT090 23/09 A2988 900 39 2100 320/08G14 270V350 RMK AO2 $
14837KMSN MSN20020616122512106/16/02 12:25:31  5-MIN KMSN 161825Z 27009KT 240V310 10SM FEW070 SCT090 23/08 A2988 910 36 2100 270/09 240V310 RMK AO2 $
14837KMSN MSN20020616123009806/16/02 12:30:31  5-MIN KMSN 161830Z 29010KT 10SM FEW070 24/08 A2988 910 36 2200 290/10 RMK AO2 $
14837KMSN MSN20020616123509806/16/02 12:35:31  5-MIN KMSN 161835Z 28008KT 10SM FEW085 23/08 A2988 910 38 2100 280/08 RMK AO2 $
14837KMSN MSN20020616124010506/16/02 12:40:31  5-MIN KMSN 161840Z 30010KT 10SM FEW075 SCT090 23/08 A2987 910 39 2100 300/10 RMK AO2 $
14837KMSN MSN20020616124509806/16/02 12:45:31  5-MIN KMSN 161845Z 29010KT 10SM FEW075 24/09 A2987 910 38 2200 280/10 RMK AO2 $
14837KMSN MSN20020616125012106/16/02 12:50:31  5-MIN KMSN 161850Z 30011G15KT 10SM FEW075 23/07 A2987 910 35 2100 290/11G15 RMK AO2 SLP112 T02330072 $
14837KMSN MSN20020616125509806/16/02 12:55:31  5-MIN KMSN 161855Z 30009KT 10SM FEW070 23/07 A2987 910 36 2100 300/09 RMK AO2 $
14837KMSN MSN20020616130011406/16/02 13:00:31  5-MIN KMSN 161900Z 30012KT 260V330 10SM FEW070 23/08 A2987 910 38 2100 290/12 260V330 RMK AO2 $
14837KMSN MSN20020616130511106/16/02 13:05:31  5-MIN KMSN 161905Z 29011G19KT 10SM FEW070 SCT090 24/07 A2987 910 34 2200 290/11G19 RMK AO2 $
14837KMSN MSN20020616131012706/16/02 13:10:31  5-MIN KMSN 161910Z 31009G19KT 260V320 10SM FEW070 SCT090 24/08 A2987 910 36 2200 310/09G19 260V320 RMK AO2 $
14837KMSN MSN20020616131511106/16/02 13:15:31  5-MIN KMSN 161915Z 29013G16KT 10SM FEW070 SCT090 24/08 A2987 910 36 2200 290/13G16 RMK AO2 $
14837KMSN MSN20020616132011106/16/02 13:20:31  5-MIN KMSN 161920Z 30011G17KT 10SM FEW075 SCT090 24/08 A2987 910 36 2200 300/11G17 RMK AO2 $
14837KMSN MSN20020616132512706/16/02 13:25:31  5-MIN KMSN 161925Z 29011G17KT 260V340 10SM FEW075 SCT090 24/08 A2987 910 36 2200 290/11G17 260V340 RMK AO2 $
14837KMSN MSN20020616133010506/16/02 13:30:31  5-MIN KMSN 161930Z 31011KT 10SM FEW075 SCT090 23/07 A2987 910 35 2100 310/11 RMK AO2 $
14837KMSN MSN20020616133511406/16/02 13:35:31  5-MIN KMSN 161935Z 33009KT 300V360 10SM FEW075 23/07 A2987 910 36 2100 330/09 300V360 RMK AO2 $
14837KMSN MSN20020616134010406/16/02 13:40:31  5-MIN KMSN 161940Z 28012G17KT 10SM FEW075 24/07 A2986 920 34 2200 280/12G17 RMK AO2 $
14837KMSN MSN20020616134512006/16/02 13:45:31  5-MIN KMSN 161945Z 29009G18KT 250V320 10SM FEW075 24/07 A2986 920 34 2200 280/09G18 250V320 RMK AO2 $
14837KMSN MSN20020616135012106/16/02 13:50:31  5-MIN KMSN 161950Z 28011G18KT 10SM FEW075 24/08 A2986 920 35 2200 280/11G18 RMK AO2 SLP110 T02390078 $
14837KMSN MSN20020616135512006/16/02 13:55:31  5-MIN KMSN 161955Z 28009G18KT 240V320 10SM SCT075 24/07 A2986 920 34 2200 280/09G18 240V320 RMK AO2 $
14837KMSN MSN20020616140010406/16/02 14:00:31  5-MIN KMSN 162000Z 31010G16KT 10SM SCT070 24/08 A2986 920 36 2200 310/10G16 RMK AO2 $
14837KMSN MSN20020616140510406/16/02 14:05:31  5-MIN KMSN 162005Z 31010G18KT 10SM BKN070 23/07 A2986 920 33 2100 310/10G18 RMK AO2 $
14837KMSN MSN20020616141012006/16/02 14:10:31  5-MIN KMSN 162010Z 28010G18KT 220V300 10SM SCT075 24/07 A2986 920 34 2200 270/10G18 220V300 RMK AO2 $
14837KMSN MSN20020616141512006/16/02 14:15:31  5-MIN KMSN 162015Z 27011G18KT 230V290 10SM SCT075 24/08 A2986 920 34 2300 270/11G18 230V290 RMK AO2 $
14837KMSN MSN20020616142012006/16/02 14:20:31  5-MIN KMSN 162020Z 31012G18KT 280V010 10SM SCT070 24/07 A2986 920 33 2300 310/12G18 280V010 RMK AO2 $
14837KMSN MSN20020616142510406/16/02 14:25:31  5-MIN KMSN 162025Z 32012G18KT 10SM FEW070 24/06 A2986 920 31 2200 320/12G18 RMK AO2 $
14837KMSN MSN20020616143012006/16/02 14:30:31  5-MIN KMSN 162030Z 31010G18KT 270V340 10SM FEW075 24/07 A2986 920 32 2200 310/10G18 270V340 RMK AO2 $
14837KMSN MSN20020616143509806/16/02 14:35:31  5-MIN KMSN 162035Z 28011KT 10SM FEW075 24/07 A2986 920 33 2300 280/11 RMK AO2 $
14837KMSN MSN20020616144012006/16/02 14:40:31  5-MIN KMSN 162040Z 28007G16KT 250V310 10SM FEW075 24/07 A2986 920 34 2200 280/07G16 250V310 RMK AO2 $
14837KMSN MSN20020616144510106/16/02 14:45:31  5-MIN KMSN 162045Z 30011G16KT 10SM CLR 24/07 A2986 920 32 2200 300/11G16 RMK AO2 $
14837KMSN MSN20020616145012706/16/02 14:50:31  5-MIN KMSN 162050Z 29011G16KT 10SM SCT075 24/07 A2986 920 34 2200 290/11G16 RMK AO2 SLP108 T02390072 58005 $
14837KMSN MSN20020616145511406/16/02 14:55:31  5-MIN KMSN 162055Z 29011KT 260V320 10SM SCT075 24/07 A2986 920 34 2200 290/11 260V320 RMK AO2 $
14837KMSN MSN20020616150010406/16/02 15:00:31  5-MIN KMSN 162100Z 30013G19KT 10SM SCT075 24/07 A2986 920 34 2200 300/13G19 RMK AO2 $
14837KMSN MSN20020616150510406/16/02 15:05:31  5-MIN KMSN 162105Z 31008G19KT 10SM SCT075 24/07 A2986 920 32 2200 310/08G19 RMK AO2 $
14837KMSN MSN20020616151012006/16/02 15:10:31  5-MIN KMSN 162110Z 29007G18KT 250V350 10SM SCT075 24/07 A2985 920 34 2200 290/07G18 250V350 RMK AO2 $
14837KMSN MSN20020616151510406/16/02 15:15:31  5-MIN KMSN 162115Z 31010G15KT 10SM SCT075 24/07 A2985 930 33 2300 310/10G15 RMK AO2 $
14837KMSN MSN20020616152010406/16/02 15:20:31  5-MIN KMSN 162120Z 30011G18KT 10SM SCT075 24/06 A2986 920 30 2300 300/11G18 RMK AO2 $
14837KMSN MSN20020616152510406/16/02 15:25:31  5-MIN KMSN 162125Z 32011G18KT 10SM SCT075 24/07 A2985 930 31 2300 320/11G18 RMK AO2 $
14837KMSN MSN20020616153010406/16/02 15:30:31  5-MIN KMSN 162130Z 31010G16KT 10SM SCT075 24/07 A2985 930 33 2300 310/10G16 RMK AO2 $
14837KMSN MSN20020616153510406/16/02 15:35:31  5-MIN KMSN 162135Z 29012G17KT 10SM SCT075 24/07 A2985 930 34 2200 290/12G17 RMK AO2 $
14837KMSN MSN20020616154010406/16/02 15:40:31  5-MIN KMSN 162140Z 31013G21KT 10SM SCT075 24/06 A2985 930 31 2200 300/13G21 RMK AO2 $
14837KMSN MSN20020616154510406/16/02 15:45:31  5-MIN KMSN 162145Z 31010G21KT 10SM SCT075 24/06 A2985 930 31 2200 300/10G21 RMK AO2 $
14837KMSN MSN20020616155012106/16/02 15:50:31  5-MIN KMSN 162150Z 30007G18KT 10SM SCT075 24/07 A2985 930 32 2200 300/07G18 RMK AO2 SLP106 T02390067 $
14837KMSN MSN20020616155510106/16/02 15:55:31  5-MIN KMSN 162155Z 29012G15KT 10SM CLR 24/06 A2985 930 30 2300 290/12G15 RMK AO2 $
14837KMSN MSN20020616160010106/16/02 16:00:31  5-MIN KMSN 162200Z 32008G15KT 10SM CLR 24/07 A2985 930 32 2200 320/08G15 RMK AO2 $
14837KMSN MSN20020616160509506/16/02 16:05:31  5-MIN KMSN 162205Z 29011KT 10SM CLR 24/07 A2985 930 31 2300 290/11 RMK AO2 $
14837KMSN MSN20020616161009506/16/02 16:10:31  5-MIN KMSN 162210Z 30007KT 10SM CLR 24/06 A2984 930 31 2200 300/07 RMK AO2 $
14837KMSN MSN20020616161509506/16/02 16:15:31  5-MIN KMSN 162215Z 30010KT 10SM CLR 24/07 A2984 930 32 2200 300/10 RMK AO2 $
14837KMSN MSN20020616162009506/16/02 16:20:31  5-MIN KMSN 162220Z 31010KT 10SM CLR 24/07 A2984 940 34 2200 310/10 RMK AO2 $
14837KMSN MSN20020616162510106/16/02 16:25:31  5-MIN KMSN 162225Z 29009G17KT 10SM CLR 23/06 A2984 940 32 2200 290/09G17 RMK AO2 $
14837KMSN MSN20020616163010106/16/02 16:30:31  5-MIN KMSN 162230Z 31009G17KT 10SM CLR 23/06 A2984 940 32 2200 310/09G17 RMK AO2 $
14837KMSN MSN20020616163509806/16/02 16:35:31  5-MIN KMSN 162235Z 30009KT 10SM FEW075 24/07 A2984 940 32 2200 300/09 RMK AO2 $
14837KMSN MSN20020616164009506/16/02 16:40:31  5-MIN KMSN 162240Z 31010KT 10SM CLR 24/06 A2985 930 31 2200 310/10 RMK AO2 $
14837KMSN MSN20020616164509806/16/02 16:45:31  5-MIN KMSN 162245Z 30009KT 10SM FEW075 23/06 A2985 930 32 2200 300/09 RMK AO2 $
14837KMSN MSN20020616165011506/16/02 16:50:31  5-MIN KMSN 162250Z 28009KT 10SM FEW075 23/06 A2984 930 32 2200 280/09 RMK AO2 SLP105 T02330061 $
14837KMSN MSN20020616165511106/16/02 16:55:31  5-MIN KMSN 162255Z 29009KT 250V320 10SM CLR 23/06 A2985 930 32 2200 290/09 250V320 RMK AO2 $
14837KMSN MSN20020616170011106/16/02 17:00:31  5-MIN KMSN 162300Z 31009KT 270V350 10SM CLR 23/06 A2985 930 32 2200 310/09 270V350 RMK AO2 $
14837KMSN MSN20020616170510106/16/02 17:05:31  5-MIN KMSN 162305Z 32007G14KT 10SM CLR 23/06 A2985 930 33 2100 310/07G14 RMK AO2 $
14837KMSN MSN20020616171009506/16/02 17:10:31  5-MIN KMSN 162310Z VRB05KT 10SM CLR 23/06 A2985 930 33 2100 VRB/05 RMK AO2 $
14837KMSN MSN20020616171509506/16/02 17:15:31  5-MIN KMSN 162315Z 29008KT 10SM CLR 23/06 A2985 930 33 2100 290/08 RMK AO2 $
14837KMSN MSN20020616172009506/16/02 17:20:31  5-MIN KMSN 162320Z 30006KT 10SM CLR 23/07 A2986 920 35 2100 300/06 RMK AO2 $
14837KMSN MSN20020616172509506/16/02 17:25:31  5-MIN KMSN 162325Z VRB05KT 10SM CLR 22/07 A2986 920 36 2000 VRB/05 RMK AO2 $
14837KMSN MSN20020616173009506/16/02 17:30:31  5-MIN KMSN 162330Z 30006KT 10SM CLR 22/07 A2986 920 36 2000 300/06 RMK AO2 $
14837KMSN MSN20020616173509506/16/02 17:35:31  5-MIN KMSN 162335Z 29006KT 10SM CLR 22/07 A2986 920 36 2000 290/06 RMK AO2 $
14837KMSN MSN20020616174009506/16/02 17:40:31  5-MIN KMSN 162340Z VRB04KT 10SM CLR 22/07 A2986 920 36 2000 VRB/04 RMK AO2 $
14837KMSN MSN20020616174509506/16/02 17:45:31  5-MIN KMSN 162345Z 28004KT 10SM CLR 22/07 A2986 920 36 2000 280/04 RMK AO2 $
14837KMSN MSN20020616175013306/16/02 17:50:31  5-MIN KMSN 162350Z 29004KT 10SM FEW040 22/07 A2987 910 37 2000 290/04 RMK AO2 SLP111 T02220072 10244 20217 56009 $
14837KMSN MSN20020616175509506/16/02 17:55:31  5-MIN KMSN 162355Z 29005KT 10SM CLR 22/07 A2987 910 39 1900 290/05 RMK AO2 $
14837KMSN MSN20020616180009806/16/02 18:00:31  5-MIN KMSN 170000Z 28004KT 10SM FEW080 22/07 A2987 910 39 1900 280/04 RMK AO2 $
14837KMSN MSN20020616180512106/16/02 18:05:31  5-MIN KMSN 170005Z 27005KT 10SM -RA SCT040 SCT080 22/08 A2987 910 40 1900 270/05 RMK AO2 RAB01 P0000 $
14837KMSN MSN20020616181012006/16/02 18:10:31  5-MIN KMSN 170010Z VRB04KT 10SM SCT040 SCT080 22/08 A2987 910 42 1900 VRB/04 RMK AO2 RAB01E08 P0000 $
14837KMSN MSN20020616181512006/16/02 18:15:31  5-MIN KMSN 170015Z 28003KT 10SM SCT040 SCT080 21/08 A2987 910 43 1900 270/03 RMK AO2 RAB01E08 P0000 $
14837KMSN MSN20020616182012006/16/02 18:20:31  5-MIN KMSN 170020Z VRB03KT 10SM SCT040 SCT080 21/09 A2987 910 45 1900 VRB/03 RMK AO2 RAB01E08 P0000 $
14837KMSN MSN20020616182512006/16/02 18:25:31  5-MIN KMSN 170025Z VRB03KT 10SM SCT040 SCT080 21/09 A2988 910 48 1800 VRB/03 RMK AO2 RAB01E08 P0000 $
14837KMSN MSN20020616183014306/16/02 18:30:31  5-MIN KMSN 170030Z 30007KT 280V340 10SM SCT040 SCT080 21/09 A2989 890 48 1800 300/07 280V340 RMK AO2 RAB01E08 PRESRR P0000 $
14837KMSN MSN20020616183515306/16/02 18:35:31  5-MIN KMSN 170035Z 31022G35KT 9SM SQ SCT040 SCT080 19/08 A2992 870 48 1600 310/22G35 RMK AO2 PK WND 32035/0035 RAB01E08 PRESRR P0000 $
14837KMSN MSN20020616184016006/16/02 18:40:31  5-MIN KMSN 170040Z 32016G35KT 8SM -RA SQ SCT040 SCT080 17/09 A2993 850 60 1400 320/16G35 RMK AO2 PK WND 32035/0035 RAB01E08B36 PRESRR P0000 $
14837KMSN MSN20020616184515706/16/02 18:45:31  5-MIN KMSN 170045Z 33012G25KT 7SM -RA SCT040 SCT080 17/10 A2994 840 64 1300 330/12G25 RMK AO2 PK WND 32035/0035 RAB01E08B36 PRESRR P0000 $
14837KMSN MSN20020616185017406/16/02 18:50:31  5-MIN KMSN 170050Z 34014G24KT 7SM -RA FEW055 SCT070 OVC085 15/11 A2995 830 77 1100 340/14G24 RMK AO2 PK WND 32035/0035 RAB01E08B36 SLP142 P0000 T01500111 $
14837KMSN MSN20020616185512706/16/02 18:55:31  5-MIN KMSN 170055Z 34012G24KT 8SM -RA FEW055 BKN070 OVC085 14/11 A2995 840 80 1000 340/12G24 RMK AO2 P0001 $
14837KMSN MSN20020616190011906/16/02 19:00:31  5-MIN KMSN 170100Z 35009G20KT 8SM -RA BKN070 OVC085 14/11 A2995 840 83 900 350/09G20 RMK AO2 P0001 $
14837KMSN MSN20020616190512906/16/02 19:05:31  5-MIN KMSN 170105Z 34007KT 300V010 8SM -RA BKN070 OVC085 14/11 A2995 840 83 900 340/07 300V010 RMK AO2 P0001 $
14837KMSN MSN20020616191010706/16/02 19:10:31  5-MIN KMSN 170110Z 35006KT 9SM -RA OVC070 14/11 A2994 850 83 1000 350/06 RMK AO2 P0001 $
14837KMSN MSN20020616191511406/16/02 19:15:31  5-MIN KMSN 170115Z 36006KT 9SM -RA OVC070 14/11 A2993 850 83 1000 360/06 RMK AO2 PRESFR P0002 $
14837KMSN MSN20020616192010806/16/02 19:20:31  5-MIN KMSN 170120Z VRB05KT 10SM -RA OVC080 14/11 A2994 850 83 1000 VRB/05 RMK AO2 P0002 $
14837KMSN MSN20020616192511506/16/02 19:25:31  5-MIN KMSN 170125Z VRB04KT 10SM -RA FEW075 BKN090 14/11 A2994 850 83 1000 VRB/04 RMK AO2 P0002 $
14837KMSN MSN20020616193011506/16/02 19:30:31  5-MIN KMSN 170130Z VRB04KT 10SM -RA FEW070 BKN095 14/11 A2993 850 83 1000 VRB/04 RMK AO2 P0002 $
14837KMSN MSN20020616193511506/16/02 19:35:31  5-MIN KMSN 170135Z 27004KT 10SM -RA FEW075 BKN100 14/11 A2993 860 83 1000 270/04 RMK AO2 P0002 $
14837KMSN MSN20020616194010906/16/02 19:40:31  5-MIN KMSN 170140Z 29005KT 10SM SCT100 13/11 A2993 850 86 900 290/05 RMK AO2 RAE40 P0002 $
14837KMSN MSN20020616194510906/16/02 19:45:31  5-MIN KMSN 170145Z 29004KT 10SM FEW110 13/11 A2993 850 86 900 290/04 RMK AO2 RAE40 P0002 $
14837KMSN MSN20020616195014106/16/02 19:50:31  5-MIN KMSN 170150Z 29004KT 10SM FEW055 SCT075 SCT110 14/11 A2993 850 83 1000 290/04 RMK AO2 RAE40 SLP134 P0002 T01390111 $
14837KMSN MSN20020616195509706/16/02 19:55:31  5-MIN KMSN 170155Z 30004KT 10SM FEW110 13/11 A2993 860 86 900 300/04 RMK AO2 $
14837KMSN MSN20020616200009406/16/02 20:00:31  5-MIN KMSN 170200Z 29004KT 10SM CLR 13/11 A2993 860 86 900 290/04 RMK AO2 $
14837KMSN MSN20020616200509406/16/02 20:05:31  5-MIN KMSN 170205Z 29003KT 10SM CLR 13/12 A2992 860 89 900 290/03 RMK AO2 $
14837KMSN MSN20020616201009406/16/02 20:10:31  5-MIN KMSN 170210Z 29004KT 10SM CLR 13/12 A2992 860 89 900 280/04 RMK AO2 $
14837KMSN MSN20020616201509806/16/02 20:15:31  5-MIN KMSN 170215Z 00000KT 10SM FEW110 14/11 A2992 860 83 1000 000/00 RMK AO2 $
14837KMSN MSN20020616202009806/16/02 20:20:31  5-MIN KMSN 170220Z 00000KT 10SM SCT110 14/12 A2992 870 86 1000 000/00 RMK AO2 $
14837KMSN MSN20020616202509806/16/02 20:25:31  5-MIN KMSN 170225Z 00000KT 10SM SCT120 14/11 A2992 870 83 1000 000/00 RMK AO2 $
14837KMSN MSN20020616203009806/16/02 20:30:31  5-MIN KMSN 170230Z 16003KT 10SM BKN110 14/11 A2992 870 83 1000 160/03 RMK AO2 $
14837KMSN MSN20020616203509806/16/02 20:35:31  5-MIN KMSN 170235Z 00000KT 10SM BKN110 14/12 A2992 870 86 1000 000/00 RMK AO2 $
14837KMSN MSN20020616204010406/16/02 20:40:31  5-MIN KMSN 170240Z 00000KT 10SM BKN100 OVC120 13/12 A2992 870 89 900 000/00 RMK AO2 $
14837KMSN MSN20020616204510406/16/02 20:45:31  5-MIN KMSN 170245Z 00000KT 10SM BKN095 OVC120 13/12 A2992 870 89 900 000/00 RMK AO2 $
14837KMSN MSN20020616205013306/16/02 20:50:31  5-MIN KMSN 170250Z 00000KT 10SM BKN095 OVC120 13/12 A2992 870 89 900 000/00 RMK AO2 SLP130 60002 T01330117 53002 $
14837KMSN MSN20020616205509706/16/02 20:55:31  5-MIN KMSN 170255Z 00000KT 10SM OVC090 13/12 A2992 870 89 900 000/00 RMK AO2 $
14837KMSN MSN20020616210009706/16/02 21:00:31  5-MIN KMSN 170300Z 00000KT 10SM OVC095 13/12 A2991 870 89 900 000/00 RMK AO2 $
14837KMSN MSN20020616210509706/16/02 21:05:31  5-MIN KMSN 170305Z 00000KT 10SM BKN090 13/12 A2992 870 89 900 000/00 RMK AO2 $
14837KMSN MSN20020616211009706/16/02 21:10:31  5-MIN KMSN 170310Z 00000KT 10SM BKN090 13/12 A2992 870 89 900 000/00 RMK AO2 $
14837KMSN MSN20020616211509706/16/02 21:15:31  5-MIN KMSN 170315Z 00000KT 10SM SCT090 13/12 A2992 870 89 900 000/00 RMK AO2 $
14837KMSN MSN20020616212009706/16/02 21:20:31  5-MIN KMSN 170320Z 00000KT 10SM FEW090 13/12 A2991 870 93 900 000/00 RMK AO2 $
14837KMSN MSN20020616212509706/16/02 21:25:31  5-MIN KMSN 170325Z 00000KT 10SM FEW090 12/12 A2991 870 96 800 000/00 RMK AO2 $
14837KMSN MSN20020616213009406/16/02 21:30:31  5-MIN KMSN 170330Z 00000KT 10SM CLR 13/12 A2991 880 93 900 000/00 RMK AO2 $
14837KMSN MSN20020616213509406/16/02 21:35:31  5-MIN KMSN 170335Z 00000KT 10SM CLR 13/12 A2991 880 93 900 000/00 RMK AO2 $
14837KMSN MSN20020616214009406/16/02 21:40:31  5-MIN KMSN 170340Z 00000KT 10SM CLR 13/12 A2990 880 93 900 000/00 RMK AO2 $
14837KMSN MSN20020616214509406/16/02 21:45:31  5-MIN KMSN 170345Z 00000KT 10SM CLR 12/12 A2990 880 96 800 000/00 RMK AO2 $
14837KMSN MSN20020616215011106/16/02 21:50:31  5-MIN KMSN 170350Z 00000KT 10SM CLR 12/11 A2990 880 96 700 000/00 RMK AO2 SLP125 T01170111 $
14837KMSN MSN20020616215509406/16/02 21:55:31  5-MIN KMSN 170355Z 00000KT 10SM CLR 12/11 A2990 880 93 800 000/00 RMK AO2 $
14837KMSN MSN20020616220009406/16/02 22:00:31  5-MIN KMSN 170400Z 00000KT 10SM CLR 12/11 A2990 880 96 700 000/00 RMK AO2 $
14837KMSN MSN20020616220509406/16/02 22:05:31  5-MIN KMSN 170405Z 00000KT 10SM CLR 12/11 A2990 890 93 800 000/00 RMK AO2 $
14837KMSN MSN20020616221009306/16/02 22:10:31  5-MIN KMSN 170410Z 00000KT 9SM CLR 12/11 A2989 890 96 700 000/00 RMK AO2 $
14837KMSN MSN20020616221509306/16/02 22:15:31  5-MIN KMSN 170415Z 00000KT 9SM CLR 12/11 A2989 890 93 800 000/00 RMK AO2 $
14837KMSN MSN20020616222009406/16/02 22:20:31  5-MIN KMSN 170420Z 00000KT 10SM CLR 12/11 A2989 890 93 800 000/00 RMK AO2 $
14837KMSN MSN20020616222509306/16/02 22:25:31  5-MIN KMSN 170425Z 00000KT 9SM CLR 12/11 A2989 890 93 700 000/00 RMK AO2 $
14837KMSN MSN20020616223009306/16/02 22:30:31  5-MIN KMSN 170430Z 00000KT 9SM CLR 12/11 A2989 890 96 700 000/00 RMK AO2 $
14837KMSN MSN20020616223509306/16/02 22:35:31  5-MIN KMSN 170435Z 00000KT 9SM CLR 12/11 A2989 890 96 700 000/00 RMK AO2 $
14837KMSN MSN20020616224009306/16/02 22:40:31  5-MIN KMSN 170440Z 00000KT 9SM CLR 12/11 A2989 890 93 800 000/00 RMK AO2 $
14837KMSN MSN20020616224509406/16/02 22:45:31  5-MIN KMSN 170445Z 00000KT 10SM CLR 12/11 A2989 890 93 800 000/00 RMK AO2 $
14837KMSN MSN20020616225011106/16/02 22:50:31  5-MIN KMSN 170450Z 00000KT 10SM CLR 12/11 A2989 890 93 700 000/00 RMK AO2 SLP121 T01170106 $
14837KMSN MSN20020616225509406/16/02 22:55:31  5-MIN KMSN 170455Z 00000KT 10SM CLR 11/11 A2989 890 96 700 000/00 RMK AO2 $
14837KMSN MSN20020616230009306/16/02 23:00:31  5-MIN KMSN 170500Z 00000KT 9SM CLR 11/11 A2989 890 96 700 000/00 RMK AO2 $
14837KMSN MSN20020616230509306/16/02 23:05:31  5-MIN KMSN 170505Z 00000KT 8SM CLR 11/11 A2990 890 96 700 000/00 RMK AO2 $
14837KMSN MSN20020616231009306/16/02 23:10:31  5-MIN KMSN 170510Z 00000KT 8SM CLR 12/11 A2990 890 93 700 000/00 RMK AO2 $
14837KMSN MSN20020616231509306/16/02 23:15:31  5-MIN KMSN 170515Z 00000KT 8SM CLR 11/10 A2990 880 96 600 000/00 RMK AO2 $
14837KMSN MSN20020616232009306/16/02 23:20:31  5-MIN KMSN 170520Z 00000KT 8SM CLR 11/11 A2990 890 96 700 000/00 RMK AO2 $
14837KMSN MSN20020616232509306/16/02 23:25:31  5-MIN KMSN 170525Z 22003KT 8SM CLR 11/11 A2990 890 96 700 220/03 RMK AO2 $
14837KMSN MSN20020616233009306/16/02 23:30:31  5-MIN KMSN 170530Z 00000KT 9SM CLR 11/11 A2990 890 96 700 000/00 RMK AO2 $
14837KMSN MSN20020616233509306/16/02 23:35:31  5-MIN KMSN 170535Z 00000KT 9SM CLR 12/11 A2990 880 93 700 000/00 RMK AO2 $
14837KMSN MSN20020616234009406/16/02 23:40:31  5-MIN KMSN 170540Z 16003KT 10SM CLR 11/11 A2989 890 96 700 160/03 RMK AO2 $
14837KMSN MSN20020616234509406/16/02 23:45:31  5-MIN KMSN 170545Z 20004KT 10SM CLR 12/11 A2989 890 93 700 200/04 RMK AO2 $
14837KMSN MSN20020616235014806/16/02 23:50:31  5-MIN KMSN 170550Z 23003KT 10SM FEW120 12/11 A2990 880 93 800 230/03 RMK AO2 SLP122 60002 T01220111 10217 20106 402440094 50017 $
14837KMSN MSN20020616235509706/16/02 23:55:31  5-MIN KMSN 170555Z 24003KT 10SM SCT120 13/11 A2990 880 89 900 230/03 RMK AO2 $
14837KMSN MSN20020617000009706/17/02 00:00:31  5-MIN KMSN 170600Z 00000KT 10SM BKN120 12/11 A2989 890 93 800 000/00 RMK AO2 $
14837KMSN MSN20020617000509706/17/02 00:05:31  5-MIN KMSN 170605Z 00000KT 10SM BKN120 12/11 A2989 890 93 800 000/00 RMK AO2 $
14837KMSN MSN20020617001009706/17/02 00:10:31  5-MIN KMSN 170610Z 00000KT 10SM BKN120 12/11 A2989 890 89 800 000/00 RMK AO2 $
14837KMSN MSN20020617001509706/17/02 00:15:31  5-MIN KMSN 170615Z 00000KT 10SM OVC110 12/11 A2989 890 89 800 000/00 RMK AO2 $
14837KMSN MSN20020617002009706/17/02 00:20:31  5-MIN KMSN 170620Z 00000KT 10SM BKN110 13/11 A2989 900 89 900 000/00 RMK AO2 $
14837KMSN MSN20020617002509706/17/02 00:25:31  5-MIN KMSN 170625Z 00000KT 10SM BKN120 13/11 A2989 900 89 900 000/00 RMK AO2 $
14837KMSN MSN20020617003009706/17/02 00:30:31  5-MIN KMSN 170630Z 22003KT 10SM SCT110 13/12 A2988 900 93 900 220/03 RMK AO2 $
14837KMSN MSN20020617003509806/17/02 00:35:31  5-MIN KMSN 170635Z 23003KT 10SM SCT110 13/12 A2988 900 89 1000 220/03 RMK AO2 $
14837KMSN MSN20020617004009806/17/02 00:40:31  5-MIN KMSN 170640Z 00000KT 10SM SCT110 13/12 A2988 900 89 1000 000/00 RMK AO2 $
14837KMSN MSN20020617004509806/17/02 00:45:31  5-MIN KMSN 170645Z 00000KT 10SM BKN110 13/12 A2988 900 89 1000 000/00 RMK AO2 $
14837KMSN MSN20020617005011506/17/02 00:50:31  5-MIN KMSN 170650Z 00000KT 10SM SCT110 13/12 A2988 900 89 1000 000/00 RMK AO2 SLP116 T01330117 $
14837KMSN MSN20020617005509806/17/02 00:55:31  5-MIN KMSN 170655Z 22003KT 10SM SCT110 13/12 A2988 900 89 1000 220/03 RMK AO2 $
14837KMSN MSN20020617010009806/17/02 01:00:31  5-MIN KMSN 170700Z 00000KT 10SM BKN100 14/12 A2989 890 86 1000 000/00 RMK AO2 $
14837KMSN MSN20020617010510406/17/02 01:05:31  5-MIN KMSN 170705Z 00000KT 10SM BKN085 BKN110 13/12 A2989 890 89 900 000/00 RMK AO2 $
14837KMSN MSN20020617011010406/17/02 01:10:31  5-MIN KMSN 170710Z 22005KT 10SM BKN080 BKN100 13/12 A2989 890 89 900 220/05 RMK AO2 $
14837KMSN MSN20020617011510506/17/02 01:15:31  5-MIN KMSN 170715Z VRB05KT 10SM BKN075 OVC100 14/12 A2987 910 83 1100 VRB/05 RMK AO2 $
14837KMSN MSN20020617012010506/17/02 01:20:31  5-MIN KMSN 170720Z VRB04KT 10SM SCT075 OVC100 14/12 A2988 900 83 1100 VRB/04 RMK AO2 $
14837KMSN MSN20020617012510506/17/02 01:25:31  5-MIN KMSN 170725Z 22005KT 10SM SCT075 BKN100 14/11 A2988 900 80 1100 220/05 RMK AO2 $
14837KMSN MSN20020617013010506/17/02 01:30:31  5-MIN KMSN 170730Z 00000KT 10SM SCT075 BKN095 14/11 A2988 900 80 1100 000/00 RMK AO2 $
14837KMSN MSN20020617013510506/17/02 01:35:31  5-MIN KMSN 170735Z VRB04KT 10SM FEW070 BKN095 14/11 A2988 900 80 1100 VRB/04 RMK AO2 $
14837KMSN MSN20020617014011206/17/02 01:40:31  5-MIN KMSN 170740Z VRB03KT 10SM FEW070 BKN095 BKN120 14/11 A2989 900 80 1100 VRB/03 RMK AO2 $
14837KMSN MSN20020617014510506/17/02 01:45:31  5-MIN KMSN 170745Z 00000KT 10SM SCT095 SCT120 14/11 A2989 900 83 1000 000/00 RMK AO2 $
14837KMSN MSN20020617015012206/17/02 01:50:31  5-MIN KMSN 170750Z 00000KT 10SM FEW090 SCT120 14/11 A2988 900 83 1000 000/00 RMK AO2 SLP116 T01390111 $
14837KMSN MSN20020617015510506/17/02 01:55:31  5-MIN KMSN 170755Z 00000KT 10SM FEW090 SCT120 14/11 A2988 900 83 1000 000/00 RMK AO2 $
14837KMSN MSN20020617020010506/17/02 02:00:31  5-MIN KMSN 170800Z 00000KT 10SM FEW095 SCT110 13/11 A2988 900 86 1000 000/00 RMK AO2 $
14837KMSN MSN20020617020509806/17/02 02:05:31  5-MIN KMSN 170805Z 04004KT 10SM FEW110 13/11 A2988 900 86 1000 030/04 RMK AO2 $
14837KMSN MSN20020617021009806/17/02 02:10:31  5-MIN KMSN 170810Z 03004KT 10SM FEW110 13/11 A2988 900 86 1000 030/04 RMK AO2 $
14837KMSN MSN20020617021509806/17/02 02:15:31  5-MIN KMSN 170815Z 00000KT 10SM FEW110 13/11 A2988 900 86 1000 000/00 RMK AO2 $
14837KMSN MSN20020617022009806/17/02 02:20:31  5-MIN KMSN 170820Z 00000KT 10SM FEW110 13/11 A2988 900 86 1000 000/00 RMK AO2 $
14837KMSN MSN20020617022509506/17/02 02:25:31  5-MIN KMSN 170825Z 00000KT 10SM CLR 14/11 A2988 900 83 1000 000/00 RMK AO2 $
14837KMSN MSN20020617023009406/17/02 02:30:31  5-MIN KMSN 170830Z 00000KT 10SM CLR 13/11 A2988 900 89 900 000/00 RMK AO2 $
14837KMSN MSN20020617023509406/17/02 02:35:31  5-MIN KMSN 170835Z 00000KT 10SM CLR 12/11 A2988 900 89 800 000/00 RMK AO2 $
14837KMSN MSN20020617024009406/17/02 02:40:31  5-MIN KMSN 170840Z 00000KT 10SM CLR 12/11 A2988 900 89 800 000/00 RMK AO2 $
14837KMSN MSN20020617024509406/17/02 02:45:31  5-MIN KMSN 170845Z 00000KT 10SM CLR 12/11 A2988 900 89 800 000/00 RMK AO2 $
14837KMSN MSN20020617025011706/17/02 02:50:31  5-MIN KMSN 170850Z 00000KT 10SM CLR 12/11 A2988 900 93 800 000/00 RMK AO2 SLP115 T01170106 55006 $
14837KMSN MSN20020617025509406/17/02 02:55:31  5-MIN KMSN 170855Z 00000KT 10SM CLR 12/11 A2988 900 93 800 000/00 RMK AO2 $
14837KMSN MSN20020617030009406/17/02 03:00:31  5-MIN KMSN 170900Z 00000KT 10SM CLR 12/11 A2987 910 93 800 000/00 RMK AO2 $
14837KMSN MSN20020617030509406/17/02 03:05:31  5-MIN KMSN 170905Z 00000KT 10SM CLR 12/11 A2988 900 93 800 000/00 RMK AO2 $
14837KMSN MSN20020617031009406/17/02 03:10:31  5-MIN KMSN 170910Z 00000KT 10SM CLR 11/10 A2988 900 93 700 000/00 RMK AO2 $
14837KMSN MSN20020617031509706/17/02 03:15:31  5-MIN KMSN 170915Z 00000KT 10SM FEW120 11/10 A2988 900 93 700 000/00 RMK AO2 $
14837KMSN MSN20020617032009706/17/02 03:20:31  5-MIN KMSN 170920Z 00000KT 10SM SCT120 11/10 A2988 900 93 700 000/00 RMK AO2 $
14837KMSN MSN20020617032509706/17/02 03:25:31  5-MIN KMSN 170925Z 25003KT 10SM SCT110 11/10 A2989 890 96 600 250/03 RMK AO2 $
14837KMSN MSN20020617033009706/17/02 03:30:31  5-MIN KMSN 170930Z 00000KT 10SM BKN110 12/10 A2989 900 89 700 000/00 RMK AO2 $
14837KMSN MSN20020617033509706/17/02 03:35:31  5-MIN KMSN 170935Z VRB03KT 10SM BKN110 12/10 A2989 890 86 800 VRB/03 RMK AO2 $
14837KMSN MSN20020617034009706/17/02 03:40:31  5-MIN KMSN 170940Z 00000KT 10SM BKN110 12/10 A2989 900 89 800 000/00 RMK AO2 $
14837KMSN MSN20020617034509706/17/02 03:45:31  5-MIN KMSN 170945Z 00000KT 10SM BKN110 12/10 A2989 890 89 700 000/00 RMK AO2 $
14837KMSN MSN20020617035011406/17/02 03:50:31  5-MIN KMSN 170950Z 00000KT 10SM SCT100 11/10 A2989 890 93 700 000/00 RMK AO2 SLP119 T01110100 $
14837KMSN MSN20020617035509706/17/02 03:55:31  5-MIN KMSN 170955Z 00000KT 10SM SCT100 12/10 A2989 890 89 700 000/00 RMK AO2 $
14837KMSN MSN20020617040009706/17/02 04:00:31  5-MIN KMSN 171000Z 00000KT 10SM FEW100 12/10 A2989 890 89 700 000/00 RMK AO2 $
14837KMSN MSN20020617040509706/17/02 04:05:31  5-MIN KMSN 171005Z 00000KT 10SM FEW120 12/10 A2989 890 89 700 000/00 RMK AO2 $
14837KMSN MSN20020617041009706/17/02 04:10:31  5-MIN KMSN 171010Z 00000KT 10SM SCT120 12/10 A2989 890 86 800 000/00 RMK AO2 $
14837KMSN MSN20020617041510406/17/02 04:15:31  5-MIN KMSN 171015Z 00000KT 10SM FEW100 BKN110 12/09 A2989 890 86 700 000/00 RMK AO2 $
14837KMSN MSN20020617042010406/17/02 04:20:31  5-MIN KMSN 171020Z 00000KT 10SM SCT100 BKN110 12/10 A2989 890 89 700 000/00 RMK AO2 $
14837KMSN MSN20020617042510406/17/02 04:25:31  5-MIN KMSN 171025Z 00000KT 10SM SCT100 BKN120 12/10 A2989 890 89 700 000/00 RMK AO2 $
14837KMSN MSN20020617043009706/17/02 04:30:31  5-MIN KMSN 171030Z 00000KT 10SM BKN110 12/10 A2990 890 89 700 000/00 RMK AO2 $
14837KMSN MSN20020617043510406/17/02 04:35:31  5-MIN KMSN 171035Z 00000KT 10SM FEW100 BKN120 12/10 A2990 890 89 700 000/00 RMK AO2 $
14837KMSN MSN20020617044010406/17/02 04:40:31  5-MIN KMSN 171040Z 00000KT 10SM FEW100 BKN120 12/10 A2990 890 89 700 000/00 RMK AO2 $
14837KMSN MSN20020617044510406/17/02 04:45:31  5-MIN KMSN 171045Z 00000KT 10SM FEW100 BKN120 12/10 A2990 890 89 700 000/00 RMK AO2 $
14837KMSN MSN20020617045011406/17/02 04:50:31  5-MIN KMSN 171050Z 00000KT 10SM BKN120 12/10 A2990 880 89 700 000/00 RMK AO2 SLP122 T01170100 $
14837KMSN MSN20020617045509706/17/02 04:55:31  5-MIN KMSN 171055Z 00000KT 10SM SCT120 12/10 A2990 880 86 800 000/00 RMK AO2 $
14837KMSN MSN20020617050009706/17/02 05:00:31  5-MIN KMSN 171100Z 00000KT 10SM FEW120 12/10 A2990 880 86 800 000/00 RMK AO2 $
14837KMSN MSN20020617050509706/17/02 05:05:31  5-MIN KMSN 171105Z 00000KT 10SM FEW120 12/10 A2990 880 89 700 000/00 RMK AO2 $
14837KMSN MSN20020617051009706/17/02 05:10:31  5-MIN KMSN 171110Z 00000KT 10SM FEW110 12/10 A2990 880 86 800 000/00 RMK AO2 $
14837KMSN MSN20020617051509406/17/02 05:15:31  5-MIN KMSN 171115Z 00000KT 10SM CLR 12/10 A2990 880 89 700 000/00 RMK AO2 $
14837KMSN MSN20020617052009406/17/02 05:20:31  5-MIN KMSN 171120Z 00000KT 10SM CLR 12/11 A2990 880 93 700 000/00 RMK AO2 $
14837KMSN MSN20020617052509706/17/02 05:25:31  5-MIN KMSN 171125Z 00000KT 10SM FEW120 12/11 A2991 880 89 800 000/00 RMK AO2 $
14837KMSN MSN20020617053009706/17/02 05:30:31  5-MIN KMSN 171130Z 00000KT 10SM SCT120 13/11 A2991 880 89 900 000/00 RMK AO2 $
14837KMSN MSN20020617053509706/17/02 05:35:31  5-MIN KMSN 171135Z 00000KT 10SM SCT120 13/12 A2991 880 89 900 000/00 RMK AO2 $
14837KMSN MSN20020617054009806/17/02 05:40:31  5-MIN KMSN 171140Z 00000KT 10SM BKN120 14/12 A2991 870 83 1100 000/00 RMK AO2 $
14837KMSN MSN20020617054509806/17/02 05:45:31  5-MIN KMSN 171145Z 04003KT 10SM BKN120 14/12 A2991 880 86 1000 030/03 RMK AO2 $
14837KMSN MSN20020617055013906/17/02 05:50:31  5-MIN KMSN 171150Z 00000KT 10SM BKN120 14/11 A2991 870 83 1000 000/00 RMK AO2 SLP126 70002 T01390111 10144 20106 56007 $
14837KMSN MSN20020617055509806/17/02 05:55:31  5-MIN KMSN 171155Z 00000KT 10SM BKN120 14/11 A2991 870 83 1000 000/00 RMK AO2 $
14837KMSN MSN20020617060009806/17/02 06:00:31  5-MIN KMSN 171200Z 00000KT 10SM BKN120 14/12 A2991 870 86 1000 000/00 RMK AO2 $
14837KMSN MSN20020617060509806/17/02 06:05:31  5-MIN KMSN 171205Z 00000KT 10SM SCT120 14/12 A2992 870 86 1000 000/00 RMK AO2 $
14837KMSN MSN20020617061009806/17/02 06:10:31  5-MIN KMSN 171210Z 00000KT 10SM SCT120 14/12 A2991 870 86 1000 000/00 RMK AO2 $
14837KMSN MSN20020617061509806/17/02 06:15:31  5-MIN KMSN 171215Z 00000KT 10SM FEW120 14/12 A2991 870 83 1000 000/00 RMK AO2 $
14837KMSN MSN20020617062009806/17/02 06:20:31  5-MIN KMSN 171220Z 00000KT 10SM FEW110 15/12 A2992 870 80 1100 000/00 RMK AO2 $
14837KMSN MSN20020617062509506/17/02 06:25:31  5-MIN KMSN 171225Z 00000KT 10SM CLR 15/12 A2992 860 80 1100 000/00 RMK AO2 $
14837KMSN MSN20020617063009506/17/02 06:30:31  5-MIN KMSN 171230Z 00000KT 10SM CLR 16/12 A2992 860 80 1200 000/00 RMK AO2 $
14837KMSN MSN20020617063509506/17/02 06:35:31  5-MIN KMSN 171235Z 00000KT 10SM CLR 16/12 A2993 860 80 1200 000/00 RMK AO2 $
14837KMSN MSN20020617064009806/17/02 06:40:31  5-MIN KMSN 171240Z VRB03KT 10SM FEW110 16/12 A2992 860 77 1200 VRB/03 RMK AO2 $
14837KMSN MSN20020617064509806/17/02 06:45:31  5-MIN KMSN 171245Z 00000KT 10SM FEW100 16/12 A2992 860 77 1200 000/00 RMK AO2 $
14837KMSN MSN20020617065011506/17/02 06:50:31  5-MIN KMSN 171250Z 31003KT 10SM SCT100 17/13 A2993 860 77 1300 310/03 RMK AO2 SLP133 T01670128 $
14837KMSN MSN20020617065509806/17/02 06:55:31  5-MIN KMSN 171255Z 27005KT 10SM BKN090 17/12 A2993 860 75 1300 270/05 RMK AO2 $
14837KMSN MSN20020617070009806/17/02 07:00:31  5-MIN KMSN 171300Z 29004KT 10SM BKN090 16/12 A2993 860 75 1200 290/04 RMK AO2 $
14837KMSN MSN20020617070509806/17/02 07:05:31  5-MIN KMSN 171305Z 00000KT 10SM BKN090 17/12 A2992 860 75 1300 000/00 RMK AO2 $
14837KMSN MSN20020617071009806/17/02 07:10:31  5-MIN KMSN 171310Z 26003KT 10SM BKN090 17/12 A2993 860 72 1300 260/03 RMK AO2 $
14837KMSN MSN20020617071509806/17/02 07:15:31  5-MIN KMSN 171315Z VRB03KT 10SM BKN090 17/12 A2993 860 75 1300 VRB/03 RMK AO2 $
14837KMSN MSN20020617072009806/17/02 07:20:31  5-MIN KMSN 171320Z VRB03KT 10SM BKN090 17/12 A2993 850 72 1400 VRB/03 RMK AO2 $
14837KMSN MSN20020617072509806/17/02 07:25:31  5-MIN KMSN 171325Z VRB04KT 10SM SCT090 18/12 A2993 860 69 1400 VRB/04 RMK AO2 $
14837KMSN MSN20020617073009806/17/02 07:30:31  5-MIN KMSN 171330Z 28003KT 10SM SCT090 18/12 A2993 860 67 1400 280/03 RMK AO2 $
14837KMSN MSN20020617073509806/17/02 07:35:31  5-MIN KMSN 171335Z VRB05KT 10SM SCT090 18/12 A2993 860 67 1500 VRB/05 RMK AO2 $
14837KMSN MSN20020617074009806/17/02 07:40:31  5-MIN KMSN 171340Z VRB04KT 10SM SCT090 18/12 A2993 860 67 1500 VRB/04 RMK AO2 $
14837KMSN MSN20020617074509806/17/02 07:45:31  5-MIN KMSN 171345Z VRB05KT 10SM SCT090 19/12 A2993 860 62 1600 VRB/05 RMK AO2 $
14837KMSN MSN20020617075011506/17/02 07:50:31  5-MIN KMSN 171350Z 29006KT 10SM SCT090 18/11 A2993 860 62 1500 290/06 RMK AO2 SLP132 T01830111 $
14837KMSN MSN20020617075509806/17/02 07:55:31  5-MIN KMSN 171355Z 29005KT 10SM BKN095 18/11 A2992 860 62 1500 290/05 RMK AO2 $
14837KMSN MSN20020617080009806/17/02 08:00:31  5-MIN KMSN 171400Z 27004KT 10SM SCT100 18/11 A2993 860 62 1500 270/04 RMK AO2 $
14837KMSN MSN20020617080509806/17/02 08:05:31  5-MIN KMSN 171405Z 26005KT 10SM SCT100 18/12 A2993 860 65 1500 260/05 RMK AO2 $
14837KMSN MSN20020617081009806/17/02 08:10:31  5-MIN KMSN 171410Z 26005KT 10SM SCT100 18/11 A2992 860 62 1500 260/05 RMK AO2 $
14837KMSN MSN20020617081509806/17/02 08:15:31  5-MIN KMSN 171415Z 28004KT 10SM SCT110 18/11 A2992 860 62 1500 280/04 RMK AO2 $
14837KMSN MSN20020617082009806/17/02 08:20:31  5-MIN KMSN 171420Z VRB04KT 10SM SCT110 19/12 A2992 860 62 1600 VRB/04 RMK AO2 $
14837KMSN MSN20020617082510506/17/02 08:25:31  5-MIN KMSN 171425Z VRB03KT 10SM FEW090 SCT110 19/11 A2992 860 58 1600 VRB/03 RMK AO2 $
14837KMSN MSN20020617083009806/17/02 08:30:31  5-MIN KMSN 171430Z 31004KT 10SM SCT100 19/11 A2992 860 58 1600 310/04 RMK AO2 $
14837KMSN MSN20020617083509806/17/02 08:35:31  5-MIN KMSN 171435Z VRB03KT 10SM SCT100 19/11 A2992 860 58 1600 VRB/03 RMK AO2 $
14837KMSN MSN20020617084009806/17/02 08:40:31  5-MIN KMSN 171440Z VRB05KT 10SM BKN100 19/11 A2993 860 58 1600 VRB/05 RMK AO2 $
14837KMSN MSN20020617084509806/17/02 08:45:31  5-MIN KMSN 171445Z 29005KT 10SM BKN100 19/11 A2993 860 58 1500 290/05 RMK AO2 $
14837KMSN MSN20020617085012106/17/02 08:50:31  5-MIN KMSN 171450Z 30004KT 10SM BKN095 19/11 A2993 860 58 1500 300/04 RMK AO2 SLP134 T01890106 52011 $
14837KMSN MSN20020617085510506/17/02 08:55:31  5-MIN KMSN 171455Z 28003KT 10SM BKN090 BKN110 19/11 A2993 860 60 1500 280/03 RMK AO2 $
14837KMSN MSN20020617090010506/17/02 09:00:31  5-MIN KMSN 171500Z VRB03KT 10SM BKN090 BKN110 19/11 A2993 860 60 1600 VRB/03 RMK AO2 $
14837KMSN MSN20020617090509606/17/02 09:05:31  5-MIN KMSN 171505Z 00000KT 10SM BKN095 19/11 A2993 860 58 1600 000/00 RMK AO2
14837KMSN MSN20020617091009606/17/02 09:10:31  5-MIN KMSN 171510Z 30003KT 10SM SCT095 19/12 A2993 860 60 1600 290/03 RMK AO2
14837KMSN MSN20020617091509606/17/02 09:15:31  5-MIN KMSN 171515Z VRB03KT 10SM BKN095 19/11 A2992 860 58 1600 VRB/03 RMK AO2
14837KMSN MSN20020617092009606/17/02 09:20:31  5-MIN KMSN 171520Z 00000KT 10SM BKN095 19/12 A2992 860 60 1600 000/00 RMK AO2
14837KMSN MSN20020617092509606/17/02 09:25:31  5-MIN KMSN 171525Z 00000KT 10SM BKN095 19/12 A2992 870 60 1600 000/00 RMK AO2
14837KMSN MSN20020617093009606/17/02 09:30:31  5-MIN KMSN 171530Z 00000KT 10SM BKN095 19/12 A2992 870 60 1600 000/00 RMK AO2
14837KMSN MSN20020617093509606/17/02 09:35:31  5-MIN KMSN 171535Z 27003KT 10SM BKN095 19/12 A2992 860 60 1600 260/03 RMK AO2
14837KMSN MSN20020617094009606/17/02 09:40:31  5-MIN KMSN 171540Z 00000KT 10SM BKN095 19/12 A2992 860 62 1600 000/00 RMK AO2
14837KMSN MSN20020617094509606/17/02 09:45:31  5-MIN KMSN 171545Z 00000KT 10SM BKN095 19/12 A2993 860 65 1600 000/00 RMK AO2
14837KMSN MSN20020617095011306/17/02 09:50:31  5-MIN KMSN 171550Z 00000KT 10SM OVC100 19/12 A2993 860 62 1600 000/00 RMK AO2 SLP134 T01890117
14837KMSN MSN20020617095509606/17/02 09:55:31  5-MIN KMSN 171555Z 00000KT 10SM OVC100 19/12 A2993 860 65 1600 000/00 RMK AO2
14837KMSN MSN20020617100009606/17/02 10:00:31  5-MIN KMSN 171600Z 00000KT 10SM OVC100 19/12 A2993 860 62 1600 000/00 RMK AO2
14837KMSN MSN20020617100509606/17/02 10:05:31  5-MIN KMSN 171605Z 00000KT 10SM OVC100 19/13 A2993 860 65 1600 000/00 RMK AO2
14837KMSN MSN20020617101009606/17/02 10:10:31  5-MIN KMSN 171610Z 00000KT 10SM OVC100 19/11 A2993 860 60 1600 000/00 RMK AO2
14837KMSN MSN20020617101511206/17/02 10:15:31  5-MIN KMSN 171615Z 00000KT 10SM -RA OVC100 19/11 A2993 860 60 1600 000/00 RMK AO2 RAB14 P0000
14837KMSN MSN20020617102011206/17/02 10:20:31  5-MIN KMSN 171620Z 00000KT 10SM -RA OVC100 19/11 A2993 860 60 1600 000/00 RMK AO2 RAB14 P0000
14837KMSN MSN20020617102511106/17/02 10:25:31  5-MIN KMSN 171625Z 00000KT 10SM OVC100 19/11 A2993 860 56 1600 000/00 RMK AO2 RAB14E21 P0000
14837KMSN MSN20020617103011106/17/02 10:30:31  5-MIN KMSN 171630Z 00000KT 10SM OVC100 19/11 A2992 860 56 1600 000/00 RMK AO2 RAB14E21 P0000
14837KMSN MSN20020617103511106/17/02 10:35:31  5-MIN KMSN 171635Z 00000KT 10SM BKN100 19/11 A2992 860 60 1600 000/00 RMK AO2 RAB14E21 P0000
14837KMSN MSN20020617104011106/17/02 10:40:31  5-MIN KMSN 171640Z 00000KT 10SM BKN100 19/11 A2992 860 58 1600 000/00 RMK AO2 RAB14E21 P0000
14837KMSN MSN20020617104511106/17/02 10:45:31  5-MIN KMSN 171645Z 00000KT 10SM BKN100 20/11 A2992 860 56 1700 000/00 RMK AO2 RAB14E21 P0000
14837KMSN MSN20020617105012806/17/02 10:50:31  5-MIN KMSN 171650Z 00000KT 10SM BKN100 20/11 A2992 860 56 1700 000/00 RMK AO2 RAB14E21 SLP131 P0000 T02000111
14837KMSN MSN20020617105509606/17/02 10:55:31  5-MIN KMSN 171655Z 00000KT 10SM BKN100 21/11 A2992 860 52 1700 000/00 RMK AO2
14837KMSN MSN20020617110009606/17/02 11:00:31  5-MIN KMSN 171700Z 00000KT 10SM SCT100 21/10 A2992 860 50 1700 000/00 RMK AO2
14837KMSN MSN20020617110509606/17/02 11:05:31  5-MIN KMSN 171705Z 00000KT 10SM SCT100 21/11 A2992 860 54 1700 000/00 RMK AO2
14837KMSN MSN20020617111009606/17/02 11:10:31  5-MIN KMSN 171710Z 00000KT 10SM SCT110 20/11 A2992 860 56 1700 000/00 RMK AO2
14837KMSN MSN20020617111509606/17/02 11:15:31  5-MIN KMSN 171715Z 00000KT 10SM BKN110 20/11 A2992 860 56 1700 000/00 RMK AO2
14837KMSN MSN20020617112009606/17/02 11:20:31  5-MIN KMSN 171720Z 00000KT 10SM BKN110 21/12 A2992 860 56 1700 000/00 RMK AO2
14837KMSN MSN20020617112509606/17/02 11:25:31  5-MIN KMSN 171725Z 00000KT 10SM BKN110 21/12 A2992 860 56 1800 000/00 RMK AO2
14837KMSN MSN20020617113009606/17/02 11:30:31  5-MIN KMSN 171730Z 00000KT 10SM BKN110 21/11 A2992 860 54 1800 000/00 RMK AO2
14837KMSN MSN20020617113509606/17/02 11:35:31  5-MIN KMSN 171735Z 16004KT 10SM BKN110 21/11 A2992 870 52 1800 160/04 RMK AO2
14837KMSN MSN20020617114009606/17/02 11:40:31  5-MIN KMSN 171740Z 00000KT 10SM BKN110 21/11 A2992 870 52 1800 000/00 RMK AO2
14837KMSN MSN20020617114509606/17/02 11:45:31  5-MIN KMSN 171745Z 20003KT 10SM SCT100 21/11 A2992 870 50 1800 190/03 RMK AO2
14837KMSN MSN20020617115013706/17/02 11:50:31  5-MIN KMSN 171750Z 18003KT 10SM BKN100 21/11 A2991 870 52 1800 180/03 RMK AO2 SLP129 60000 T02060106 10211 20139 51006
14837KMSN MSN20020617115509306/17/02 11:55:31  5-MIN KMSN 171755Z 15003KT 10SM CLR 21/10 A2991 870 50 1800 150/03 RMK AO2
14837KMSN MSN20020617120009606/17/02 12:00:31  5-MIN KMSN 171800Z 00000KT 10SM FEW110 21/09 A2991 870 46 1800 000/00 RMK AO2
14837KMSN MSN20020617120509606/17/02 12:05:31  5-MIN KMSN 171805Z 00000KT 10SM BKN110 21/11 A2991 870 52 1800 000/00 RMK AO2
14837KMSN MSN20020617121009606/17/02 12:10:31  5-MIN KMSN 171810Z 17003KT 10SM BKN110 21/11 A2991 870 50 1800 170/03 RMK AO2
14837KMSN MSN20020617121509606/17/02 12:15:31  5-MIN KMSN 171815Z VRB03KT 10SM BKN110 21/10 A2991 870 50 1800 VRB/03 RMK AO2
14837KMSN MSN20020617122009606/17/02 12:20:31  5-MIN KMSN 171820Z VRB03KT 10SM BKN110 21/11 A2991 870 52 1800 VRB/03 RMK AO2
14837KMSN MSN20020617122509606/17/02 12:25:31  5-MIN KMSN 171825Z VRB03KT 10SM BKN110 21/10 A2991 870 48 1800 VRB/03 RMK AO2
14837KMSN MSN20020617123009606/17/02 12:30:31  5-MIN KMSN 171830Z VRB03KT 10SM BKN110 21/11 A2991 870 52 1800 VRB/03 RMK AO2
14837KMSN MSN20020617123509606/17/02 12:35:31  5-MIN KMSN 171835Z 18004KT 10SM BKN110 21/10 A2991 870 48 1800 180/04 RMK AO2
14837KMSN MSN20020617124009606/17/02 12:40:31  5-MIN KMSN 171840Z 19005KT 10SM BKN110 21/10 A2991 870 48 1800 190/05 RMK AO2
14837KMSN MSN20020617124509606/17/02 12:45:31  5-MIN KMSN 171845Z VRB03KT 10SM BKN110 22/10 A2991 870 47 1900 VRB/03 RMK AO2
14837KMSN MSN20020617125011306/17/02 12:50:31  5-MIN KMSN 171850Z VRB04KT 10SM BKN110 22/09 A2991 870 43 2000 VRB/04 RMK AO2 SLP127 T02220094
14837KMSN MSN20020617125510306/17/02 12:55:31  5-MIN KMSN 171855Z 00000KT 10SM FEW045 SCT110 22/10 A2991 870 47 1900 000/00 RMK AO2
14837KMSN MSN20020617130010506/17/02 13:00:31  5-MIN KMSN 171900Z 18006KT 10SM FEW045 SCT110 22/10 A2991 870 47 1900 180/06 RMK AO2 $
14837KMSN MSN20020617130510306/17/02 13:05:31  5-MIN KMSN 171905Z 17006KT 10SM FEW045 SCT110 22/11 A2991 880 49 1900 170/06 RMK AO2
14837KMSN MSN20020617131011506/17/02 13:10:31  5-MIN KMSN 171910Z AUTO 18005KT 10SM FEW045 SCT110 21/10 A2991 870 48 1800 180/05 RMK AO2 TSNO $
14837KMSN MSN20020617131511306/17/02 13:15:31  5-MIN KMSN 171915Z AUTO 19006KT 10SM FEW045 SCT110 22/11 A2991 870 47 2000 190/06 RMK AO2 TSNO
14837KMSN MSN20020617132010306/17/02 13:20:31  5-MIN KMSN 171920Z VRB04KT 10SM FEW045 SCT110 22/10 A2991 870 47 1900 VRB/04 RMK AO2
14837KMSN MSN20020617132510306/17/02 13:25:31  5-MIN KMSN 171925Z 17004KT 10SM FEW045 SCT110 22/11 A2991 870 49 1900 170/04 RMK AO2
14837KMSN MSN20020617133010306/17/02 13:30:31  5-MIN KMSN 171930Z VRB05KT 10SM FEW045 SCT110 22/11 A2991 880 50 1900 VRB/05 RMK AO2
14837KMSN MSN20020617133510306/17/02 13:35:31  5-MIN KMSN 171935Z 18004KT 10SM FEW045 SCT110 22/11 A2991 870 50 1900 180/04 RMK AO2
14837KMSN MSN20020617134010306/17/02 13:40:31  5-MIN KMSN 171940Z 19005KT 10SM FEW045 SCT110 21/11 A2991 870 50 1800 190/05 RMK AO2
14837KMSN MSN20020617134510306/17/02 13:45:31  5-MIN KMSN 171945Z 20005KT 10SM FEW045 SCT110 21/11 A2991 870 52 1800 200/05 RMK AO2
14837KMSN MSN20020617135012006/17/02 13:50:31  5-MIN KMSN 171950Z 19006KT 10SM FEW045 BKN110 21/11 A2991 870 52 1800 190/06 RMK AO2 SLP126 T02110111
14837KMSN MSN20020617135509606/17/02 13:55:31  5-MIN KMSN 171955Z 18006KT 10SM BKN110 21/11 A2991 870 52 1800 170/06 RMK AO2
14837KMSN MSN20020617140009606/17/02 14:00:31  5-MIN KMSN 172000Z 21005KT 10SM BKN110 22/12 A2991 880 52 1900 210/05 RMK AO2
14837KMSN MSN20020617140509606/17/02 14:05:31  5-MIN KMSN 172005Z 19007KT 10SM SCT110 22/12 A2991 880 54 1900 190/07 RMK AO2
14837KMSN MSN20020617141009606/17/02 14:10:31  5-MIN KMSN 172010Z 21007KT 10SM SCT110 22/12 A2991 870 52 1900 210/07 RMK AO2
14837KMSN MSN20020617141509606/17/02 14:15:31  5-MIN KMSN 172015Z 19007KT 10SM FEW110 22/12 A2991 870 54 1900 190/07 RMK AO2
14837KMSN MSN20020617142009606/17/02 14:20:31  5-MIN KMSN 172020Z 17006KT 10SM FEW100 22/12 A2991 870 54 1900 170/06 RMK AO2
14837KMSN MSN20020617142509606/17/02 14:25:31  5-MIN KMSN 172025Z 18006KT 10SM FEW075 21/12 A2991 870 54 1800 180/06 RMK AO2
14837KMSN MSN20020617143009606/17/02 14:30:31  5-MIN KMSN 172030Z 16006KT 10SM SCT075 21/12 A2991 870 58 1800 160/06 RMK AO2
14837KMSN MSN20020617143509606/17/02 14:35:31  5-MIN KMSN 172035Z 21005KT 10SM BKN075 21/13 A2991 870 58 1800 210/05 RMK AO2
14837KMSN MSN20020617144009606/17/02 14:40:31  5-MIN KMSN 172040Z 18006KT 10SM BKN075 21/13 A2991 880 58 1800 180/06 RMK AO2
14837KMSN MSN20020617144509606/17/02 14:45:31  5-MIN KMSN 172045Z 15007KT 10SM SCT075 21/13 A2991 880 58 1800 150/07 RMK AO2
14837KMSN MSN20020617145012506/17/02 14:50:31  5-MIN KMSN 172050Z 20006KT 10SM BKN075 21/13 A2991 880 58 1800 190/06 RMK AO2 SLP126 6//// T02110128 58005
14837KMSN MSN20020617145509606/17/02 14:55:31  5-MIN KMSN 172055Z 17006KT 10SM BKN075 22/13 A2991 880 58 1900 170/06 RMK AO2
14837KMSN MSN20020617150009606/17/02 15:00:31  5-MIN KMSN 172100Z VRB05KT 10SM BKN075 21/13 A2991 880 58 1800 VRB/05 RMK AO2
14837KMSN MSN20020617150509606/17/02 15:05:31  5-MIN KMSN 172105Z VRB05KT 10SM BKN075 22/13 A2991 880 56 1900 VRB/05 RMK AO2
14837KMSN MSN20020617151009606/17/02 15:10:31  5-MIN KMSN 172110Z VRB03KT 10SM BKN075 21/13 A2991 880 58 1800 VRB/03 RMK AO2
14837KMSN MSN20020617151509606/17/02 15:15:31  5-MIN KMSN 172115Z 23003KT 10SM BKN075 22/13 A2991 880 56 1900 230/03 RMK AO2
14837KMSN MSN20020617152009606/17/02 15:20:31  5-MIN KMSN 172120Z 00000KT 10SM BKN075 22/13 A2990 880 54 2000 000/00 RMK AO2
14837KMSN MSN20020617152510306/17/02 15:25:31  5-MIN KMSN 172125Z VRB04KT 10SM SCT070 SCT090 22/13 A2990 880 56 2000 VRB/04 RMK AO2
14837KMSN MSN20020617153010306/17/02 15:30:31  5-MIN KMSN 172130Z 00000KT 10SM FEW075 SCT090 22/13 A2990 880 54 2000 000/00 RMK AO2
14837KMSN MSN20020617153509606/17/02 15:35:31  5-MIN KMSN 172135Z 00000KT 10SM FEW075 23/13 A2990 880 53 2000 000/00 RMK AO2
14837KMSN MSN20020617154009606/17/02 15:40:31  5-MIN KMSN 172140Z 00000KT 10SM FEW070 22/13 A2990 880 54 2000 000/00 RMK AO2
14837KMSN MSN20020617154509606/17/02 15:45:31  5-MIN KMSN 172145Z 00000KT 10SM FEW100 22/13 A2990 880 54 2000 000/00 RMK AO2
14837KMSN MSN20020617155012006/17/02 15:50:31  5-MIN KMSN 172150Z 00000KT 10SM FEW075 SCT100 22/12 A2990 880 51 2000 000/00 RMK AO2 SLP125 T02220117
14837KMSN MSN20020617155509606/17/02 15:55:31  5-MIN KMSN 172155Z 17003KT 10SM FEW100 22/12 A2990 880 52 2000 170/03 RMK AO2
14837KMSN MSN20020617160009606/17/02 16:00:31  5-MIN KMSN 172200Z 00000KT 10SM SCT100 22/12 A2990 880 51 2000 000/00 RMK AO2
14837KMSN MSN20020617160509606/17/02 16:05:31  5-MIN KMSN 172205Z 00000KT 10SM BKN100 22/12 A2990 880 51 2000 000/00 RMK AO2
14837KMSN MSN20020617161009606/17/02 16:10:31  5-MIN KMSN 172210Z 00000KT 10SM BKN100 23/12 A2990 880 49 2000 000/00 RMK AO2
14837KMSN MSN20020617161509606/17/02 16:15:31  5-MIN KMSN 172215Z 00000KT 10SM BKN100 23/12 A2990 890 49 2000 000/00 RMK AO2
14837KMSN MSN20020617162009606/17/02 16:20:31  5-MIN KMSN 172220Z 00000KT 10SM SCT100 23/10 A2990 890 42 2100 000/00 RMK AO2
14837KMSN MSN20020617162509606/17/02 16:25:31  5-MIN KMSN 172225Z 00000KT 10SM SCT100 24/09 A2990 890 38 2200 000/00 RMK AO2
14837KMSN MSN20020617163009606/17/02 16:30:31  5-MIN KMSN 172230Z 00000KT 10SM FEW110 23/10 A2990 890 42 2100 000/00 RMK AO2
14837KMSN MSN20020617163509506/17/02 16:35:31  5-MIN KMSN 172235Z 00000KT 9SM FEW100 23/11 A2990 890 45 2100 000/00 RMK AO2
14837KMSN MSN20020617164009506/17/02 16:40:31  5-MIN KMSN 172240Z 01003KT 9SM FEW100 24/11 A2990 890 44 2200 010/03 RMK AO2
14837KMSN MSN20020617164509606/17/02 16:45:31  5-MIN KMSN 172245Z 00000KT 10SM SCT110 24/11 A2990 890 42 2200 000/00 RMK AO2
14837KMSN MSN20020617165011306/17/02 16:50:31  5-MIN KMSN 172250Z 01003KT 10SM SCT100 23/10 A2990 890 44 2000 010/03 RMK AO2 SLP123 T02280100
14837KMSN MSN20020617165510306/17/02 16:55:31  5-MIN KMSN 172255Z 03003KT 10SM FEW065 BKN100 23/10 A2990 890 44 2000 030/03 RMK AO2
14837KMSN MSN20020617170010306/17/02 17:00:31  5-MIN KMSN 172300Z 00000KT 10SM SCT065 BKN100 23/09 A2990 880 42 2000 000/00 RMK AO2
14837KMSN MSN20020617170510306/17/02 17:05:31  5-MIN KMSN 172305Z 00000KT 10SM BKN060 BKN110 23/11 A2990 880 47 2000 000/00 RMK AO2
14837KMSN MSN20020617171010306/17/02 17:10:31  5-MIN KMSN 172310Z 08003KT 10SM BKN060 BKN110 23/11 A2990 880 47 2000 080/03 RMK AO2
14837KMSN MSN20020617171510306/17/02 17:15:31  5-MIN KMSN 172315Z 07004KT 10SM BKN060 OVC100 22/11 A2990 880 47 2000 070/04 RMK AO2
14837KMSN MSN20020617172009606/17/02 17:20:31  5-MIN KMSN 172320Z 07003KT 10SM OVC060 22/10 A2990 880 45 2000 070/03 RMK AO2
14837KMSN MSN20020617172510306/17/02 17:25:31  5-MIN KMSN 172325Z 08004KT 10SM BKN060 OVC080 22/11 A2990 880 49 2000 080/04 RMK AO2
14837KMSN MSN20020617173010306/17/02 17:30:31  5-MIN KMSN 172330Z 08004KT 10SM SCT060 BKN080 22/11 A2990 880 47 2000 080/04 RMK AO2
14837KMSN MSN20020617173510306/17/02 17:35:31  5-MIN KMSN 172335Z 07004KT 10SM SCT060 BKN080 22/11 A2990 880 49 2000 070/04 RMK AO2
14837KMSN MSN20020617174010306/17/02 17:40:31  5-MIN KMSN 172340Z 07004KT 10SM SCT060 BKN080 23/11 A2990 880 45 2000 070/04 RMK AO2
14837KMSN MSN20020617174510306/17/02 17:45:31  5-MIN KMSN 172345Z 00000KT 10SM SCT060 BKN080 22/11 A2990 880 47 2000 000/00 RMK AO2
14837KMSN MSN20020617175013806/17/02 17:50:31  5-MIN KMSN 172350Z 00000KT 10SM SCT060 SCT080 22/11 A2990 880 49 2000 000/00 RMK AO2 SLP123 T02220111 10239 20206 57002
14837KMSN MSN20020617175509606/17/02 17:55:31  5-MIN KMSN 172355Z 07003KT 10SM BKN060 22/12 A2990 880 51 2000 070/03 RMK AO2
14837KMSN MSN20020617180009606/17/02 18:00:31  5-MIN KMSN 180000Z 07003KT 10SM BKN060 22/12 A2990 880 51 2000 070/03 RMK AO2
14837KMSN MSN20020617180509606/17/02 18:05:31  5-MIN KMSN 180005Z 06003KT 10SM SCT060 22/11 A2990 880 49 2000 060/03 RMK AO2
14837KMSN MSN20020617181009606/17/02 18:10:31  5-MIN KMSN 180010Z 07003KT 10SM SCT060 22/11 A2990 880 49 2000 070/03 RMK AO2
14837KMSN MSN20020617181509606/17/02 18:15:31  5-MIN KMSN 180015Z 09003KT 10SM SCT060 22/11 A2990 880 49 2000 080/03 RMK AO2
14837KMSN MSN20020617182009606/17/02 18:20:31  5-MIN KMSN 180020Z 06003KT 10SM FEW060 22/11 A2990 880 50 1900 060/03 RMK AO2
14837KMSN MSN20020617182509306/17/02 18:25:31  5-MIN KMSN 180025Z 06004KT 10SM CLR 21/12 A2990 880 54 1800 060/04 RMK AO2
14837KMSN MSN20020617183009306/17/02 18:30:31  5-MIN KMSN 180030Z 07004KT 10SM CLR 22/12 A2990 880 52 1900 070/04 RMK AO2
14837KMSN MSN20020617183509606/17/02 18:35:31  5-MIN KMSN 180035Z 10006KT 10SM SCT060 22/12 A2990 880 54 1900 100/06 RMK AO2
14837KMSN MSN20020617184009606/17/02 18:40:31  5-MIN KMSN 180040Z 12006KT 10SM SCT060 21/12 A2990 880 54 1800 120/06 RMK AO2
14837KMSN MSN20020617184509606/17/02 18:45:31  5-MIN KMSN 180045Z 14005KT 10SM SCT060 21/12 A2990 880 58 1800 140/05 RMK AO2
14837KMSN MSN20020617185011306/17/02 18:50:31  5-MIN KMSN 180050Z 15005KT 10SM SCT060 21/12 A2990 880 58 1800 140/05 RMK AO2 SLP123 T02060122
14837KMSN MSN20020617185509306/17/02 18:55:31  5-MIN KMSN 180055Z 15006KT 10SM CLR 21/12 A2990 880 56 1800 150/06 RMK AO2
14837KMSN MSN20020617190009306/17/02 19:00:31  5-MIN KMSN 180100Z 14004KT 10SM CLR 20/12 A2991 880 58 1700 140/04 RMK AO2
14837KMSN MSN20020617190509606/17/02 19:05:31  5-MIN KMSN 180105Z 12005KT 10SM FEW065 20/12 A2991 880 58 1700 120/05 RMK AO2
14837KMSN MSN20020617191009606/17/02 19:10:31  5-MIN KMSN 180110Z 14005KT 10SM FEW060 20/12 A2991 880 58 1700 140/05 RMK AO2
14837KMSN MSN20020617191509606/17/02 19:15:31  5-MIN KMSN 180115Z 14006KT 10SM FEW060 19/12 A2990 880 62 1600 140/06 RMK AO2
14837KMSN MSN20020617192012906/17/02 19:20:31  5-MIN KMSN 180120Z 14005KT 10SM FEW060 19/12 A2991 880 62 1600 140/05 RMK AO2 OCNL LTG DSNT N TS DSNT N MOV SE
14837KMSN MSN20020617192512906/17/02 19:25:31  5-MIN KMSN 180125Z 14003KT 10SM FEW060 20/12 A2991 880 60 1700 140/03 RMK AO2 OCNL LTG DSNT N TS DSNT N MOV SE
14837KMSN MSN20020617193012906/17/02 19:30:31  5-MIN KMSN 180130Z 14004KT 10SM FEW060 21/12 A2991 880 58 1800 140/04 RMK AO2 OCNL LTG DSNT N TS DSNT N MOV SE
14837KMSN MSN20020617193514706/17/02 19:35:31  5-MIN KMSN 180135Z 13003KT 10SM -RA SCT085 20/12 A2991 880 60 1700 130/03 RMK AO2 RAB31 OCNL LTG DSNT NE TS DSNT NE MOV SE P0000
14837KMSN MSN20020617194014706/17/02 19:40:31  5-MIN KMSN 180140Z 14004KT 10SM -RA SCT095 20/12 A2991 880 60 1700 140/04 RMK AO2 RAB31 OCNL LTG DSNT NE TS DSNT NE MOV SE P0000
14837KMSN MSN20020617194514706/17/02 19:45:31  5-MIN KMSN 180145Z 14004KT 10SM -RA BKN095 20/12 A2991 870 60 1700 140/04 RMK AO2 RAB31 OCNL LTG DSNT NE TS DSNT NE MOV SE P0000
14837KMSN MSN20020617195016406/17/02 19:50:31  5-MIN KMSN 180150Z 12004KT 10SM -RA BKN095 20/12 A2992 870 60 1700 120/04 RMK AO2 RAB31 SLP127 OCNL LTG DSNT NE TS DSNT NE MOV SE P0000 T02000122
14837KMSN MSN20020617195512506/17/02 19:55:31  5-MIN KMSN 180155Z 12004KT 10SM BKN095 20/12 A2992 870 60 1700 120/04 RMK AO2 FRQ LTGCGIC DSNT E TS DSNT E
14837KMSN MSN20020617200013206/17/02 20:00:31  5-MIN KMSN 180200Z 11004KT 10SM FEW060 OVC100 20/12 A2992 860 60 1700 110/04 RMK AO2 FRQ LTGCGIC DSNT E TS DSNT E
14837KMSN MSN20020617200513606/17/02 20:05:31  5-MIN KMSN 180205Z 06004KT 10SM FEW060 BKN100 19/12 A2992 860 62 1600 060/04 RMK AO2 FRQ LTGCGIC DSNT N-E TS DSNT N-E
14837KMSN MSN20020617201013606/17/02 20:10:31  5-MIN KMSN 180210Z 09004KT 10SM FEW060 BKN100 19/13 A2993 860 67 1600 090/04 RMK AO2 FRQ LTGCGIC DSNT N-E TS DSNT N-E
14837KMSN MSN20020617201513606/17/02 20:15:31  5-MIN KMSN 180215Z 11003KT 10SM FEW060 BKN100 19/12 A2993 860 65 1600 110/03 RMK AO2 FRQ LTGCGIC DSNT N-E TS DSNT N-E
14837KMSN MSN20020617202013306/17/02 20:20:31  5-MIN KMSN 180220Z 00000KT 10SM SCT060 BKN100 19/13 A2993 860 67 1600 000/00 RMK AO2 OCNL LTG DSNT N-E TS DSNT N-E
14837KMSN MSN20020617202513306/17/02 20:25:31  5-MIN KMSN 180225Z 00000KT 10SM SCT060 BKN100 19/13 A2992 860 67 1600 000/00 RMK AO2 OCNL LTG DSNT N-E TS DSNT N-E
14837KMSN MSN20020617203013306/17/02 20:30:31  5-MIN KMSN 180230Z 07006KT 10SM SCT060 BKN100 19/13 A2993 860 67 1600 070/06 RMK AO2 OCNL LTG DSNT N-E TS DSNT N-E
14837KMSN MSN20020617203513306/17/02 20:35:31  5-MIN KMSN 180235Z 10007KT 10SM SCT060 SCT100 18/12 A2993 860 69 1400 100/07 RMK AO2 OCNL LTG DSNT N-E TS DSNT N-E
14837KMSN MSN20020617204013306/17/02 20:40:31  5-MIN KMSN 180240Z 09006KT 10SM FEW060 SCT100 18/12 A2993 850 67 1500 090/06 RMK AO2 OCNL LTG DSNT N-E TS DSNT N-E
14837KMSN MSN20020617204514006/17/02 20:45:31  5-MIN KMSN 180245Z 08010KT 10SM FEW060 SCT070 SCT100 18/13 A2993 850 72 1400 080/10 RMK AO2 OCNL LTG DSNT N-E TS DSNT N-E
14837KMSN MSN20020617205016206/17/02 20:50:31  5-MIN KMSN 180250Z 08008KT 10SM SCT060 SCT070 18/13 A2994 850 70 1500 080/08 RMK AO2 SLP135 OCNL LTG DSNT N-E TS DSNT N-E 60000 T01830128 55002
14837KMSN MSN20020617205509606/17/02 20:55:31  5-MIN KMSN 180255Z 07007KT 10SM SCT060 18/13 A2994 850 72 1400 070/07 RMK AO2
14837KMSN MSN20020617210013606/17/02 21:00:31  5-MIN KMSN 180300Z 07006KT 10SM SCT060 SCT070 18/13 A2994 840 75 1400 070/06 RMK AO2 FRQ LTG DSNT NW-N TS NW-N MOV SE
14837KMSN MSN20020617210513806/17/02 21:05:31  5-MIN KMSN 180305Z 07007KT 10SM SCT060 SCT070 18/13 A2995 840 75 1400 070/07 RMK AO2 FRQ LTG DSNT NW-NE TS NW-NE MOV SE
14837KMSN MSN20020617211013806/17/02 21:10:31  5-MIN KMSN 180310Z 06011KT 10SM SCT050 BKN065 18/13 A2995 840 75 1400 060/11 RMK AO2 FRQ LTG DSNT NW-NE TS NW-NE MOV SE
14837KMSN MSN20020617211513806/17/02 21:15:31  5-MIN KMSN 180315Z 07012KT 10SM BKN050 BKN060 18/13 A2995 840 75 1400 070/12 RMK AO2 FRQ LTG DSNT NW-NE TS NW-NE MOV SE
14837KMSN MSN20020617212013806/17/02 21:20:31  5-MIN KMSN 180320Z 08011KT 10SM BKN050 BKN065 18/13 A2995 840 75 1400 080/11 RMK AO2 FRQ LTG DSNT NW-NE TS NW-NE MOV SE
14837KMSN MSN20020617212513806/17/02 21:25:31  5-MIN KMSN 180325Z 07009KT 10SM BKN050 BKN065 18/13 A2995 830 75 1400 070/09 RMK AO2 FRQ LTG DSNT NW-NE TS NW-NE MOV SE
14837KMSN MSN20020617213013106/17/02 21:30:31  5-MIN KMSN 180330Z 09009KT 10SM OVC050 18/13 A2996 830 75 1400 090/09 RMK AO2 FRQ LTG DSNT NW-NE TS NW-NE MOV SE
14837KMSN MSN20020617213514106/17/02 21:35:31  5-MIN KMSN 180335Z 09011KT 10SM -RA OVC050 18/13 A2996 820 75 1400 090/11 RMK AO2 RAB31 FRQ LTG DSNT NW TS NW MOV SE P0000
14837KMSN MSN20020617214015106/17/02 21:40:31  5-MIN KMSN 180340Z 07010KT 10SM -RA BKN050 OVC060 18/13 A2997 820 75 1400 060/10 RMK AO2 RAB31 FRQ LTGIC VC NW TS VC NW MOV SE P0000
14837KMSN MSN20020617214515406/17/02 21:45:31  5-MIN KMSN 180345Z 04007KT 10SM -TSRA OVC050 17/14 A2999 800 80 1300 040/07 RMK AO2 TSB43RAB31 PRESRR FRQ LTGIC OHD TS OHD MOV SE P0000
14837KMSN MSN20020617215016506/17/02 21:50:31  5-MIN KMSN 180350Z 06003KT 9SM -TSRA OVC050 17/14 A2999 800 80 1300 060/03 RMK AO2 TSB43RAB31 SLP152 FRQ LTGICCC OHD TS OHD MOV SE P0000 T01720139
14837KMSN MSN20020617215511406/17/02 21:55:31  5-MIN KMSN 180355Z 02006KT 7SM -TSRA BKN050 OVC070 17/14 A2998 810 83 1200 020/06 RMK AO2 P0001
14837KMSN MSN20020617220014806/17/02 22:00:31  5-MIN KMSN 180400Z 00000KT 6SM -TSRA BR BKN055 OVC075 16/14 A2998 810 86 1200 000/00 RMK AO2 OCNL LTGICCC OHD TS OHD MOV SE P0001
14837KMSN MSN20020617220515506/17/02 22:05:31  5-MIN KMSN 180405Z 18004KT 6SM -TSRA BR FEW046 BKN055 OVC070 16/14 A2998 810 86 1200 180/04 RMK AO2 OCNL LTGICCC OHD TS OHD MOV SE P0001
14837KMSN MSN20020617221015906/17/02 22:10:31  5-MIN KMSN 180410Z 13010KT 5SM -TSRA SCT037 BKN055 OVC075 17/14 A2996 820 83 1300 130/10 RMK AO2 PRESFR OCNL LTGICCC OHD TS OHD MOV SE P0003
14837KMSN MSN20020617221515506/17/02 22:15:31  5-MIN KMSN 180415Z 14012KT 4SM -TSRA BR BKN037 OVC060 16/14 A2996 830 90 1200 140/12 RMK AO2 PRESFR OCNL LTGICCC OHD TS OHD MOV SE P0004
14837KMSN MSN20020617222015506/17/02 22:20:31  5-MIN KMSN 180420Z 13009KT 4SM -TSRA BR SCT039 BKN060 OVC090 16/14 A2996 830 90 1200 130/09 RMK AO2 OCNL LTGICCC OHD TS OHD MOV SE P0004
14837KMSN MSN20020617222512506/17/02 22:25:31  5-MIN KMSN 180425Z 12011KT 5SM -RA SCT042 BKN065 OVC095 16/14 A2996 830 90 1200 120/11 RMK AO2 TSE25 P0004
14837KMSN MSN20020617223012506/17/02 22:30:31  5-MIN KMSN 180430Z 12008KT 7SM -RA SCT042 SCT060 OVC100 16/14 A2996 830 86 1200 120/08 RMK AO2 TSE25 P0004
14837KMSN MSN20020617223512606/17/02 22:35:31  5-MIN KMSN 180435Z 13008KT 7SM SCT040 SCT060 OVC100 16/14 A2996 830 90 1200 120/08 RMK AO2 TSE25RAE35 P0004
14837KMSN MSN20020617224012606/17/02 22:40:31  5-MIN KMSN 180440Z 12006KT 8SM FEW047 SCT090 OVC110 16/14 A2996 830 90 1200 110/06 RMK AO2 TSE25RAE35 P0004
14837KMSN MSN20020617224512606/17/02 22:45:31  5-MIN KMSN 180445Z 11005KT 8SM FEW055 BKN090 OVC110 16/14 A2996 820 90 1200 110/05 RMK AO2 TSE25RAE35 P0004
14837KMSN MSN20020617225014306/17/02 22:50:31  5-MIN KMSN 180450Z 00000KT 8SM FEW060 SCT090 BKN110 16/14 A2997 820 90 1200 000/00 RMK AO2 TSE25RAE35 SLP145 P0004 T01610144
14837KMSN MSN20020617225510206/17/02 22:55:31  5-MIN KMSN 180455Z 00000KT 8SM FEW060 OVC100 16/14 A2997 820 90 1200 000/00 RMK AO2
14837KMSN MSN20020617230010906/17/02 23:00:31  5-MIN KMSN 180500Z 04005KT 8SM FEW060 BKN085 OVC100 16/14 A2998 810 90 1100 040/05 RMK AO2
14837KMSN MSN20020617230510906/17/02 23:05:31  5-MIN KMSN 180505Z 04005KT 8SM FEW060 BKN085 OVC110 16/14 A2998 810 93 1100 040/05 RMK AO2
14837KMSN MSN20020617231010906/17/02 23:10:31  5-MIN KMSN 180510Z 08005KT 7SM FEW055 BKN085 OVC100 16/14 A2997 820 93 1100 080/05 RMK AO2
14837KMSN MSN20020617231510906/17/02 23:15:31  5-MIN KMSN 180515Z 11006KT 7SM FEW060 BKN080 OVC100 16/14 A2997 820 93 1100 110/06 RMK AO2
14837KMSN MSN20020617232010906/17/02 23:20:31  5-MIN KMSN 180520Z 13007KT 7SM FEW060 BKN080 OVC100 16/14 A2997 820 93 1100 130/07 RMK AO2
14837KMSN MSN20020617232510906/17/02 23:25:31  5-MIN KMSN 180525Z 14006KT 7SM FEW060 SCT080 OVC110 16/14 A2996 820 90 1100 140/06 RMK AO2
14837KMSN MSN20020617233010906/17/02 23:30:31  5-MIN KMSN 180530Z 13006KT 8SM FEW060 SCT075 BKN110 16/14 A2997 820 90 1100 130/06 RMK AO2
14837KMSN MSN20020617233510206/17/02 23:35:31  5-MIN KMSN 180535Z 12004KT 8SM FEW055 BKN110 16/14 A2997 820 90 1100 120/04 RMK AO2
14837KMSN MSN20020617234010206/17/02 23:40:31  5-MIN KMSN 180540Z 13006KT 8SM FEW075 SCT110 15/14 A2997 820 93 1000 130/06 RMK AO2
14837KMSN MSN20020617234509506/17/02 23:45:31  5-MIN KMSN 180545Z 15006KT 8SM FEW110 15/14 A2997 820 93 1000 150/06 RMK AO2
14837KMSN MSN20020617235014606/17/02 23:50:31  5-MIN KMSN 180550Z 14005KT 8SM FEW110 15/14 A2997 820 93 1000 140/05 RMK AO2 SLP146 60004 T01500139 10222 20150 402390106 53012
14837KMSN MSN20020617235509206/17/02 23:55:31  5-MIN KMSN 180555Z 15004KT 8SM CLR 15/13 A2997 820 90 1000 150/04 RMK AO2
14837KMSN MSN20020618000009206/18/02 00:00:31  5-MIN KMSN 180600Z 13004KT 8SM CLR 15/13 A2997 820 90 1000 130/04 RMK AO2
14837KMSN MSN20020618000509206/18/02 00:05:31  5-MIN KMSN 180605Z 14006KT 8SM CLR 15/13 A2997 820 90 1000 130/06 RMK AO2
14837KMSN MSN20020618001009206/18/02 00:10:31  5-MIN KMSN 180610Z 14006KT 8SM CLR 15/13 A2997 820 90 1000 140/06 RMK AO2
14837KMSN MSN20020618001509206/18/02 00:15:31  5-MIN KMSN 180615Z 14004KT 7SM CLR 14/13 A2997 820 93 1000 140/04 RMK AO2
14837KMSN MSN20020618002009206/18/02 00:20:31  5-MIN KMSN 180620Z 13004KT 7SM CLR 14/13 A2997 820 93 1000 130/04 RMK AO2
14837KMSN MSN20020618002509206/18/02 00:25:31  5-MIN KMSN 180625Z 13005KT 7SM CLR 14/13 A2997 820 93 1000 130/05 RMK AO2
14837KMSN MSN20020618003009206/18/02 00:30:31  5-MIN KMSN 180630Z 13005KT 7SM CLR 14/13 A2997 820 93 1000 130/05 RMK AO2
14837KMSN MSN20020618003509206/18/02 00:35:31  5-MIN KMSN 180635Z 12005KT 7SM CLR 14/13 A2997 820 93 1000 120/05 RMK AO2
14837KMSN MSN20020618004009206/18/02 00:40:31  5-MIN KMSN 180640Z 10005KT 7SM CLR 14/13 A2997 820 90 1000 100/05 RMK AO2
14837KMSN MSN20020618004509206/18/02 00:45:31  5-MIN KMSN 180645Z 10005KT 7SM CLR 14/13 A2997 820 93 1000 090/05 RMK AO2
14837KMSN MSN20020618005010806/18/02 00:50:31  5-MIN KMSN 180650Z 11004KT 7SM CLR 14/13 A2998 810 96 900 100/04 RMK AO2 SLP149 T01390133
14837KMSN MSN20020618005509206/18/02 00:55:31  5-MIN KMSN 180655Z 11004KT 7SM CLR 14/13 A2998 810 90 1000 110/04 RMK AO2
14837KMSN MSN20020618010009206/18/02 01:00:31  5-MIN KMSN 180700Z 11004KT 7SM CLR 14/13 A2998 810 90 1000 110/04 RMK AO2
14837KMSN MSN20020618010509206/18/02 01:05:31  5-MIN KMSN 180705Z 10005KT 7SM CLR 14/13 A2998 810 90 1000 100/05 RMK AO2
14837KMSN MSN20020618011009506/18/02 01:10:31  5-MIN KMSN 180710Z 10004KT 6SM BR CLR 14/13 A2998 810 90 1000 100/04 RMK AO2
14837KMSN MSN20020618011509406/18/02 01:15:31  5-MIN KMSN 180715Z 11005KT 6SM BR CLR 14/13 A2998 810 93 900 100/05 RMK AO2
14837KMSN MSN20020618012009406/18/02 01:20:31  5-MIN KMSN 180720Z 12005KT 6SM BR CLR 14/13 A2998 810 93 900 110/05 RMK AO2
14837KMSN MSN20020618012509406/18/02 01:25:31  5-MIN KMSN 180725Z 13005KT 6SM BR CLR 14/13 A2998 810 93 900 130/05 RMK AO2
14837KMSN MSN20020618013009406/18/02 01:30:31  5-MIN KMSN 180730Z 14004KT 6SM BR CLR 14/13 A2998 810 93 900 140/04 RMK AO2
14837KMSN MSN20020618013509406/18/02 01:35:31  5-MIN KMSN 180735Z 12004KT 6SM BR CLR 14/13 A2998 810 93 900 120/04 RMK AO2
14837KMSN MSN20020618014009406/18/02 01:40:31  5-MIN KMSN 180740Z 13003KT 6SM BR CLR 14/13 A2998 810 93 900 120/03 RMK AO2
14837KMSN MSN20020618014509406/18/02 01:45:31  5-MIN KMSN 180745Z 11003KT 6SM BR CLR 14/13 A2998 810 93 900 110/03 RMK AO2
14837KMSN MSN20020618015011106/18/02 01:50:31  5-MIN KMSN 180750Z 12004KT 6SM BR CLR 14/13 A2998 810 93 900 120/04 RMK AO2 SLP149 T01390128
14837KMSN MSN20020618015509406/18/02 01:55:31  5-MIN KMSN 180755Z 14004KT 6SM BR CLR 14/13 A2998 810 93 900 130/04 RMK AO2
14837KMSN MSN20020618020009406/18/02 02:00:31  5-MIN KMSN 180800Z 12003KT 5SM BR CLR 14/13 A2998 810 93 900 120/03 RMK AO2
14837KMSN MSN20020618020509406/18/02 02:05:31  5-MIN KMSN 180805Z 11003KT 5SM BR CLR 14/13 A2998 810 93 900 110/03 RMK AO2
14837KMSN MSN20020618021009406/18/02 02:10:31  5-MIN KMSN 180810Z 13003KT 5SM BR CLR 14/13 A2998 810 93 900 130/03 RMK AO2
14837KMSN MSN20020618021509406/18/02 02:15:31  5-MIN KMSN 180815Z 13003KT 5SM BR CLR 14/13 A2998 810 93 900 130/03 RMK AO2
14837KMSN MSN20020618022009706/18/02 02:20:31  5-MIN KMSN 180820Z 14003KT 6SM BR FEW060 14/13 A2998 810 93 900 140/03 RMK AO2
14837KMSN MSN20020618022510406/18/02 02:25:31  5-MIN KMSN 180825Z 12003KT 6SM BR FEW060 SCT075 14/13 A2998 810 93 900 120/03 RMK AO2
14837KMSN MSN20020618023010406/18/02 02:30:31  5-MIN KMSN 180830Z 09003KT 6SM BR SCT060 BKN080 14/13 A2998 810 93 900 090/03 RMK AO2
14837KMSN MSN20020618023510406/18/02 02:35:31  5-MIN KMSN 180835Z 11003KT 5SM BR SCT060 BKN080 14/13 A2999 800 93 900 110/03 RMK AO2
14837KMSN MSN20020618024010406/18/02 02:40:31  5-MIN KMSN 180840Z 14006KT 5SM BR BKN060 BKN080 14/13 A2999 800 93 900 140/06 RMK AO2
14837KMSN MSN20020618024510506/18/02 02:45:31  5-MIN KMSN 180845Z 15005KT 6SM BR BKN060 BKN080 14/13 A2999 800 90 1000 150/05 RMK AO2
14837KMSN MSN20020618025013506/18/02 02:50:31  5-MIN KMSN 180850Z 13007KT 5SM BR SCT060 BKN070 BKN085 14/13 A2999 800 90 1000 130/07 RMK AO2 SLP153 T01440128 51012
14837KMSN MSN20020618025511206/18/02 02:55:31  5-MIN KMSN 180855Z 13006KT 5SM BR SCT060 BKN070 OVC080 14/13 A2999 800 90 1000 130/06 RMK AO2
14837KMSN MSN20020618030011206/18/02 03:00:31  5-MIN KMSN 180900Z 15004KT 5SM BR FEW055 BKN070 BKN080 14/13 A2999 800 90 1000 140/04 RMK AO2
14837KMSN MSN20020618030511106/18/02 03:05:31  5-MIN KMSN 180905Z 17004KT 5SM BR FEW060 BKN075 14/13 A2999 800 90 1000 170/04 RMK AO2 P0001
14837KMSN MSN20020618031011106/18/02 03:10:31  5-MIN KMSN 180910Z 16005KT 5SM BR BKN070 OVC080 14/13 A3000 790 93 1000 160/05 RMK AO2 P0001
14837KMSN MSN20020618031511106/18/02 03:15:31  5-MIN KMSN 180915Z 15004KT 5SM BR BKN070 OVC085 14/13 A3000 790 93 1000 150/04 RMK AO2 P0001
14837KMSN MSN20020618032011706/18/02 03:20:31  5-MIN KMSN 180920Z 16004KT 5SM BR BKN060 BKN080 OVC100 14/13 A3000 790 93 900 160/04 RMK AO2 P0001
14837KMSN MSN20020618032511006/18/02 03:25:31  5-MIN KMSN 180925Z 15003KT 5SM BR BKN060 OVC075 14/13 A3000 790 93 900 150/03 RMK AO2 P0001
14837KMSN MSN20020618033011006/18/02 03:30:31  5-MIN KMSN 180930Z 00000KT 5SM BR BKN060 OVC080 14/13 A3000 790 93 900 000/00 RMK AO2 P0001
14837KMSN MSN20020618033511706/18/02 03:35:31  5-MIN KMSN 180935Z 00000KT 5SM BR BKN060 BKN080 OVC100 14/13 A3000 790 93 900 000/00 RMK AO2 P0001
14837KMSN MSN20020618034011706/18/02 03:40:31  5-MIN KMSN 180940Z 00000KT 5SM BR SCT060 BKN080 OVC100 14/13 A3000 790 93 900 000/00 RMK AO2 P0001
14837KMSN MSN20020618034511706/18/02 03:45:31  5-MIN KMSN 180945Z 13003KT 5SM BR SCT060 BKN080 OVC100 14/13 A3000 790 93 900 130/03 RMK AO2 P0001
14837KMSN MSN20020618035012806/18/02 03:50:31  5-MIN KMSN 180950Z 00000KT 5SM BR FEW060 BKN080 OVC100 14/13 A3001 780 93 900 000/00 RMK AO2 SLP159 T01440133
14837KMSN MSN20020618035511106/18/02 03:55:31  5-MIN KMSN 180955Z 11004KT 5SM BR SCT060 BKN090 OVC110 14/13 A3001 780 90 900 110/04 RMK AO2
14837KMSN MSN20020618040011106/18/02 04:00:31  5-MIN KMSN 181000Z 12005KT 5SM BR SCT055 BKN090 OVC110 14/13 A3001 780 93 900 110/05 RMK AO2
14837KMSN MSN20020618040511106/18/02 04:05:31  5-MIN KMSN 181005Z 12005KT 5SM BR FEW055 SCT080 BKN110 14/13 A3001 780 93 900 120/05 RMK AO2
14837KMSN MSN20020618041011106/18/02 04:10:31  5-MIN KMSN 181010Z 13005KT 5SM BR FEW055 SCT080 SCT110 14/13 A3001 780 93 900 130/05 RMK AO2
14837KMSN MSN20020618041511106/18/02 04:15:31  5-MIN KMSN 181015Z 14003KT 5SM BR FEW055 SCT080 SCT110 14/13 A3001 780 93 900 140/03 RMK AO2
14837KMSN MSN20020618042011106/18/02 04:20:31  5-MIN KMSN 181020Z 13003KT 5SM BR FEW055 BKN085 BKN110 14/13 A3001 780 93 900 130/03 RMK AO2
14837KMSN MSN20020618042509706/18/02 04:25:31  5-MIN KMSN 181025Z 10003KT 5SM BR BKN085 14/13 A3001 780 90 900 100/03 RMK AO2
14837KMSN MSN20020618043009706/18/02 04:30:31  5-MIN KMSN 181030Z 10004KT 4SM BR SCT085 14/13 A3001 780 93 900 100/04 RMK AO2
14837KMSN MSN20020618043509706/18/02 04:35:31  5-MIN KMSN 181035Z 10004KT 3SM BR SCT085 14/13 A3001 780 93 900 100/04 RMK AO2
14837KMSN MSN20020618044009706/18/02 04:40:31  5-MIN KMSN 181040Z 10004KT 3SM BR SCT085 14/13 A3001 780 93 900 100/04 RMK AO2
14837KMSN MSN20020618044509706/18/02 04:45:31  5-MIN KMSN 181045Z 09003KT 3SM BR FEW085 14/13 A3001 780 93 900 090/03 RMK AO2
14837KMSN MSN20020618045011406/18/02 04:50:31  5-MIN KMSN 181050Z 08003KT 3SM BR FEW085 14/12 A3001 780 90 900 080/03 RMK AO2 SLP161 T01390122
14837KMSN MSN20020618045509406/18/02 04:55:31  5-MIN KMSN 181055Z 09004KT 3SM BR CLR 13/12 A3001 780 93 800 090/04 RMK AO2
14837KMSN MSN20020618050009406/18/02 05:00:31  5-MIN KMSN 181100Z 10003KT 3SM BR CLR 14/12 A3001 780 90 900 100/03 RMK AO2
14837KMSN MSN20020618050510706/18/02 05:05:31  5-MIN KMSN 181105Z 12004KT 3SM BR FEW085 13/12 A3001 780 93 800 120/04 RMK AO2 TWR VIS 4
14837KMSN MSN20020618051010706/18/02 05:10:31  5-MIN KMSN 181110Z 13004KT 3SM BR FEW085 13/12 A3002 780 93 800 130/04 RMK AO2 TWR VIS 4
14837KMSN MSN20020618051509706/18/02 05:15:31  5-MIN KMSN 181115Z 11004KT 4SM BR FEW085 14/13 A3002 770 93 900 110/04 RMK AO2
14837KMSN MSN20020618052010706/18/02 05:20:31  5-MIN KMSN 181120Z 10004KT 3SM BR FEW080 14/13 A3002 770 93 900 100/04 RMK AO2 TWR VIS 4
14837KMSN MSN20020618052510706/18/02 05:25:31  5-MIN KMSN 181125Z 09004KT 3SM BR FEW080 14/13 A3002 770 93 900 090/04 RMK AO2 TWR VIS 4
14837KMSN MSN20020618053010706/18/02 05:30:31  5-MIN KMSN 181130Z 11003KT 3SM BR FEW080 14/13 A3002 770 93 900 110/03 RMK AO2 TWR VIS 4
14837KMSN MSN20020618053509806/18/02 05:35:31  5-MIN KMSN 181135Z 13004KT 4SM BR FEW075 15/13 A3002 770 90 1000 130/04 RMK AO2
14837KMSN MSN20020618054009506/18/02 05:40:31  5-MIN KMSN 181140Z 11005KT 4SM BR CLR 15/13 A3002 770 90 1000 110/05 RMK AO2
14837KMSN MSN20020618054509806/18/02 05:45:31  5-MIN KMSN 181145Z 11004KT 5SM BR FEW110 15/13 A3002 770 90 1000 110/04 RMK AO2
14837KMSN MSN20020618055013906/18/02 05:50:31  5-MIN KMSN 181150Z 11004KT 5SM BR FEW110 15/13 A3003 770 90 1000 110/04 RMK AO2 SLP165 70004 T01500133 10150 20133 53006
14837KMSN MSN20020618055509506/18/02 05:55:31  5-MIN KMSN 181155Z 12004KT 5SM BR CLR 16/13 A3003 770 86 1000 120/04 RMK AO2
14837KMSN MSN20020618060009506/18/02 06:00:31  5-MIN KMSN 181200Z 12003KT 5SM BR CLR 16/13 A3003 760 86 1000 120/03 RMK AO2
14837KMSN MSN20020618060509506/18/02 06:05:31  5-MIN KMSN 181205Z 10004KT 6SM BR CLR 16/13 A3003 760 86 1000 100/04 RMK AO2
14837KMSN MSN20020618061009506/18/02 06:10:31  5-MIN KMSN 181210Z 11005KT 6SM HZ CLR 16/13 A3003 760 83 1100 110/05 RMK AO2
14837KMSN MSN20020618061509506/18/02 06:15:31  5-MIN KMSN 181215Z 12005KT 6SM HZ CLR 16/13 A3003 760 83 1100 120/05 RMK AO2
14837KMSN MSN20020618062009806/18/02 06:20:31  5-MIN KMSN 181220Z 12005KT 6SM HZ FEW100 16/13 A3004 760 80 1100 120/05 RMK AO2
14837KMSN MSN20020618062509506/18/02 06:25:31  5-MIN KMSN 181225Z 13004KT 7SM FEW100 16/13 A3004 750 83 1100 130/04 RMK AO2
14837KMSN MSN20020618063009506/18/02 06:30:31  5-MIN KMSN 181230Z 14005KT 7SM SCT110 17/13 A3004 750 77 1200 130/05 RMK AO2
14837KMSN MSN20020618063509506/18/02 06:35:31  5-MIN KMSN 181235Z 13006KT 7SM BKN110 16/13 A3004 750 80 1100 130/06 RMK AO2
14837KMSN MSN20020618064009506/18/02 06:40:31  5-MIN KMSN 181240Z 13006KT 7SM BKN110 16/13 A3004 750 80 1100 130/06 RMK AO2
14837KMSN MSN20020618064509506/18/02 06:45:31  5-MIN KMSN 181245Z 13007KT 7SM BKN110 17/13 A3004 750 77 1200 130/07 RMK AO2
14837KMSN MSN20020618065011206/18/02 06:50:31  5-MIN KMSN 181250Z 14007KT 8SM SCT110 17/13 A3004 750 77 1200 140/07 RMK AO2 SLP171 T01670128
14837KMSN MSN20020618065509506/18/02 06:55:31  5-MIN KMSN 181255Z 14006KT 8SM SCT110 17/13 A3004 750 77 1200 140/06 RMK AO2
14837KMSN MSN20020618070009606/18/02 07:00:31  5-MIN KMSN 181300Z 14005KT 10SM FEW110 17/13 A3005 750 78 1200 140/05 RMK AO2
14837KMSN MSN20020618070509606/18/02 07:05:31  5-MIN KMSN 181305Z 13006KT 10SM FEW110 17/13 A3005 750 75 1200 130/06 RMK AO2
14837KMSN MSN20020618071009306/18/02 07:10:31  5-MIN KMSN 181310Z 13007KT 10SM CLR 18/13 A3004 750 75 1300 130/07 RMK AO2
14837KMSN MSN20020618071509306/18/02 07:15:31  5-MIN KMSN 181315Z 13009KT 10SM CLR 18/13 A3004 750 72 1300 130/09 RMK AO2
14837KMSN MSN20020618072009306/18/02 07:20:31  5-MIN KMSN 181320Z 14009KT 10SM CLR 18/13 A3004 750 70 1400 140/09 RMK AO2
14837KMSN MSN20020618072509306/18/02 07:25:31  5-MIN KMSN 181325Z 15008KT 10SM CLR 18/13 A3004 750 70 1400 150/08 RMK AO2
14837KMSN MSN20020618073009306/18/02 07:30:31  5-MIN KMSN 181330Z 15008KT 10SM CLR 18/13 A3004 750 70 1400 150/08 RMK AO2
14837KMSN MSN20020618073509306/18/02 07:35:31  5-MIN KMSN 181335Z 13007KT 10SM CLR 18/13 A3004 750 70 1400 130/07 RMK AO2
14837KMSN MSN20020618074009306/18/02 07:40:31  5-MIN KMSN 181340Z 12009KT 10SM CLR 19/13 A3004 750 70 1400 120/09 RMK AO2
14837KMSN MSN20020618074509306/18/02 07:45:31  5-MIN KMSN 181345Z 14008KT 10SM CLR 19/13 A3004 750 67 1400 140/08 RMK AO2
14837KMSN MSN20020618075011006/18/02 07:50:31  5-MIN KMSN 181350Z 13009KT 10SM CLR 19/13 A3004 750 70 1400 130/09 RMK AO2 SLP170 T01890133
14837KMSN MSN20020618075509306/18/02 07:55:31  5-MIN KMSN 181355Z 13009KT 10SM CLR 19/13 A3004 750 67 1500 130/09 RMK AO2
14837KMSN MSN20020618080009306/18/02 08:00:31  5-MIN KMSN 181400Z 13008KT 10SM CLR 19/13 A3004 750 67 1400 130/08 RMK AO2
14837KMSN MSN20020618080509306/18/02 08:05:31  5-MIN KMSN 181405Z 14008KT 10SM CLR 19/13 A3004 750 70 1400 130/08 RMK AO2
14837KMSN MSN20020618081009306/18/02 08:10:31  5-MIN KMSN 181410Z 13008KT 10SM CLR 19/13 A3004 760 67 1500 130/08 RMK AO2
14837KMSN MSN20020618081509306/18/02 08:15:31  5-MIN KMSN 181415Z 14009KT 10SM CLR 19/13 A3004 760 67 1500 140/09 RMK AO2
14837KMSN MSN20020618082009306/18/02 08:20:31  5-MIN KMSN 181420Z 13008KT 10SM CLR 20/14 A3004 760 67 1600 130/08 RMK AO2
14837KMSN MSN20020618082509306/18/02 08:25:31  5-MIN KMSN 181425Z 10008KT 10SM CLR 20/14 A3004 760 70 1600 100/08 RMK AO2
14837KMSN MSN20020618083009306/18/02 08:30:31  5-MIN KMSN 181430Z 12008KT 10SM CLR 21/14 A3004 760 65 1600 120/08 RMK AO2
14837KMSN MSN20020618083509306/18/02 08:35:31  5-MIN KMSN 181435Z 12007KT 10SM CLR 21/14 A3004 760 67 1600 120/07 RMK AO2
14837KMSN MSN20020618084009306/18/02 08:40:31  5-MIN KMSN 181440Z 13008KT 10SM CLR 21/14 A3004 750 65 1600 130/08 RMK AO2
14837KMSN MSN20020618084509306/18/02 08:45:31  5-MIN KMSN 181445Z 10008KT 10SM CLR 21/14 A3004 750 65 1600 100/08 RMK AO2
14837KMSN MSN20020618085011606/18/02 08:50:31  5-MIN KMSN 181450Z 13008KT 10SM CLR 21/14 A3004 750 65 1700 130/08 RMK AO2 SLP169 T02110144 51013
14837KMSN MSN20020618085509306/18/02 08:55:31  5-MIN KMSN 181455Z 14007KT 10SM CLR 21/14 A3004 750 63 1700 140/07 RMK AO2
14837KMSN MSN20020618090009306/18/02 09:00:31  5-MIN KMSN 181500Z 12008KT 10SM CLR 21/14 A3004 750 65 1700 120/08 RMK AO2
14837KMSN MSN20020618090509306/18/02 09:05:31  5-MIN KMSN 181505Z 13011KT 10SM CLR 22/14 A3004 750 63 1700 130/11 RMK AO2
14837KMSN MSN20020618091009306/18/02 09:10:31  5-MIN KMSN 181510Z 12010KT 10SM CLR 22/14 A3004 750 63 1700 120/10 RMK AO2
14837KMSN MSN20020618091509306/18/02 09:15:31  5-MIN KMSN 181515Z 15009KT 10SM CLR 22/14 A3004 750 63 1700 150/09 RMK AO2
14837KMSN MSN20020618092009306/18/02 09:20:31  5-MIN KMSN 181520Z 12011KT 10SM CLR 22/15 A3004 750 65 1700 120/11 RMK AO2
14837KMSN MSN20020618092509306/18/02 09:25:31  5-MIN KMSN 181525Z 12010KT 10SM CLR 22/14 A3004 750 63 1700 120/10 RMK AO2
14837KMSN MSN20020618093009306/18/02 09:30:31  5-MIN KMSN 181530Z 12010KT 10SM CLR 22/15 A3004 750 63 1800 120/10 RMK AO2
14837KMSN MSN20020618093509306/18/02 09:35:31  5-MIN KMSN 181535Z 13011KT 10SM CLR 22/15 A3004 750 63 1800 120/11 RMK AO2
14837KMSN MSN20020618094009306/18/02 09:40:31  5-MIN KMSN 181540Z 12010KT 10SM CLR 22/15 A3004 750 63 1800 120/10 RMK AO2
14837KMSN MSN20020618094509306/18/02 09:45:31  5-MIN KMSN 181545Z 11010KT 10SM CLR 22/15 A3004 760 63 1800 110/10 RMK AO2
14837KMSN MSN20020618095011006/18/02 09:50:31  5-MIN KMSN 181550Z 13008KT 10SM CLR 22/15 A3004 760 63 1800 130/08 RMK AO2 SLP168 T02220150
14837KMSN MSN20020618095509306/18/02 09:55:31  5-MIN KMSN 181555Z 12009KT 10SM CLR 22/15 A3003 760 63 1800 120/09 RMK AO2
14837KMSN MSN20020618100009306/18/02 10:00:31  5-MIN KMSN 181600Z 12010KT 10SM CLR 23/16 A3003 760 63 1900 120/10 RMK AO2
14837KMSN MSN20020618100509306/18/02 10:05:31  5-MIN KMSN 181605Z 12012KT 10SM CLR 23/16 A3003 760 61 1900 120/12 RMK AO2
14837KMSN MSN20020618101009306/18/02 10:10:31  5-MIN KMSN 181610Z 11012KT 10SM CLR 23/15 A3003 760 61 1900 110/12 RMK AO2
14837KMSN MSN20020618101509306/18/02 10:15:31  5-MIN KMSN 181615Z 13011KT 10SM CLR 23/16 A3003 760 61 1900 130/11 RMK AO2
14837KMSN MSN20020618102009306/18/02 10:20:31  5-MIN KMSN 181620Z 14010KT 10SM CLR 24/15 A3003 760 57 2000 140/10 RMK AO2
14837KMSN MSN20020618102509306/18/02 10:25:31  5-MIN KMSN 181625Z 14011KT 10SM CLR 23/15 A3003 760 59 1900 140/11 RMK AO2
14837KMSN MSN20020618103009306/18/02 10:30:31  5-MIN KMSN 181630Z 14009KT 10SM CLR 24/14 A3003 760 55 2000 140/09 RMK AO2
14837KMSN MSN20020618103509306/18/02 10:35:31  5-MIN KMSN 181635Z 15010KT 10SM CLR 24/15 A3003 760 57 2000 150/10 RMK AO2
14837KMSN MSN20020618104009306/18/02 10:40:31  5-MIN KMSN 181640Z 14009KT 10SM CLR 24/15 A3003 760 57 2000 140/09 RMK AO2
14837KMSN MSN20020618104509306/18/02 10:45:31  5-MIN KMSN 181645Z 13007KT 10SM CLR 24/15 A3003 770 55 2100 130/07 RMK AO2
14837KMSN MSN20020618105011006/18/02 10:50:31  5-MIN KMSN 181650Z 16011KT 10SM CLR 24/14 A3003 770 53 2100 160/11 RMK AO2 SLP165 T02440144
14837KMSN MSN20020618105509306/18/02 10:55:31  5-MIN KMSN 181655Z 13011KT 10SM CLR 24/14 A3003 770 53 2100 130/11 RMK AO2
14837KMSN MSN20020618110009306/18/02 11:00:31  5-MIN KMSN 181700Z 13010KT 10SM CLR 24/14 A3002 770 53 2100 130/10 RMK AO2
14837KMSN MSN20020618110509306/18/02 11:05:31  5-MIN KMSN 181705Z 12013KT 10SM CLR 25/15 A3002 770 53 2100 120/13 RMK AO2
14837KMSN MSN20020618111009606/18/02 11:10:31  5-MIN KMSN 181710Z 13012KT 10SM FEW040 24/14 A3002 770 53 2100 130/12 RMK AO2
14837KMSN MSN20020618111509606/18/02 11:15:31  5-MIN KMSN 181715Z 14013KT 10SM FEW040 25/15 A3002 770 53 2100 140/13 RMK AO2
14837KMSN MSN20020618112009606/18/02 11:20:31  5-MIN KMSN 181720Z 14011KT 10SM FEW040 25/14 A3002 770 51 2100 140/11 RMK AO2
14837KMSN MSN20020618112509606/18/02 11:25:31  5-MIN KMSN 181725Z 13012KT 10SM FEW040 25/14 A3002 770 51 2100 130/12 RMK AO2
14837KMSN MSN20020618113009606/18/02 11:30:31  5-MIN KMSN 181730Z 18010KT 10SM FEW040 26/14 A3002 780 49 2200 180/10 RMK AO2
14837KMSN MSN20020618113510206/18/02 11:35:31  5-MIN KMSN 181735Z 14016G19KT 10SM FEW040 26/14 A3002 780 48 2200 140/16G19 RMK AO2
14837KMSN MSN20020618114010206/18/02 11:40:31  5-MIN KMSN 181740Z 14010G19KT 10SM FEW040 26/14 A3001 780 48 2200 140/10G19 RMK AO2
14837KMSN MSN20020618114509606/18/02 11:45:31  5-MIN KMSN 181745Z 15011KT 10SM FEW040 26/14 A3001 780 48 2200 140/11 RMK AO2
14837KMSN MSN20020618115013106/18/02 11:50:31  5-MIN KMSN 181750Z 16013KT 10SM FEW040 26/13 A3001 780 46 2200 160/13 RMK AO2 SLP159 T02560133 10256 20156 50005
14837KMSN MSN20020618115509306/18/02 11:55:31  5-MIN KMSN 181755Z 16013KT 10SM CLR 26/14 A3001 780 46 2300 160/13 RMK AO2
14837KMSN MSN20020618120009606/18/02 12:00:31  5-MIN KMSN 181800Z 15012KT 10SM FEW055 26/14 A3001 780 46 2300 150/12 RMK AO2
14837KMSN MSN20020618120509306/18/02 12:05:31  5-MIN KMSN 181805Z 16013KT 10SM CLR 26/13 A3000 790 44 2300 150/13 RMK AO2
14837KMSN MSN20020618121009606/18/02 12:10:31  5-MIN KMSN 181810Z 14013KT 10SM FEW055 26/13 A3000 790 44 2300 140/13 RMK AO2
14837KMSN MSN20020618121509606/18/02 12:15:31  5-MIN KMSN 181815Z 16013KT 10SM FEW055 26/14 A3000 790 46 2300 160/13 RMK AO2
14837KMSN MSN20020618122009306/18/02 12:20:31  5-MIN KMSN 181820Z 15010KT 10SM CLR 27/14 A3000 790 45 2400 150/10 RMK AO2
14837KMSN MSN20020618122509606/18/02 12:25:31  5-MIN KMSN 181825Z 16013KT 10SM FEW055 27/13 A3000 790 43 2400 160/13 RMK AO2
14837KMSN MSN20020618123009606/18/02 12:30:31  5-MIN KMSN 181830Z 17012KT 10SM SCT055 26/13 A3000 790 43 2300 170/12 RMK AO2
14837KMSN MSN20020618123509606/18/02 12:35:31  5-MIN KMSN 181835Z 15012KT 10SM SCT055 27/13 A3000 790 43 2300 140/12 RMK AO2
14837KMSN MSN20020618124010206/18/02 12:40:31  5-MIN KMSN 181840Z 18012G18KT 10SM SCT055 27/13 A3000 790 43 2300 170/12G18 RMK AO2
14837KMSN MSN20020618124509606/18/02 12:45:31  5-MIN KMSN 181845Z 16014KT 10SM SCT055 27/13 A3000 790 41 2300 160/14 RMK AO2
14837KMSN MSN20020618125011306/18/02 12:50:31  5-MIN KMSN 181850Z 14011KT 10SM SCT055 26/12 A3000 790 43 2200 140/11 RMK AO2 SLP156 T02560122
14837KMSN MSN20020618125509606/18/02 12:55:31  5-MIN KMSN 181855Z 16010KT 10SM FEW060 27/13 A3000 790 41 2400 160/10 RMK AO2
14837KMSN MSN20020618130009606/18/02 13:00:31  5-MIN KMSN 181900Z 18010KT 10SM FEW060 27/13 A3000 790 41 2400 180/10 RMK AO2
14837KMSN MSN20020618130509606/18/02 13:05:31  5-MIN KMSN 181905Z 16012KT 10SM SCT060 27/13 A3000 790 40 2400 160/12 RMK AO2
14837KMSN MSN20020618131009606/18/02 13:10:31  5-MIN KMSN 181910Z 18009KT 10SM SCT060 27/13 A3000 790 40 2400 180/09 RMK AO2
14837KMSN MSN20020618131509606/18/02 13:15:31  5-MIN KMSN 181915Z 18011KT 10SM SCT060 27/13 A3000 790 40 2400 180/11 RMK AO2
14837KMSN MSN20020618132009606/18/02 13:20:31  5-MIN KMSN 181920Z 17009KT 10SM SCT060 27/13 A3000 790 40 2400 170/09 RMK AO2
14837KMSN MSN20020618132509306/18/02 13:25:31  5-MIN KMSN 181925Z 17013KT 10SM CLR 27/12 A3000 790 39 2400 160/13 RMK AO2
14837KMSN MSN20020618133009306/18/02 13:30:31  5-MIN KMSN 181930Z 16011KT 10SM CLR 27/12 A3000 790 40 2400 160/11 RMK AO2
14837KMSN MSN20020618133509606/18/02 13:35:31  5-MIN KMSN 181935Z 15009KT 10SM FEW060 27/13 A3000 790 40 2400 150/09 RMK AO2
14837KMSN MSN20020618134009606/18/02 13:40:31  5-MIN KMSN 181940Z 19013KT 10SM FEW060 27/12 A3000 790 39 2400 180/13 RMK AO2
14837KMSN MSN20020618134509606/18/02 13:45:31  5-MIN KMSN 181945Z 19011KT 10SM FEW060 27/12 A3000 790 37 2400 180/11 RMK AO2
14837KMSN MSN20020618135011306/18/02 13:50:31  5-MIN KMSN 181950Z 16011KT 10SM FEW060 27/11 A3000 790 36 2400 160/11 RMK AO2 SLP154 T02720111
14837KMSN MSN20020618135509306/18/02 13:55:31  5-MIN KMSN 181955Z 17011KT 10SM CLR 27/12 A2999 800 39 2400 160/11 RMK AO2
14837KMSN MSN20020618140009606/18/02 14:00:31  5-MIN KMSN 182000Z 17012KT 10SM FEW060 28/12 A2999 800 37 2500 170/12 RMK AO2
14837KMSN MSN20020618140509606/18/02 14:05:31  5-MIN KMSN 182005Z 19010KT 10SM FEW060 28/11 A3000 790 35 2500 180/10 RMK AO2
14837KMSN MSN20020618141009606/18/02 14:10:31  5-MIN KMSN 182010Z 17014KT 10SM FEW060 28/11 A3000 790 35 2500 170/14 RMK AO2
14837KMSN MSN20020618141509606/18/02 14:15:31  5-MIN KMSN 182015Z 15012KT 10SM FEW060 27/11 A3000 790 36 2400 150/12 RMK AO2
14837KMSN MSN20020618142009606/18/02 14:20:31  5-MIN KMSN 182020Z 18011KT 10SM FEW060 28/12 A3000 800 37 2500 180/11 RMK AO2
14837KMSN MSN20020618142509606/18/02 14:25:31  5-MIN KMSN 182025Z 16013KT 10SM FEW060 28/12 A2999 800 36 2500 160/13 RMK AO2
14837KMSN MSN20020618143009606/18/02 14:30:31  5-MIN KMSN 182030Z 17013KT 10SM FEW060 28/12 A2999 800 36 2500 160/13 RMK AO2
14837KMSN MSN20020618143509606/18/02 14:35:31  5-MIN KMSN 182035Z 18009KT 10SM FEW060 28/12 A2999 800 36 2500 180/09 RMK AO2
14837KMSN MSN20020618144009606/18/02 14:40:31  5-MIN KMSN 182040Z 17012KT 10SM FEW060 28/12 A2999 800 36 2500 170/12 RMK AO2
14837KMSN MSN20020618144509606/18/02 14:45:31  5-MIN KMSN 182045Z 15014KT 10SM FEW060 27/11 A2999 800 36 2400 150/14 RMK AO2
14837KMSN MSN20020618145011906/18/02 14:50:31  5-MIN KMSN 182050Z 17014KT 10SM FEW060 27/11 A2998 810 36 2400 170/14 RMK AO2 SLP149 T02720111 58010
14837KMSN MSN20020618145509606/18/02 14:55:31  5-MIN KMSN 182055Z 16013KT 10SM FEW060 28/11 A2998 810 35 2500 160/13 RMK AO2
14837KMSN MSN20020618150009606/18/02 15:00:31  5-MIN KMSN 182100Z 16012KT 10SM FEW060 27/11 A2998 810 36 2400 160/12 RMK AO2
14837KMSN MSN20020618150509606/18/02 15:05:31  5-MIN KMSN 182105Z 18012KT 10SM FEW060 27/11 A2998 810 34 2400 180/12 RMK AO2
14837KMSN MSN20020618151009606/18/02 15:10:31  5-MIN KMSN 182110Z 18013KT 10SM FEW060 27/11 A2998 810 34 2400 180/13 RMK AO2
14837KMSN MSN20020618151509606/18/02 15:15:31  5-MIN KMSN 182115Z 16014KT 10SM FEW060 28/11 A2998 810 35 2500 160/14 RMK AO2
14837KMSN MSN20020618152009606/18/02 15:20:31  5-MIN KMSN 182120Z 17014KT 10SM FEW060 28/11 A2998 810 35 2500 170/14 RMK AO2
14837KMSN MSN20020618152509606/18/02 15:25:31  5-MIN KMSN 182125Z 16012KT 10SM FEW060 28/11 A2998 810 35 2500 160/12 RMK AO2
14837KMSN MSN20020618153009606/18/02 15:30:31  5-MIN KMSN 182130Z 17014KT 10SM FEW060 28/11 A2998 810 35 2500 170/14 RMK AO2
14837KMSN MSN20020618153509606/18/02 15:35:31  5-MIN KMSN 182135Z 18011KT 10SM FEW060 28/11 A2998 810 33 2500 170/11 RMK AO2
14837KMSN MSN20020618154009606/18/02 15:40:31  5-MIN KMSN 182140Z 17012KT 10SM FEW060 27/11 A2998 810 34 2400 170/12 RMK AO2
14837KMSN MSN20020618154509606/18/02 15:45:31  5-MIN KMSN 182145Z 17011KT 10SM FEW060 27/11 A2998 810 34 2400 160/11 RMK AO2
14837KMSN MSN20020618155011306/18/02 15:50:31  5-MIN KMSN 182150Z 17010KT 10SM FEW060 27/11 A2998 810 36 2400 170/10 RMK AO2 SLP147 T02720111
14837KMSN MSN20020618155509306/18/02 15:55:31  5-MIN KMSN 182155Z 16012KT 10SM CLR 27/11 A2998 810 36 2400 160/12 RMK AO2
14837KMSN MSN20020618160009306/18/02 16:00:31  5-MIN KMSN 182200Z 17011KT 10SM CLR 27/12 A2998 810 38 2400 160/11 RMK AO2
14837KMSN MSN20020618160509606/18/02 16:05:31  5-MIN KMSN 182205Z 18010KT 10SM FEW060 27/11 A2997 820 36 2500 180/10 RMK AO2
14837KMSN MSN20020618161009606/18/02 16:10:31  5-MIN KMSN 182210Z 14010KT 10SM FEW060 27/12 A2997 820 37 2500 140/10 RMK AO2
14837KMSN MSN20020618161509606/18/02 16:15:31  5-MIN KMSN 182215Z 15010KT 10SM FEW060 27/12 A2997 820 38 2400 150/10 RMK AO2
14837KMSN MSN20020618162010206/18/02 16:20:31  5-MIN KMSN 182220Z 16012G16KT 10SM FEW060 27/11 A2997 820 36 2500 160/12G16 RMK AO2
14837KMSN MSN20020618162509606/18/02 16:25:31  5-MIN KMSN 182225Z 15012KT 10SM FEW060 27/12 A2997 820 37 2500 150/12 RMK AO2
14837KMSN MSN20020618163009306/18/02 16:30:31  5-MIN KMSN 182230Z 16010KT 10SM CLR 27/11 A2997 820 36 2500 160/10 RMK AO2
14837KMSN MSN20020618163509306/18/02 16:35:31  5-MIN KMSN 182235Z 15014KT 10SM CLR 27/11 A2997 820 34 2500 140/14 RMK AO2
14837KMSN MSN20020618164009306/18/02 16:40:31  5-MIN KMSN 182240Z 17010KT 10SM CLR 27/11 A2997 820 36 2500 170/10 RMK AO2
14837KMSN MSN20020618164509306/18/02 16:45:31  5-MIN KMSN 182245Z 17012KT 10SM CLR 27/11 A2997 820 34 2400 170/12 RMK AO2
14837KMSN MSN20020618165011306/18/02 16:50:31  5-MIN KMSN 182250Z 17013KT 10SM FEW060 27/11 A2997 820 37 2400 170/13 RMK AO2 SLP146 T02670111
14837KMSN MSN20020618165509606/18/02 16:55:31  5-MIN KMSN 182255Z 18009KT 10SM FEW060 27/12 A2997 820 38 2400 180/09 RMK AO2
14837KMSN MSN20020618170009606/18/02 17:00:31  5-MIN KMSN 182300Z 18010KT 10SM FEW060 27/12 A2998 810 38 2400 180/10 RMK AO2
14837KMSN MSN20020618170509606/18/02 17:05:31  5-MIN KMSN 182305Z 18010KT 10SM FEW060 27/12 A2997 810 37 2400 180/10 RMK AO2
14837KMSN MSN20020618171009606/18/02 17:10:31  5-MIN KMSN 182310Z 17011KT 10SM FEW060 27/11 A2997 820 37 2400 170/11 RMK AO2
14837KMSN MSN20020618171509606/18/02 17:15:31  5-MIN KMSN 182315Z 16010KT 10SM FEW070 27/11 A2997 820 37 2400 160/10 RMK AO2
14837KMSN MSN20020618172009606/18/02 17:20:31  5-MIN KMSN 182320Z 18010KT 10SM FEW070 27/12 A2997 820 38 2400 170/10 RMK AO2
14837KMSN MSN20020618172509606/18/02 17:25:31  5-MIN KMSN 182325Z 16011KT 10SM FEW070 26/12 A2997 810 41 2300 160/11 RMK AO2
14837KMSN MSN20020618173009606/18/02 17:30:31  5-MIN KMSN 182330Z 16012KT 10SM FEW070 26/12 A2998 810 41 2300 160/12 RMK AO2
14837KMSN MSN20020618173509606/18/02 17:35:31  5-MIN KMSN 182335Z 16011KT 10SM FEW070 26/12 A2998 810 41 2300 160/11 RMK AO2
14837KMSN MSN20020618174009606/18/02 17:40:31  5-MIN KMSN 182340Z 16011KT 10SM FEW070 26/12 A2998 810 41 2300 160/11 RMK AO2
14837KMSN MSN20020618174509606/18/02 17:45:31  5-MIN KMSN 182345Z 15011KT 10SM FEW070 26/12 A2998 810 41 2300 150/11 RMK AO2
14837KMSN MSN20020618175013106/18/02 17:50:31  5-MIN KMSN 182350Z 15010KT 10SM FEW070 26/12 A2998 810 43 2300 150/10 RMK AO2 SLP148 T02560122 10278 20256 58008
14837KMSN MSN20020618175509606/18/02 17:55:31  5-MIN KMSN 182355Z 15009KT 10SM FEW070 26/12 A2998 810 43 2300 150/09 RMK AO2
14837KMSN MSN20020618180009606/18/02 18:00:31  5-MIN KMSN 190000Z 13007KT 10SM FEW070 25/13 A2998 810 46 2200 130/07 RMK AO2
14837KMSN MSN20020618180510206/18/02 18:05:31  5-MIN KMSN 190005Z 12011G17KT 10SM FEW070 24/15 A2998 810 55 2100 120/11G17 RMK AO2
14837KMSN MSN20020618181010206/18/02 18:10:31  5-MIN KMSN 190010Z 11008G17KT 10SM FEW070 24/16 A2998 810 61 2100 110/08G17 RMK AO2
14837KMSN MSN20020618181509606/18/02 18:15:31  5-MIN KMSN 190015Z 11010KT 10SM FEW070 24/16 A2998 810 61 2100 100/10 RMK AO2
14837KMSN MSN20020618182009606/18/02 18:20:31  5-MIN KMSN 190020Z 11010KT 10SM FEW070 24/16 A2998 810 61 2100 110/10 RMK AO2
14837KMSN MSN20020618182509606/18/02 18:25:31  5-MIN KMSN 190025Z 11010KT 10SM FEW070 23/16 A2998 810 63 2000 110/10 RMK AO2
14837KMSN MSN20020618183009606/18/02 18:30:31  5-MIN KMSN 190030Z 11010KT 10SM FEW070 23/16 A2998 810 63 2000 110/10 RMK AO2
14837KMSN MSN20020618183509606/18/02 18:35:31  5-MIN KMSN 190035Z 11009KT 10SM FEW070 23/16 A2998 810 63 2000 110/09 RMK AO2
14837KMSN MSN20020618184009306/18/02 18:40:31  5-MIN KMSN 190040Z 12012KT 10SM CLR 23/16 A2998 810 63 2000 120/12 RMK AO2
14837KMSN MSN20020618184509306/18/02 18:45:31  5-MIN KMSN 190045Z 12011KT 10SM CLR 23/16 A2998 800 63 2000 120/11 RMK AO2
14837KMSN MSN20020618185011006/18/02 18:50:31  5-MIN KMSN 190050Z 12010KT 10SM CLR 23/16 A2998 800 61 2000 120/10 RMK AO2 SLP151 T02330156
14837KMSN MSN20020618185509306/18/02 18:55:31  5-MIN KMSN 190055Z 11011KT 10SM CLR 23/16 A2998 810 63 1900 110/11 RMK AO2
14837KMSN MSN20020618190009306/18/02 19:00:31  5-MIN KMSN 190100Z 11011KT 10SM CLR 23/16 A2998 810 63 1900 110/11 RMK AO2
14837KMSN MSN20020618190509306/18/02 19:05:31  5-MIN KMSN 190105Z 12010KT 10SM CLR 23/16 A2998 810 63 1900 120/10 RMK AO2
14837KMSN MSN20020618191009306/18/02 19:10:31  5-MIN KMSN 190110Z 12011KT 10SM CLR 23/16 A2998 810 63 1900 120/11 RMK AO2
14837KMSN MSN20020618191509306/18/02 19:15:31  5-MIN KMSN 190115Z 12010KT 10SM CLR 23/16 A2998 810 63 1900 120/10 RMK AO2
14837KMSN MSN20020618192009306/18/02 19:20:31  5-MIN KMSN 190120Z 12010KT 10SM CLR 22/16 A2998 810 65 1900 120/10 RMK AO2
14837KMSN MSN20020618192509306/18/02 19:25:31  5-MIN KMSN 190125Z 12010KT 10SM CLR 22/16 A2999 800 65 1900 120/10 RMK AO2
14837KMSN MSN20020618193009306/18/02 19:30:31  5-MIN KMSN 190130Z 12010KT 10SM CLR 22/16 A2999 800 65 1900 120/10 RMK AO2
14837KMSN MSN20020618193509306/18/02 19:35:31  5-MIN KMSN 190135Z 13010KT 10SM CLR 22/16 A2999 800 65 1900 120/10 RMK AO2
14837KMSN MSN20020618194009306/18/02 19:40:31  5-MIN KMSN 190140Z 12011KT 10SM CLR 22/15 A2999 800 63 1900 120/11 RMK AO2
14837KMSN MSN20020618194509306/18/02 19:45:31  5-MIN KMSN 190145Z 12008KT 10SM CLR 22/15 A2999 800 65 1800 120/08 RMK AO2
14837KMSN MSN20020618195011006/18/02 19:50:31  5-MIN KMSN 190150Z 12010KT 10SM CLR 22/16 A2999 800 68 1800 120/10 RMK AO2 SLP153 T02170156
14837KMSN MSN20020618195509306/18/02 19:55:31  5-MIN KMSN 190155Z 13009KT 10SM CLR 22/15 A3000 790 65 1800 120/09 RMK AO2
14837KMSN MSN20020618200009306/18/02 20:00:31  5-MIN KMSN 190200Z 13010KT 10SM CLR 22/15 A3000 790 65 1800 130/10 RMK AO2
14837KMSN MSN20020618200509306/18/02 20:05:31  5-MIN KMSN 190205Z 13008KT 10SM CLR 22/15 A3000 790 65 1800 120/08 RMK AO2
14837KMSN MSN20020618201009306/18/02 20:10:31  5-MIN KMSN 190210Z 13009KT 10SM CLR 22/15 A3000 790 65 1800 130/09 RMK AO2
14837KMSN MSN20020618201509306/18/02 20:15:31  5-MIN KMSN 190215Z 13010KT 10SM CLR 21/15 A3000 790 68 1700 130/10 RMK AO2
14837KMSN MSN20020618202009306/18/02 20:20:31  5-MIN KMSN 190220Z 13010KT 10SM CLR 21/14 A3000 790 65 1700 130/10 RMK AO2
14837KMSN MSN20020618202509306/18/02 20:25:31  5-MIN KMSN 190225Z 12009KT 10SM CLR 21/14 A3000 790 65 1700 120/09 RMK AO2
14837KMSN MSN20020618203009306/18/02 20:30:31  5-MIN KMSN 190230Z 13010KT 10SM CLR 21/14 A3000 790 65 1700 130/10 RMK AO2
14837KMSN MSN20020618203509306/18/02 20:35:31  5-MIN KMSN 190235Z 13010KT 10SM CLR 21/14 A3000 790 65 1700 130/10 RMK AO2
14837KMSN MSN20020618204009306/18/02 20:40:31  5-MIN KMSN 190240Z 13010KT 10SM CLR 21/14 A3001 780 65 1700 130/10 RMK AO2
14837KMSN MSN20020618204509306/18/02 20:45:31  5-MIN KMSN 190245Z 13011KT 10SM CLR 21/14 A3001 780 65 1700 130/11 RMK AO2
14837KMSN MSN20020618205011606/18/02 20:50:31  5-MIN KMSN 190250Z 13009KT 10SM CLR 21/14 A3001 780 65 1700 130/09 RMK AO2 SLP159 T02110144 55002
14837KMSN MSN20020618205509306/18/02 20:55:31  5-MIN KMSN 190255Z 14008KT 10SM CLR 21/14 A3002 780 63 1700 140/08 RMK AO2
14837KMSN MSN20020618210009306/18/02 21:00:31  5-MIN KMSN 190300Z 14008KT 10SM CLR 21/14 A3002 780 65 1600 140/08 RMK AO2
14837KMSN MSN20020618210509306/18/02 21:05:31  5-MIN KMSN 190305Z 14011KT 10SM CLR 21/14 A3002 780 65 1600 140/11 RMK AO2
14837KMSN MSN20020618211009306/18/02 21:10:31  5-MIN KMSN 190310Z 13009KT 10SM CLR 21/14 A3002 780 65 1600 130/09 RMK AO2
14837KMSN MSN20020618211509306/18/02 21:15:31  5-MIN KMSN 190315Z 13010KT 10SM CLR 21/14 A3002 780 65 1600 130/10 RMK AO2
14837KMSN MSN20020618212009306/18/02 21:20:31  5-MIN KMSN 190320Z 13008KT 10SM CLR 21/14 A3002 770 65 1600 130/08 RMK AO2
14837KMSN MSN20020618212509306/18/02 21:25:31  5-MIN KMSN 190325Z 13009KT 10SM CLR 21/14 A3002 770 65 1600 130/09 RMK AO2
14837KMSN MSN20020618213009306/18/02 21:30:31  5-MIN KMSN 190330Z 13009KT 10SM CLR 21/14 A3002 770 65 1600 130/09 RMK AO2
14837KMSN MSN20020618213509306/18/02 21:35:31  5-MIN KMSN 190335Z 13008KT 10SM CLR 21/14 A3002 770 65 1600 130/08 RMK AO2
14837KMSN MSN20020618214009306/18/02 21:40:31  5-MIN KMSN 190340Z 14009KT 10SM CLR 21/13 A3002 770 63 1600 140/09 RMK AO2
14837KMSN MSN20020618214509306/18/02 21:45:31  5-MIN KMSN 190345Z 14010KT 10SM CLR 20/13 A3002 770 65 1600 130/10 RMK AO2
14837KMSN MSN20020618215011006/18/02 21:50:31  5-MIN KMSN 190350Z 14009KT 10SM CLR 20/13 A3002 770 65 1600 140/09 RMK AO2 SLP161 T02000133
14837KMSN MSN20020618215509306/18/02 21:55:31  5-MIN KMSN 190355Z 14009KT 10SM CLR 20/13 A3002 770 65 1600 140/09 RMK AO2
14837KMSN MSN20020618220009306/18/02 22:00:31  5-MIN KMSN 190400Z 14008KT 10SM CLR 20/13 A3002 770 65 1600 140/08 RMK AO2
14837KMSN MSN20020618220509306/18/02 22:05:31  5-MIN KMSN 190405Z 14009KT 10SM CLR 20/13 A3002 770 65 1600 140/09 RMK AO2
14837KMSN MSN20020618221009306/18/02 22:10:31  5-MIN KMSN 190410Z 14009KT 10SM CLR 20/13 A3002 770 65 1600 140/09 RMK AO2
14837KMSN MSN20020618221509306/18/02 22:15:31  5-MIN KMSN 190415Z 14010KT 10SM CLR 20/13 A3002 780 65 1600 140/10 RMK AO2
14837KMSN MSN20020618222009306/18/02 22:20:31  5-MIN KMSN 190420Z 14009KT 10SM CLR 20/13 A3002 780 65 1600 140/09 RMK AO2
14837KMSN MSN20020618222509306/18/02 22:25:31  5-MIN KMSN 190425Z 13009KT 10SM CLR 20/13 A3002 770 65 1600 130/09 RMK AO2
14837KMSN MSN20020618223009306/18/02 22:30:31  5-MIN KMSN 190430Z 14010KT 10SM CLR 20/13 A3002 770 65 1600 140/10 RMK AO2
14837KMSN MSN20020618223509306/18/02 22:35:31  5-MIN KMSN 190435Z 14009KT 10SM CLR 20/13 A3002 770 65 1600 140/09 RMK AO2
14837KMSN MSN20020618224009306/18/02 22:40:31  5-MIN KMSN 190440Z 14008KT 10SM CLR 20/13 A3003 770 63 1600 140/08 RMK AO2
14837KMSN MSN20020618224509306/18/02 22:45:31  5-MIN KMSN 190445Z 14008KT 10SM CLR 20/13 A3003 760 63 1600 140/08 RMK AO2
14837KMSN MSN20020618225011006/18/02 22:50:31  5-MIN KMSN 190450Z 14007KT 10SM CLR 20/13 A3003 760 63 1600 140/07 RMK AO2 SLP166 T02000128
14837KMSN MSN20020618225509306/18/02 22:55:31  5-MIN KMSN 190455Z 15007KT 10SM CLR 20/13 A3003 760 63 1600 140/07 RMK AO2
14837KMSN MSN20020618230009306/18/02 23:00:31  5-MIN KMSN 190500Z 15007KT 10SM CLR 20/13 A3003 760 63 1600 140/07 RMK AO2
14837KMSN MSN20020618230509306/18/02 23:05:31  5-MIN KMSN 190505Z 14007KT 10SM CLR 20/13 A3003 760 63 1600 140/07 RMK AO2
14837KMSN MSN20020618231009306/18/02 23:10:31  5-MIN KMSN 190510Z 15005KT 10SM CLR 19/13 A3003 760 65 1500 150/05 RMK AO2
14837KMSN MSN20020618231509306/18/02 23:15:31  5-MIN KMSN 190515Z 14006KT 10SM CLR 20/13 A3003 760 63 1600 140/06 RMK AO2
14837KMSN MSN20020618232009306/18/02 23:20:31  5-MIN KMSN 190520Z 15007KT 10SM CLR 20/13 A3003 760 63 1600 150/07 RMK AO2
14837KMSN MSN20020618232509306/18/02 23:25:31  5-MIN KMSN 190525Z 14007KT 10SM CLR 20/13 A3003 760 63 1600 140/07 RMK AO2
14837KMSN MSN20020618233009306/18/02 23:30:31  5-MIN KMSN 190530Z 14007KT 10SM CLR 21/12 A3004 760 58 1600 140/07 RMK AO2
14837KMSN MSN20020618233509306/18/02 23:35:31  5-MIN KMSN 190535Z 15008KT 10SM CLR 21/12 A3004 760 58 1600 150/08 RMK AO2
14837KMSN MSN20020618234009306/18/02 23:40:31  5-MIN KMSN 190540Z 15007KT 10SM CLR 21/12 A3004 750 58 1600 150/07 RMK AO2
14837KMSN MSN20020618234509306/18/02 23:45:31  5-MIN KMSN 190545Z 16008KT 10SM CLR 21/12 A3004 750 58 1600 160/08 RMK AO2
14837KMSN MSN20020618235013806/18/02 23:50:31  5-MIN KMSN 190550Z 16009KT 10SM CLR 21/12 A3004 750 58 1600 160/09 RMK AO2 SLP167 T02060122 10256 20194 402780133 53012
14837KMSN MSN20020618235509306/18/02 23:55:31  5-MIN KMSN 190555Z 16009KT 10SM CLR 21/12 A3004 750 58 1600 160/09 RMK AO2
14837KMSN MSN20020619000009306/19/02 00:00:31  5-MIN KMSN 190600Z 16011KT 10SM CLR 21/13 A3004 760 60 1600 160/11 RMK AO2
14837KMSN MSN20020619000509306/19/02 00:05:31  5-MIN KMSN 190605Z 16011KT 10SM CLR 21/13 A3003 760 60 1600 160/11 RMK AO2
14837KMSN MSN20020619001009306/19/02 00:10:31  5-MIN KMSN 190610Z 16009KT 10SM CLR 21/13 A3004 760 60 1600 160/09 RMK AO2
14837KMSN MSN20020619001509306/19/02 00:15:31  5-MIN KMSN 190615Z 17007KT 10SM CLR 21/13 A3004 750 60 1600 170/07 RMK AO2
14837KMSN MSN20020619002009306/19/02 00:20:31  5-MIN KMSN 190620Z 17007KT 10SM CLR 21/13 A3004 750 60 1600 170/07 RMK AO2
14837KMSN MSN20020619002509306/19/02 00:25:31  5-MIN KMSN 190625Z 16007KT 10SM CLR 21/13 A3004 750 60 1600 160/07 RMK AO2
14837KMSN MSN20020619003009306/19/02 00:30:31  5-MIN KMSN 190630Z 15008KT 10SM CLR 20/13 A3004 760 63 1600 150/08 RMK AO2
14837KMSN MSN20020619003509306/19/02 00:35:31  5-MIN KMSN 190635Z 16009KT 10SM CLR 20/13 A3003 760 63 1600 160/09 RMK AO2
14837KMSN MSN20020619004009306/19/02 00:40:31  5-MIN KMSN 190640Z 16010KT 10SM CLR 20/13 A3003 760 63 1600 160/10 RMK AO2
14837KMSN MSN20020619004509306/19/02 00:45:31  5-MIN KMSN 190645Z 16011KT 10SM CLR 20/13 A3002 770 63 1600 160/11 RMK AO2
14837KMSN MSN20020619005011006/19/02 00:50:31  5-MIN KMSN 190650Z 16009KT 10SM CLR 19/13 A3002 770 65 1500 160/09 RMK AO2 SLP161 T01940128
14837KMSN MSN20020619005509306/19/02 00:55:31  5-MIN KMSN 190655Z 17009KT 10SM CLR 20/12 A3002 770 60 1600 170/09 RMK AO2
14837KMSN MSN20020619010009306/19/02 01:00:31  5-MIN KMSN 190700Z 17007KT 10SM CLR 21/12 A3002 770 58 1600 160/07 RMK AO2
14837KMSN MSN20020619010509306/19/02 01:05:31  5-MIN KMSN 190705Z 16009KT 10SM CLR 21/12 A3002 770 58 1600 160/09 RMK AO2
14837KMSN MSN20020619011009306/19/02 01:10:31  5-MIN KMSN 190710Z 17009KT 10SM CLR 21/12 A3002 770 58 1600 170/09 RMK AO2
14837KMSN MSN20020619011509306/19/02 01:15:31  5-MIN KMSN 190715Z 16011KT 10SM CLR 21/12 A3002 770 58 1600 160/11 RMK AO2
14837KMSN MSN20020619012009306/19/02 01:20:31  5-MIN KMSN 190720Z 16010KT 10SM CLR 21/12 A3003 770 56 1600 160/10 RMK AO2
14837KMSN MSN20020619012509306/19/02 01:25:31  5-MIN KMSN 190725Z 17009KT 10SM CLR 21/12 A3003 770 56 1600 170/09 RMK AO2
14837KMSN MSN20020619013009306/19/02 01:30:31  5-MIN KMSN 190730Z 17010KT 10SM CLR 21/12 A3003 770 56 1600 160/10 RMK AO2
14837KMSN MSN20020619013509306/19/02 01:35:31  5-MIN KMSN 190735Z 17009KT 10SM CLR 21/12 A3003 770 56 1600 170/09 RMK AO2
14837KMSN MSN20020619014009306/19/02 01:40:31  5-MIN KMSN 190740Z 16008KT 10SM CLR 20/12 A3003 770 58 1600 160/08 RMK AO2
14837KMSN MSN20020619014509306/19/02 01:45:31  5-MIN KMSN 190745Z 16009KT 10SM CLR 20/12 A3002 770 58 1600 160/09 RMK AO2
14837KMSN MSN20020619015011006/19/02 01:50:31  5-MIN KMSN 190750Z 16009KT 10SM CLR 20/12 A3002 770 58 1600 160/09 RMK AO2 SLP161 T02000117
14837KMSN MSN20020619015509306/19/02 01:55:31  5-MIN KMSN 190755Z 16010KT 10SM CLR 20/12 A3002 780 58 1600 150/10 RMK AO2
14837KMSN MSN20020619020009306/19/02 02:00:31  5-MIN KMSN 190800Z 15010KT 10SM CLR 20/11 A3001 780 56 1600 150/10 RMK AO2
14837KMSN MSN20020619020509306/19/02 02:05:31  5-MIN KMSN 190805Z 15011KT 10SM CLR 20/11 A3001 780 56 1600 150/11 RMK AO2
14837KMSN MSN20020619021009306/19/02 02:10:31  5-MIN KMSN 190810Z 15010KT 10SM CLR 20/11 A3001 780 56 1600 150/10 RMK AO2
14837KMSN MSN20020619021509306/19/02 02:15:31  5-MIN KMSN 190815Z 15009KT 10SM CLR 20/11 A3001 780 56 1600 150/09 RMK AO2
14837KMSN MSN20020619022009306/19/02 02:20:31  5-MIN KMSN 190820Z 16010KT 10SM CLR 20/11 A3001 780 56 1600 160/10 RMK AO2
14837KMSN MSN20020619022509306/19/02 02:25:31  5-MIN KMSN 190825Z 16010KT 10SM CLR 20/11 A3001 780 56 1600 160/10 RMK AO2
14837KMSN MSN20020619023009306/19/02 02:30:31  5-MIN KMSN 190830Z 17010KT 10SM CLR 20/11 A3001 790 56 1600 170/10 RMK AO2
14837KMSN MSN20020619023509306/19/02 02:35:31  5-MIN KMSN 190835Z 17011KT 10SM CLR 20/11 A3001 780 56 1600 170/11 RMK AO2
14837KMSN MSN20020619024009306/19/02 02:40:31  5-MIN KMSN 190840Z 16010KT 10SM CLR 20/11 A3001 780 54 1600 160/10 RMK AO2
14837KMSN MSN20020619024509306/19/02 02:45:31  5-MIN KMSN 190845Z 16010KT 10SM CLR 20/11 A3001 780 56 1600 160/10 RMK AO2
14837KMSN MSN20020619025011606/19/02 02:50:31  5-MIN KMSN 190850Z 16012KT 10SM CLR 20/11 A3001 780 56 1600 160/12 RMK AO2 SLP158 T02000111 53008
14837KMSN MSN20020619025509306/19/02 02:55:31  5-MIN KMSN 190855Z 16010KT 10SM CLR 21/11 A3001 780 54 1700 160/10 RMK AO2
14837KMSN MSN20020619030009306/19/02 03:00:31  5-MIN KMSN 190900Z 16010KT 10SM CLR 20/11 A3001 780 56 1600 160/10 RMK AO2
14837KMSN MSN20020619030509306/19/02 03:05:31  5-MIN KMSN 190905Z 16012KT 10SM CLR 20/11 A3001 780 56 1600 160/12 RMK AO2
14837KMSN MSN20020619031009306/19/02 03:10:31  5-MIN KMSN 190910Z 16012KT 10SM CLR 21/11 A3001 780 54 1700 160/12 RMK AO2
14837KMSN MSN20020619031509306/19/02 03:15:31  5-MIN KMSN 190915Z 16011KT 10SM CLR 21/11 A3001 780 54 1700 160/11 RMK AO2
14837KMSN MSN20020619032009306/19/02 03:20:31  5-MIN KMSN 190920Z 16011KT 10SM CLR 20/11 A3001 780 56 1600 160/11 RMK AO2
14837KMSN MSN20020619032509306/19/02 03:25:31  5-MIN KMSN 190925Z 16013KT 10SM CLR 21/11 A3000 790 54 1700 160/13 RMK AO2
14837KMSN MSN20020619033009306/19/02 03:30:31  5-MIN KMSN 190930Z 16011KT 10SM CLR 21/11 A3000 790 54 1700 160/11 RMK AO2
14837KMSN MSN20020619033509306/19/02 03:35:31  5-MIN KMSN 190935Z 16013KT 10SM CLR 21/11 A3000 790 54 1700 160/13 RMK AO2
14837KMSN MSN20020619034009306/19/02 03:40:31  5-MIN KMSN 190940Z 16015KT 10SM CLR 21/11 A3000 790 54 1700 160/15 RMK AO2
14837KMSN MSN20020619034509306/19/02 03:45:31  5-MIN KMSN 190945Z 17011KT 10SM CLR 21/11 A3000 790 54 1700 170/11 RMK AO2
14837KMSN MSN20020619035011606/19/02 03:50:31  5-MIN KMSN 190950Z 16013G17KT 10SM CLR 21/11 A3000 790 54 1700 160/13G17 RMK AO2 SLP154 T02060111
14837KMSN MSN20020619035509906/19/02 03:55:31  5-MIN KMSN 190955Z 17011G17KT 10SM CLR 21/11 A3000 790 54 1700 170/11G17 RMK AO2
14837KMSN MSN20020619040009306/19/02 04:00:31  5-MIN KMSN 191000Z 17011KT 10SM CLR 21/11 A3000 790 54 1700 170/11 RMK AO2
14837KMSN MSN20020619040509306/19/02 04:05:31  5-MIN KMSN 191005Z 17013KT 10SM CLR 21/11 A3000 790 54 1700 170/13 RMK AO2
14837KMSN MSN20020619041009906/19/02 04:10:31  5-MIN KMSN 191010Z 17011G18KT 10SM CLR 21/11 A3000 790 54 1700 170/11G18 RMK AO2
14837KMSN MSN20020619041509906/19/02 04:15:31  5-MIN KMSN 191015Z 17012G18KT 10SM CLR 21/11 A3000 790 54 1700 170/12G18 RMK AO2
14837KMSN MSN20020619042009306/19/02 04:20:31  5-MIN KMSN 191020Z 18011KT 10SM CLR 21/11 A3000 790 54 1700 170/11 RMK AO2
14837KMSN MSN20020619042509306/19/02 04:25:31  5-MIN KMSN 191025Z 17012KT 10SM CLR 21/11 A3000 790 54 1700 170/12 RMK AO2
14837KMSN MSN20020619043009906/19/02 04:30:31  5-MIN KMSN 191030Z 17012G17KT 10SM CLR 21/11 A3001 780 54 1600 170/12G17 RMK AO2
14837KMSN MSN20020619043509906/19/02 04:35:31  5-MIN KMSN 191035Z 17012G17KT 10SM CLR 21/11 A3002 770 54 1600 170/12G17 RMK AO2
14837KMSN MSN20020619044009306/19/02 04:40:31  5-MIN KMSN 191040Z 17011KT 10SM CLR 21/12 A3002 770 56 1600 170/11 RMK AO2
14837KMSN MSN20020619044509306/19/02 04:45:31  5-MIN KMSN 191045Z 17012KT 10SM CLR 21/12 A3002 770 56 1600 170/12 RMK AO2
14837KMSN MSN20020619045011006/19/02 04:50:31  5-MIN KMSN 191050Z 17012KT 10SM CLR 21/12 A3002 770 56 1600 170/12 RMK AO2 SLP161 T02060117
14837KMSN MSN20020619045509306/19/02 04:55:31  5-MIN KMSN 191055Z 17010KT 10SM CLR 21/12 A3002 770 56 1600 170/10 RMK AO2
14837KMSN MSN20020619050009306/19/02 05:00:31  5-MIN KMSN 191100Z 17011KT 10SM CLR 21/12 A3003 760 56 1600 170/11 RMK AO2
14837KMSN MSN20020619050509306/19/02 05:05:31  5-MIN KMSN 191105Z 17011KT 10SM CLR 21/12 A3003 760 56 1600 170/11 RMK AO2
14837KMSN MSN20020619051009306/19/02 05:10:31  5-MIN KMSN 191110Z 17010KT 10SM CLR 21/12 A3003 760 56 1600 170/10 RMK AO2
14837KMSN MSN20020619051509306/19/02 05:15:31  5-MIN KMSN 191115Z 18009KT 10SM CLR 21/12 A3004 750 56 1600 180/09 RMK AO2
14837KMSN MSN20020619052009306/19/02 05:20:31  5-MIN KMSN 191120Z 18010KT 10SM CLR 21/12 A3004 750 56 1600 180/10 RMK AO2
14837KMSN MSN20020619052509306/19/02 05:25:31  5-MIN KMSN 191125Z 17008KT 10SM CLR 21/12 A3005 750 58 1600 170/08 RMK AO2
14837KMSN MSN20020619053009306/19/02 05:30:31  5-MIN KMSN 191130Z 17011KT 10SM CLR 21/12 A3005 750 58 1600 170/11 RMK AO2
14837KMSN MSN20020619053509306/19/02 05:35:31  5-MIN KMSN 191135Z 17009KT 10SM CLR 21/12 A3005 750 58 1600 170/09 RMK AO2
14837KMSN MSN20020619054009306/19/02 05:40:31  5-MIN KMSN 191140Z 17009KT 10SM CLR 21/12 A3005 740 58 1600 170/09 RMK AO2
14837KMSN MSN20020619054509306/19/02 05:45:31  5-MIN KMSN 191145Z 17010KT 10SM CLR 21/13 A3005 750 60 1600 170/10 RMK AO2
14837KMSN MSN20020619055012806/19/02 05:50:31  5-MIN KMSN 191150Z 17011KT 10SM CLR 21/13 A3005 750 60 1600 160/11 RMK AO2 SLP169 T02060128 10206 20194 56010
14837KMSN MSN20020619055509306/19/02 05:55:31  5-MIN KMSN 191155Z 17011KT 10SM CLR 21/13 A3005 750 60 1600 170/11 RMK AO2
14837KMSN MSN20020619060009306/19/02 06:00:31  5-MIN KMSN 191200Z 17009KT 10SM CLR 21/13 A3005 750 58 1700 160/09 RMK AO2
14837KMSN MSN20020619060509306/19/02 06:05:31  5-MIN KMSN 191205Z 17008KT 10SM CLR 21/13 A3005 750 58 1700 170/08 RMK AO2
14837KMSN MSN20020619061009306/19/02 06:10:31  5-MIN KMSN 191210Z 16011KT 10SM CLR 21/13 A3004 750 58 1700 160/11 RMK AO2
14837KMSN MSN20020619061509306/19/02 06:15:31  5-MIN KMSN 191215Z 16011KT 10SM CLR 21/13 A3004 750 60 1600 160/11 RMK AO2
14837KMSN MSN20020619062009306/19/02 06:20:31  5-MIN KMSN 191220Z 17011KT 10SM CLR 21/13 A3004 750 58 1700 170/11 RMK AO2
14837KMSN MSN20020619062509306/19/02 06:25:31  5-MIN KMSN 191225Z 17009KT 10SM CLR 21/13 A3004 750 61 1700 170/09 RMK AO2
14837KMSN MSN20020619063009306/19/02 06:30:31  5-MIN KMSN 191230Z 17010KT 10SM CLR 21/13 A3004 750 61 1700 170/10 RMK AO2
14837KMSN MSN20020619063509206/19/02 06:35:31  5-MIN KMSN 191235Z 17009KT 9SM CLR 21/13 A3004 750 61 1700 170/09 RMK AO2
14837KMSN MSN20020619064011106/19/02 06:40:31  5-MIN KMSN 191240Z 17008KT 8SM -RA FEW100 21/14 A3005 750 65 1600 170/08 RMK AO2 RAB39 P0000
14837KMSN MSN20020619064511806/19/02 06:45:31  5-MIN KMSN 191245Z 18008KT 6SM -RA FEW022 OVC120 21/14 A3005 740 67 1600 180/08 RMK AO2 RAB39 P0000
14837KMSN MSN20020619065013506/19/02 06:50:31  5-MIN KMSN 191250Z 17009KT 5SM -RA BKN022 OVC120 20/14 A3006 730 70 1500 170/09 RMK AO2 RAB39 SLP175 P0000 T02000144
14837KMSN MSN20020619065510506/19/02 06:55:31  5-MIN KMSN 191255Z 16009KT 5SM -RA BKN029 20/15 A3007 730 72 1500 160/09 RMK AO2 P0000
14837KMSN MSN20020619070011206/19/02 07:00:31  5-MIN KMSN 191300Z 15009KT 7SM -RA BKN031 19/15 A3007 730 75 1500 150/09 RMK AO2 PRESRR P0000
14837KMSN MSN20020619190509306/19/02 19:05:31  5-MIN KMSN 200105Z 17010KT 10SM CLR 24/16 A3008 720 61 1900 170/10 RMK AO2
14837KMSN MSN20020619191009306/19/02 19:10:31  5-MIN KMSN 200110Z 17011KT 10SM CLR 23/16 A3008 710 63 1900 170/11 RMK AO2
14837KMSN MSN20020619191509306/19/02 19:15:31  5-MIN KMSN 200115Z 17011KT 10SM CLR 23/16 A3008 710 63 1900 170/11 RMK AO2
14837KMSN MSN20020619192009306/19/02 19:20:31  5-MIN KMSN 200120Z 17010KT 10SM CLR 23/16 A3008 720 63 1900 170/10 RMK AO2
14837KMSN MSN20020619192509306/19/02 19:25:31  5-MIN KMSN 200125Z 17009KT 10SM CLR 23/16 A3008 720 63 1900 170/09 RMK AO2
14837KMSN MSN20020619193009306/19/02 19:30:31  5-MIN KMSN 200130Z 17010KT 10SM CLR 23/16 A3008 720 63 1900 170/10 RMK AO2
14837KMSN MSN20020619193509306/19/02 19:35:31  5-MIN KMSN 200135Z 17009KT 10SM CLR 23/16 A3008 720 65 1800 170/09 RMK AO2
14837KMSN MSN20020619194009306/19/02 19:40:31  5-MIN KMSN 200140Z 17009KT 10SM CLR 23/16 A3008 720 65 1800 170/09 RMK AO2
14837KMSN MSN20020619194509206/19/02 19:45:31  5-MIN KMSN 200145Z 17008KT 8SM CLR 23/16 A3008 720 65 1800 170/08 RMK AO2
14837KMSN MSN20020619195010906/19/02 19:50:31  5-MIN KMSN 200150Z 17009KT 8SM CLR 23/16 A3008 720 65 1800 170/09 RMK AO2 SLP182 T02280161
14837KMSN MSN20020619195509206/19/02 19:55:31  5-MIN KMSN 200155Z 17008KT 8SM CLR 22/16 A3008 720 68 1800 170/08 RMK AO2
14837KMSN MSN20020619200009206/19/02 20:00:31  5-MIN KMSN 200200Z 17007KT 9SM CLR 23/16 A3008 720 65 1800 170/07 RMK AO2
14837KMSN MSN20020619200509206/19/02 20:05:31  5-MIN KMSN 200205Z 17007KT 8SM CLR 22/16 A3008 720 68 1800 170/07 RMK AO2
14837KMSN MSN20020619201009206/19/02 20:10:31  5-MIN KMSN 200210Z 17007KT 8SM CLR 22/16 A3008 710 68 1800 170/07 RMK AO2
14837KMSN MSN20020619201509206/19/02 20:15:31  5-MIN KMSN 200215Z 17007KT 8SM CLR 22/16 A3009 710 68 1800 170/07 RMK AO2
14837KMSN MSN20020619202009206/19/02 20:20:31  5-MIN KMSN 200220Z 16008KT 8SM CLR 22/16 A3009 710 68 1800 160/08 RMK AO2
14837KMSN MSN20020619202509206/19/02 20:25:31  5-MIN KMSN 200225Z 16008KT 8SM CLR 22/17 A3009 710 70 1800 160/08 RMK AO2
14837KMSN MSN20020619203009206/19/02 20:30:31  5-MIN KMSN 200230Z 16008KT 8SM CLR 22/17 A3009 710 70 1700 160/08 RMK AO2
14837KMSN MSN20020619203509206/19/02 20:35:31  5-MIN KMSN 200235Z 16007KT 8SM CLR 22/17 A3009 700 73 1700 160/07 RMK AO2
14837KMSN MSN20020619204009206/19/02 20:40:31  5-MIN KMSN 200240Z 16008KT 8SM CLR 22/17 A3010 700 73 1700 160/08 RMK AO2
14837KMSN MSN20020619204509206/19/02 20:45:31  5-MIN KMSN 200245Z 16007KT 8SM CLR 22/17 A3010 700 73 1700 160/07 RMK AO2
14837KMSN MSN20020619205011506/19/02 20:50:31  5-MIN KMSN 200250Z 17005KT 8SM CLR 22/17 A3010 700 73 1700 170/05 RMK AO2 SLP189 T02170167 55013
14837KMSN MSN20020619205509206/19/02 20:55:31  5-MIN KMSN 200255Z 17005KT 8SM CLR 22/16 A3010 700 70 1700 170/05 RMK AO2
14837KMSN MSN20020619210009206/19/02 21:00:31  5-MIN KMSN 200300Z 18005KT 8SM CLR 22/16 A3010 700 70 1700 180/05 RMK AO2
14837KMSN MSN20020619210509206/19/02 21:05:31  5-MIN KMSN 200305Z 18006KT 8SM CLR 22/16 A3010 700 70 1700 180/06 RMK AO2
14837KMSN MSN20020619211009206/19/02 21:10:31  5-MIN KMSN 200310Z 17007KT 8SM CLR 22/16 A3010 700 70 1700 170/07 RMK AO2
14837KMSN MSN20020619211509206/19/02 21:15:31  5-MIN KMSN 200315Z 17008KT 8SM CLR 22/16 A3010 700 68 1700 170/08 RMK AO2
14837KMSN MSN20020619212009206/19/02 21:20:31  5-MIN KMSN 200320Z 17007KT 8SM CLR 22/16 A3010 700 70 1700 170/07 RMK AO2
14837KMSN MSN20020619212509206/19/02 21:25:31  5-MIN KMSN 200325Z 17008KT 8SM CLR 22/16 A3009 700 70 1700 170/08 RMK AO2
14837KMSN MSN20020619213009206/19/02 21:30:31  5-MIN KMSN 200330Z 17009KT 8SM CLR 22/16 A3009 700 70 1700 170/09 RMK AO2
14837KMSN MSN20020619213509206/19/02 21:35:31  5-MIN KMSN 200335Z 17010KT 8SM CLR 22/16 A3009 710 70 1700 170/10 RMK AO2
14837KMSN MSN20020619214009206/19/02 21:40:31  5-MIN KMSN 200340Z 18009KT 8SM CLR 22/16 A3009 710 70 1700 180/09 RMK AO2
14837KMSN MSN20020619214509206/19/02 21:45:31  5-MIN KMSN 200345Z 18009KT 8SM CLR 22/16 A3010 700 68 1700 180/09 RMK AO2
14837KMSN MSN20020619215011006/19/02 21:50:31  5-MIN KMSN 200350Z 18009KT 10SM CLR 22/16 A3010 700 70 1700 180/09 RMK AO2 SLP189 T02170161
14837KMSN MSN20020619215509306/19/02 21:55:31  5-MIN KMSN 200355Z 19009KT 10SM CLR 22/16 A3010 700 68 1700 180/09 RMK AO2
14837KMSN MSN20020619220009306/19/02 22:00:31  5-MIN KMSN 200400Z 19008KT 10SM CLR 22/16 A3010 700 70 1700 190/08 RMK AO2
14837KMSN MSN20020619220509306/19/02 22:05:31  5-MIN KMSN 200405Z 19008KT 10SM CLR 22/16 A3010 700 70 1700 190/08 RMK AO2
14837KMSN MSN20020619221009306/19/02 22:10:31  5-MIN KMSN 200410Z 19008KT 10SM CLR 22/16 A3010 700 70 1700 190/08 RMK AO2
14837KMSN MSN20020619221509306/19/02 22:15:31  5-MIN KMSN 200415Z 18009KT 10SM CLR 22/16 A3010 700 70 1700 180/09 RMK AO2
14837KMSN MSN20020619222009306/19/02 22:20:31  5-MIN KMSN 200420Z 18008KT 10SM CLR 22/16 A3010 700 70 1700 180/08 RMK AO2
14837KMSN MSN20020619222509306/19/02 22:25:31  5-MIN KMSN 200425Z 18007KT 10SM CLR 22/16 A3010 700 70 1700 180/07 RMK AO2
14837KMSN MSN20020619223009306/19/02 22:30:31  5-MIN KMSN 200430Z 18008KT 10SM CLR 22/16 A3010 700 70 1700 180/08 RMK AO2
14837KMSN MSN20020619223509306/19/02 22:35:31  5-MIN KMSN 200435Z 18008KT 10SM CLR 22/16 A3010 700 68 1700 170/08 RMK AO2
14837KMSN MSN20020619224009306/19/02 22:40:31  5-MIN KMSN 200440Z 17008KT 10SM CLR 22/16 A3010 700 70 1700 170/08 RMK AO2
14837KMSN MSN20020619224509306/19/02 22:45:31  5-MIN KMSN 200445Z 18009KT 10SM CLR 22/16 A3010 700 68 1700 180/09 RMK AO2
14837KMSN MSN20020619225011306/19/02 22:50:31  5-MIN KMSN 200450Z 18008KT 10SM SCT110 22/16 A3010 700 65 1700 180/08 RMK AO2 SLP189 T02220156
14837KMSN MSN20020619225509506/19/02 22:55:31  5-MIN KMSN 200455Z 18009KT 8SM BKN110 22/16 A3010 700 68 1700 180/09 RMK AO2
14837KMSN MSN20020619230009506/19/02 23:00:31  5-MIN KMSN 200500Z 18008KT 8SM BKN110 22/16 A3010 700 68 1700 180/08 RMK AO2
14837KMSN MSN20020619230509506/19/02 23:05:31  5-MIN KMSN 200505Z 18008KT 8SM BKN110 22/16 A3010 700 65 1700 180/08 RMK AO2
14837KMSN MSN20020619231009506/19/02 23:10:31  5-MIN KMSN 200510Z 18009KT 8SM BKN110 22/16 A3011 690 65 1700 180/09 RMK AO2
14837KMSN MSN20020619231509506/19/02 23:15:31  5-MIN KMSN 200515Z 18009KT 8SM BKN110 22/16 A3011 690 65 1700 180/09 RMK AO2
14837KMSN MSN20020619232009506/19/02 23:20:31  5-MIN KMSN 200520Z 18009KT 8SM BKN110 23/16 A3011 690 63 1800 180/09 RMK AO2
14837KMSN MSN20020619232509506/19/02 23:25:31  5-MIN KMSN 200525Z 19008KT 8SM SCT110 22/16 A3011 690 65 1700 190/08 RMK AO2
14837KMSN MSN20020619233009506/19/02 23:30:31  5-MIN KMSN 200530Z 19007KT 8SM SCT120 22/16 A3012 680 65 1700 190/07 RMK AO2
14837KMSN MSN20020619233509506/19/02 23:35:31  5-MIN KMSN 200535Z 20007KT 8SM FEW120 22/16 A3012 680 65 1700 190/07 RMK AO2
14837KMSN MSN20020619234009506/19/02 23:40:31  5-MIN KMSN 200540Z 19007KT 8SM SCT120 22/16 A3013 670 65 1700 190/07 RMK AO2
14837KMSN MSN20020619234509506/19/02 23:45:31  5-MIN KMSN 200545Z 20008KT 8SM FEW120 23/16 A3013 670 63 1800 200/08 RMK AO2
14837KMSN MSN20020619235014006/19/02 23:50:31  5-MIN KMSN 200550Z 19007KT 8SM FEW120 23/16 A3013 670 63 1800 190/07 RMK AO2 SLP198 T02280156 10244 20217 402440194 53010
14837KMSN MSN20020619235509506/19/02 23:55:31  5-MIN KMSN 200555Z 19009KT 8SM FEW120 23/16 A3013 670 63 1800 190/09 RMK AO2
14837KMSN MSN20020620000009506/20/02 00:00:31  5-MIN KMSN 200600Z 19009KT 8SM FEW120 23/16 A3013 670 63 1800 190/09 RMK AO2
14837KMSN MSN20020620000509506/20/02 00:05:31  5-MIN KMSN 200605Z 19007KT 8SM FEW120 23/16 A3013 670 63 1800 190/07 RMK AO2
14837KMSN MSN20020620001009506/20/02 00:10:31  5-MIN KMSN 200610Z 19009KT 8SM FEW120 23/16 A3013 670 63 1800 190/09 RMK AO2
14837KMSN MSN20020620001509506/20/02 00:15:31  5-MIN KMSN 200615Z 19010KT 8SM FEW120 23/16 A3013 670 63 1800 190/10 RMK AO2
14837KMSN MSN20020620002009506/20/02 00:20:31  5-MIN KMSN 200620Z 19009KT 8SM FEW120 23/16 A3013 670 63 1800 190/09 RMK AO2
14837KMSN MSN20020620002509506/20/02 00:25:31  5-MIN KMSN 200625Z 20008KT 8SM FEW120 23/16 A3013 670 63 1800 200/08 RMK AO2
14837KMSN MSN20020620003009506/20/02 00:30:31  5-MIN KMSN 200630Z 19009KT 8SM FEW120 23/16 A3013 670 63 1800 190/09 RMK AO2
14837KMSN MSN20020620003509506/20/02 00:35:31  5-MIN KMSN 200635Z 19009KT 8SM FEW120 23/16 A3014 670 63 1800 190/09 RMK AO2
14837KMSN MSN20020620004009206/20/02 00:40:31  5-MIN KMSN 200640Z 19010KT 8SM CLR 23/16 A3014 660 63 1800 190/10 RMK AO2
14837KMSN MSN20020620004509506/20/02 00:45:31  5-MIN KMSN 200645Z 18008KT 8SM FEW120 23/17 A3014 660 68 1800 180/08 RMK AO2
14837KMSN MSN20020620005011206/20/02 00:50:31  5-MIN KMSN 200650Z 18009KT 8SM FEW120 23/17 A3014 660 68 1800 180/09 RMK AO2 SLP201 T02280167
14837KMSN MSN20020620005509506/20/02 00:55:31  5-MIN KMSN 200655Z 18007KT 8SM FEW120 23/16 A3014 660 63 1800 180/07 RMK AO2
14837KMSN MSN20020620010009506/20/02 01:00:31  5-MIN KMSN 200700Z 17009KT 8SM FEW120 22/16 A3014 660 65 1700 170/09 RMK AO2
14837KMSN MSN20020620010509506/20/02 01:05:31  5-MIN KMSN 200705Z 18009KT 8SM FEW120 22/16 A3014 670 65 1700 180/09 RMK AO2
14837KMSN MSN20020620011009506/20/02 01:10:31  5-MIN KMSN 200710Z 19008KT 8SM FEW120 23/16 A3014 660 63 1800 190/08 RMK AO2
14837KMSN MSN20020620011509206/20/02 01:15:31  5-MIN KMSN 200715Z 19009KT 8SM CLR 23/16 A3014 660 63 1800 190/09 RMK AO2
14837KMSN MSN20020620012009206/20/02 01:20:31  5-MIN KMSN 200720Z 19010KT 8SM CLR 23/16 A3014 660 63 1800 190/10 RMK AO2
14837KMSN MSN20020620012509206/20/02 01:25:31  5-MIN KMSN 200725Z 19011KT 8SM CLR 23/16 A3014 660 63 1800 190/11 RMK AO2
14837KMSN MSN20020620013009506/20/02 01:30:31  5-MIN KMSN 200730Z 20009KT 8SM FEW050 23/16 A3014 660 63 1800 190/09 RMK AO2
14837KMSN MSN20020620013509506/20/02 01:35:31  5-MIN KMSN 200735Z 20009KT 8SM SCT070 23/16 A3014 660 63 1800 190/09 RMK AO2
14837KMSN MSN20020620014009506/20/02 01:40:31  5-MIN KMSN 200740Z 19009KT 8SM SCT080 23/16 A3014 660 63 1800 190/09 RMK AO2
14837KMSN MSN20020620014511106/20/02 01:45:31  5-MIN KMSN 200745Z 20007KT 7SM -RA SCT055 23/16 A3015 660 63 1800 200/07 RMK AO2 RAB44 P0000
14837KMSN MSN20020620015012806/20/02 01:50:31  5-MIN KMSN 200750Z 20008KT 8SM -RA BKN060 22/16 A3015 650 68 1700 200/08 RMK AO2 RAB44 SLP204 P0000 T02220161
14837KMSN MSN20020620015510106/20/02 01:55:31  5-MIN KMSN 200755Z 19007KT 8SM BKN065 22/16 A3015 650 68 1700 190/07 RMK AO2 RAE54
14837KMSN MSN20020620020010306/20/02 02:00:31  5-MIN KMSN 200800Z 18008KT 8SM SCT070 23/16 A3015 650 65 1700 180/08 RMK AO2 RAE0754
14837KMSN MSN20020620020510306/20/02 02:05:31  5-MIN KMSN 200805Z 17008KT 8SM FEW055 22/16 A3015 650 68 1700 170/08 RMK AO2 RAE0754
14837KMSN MSN20020620021010306/20/02 02:10:31  5-MIN KMSN 200810Z 19010KT 7SM FEW050 22/16 A3015 650 68 1700 190/10 RMK AO2 RAE0754
14837KMSN MSN20020620021511606/20/02 02:15:31  5-MIN KMSN 200815Z 19008KT 6SM -RA FEW042 22/16 A3015 650 68 1700 190/08 RMK AO2 RAE0754B12 P0001
14837KMSN MSN20020620022012306/20/02 02:20:31  5-MIN KMSN 200820Z 18011KT 6SM -RA SCT055 SCT095 22/17 A3015 650 70 1700 180/11 RMK AO2 RAE0754B12 P0001
14837KMSN MSN20020620022512206/20/02 02:25:31  5-MIN KMSN 200825Z 18010KT 8SM SCT075 SCT100 22/17 A3015 650 70 1700 180/10 RMK AO2 RAE0754B12E24 P0001
14837KMSN MSN20020620023011506/20/02 02:30:31  5-MIN KMSN 200830Z 18010KT 8SM FEW075 22/17 A3015 660 70 1700 180/10 RMK AO2 RAE0754B12E24 P0001
14837KMSN MSN20020620023511506/20/02 02:35:31  5-MIN KMSN 200835Z 19010KT 7SM FEW065 22/17 A3015 650 70 1700 190/10 RMK AO2 RAE0754B12E24 P0001
14837KMSN MSN20020620024011506/20/02 02:40:31  5-MIN KMSN 200840Z 18009KT 7SM FEW065 22/17 A3015 650 70 1700 180/09 RMK AO2 RAE0754B12E24 P0001
14837KMSN MSN20020620024511506/20/02 02:45:31  5-MIN KMSN 200845Z 19008KT 7SM FEW095 22/17 A3015 650 70 1700 180/08 RMK AO2 RAE0754B12E24 P0001
14837KMSN MSN20020620025014106/20/02 02:50:31  5-MIN KMSN 200850Z 19008KT 7SM CLR 22/17 A3016 650 70 1700 190/08 RMK AO2 RAE0754B12E24 SLP207 P0001 60001 T02220167 53010
14837KMSN MSN20020620025509206/20/02 02:55:31  5-MIN KMSN 200855Z 19007KT 7SM CLR 22/17 A3016 650 73 1600 190/07 RMK AO2
14837KMSN MSN20020620030009206/20/02 03:00:31  5-MIN KMSN 200900Z 19008KT 7SM CLR 22/17 A3016 640 73 1600 180/08 RMK AO2
14837KMSN MSN20020620030509206/20/02 03:05:31  5-MIN KMSN 200905Z 19008KT 7SM CLR 22/17 A3016 640 73 1600 190/08 RMK AO2
14837KMSN MSN20020620031009506/20/02 03:10:31  5-MIN KMSN 200910Z 19008KT 7SM FEW100 22/17 A3016 640 73 1600 190/08 RMK AO2
14837KMSN MSN20020620031509506/20/02 03:15:31  5-MIN KMSN 200915Z 19008KT 7SM FEW100 22/17 A3016 640 73 1600 190/08 RMK AO2
14837KMSN MSN20020620032009506/20/02 03:20:31  5-MIN KMSN 200920Z 19007KT 7SM FEW110 22/17 A3016 640 73 1600 190/07 RMK AO2
14837KMSN MSN20020620032509506/20/02 03:25:31  5-MIN KMSN 200925Z 20006KT 7SM SCT110 22/17 A3016 640 73 1600 200/06 RMK AO2
14837KMSN MSN20020620033009506/20/02 03:30:31  5-MIN KMSN 200930Z 20007KT 7SM SCT110 22/17 A3016 640 73 1600 190/07 RMK AO2
14837KMSN MSN20020620033509506/20/02 03:35:31  5-MIN KMSN 200935Z 19007KT 7SM SCT110 22/17 A3016 640 73 1600 190/07 RMK AO2
14837KMSN MSN20020620034010506/20/02 03:40:31  5-MIN KMSN 200940Z 18006KT 6SM HZ FEW095 SCT120 21/17 A3016 640 75 1500 180/06 RMK AO2
14837KMSN MSN20020620034509806/20/02 03:45:31  5-MIN KMSN 200945Z 18006KT 6SM HZ SCT110 21/17 A3016 640 75 1500 180/06 RMK AO2
14837KMSN MSN20020620035011506/20/02 03:50:31  5-MIN KMSN 200950Z 19006KT 6SM HZ FEW100 21/17 A3016 640 75 1500 190/06 RMK AO2 SLP211 T02110167
14837KMSN MSN20020620035509806/20/02 03:55:31  5-MIN KMSN 200955Z 19005KT 6SM HZ FEW085 21/17 A3016 640 75 1500 190/05 RMK AO2
14837KMSN MSN20020620040009506/20/02 04:00:31  5-MIN KMSN 201000Z 19005KT 6SM HZ CLR 21/17 A3017 640 75 1500 190/05 RMK AO2
14837KMSN MSN20020620040509506/20/02 04:05:31  5-MIN KMSN 201005Z 20003KT 6SM HZ CLR 21/17 A3017 640 75 1500 200/03 RMK AO2
14837KMSN MSN20020620041009506/20/02 04:10:31  5-MIN KMSN 201010Z 21003KT 6SM HZ CLR 21/17 A3017 640 75 1500 210/03 RMK AO2
14837KMSN MSN20020620041509506/20/02 04:15:31  5-MIN KMSN 201015Z 18005KT 6SM HZ CLR 22/17 A3017 640 73 1600 170/05 RMK AO2
14837KMSN MSN20020620042009506/20/02 04:20:31  5-MIN KMSN 201020Z 18007KT 6SM HZ CLR 21/17 A3017 640 75 1500 180/07 RMK AO2
14837KMSN MSN20020620042509506/20/02 04:25:31  5-MIN KMSN 201025Z 17007KT 6SM HZ CLR 21/17 A3016 640 75 1500 170/07 RMK AO2
14837KMSN MSN20020620043009506/20/02 04:30:31  5-MIN KMSN 201030Z 17006KT 5SM HZ CLR 21/17 A3016 640 81 1500 170/06 RMK AO2
14837KMSN MSN20020620043509506/20/02 04:35:31  5-MIN KMSN 201035Z 18006KT 5SM HZ CLR 21/17 A3016 640 81 1500 180/06 RMK AO2
14837KMSN MSN20020620044009506/20/02 04:40:31  5-MIN KMSN 201040Z 18007KT 5SM HZ CLR 21/17 A3016 640 75 1500 170/07 RMK AO2
14837KMSN MSN20020620044509506/20/02 04:45:31  5-MIN KMSN 201045Z 18007KT 5SM HZ CLR 21/17 A3016 640 75 1500 180/07 RMK AO2
14837KMSN MSN20020620045011206/20/02 04:50:31  5-MIN KMSN 201050Z 18005KT 5SM HZ CLR 21/17 A3017 640 75 1500 180/05 RMK AO2 SLP210 T02110167
14837KMSN MSN20020620045509506/20/02 04:55:31  5-MIN KMSN 201055Z 18006KT 5SM HZ CLR 21/17 A3017 640 75 1500 180/06 RMK AO2
14837KMSN MSN20020620050009506/20/02 05:00:31  5-MIN KMSN 201100Z 18007KT 5SM HZ CLR 21/17 A3017 630 75 1500 180/07 RMK AO2
14837KMSN MSN20020620050509506/20/02 05:05:31  5-MIN KMSN 201105Z 19008KT 5SM HZ CLR 22/17 A3017 640 75 1600 180/08 RMK AO2
14837KMSN MSN20020620051009506/20/02 05:10:31  5-MIN KMSN 201110Z 18008KT 5SM HZ CLR 22/17 A3017 640 75 1600 180/08 RMK AO2
14837KMSN MSN20020620051509506/20/02 05:15:31  5-MIN KMSN 201115Z 18008KT 5SM HZ CLR 22/17 A3017 640 75 1600 180/08 RMK AO2
14837KMSN MSN20020620052009506/20/02 05:20:31  5-MIN KMSN 201120Z 18009KT 5SM HZ CLR 22/17 A3016 640 75 1600 180/09 RMK AO2
14837KMSN MSN20020620052509506/20/02 05:25:31  5-MIN KMSN 201125Z 18009KT 5SM HZ CLR 22/17 A3016 640 75 1600 180/09 RMK AO2
14837KMSN MSN20020620053009506/20/02 05:30:31  5-MIN KMSN 201130Z 18009KT 5SM HZ CLR 22/17 A3016 640 75 1600 180/09 RMK AO2
14837KMSN MSN20020620053509506/20/02 05:35:31  5-MIN KMSN 201135Z 17008KT 5SM HZ CLR 22/17 A3016 640 75 1600 170/08 RMK AO2
14837KMSN MSN20020620054009506/20/02 05:40:31  5-MIN KMSN 201140Z 17008KT 5SM HZ CLR 22/18 A3016 640 78 1600 170/08 RMK AO2
14837KMSN MSN20020620054509506/20/02 05:45:31  5-MIN KMSN 201145Z 17007KT 5SM HZ CLR 22/18 A3016 640 78 1600 170/07 RMK AO2
14837KMSN MSN20020620055014206/20/02 05:50:31  5-MIN KMSN 201150Z 17008KT 4SM HZ CLR 22/18 A3016 640 75 1700 170/08 RMK AO2 SLP209 60001 70005 T02220178 10228 20206 51009
14837KMSN MSN20020620055509506/20/02 05:55:31  5-MIN KMSN 201155Z 16011KT 4SM HZ CLR 22/18 A3016 650 75 1700 160/11 RMK AO2
14837KMSN MSN20020620060009506/20/02 06:00:31  5-MIN KMSN 201200Z 17010KT 5SM HZ CLR 22/18 A3016 650 75 1700 170/10 RMK AO2
14837KMSN MSN20020620060509506/20/02 06:05:31  5-MIN KMSN 201205Z 18011KT 5SM HZ CLR 22/18 A3016 650 75 1700 180/11 RMK AO2
14837KMSN MSN20020620061009506/20/02 06:10:31  5-MIN KMSN 201210Z 18009KT 5SM HZ CLR 22/18 A3016 640 75 1700 180/09 RMK AO2
14837KMSN MSN20020620061509506/20/02 06:15:31  5-MIN KMSN 201215Z 17009KT 5SM HZ CLR 22/18 A3016 640 75 1700 170/09 RMK AO2
14837KMSN MSN20020620062009506/20/02 06:20:31  5-MIN KMSN 201220Z 18009KT 4SM HZ CLR 23/18 A3017 640 73 1700 180/09 RMK AO2
14837KMSN MSN20020620062509806/20/02 06:25:31  5-MIN KMSN 201225Z 19007KT 5SM HZ FEW047 23/18 A3017 630 73 1700 180/07 RMK AO2
14837KMSN MSN20020620063009806/20/02 06:30:31  5-MIN KMSN 201230Z 18009KT 5SM HZ SCT047 23/18 A3017 630 73 1700 180/09 RMK AO2
14837KMSN MSN20020620063509806/20/02 06:35:31  5-MIN KMSN 201235Z 18009KT 5SM HZ SCT047 23/18 A3018 630 73 1700 180/09 RMK AO2
14837KMSN MSN20020620064009806/20/02 06:40:31  5-MIN KMSN 201240Z 18007KT 5SM HZ SCT047 23/18 A3018 630 73 1700 180/07 RMK AO2
14837KMSN MSN20020620064509806/20/02 06:45:31  5-MIN KMSN 201245Z 18009KT 5SM HZ BKN047 23/18 A3018 630 73 1700 180/09 RMK AO2
14837KMSN MSN20020620065011506/20/02 06:50:31  5-MIN KMSN 201250Z 18008KT 5SM HZ BKN047 23/18 A3018 630 73 1700 180/08 RMK AO2 SLP215 T02280178
14837KMSN MSN20020620065509806/20/02 06:55:31  5-MIN KMSN 201255Z 18009KT 5SM HZ BKN047 23/18 A3018 630 73 1700 180/09 RMK AO2
14837KMSN MSN20020620070009806/20/02 07:00:31  5-MIN KMSN 201300Z 18008KT 5SM HZ BKN047 23/18 A3018 630 73 1700 180/08 RMK AO2
14837KMSN MSN20020620070509806/20/02 07:05:31  5-MIN KMSN 201305Z 18009KT 5SM HZ BKN047 23/18 A3018 630 73 1700 180/09 RMK AO2
14837KMSN MSN20020620071009806/20/02 07:10:31  5-MIN KMSN 201310Z 18008KT 5SM HZ BKN047 23/18 A3018 630 73 1800 180/08 RMK AO2
14837KMSN MSN20020620071509806/20/02 07:15:31  5-MIN KMSN 201315Z 19009KT 6SM HZ BKN047 23/18 A3018 630 73 1800 180/09 RMK AO2
14837KMSN MSN20020620072009806/20/02 07:20:31  5-MIN KMSN 201320Z 19010KT 6SM HZ SCT047 23/18 A3018 630 73 1800 190/10 RMK AO2
14837KMSN MSN20020620072509806/20/02 07:25:31  5-MIN KMSN 201325Z 19010KT 6SM HZ FEW047 23/18 A3017 630 73 1800 180/10 RMK AO2
14837KMSN MSN20020620073009806/20/02 07:30:31  5-MIN KMSN 201330Z 20009KT 6SM HZ FEW047 24/18 A3018 630 71 1800 190/09 RMK AO2
14837KMSN MSN20020620073509506/20/02 07:35:31  5-MIN KMSN 201335Z 18011KT 6SM HZ CLR 24/18 A3017 630 71 1800 180/11 RMK AO2
14837KMSN MSN20020620074009506/20/02 07:40:31  5-MIN KMSN 201340Z 19010KT 6SM HZ CLR 24/18 A3018 630 71 1800 190/10 RMK AO2
14837KMSN MSN20020620074509506/20/02 07:45:31  5-MIN KMSN 201345Z 19010KT 6SM HZ CLR 24/18 A3018 630 71 1800 190/10 RMK AO2
14837KMSN MSN20020620075010906/20/02 07:50:31  5-MIN KMSN 201350Z 20008KT 7SM CLR 24/19 A3017 630 71 1900 200/08 RMK AO2 SLP212 T02440189
14837KMSN MSN20020620075509206/20/02 07:55:31  5-MIN KMSN 201355Z 20007KT 7SM CLR 24/19 A3018 630 71 1900 200/07 RMK AO2
14837KMSN MSN20020620080009206/20/02 08:00:31  5-MIN KMSN 201400Z 21008KT 7SM CLR 24/19 A3018 620 71 1900 210/08 RMK AO2
14837KMSN MSN20020620080509206/20/02 08:05:31  5-MIN KMSN 201405Z 21011KT 7SM CLR 25/19 A3018 620 68 2000 210/11 RMK AO2
14837KMSN MSN20020620081009206/20/02 08:10:31  5-MIN KMSN 201410Z 20010KT 7SM CLR 24/18 A3019 620 68 1900 200/10 RMK AO2
14837KMSN MSN20020620081509206/20/02 08:15:31  5-MIN KMSN 201415Z 21010KT 7SM CLR 25/19 A3019 610 68 1900 210/10 RMK AO2
14837KMSN MSN20020620082009206/20/02 08:20:31  5-MIN KMSN 201420Z 22007KT 7SM CLR 25/19 A3019 610 68 1900 220/07 RMK AO2
14837KMSN MSN20020620082509206/20/02 08:25:31  5-MIN KMSN 201425Z VRB06KT 7SM CLR 25/19 A3019 610 68 1900 VRB/06 RMK AO2
14837KMSN MSN20020620083009206/20/02 08:30:31  5-MIN KMSN 201430Z 23005KT 7SM CLR 25/19 A3020 610 68 1900 220/05 RMK AO2
14837KMSN MSN20020620083509206/20/02 08:35:31  5-MIN KMSN 201435Z 22007KT 7SM CLR 25/19 A3020 610 68 1900 220/07 RMK AO2
14837KMSN MSN20020620084010806/20/02 08:40:31  5-MIN KMSN 201440Z 23007KT 190V260 7SM CLR 26/19 A3020 610 66 2000 220/07 190V260 RMK AO2
14837KMSN MSN20020620084509206/20/02 08:45:31  5-MIN KMSN 201445Z 22009KT 7SM CLR 26/19 A3021 600 66 2000 220/09 RMK AO2
14837KMSN MSN20020620085012106/20/02 08:50:31  5-MIN KMSN 201450Z 23009G15KT 7SM CLR 26/19 A3021 600 68 2000 230/09G15 RMK AO2 SLP224 T02560194 50001
14837KMSN MSN20020620085509806/20/02 08:55:31  5-MIN KMSN 201455Z 21008G15KT 7SM CLR 26/19 A3021 600 68 2000 210/08G15 RMK AO2
14837KMSN MSN20020620090009206/20/02 09:00:31  5-MIN KMSN 201500Z 23007KT 7SM CLR 26/19 A3021 600 66 2000 230/07 RMK AO2
14837KMSN MSN20020620090509206/20/02 09:05:31  5-MIN KMSN 201505Z 23009KT 7SM CLR 26/19 A3021 600 68 2000 230/09 RMK AO2
14837KMSN MSN20020620091010806/20/02 09:10:31  5-MIN KMSN 201510Z 22007KT 180V280 7SM CLR 26/19 A3021 600 68 2000 220/07 180V280 RMK AO2
14837KMSN MSN20020620091510806/20/02 09:15:31  5-MIN KMSN 201515Z 23008KT 200V270 7SM CLR 26/19 A3021 600 66 2100 230/08 200V270 RMK AO2
14837KMSN MSN20020620092010106/20/02 09:20:31  5-MIN KMSN 201520Z 24008G14KT 7SM FEW030 26/19 A3022 590 66 2000 240/08G14 RMK AO2
14837KMSN MSN20020620092510106/20/02 09:25:31  5-MIN KMSN 201525Z 22008G14KT 7SM FEW030 26/19 A3021 600 68 2000 220/08G14 RMK AO2
14837KMSN MSN20020620093009506/20/02 09:30:31  5-MIN KMSN 201530Z 24009KT 7SM FEW030 26/19 A3021 590 68 2000 230/09 RMK AO2
14837KMSN MSN20020620093510106/20/02 09:35:31  5-MIN KMSN 201535Z 21009G14KT 7SM FEW030 26/19 A3021 590 66 2100 210/09G14 RMK AO2
14837KMSN MSN20020620094010106/20/02 09:40:31  5-MIN KMSN 201540Z 22008G14KT 7SM FEW030 26/20 A3021 590 68 2100 220/08G14 RMK AO2
14837KMSN MSN20020620094511106/20/02 09:45:31  5-MIN KMSN 201545Z 23007KT 200V260 7SM FEW030 26/20 A3021 590 68 2100 230/07 200V260 RMK AO2
14837KMSN MSN20020620095011206/20/02 09:50:31  5-MIN KMSN 201550Z 23009KT 7SM FEW030 26/20 A3022 590 68 2000 230/09 RMK AO2 SLP227 T02610200
14837KMSN MSN20020620095509506/20/02 09:55:31  5-MIN KMSN 201555Z 24008KT 6SM HZ CLR 26/19 A3022 590 66 2000 240/08 RMK AO2
14837KMSN MSN20020620100009206/20/02 10:00:31  5-MIN KMSN 201600Z VRB05KT 7SM CLR 26/20 A3022 590 71 2000 VRB/05 RMK AO2
14837KMSN MSN20020620100510806/20/02 10:05:31  5-MIN KMSN 201605Z 23007KT 190V260 7SM CLR 26/20 A3022 590 68 2000 230/07 190V260 RMK AO2
14837KMSN MSN20020620101009206/20/02 10:10:31  5-MIN KMSN 201610Z 23007KT 7SM CLR 27/20 A3021 590 66 2100 220/07 RMK AO2
14837KMSN MSN20020620101509506/20/02 10:15:31  5-MIN KMSN 201615Z 21008KT 7SM FEW030 27/21 A3022 590 66 2200 210/08 RMK AO2
14837KMSN MSN20020620102009506/20/02 10:20:31  5-MIN KMSN 201620Z 22008KT 7SM FEW030 27/20 A3022 590 66 2100 220/08 RMK AO2
14837KMSN MSN20020620102509506/20/02 10:25:31  5-MIN KMSN 201625Z 23006KT 7SM FEW030 27/20 A3022 590 66 2100 230/06 RMK AO2
14837KMSN MSN20020620103011106/20/02 10:30:31  5-MIN KMSN 201630Z 23007KT 190V260 7SM FEW030 27/21 A3022 590 69 2100 230/07 190V260 RMK AO2
14837KMSN MSN20020620103511106/20/02 10:35:31  5-MIN KMSN 201635Z 23008KT 200V270 7SM FEW030 27/20 A3022 590 64 2200 230/08 200V270 RMK AO2
14837KMSN MSN20020620104009506/20/02 10:40:31  5-MIN KMSN 201640Z 24008KT 7SM FEW030 27/20 A3022 590 64 2200 240/08 RMK AO2
14837KMSN MSN20020620104509506/20/02 10:45:31  5-MIN KMSN 201645Z 22007KT 7SM FEW030 27/21 A3022 590 66 2200 220/07 RMK AO2
14837KMSN MSN20020620105011206/20/02 10:50:31  5-MIN KMSN 201650Z VRB06KT 7SM FEW030 27/21 A3022 580 66 2200 VRB/06 RMK AO2 SLP229 T02720206
14837KMSN MSN20020620105509506/20/02 10:55:31  5-MIN KMSN 201655Z 25008KT 8SM FEW030 28/21 A3022 590 64 2200 250/08 RMK AO2
14837KMSN MSN20020620110009506/20/02 11:00:31  5-MIN KMSN 201700Z 21008KT 8SM FEW030 28/21 A3023 580 64 2200 210/08 RMK AO2
14837KMSN MSN20020620110509506/20/02 11:05:31  5-MIN KMSN 201705Z 23007KT 8SM FEW030 28/21 A3023 580 64 2200 230/07 RMK AO2
14837KMSN MSN20020620111009506/20/02 11:10:31  5-MIN KMSN 201710Z VRB06KT 8SM BKN032 28/21 A3023 580 64 2200 VRB/06 RMK AO2
14837KMSN MSN20020620111509506/20/02 11:15:31  5-MIN KMSN 201715Z VRB05KT 8SM BKN032 28/21 A3023 580 64 2200 VRB/05 RMK AO2
14837KMSN MSN20020620112011106/20/02 11:20:31  5-MIN KMSN 201720Z 23007KT 190V270 8SM BKN032 28/21 A3023 580 64 2200 220/07 190V270 RMK AO2
14837KMSN MSN20020620112509506/20/02 11:25:31  5-MIN KMSN 201725Z 23007KT 8SM BKN032 28/21 A3022 580 64 2200 230/07 RMK AO2
14837KMSN MSN20020620113009506/20/02 11:30:31  5-MIN KMSN 201730Z 22006KT 8SM BKN032 28/21 A3023 580 64 2200 220/06 RMK AO2
14837KMSN MSN20020620113509506/20/02 11:35:31  5-MIN KMSN 201735Z 23006KT 9SM SCT032 28/21 A3023 580 64 2300 230/06 RMK AO2
14837KMSN MSN20020620114009506/20/02 11:40:31  5-MIN KMSN 201740Z 24008KT 9SM BKN032 27/21 A3023 580 66 2200 240/08 RMK AO2
14837KMSN MSN20020620114509506/20/02 11:45:31  5-MIN KMSN 201745Z 25006KT 9SM BKN032 28/21 A3023 580 64 2200 250/06 RMK AO2
14837KMSN MSN20020620115013006/20/02 11:50:31  5-MIN KMSN 201750Z 23008KT 9SM BKN032 28/21 A3023 580 64 2200 230/08 RMK AO2 SLP231 T02780206 10283 20222 53016
14837KMSN MSN20020620115509506/20/02 11:55:31  5-MIN KMSN 201755Z VRB06KT 8SM FEW034 28/21 A3023 580 62 2300 VRB/06 RMK AO2
14837KMSN MSN20020620120009506/20/02 12:00:31  5-MIN KMSN 201800Z VRB05KT 8SM SCT034 28/21 A3023 580 64 2200 VRB/05 RMK AO2
14837KMSN MSN20020620120509506/20/02 12:05:31  5-MIN KMSN 201805Z VRB06KT 8SM SCT034 28/21 A3023 580 62 2300 VRB/06 RMK AO2
14837KMSN MSN20020620121009506/20/02 12:10:31  5-MIN KMSN 201810Z 22008KT 8SM SCT034 28/21 A3023 580 62 2300 220/08 RMK AO2
14837KMSN MSN20020620121509506/20/02 12:15:31  5-MIN KMSN 201815Z 22006KT 8SM SCT034 28/21 A3023 580 64 2300 220/06 RMK AO2
14837KMSN MSN20020620122009506/20/02 12:20:31  5-MIN KMSN 201820Z VRB06KT 8SM SCT034 28/21 A3023 580 62 2300 VRB/06 RMK AO2
14837KMSN MSN20020620122509506/20/02 12:25:31  5-MIN KMSN 201825Z 22008KT 8SM SCT034 28/21 A3023 580 64 2200 220/08 RMK AO2
14837KMSN MSN20020620123009506/20/02 12:30:31  5-MIN KMSN 201830Z 23008KT 8SM SCT034 28/21 A3023 580 64 2200 230/08 RMK AO2
14837KMSN MSN20020620123509506/20/02 12:35:31  5-MIN KMSN 201835Z 24007KT 8SM SCT034 28/21 A3023 580 62 2300 240/07 RMK AO2
14837KMSN MSN20020620124009506/20/02 12:40:31  5-MIN KMSN 201840Z VRB06KT 8SM SCT034 28/21 A3023 580 62 2300 VRB/06 RMK AO2
14837KMSN MSN20020620124509506/20/02 12:45:31  5-MIN KMSN 201845Z VRB06KT 8SM SCT034 28/21 A3023 580 64 2300 VRB/06 RMK AO2
14837KMSN MSN20020620125011206/20/02 12:50:31  5-MIN KMSN 201850Z VRB05KT 8SM SCT034 28/21 A3023 580 62 2300 VRB/05 RMK AO2 SLP231 T02830206
14837KMSN MSN20020620125509206/20/02 12:55:31  5-MIN KMSN 201855Z 23007KT 7SM CLR 28/21 A3023 580 64 2200 230/07 RMK AO2
14837KMSN MSN20020620130009606/20/02 13:00:31  5-MIN KMSN 201900Z 22007KT 10SM SCT035 28/21 A3023 580 62 2300 220/07 RMK AO2
14837KMSN MSN20020620130509606/20/02 13:05:31  5-MIN KMSN 201905Z VRB05KT 10SM SCT035 28/21 A3023 580 62 2300 VRB/05 RMK AO2
14837KMSN MSN20020620131009606/20/02 13:10:31  5-MIN KMSN 201910Z VRB03KT 10SM SCT035 29/21 A3023 580 62 2300 VRB/03 RMK AO2
14837KMSN MSN20020620131509606/20/02 13:15:31  5-MIN KMSN 201915Z 25006KT 10SM SCT035 28/21 A3023 580 62 2300 250/06 RMK AO2
14837KMSN MSN20020620132009606/20/02 13:20:31  5-MIN KMSN 201920Z VRB05KT 10SM SCT035 28/21 A3023 580 64 2300 VRB/05 RMK AO2
14837KMSN MSN20020620132509606/20/02 13:25:31  5-MIN KMSN 201925Z VRB05KT 10SM SCT035 28/21 A3023 580 62 2300 VRB/05 RMK AO2
14837KMSN MSN20020620133009606/20/02 13:30:31  5-MIN KMSN 201930Z VRB05KT 10SM SCT035 29/21 A3023 580 62 2300 VRB/05 RMK AO2
14837KMSN MSN20020620133509606/20/02 13:35:31  5-MIN KMSN 201935Z 22006KT 10SM SCT035 29/21 A3023 580 60 2300 220/06 RMK AO2
14837KMSN MSN20020620134009606/20/02 13:40:31  5-MIN KMSN 201940Z 22006KT 10SM SCT035 28/21 A3023 580 62 2300 210/06 RMK AO2
14837KMSN MSN20020620134509606/20/02 13:45:31  5-MIN KMSN 201945Z 22006KT 10SM SCT035 29/21 A3023 580 60 2300 220/06 RMK AO2
14837KMSN MSN20020620135012906/20/02 13:50:31  5-MIN KMSN 201950Z 26007KT 220V280 10SM SCT035 28/21 A3023 580 62 2300 250/07 220V280 RMK AO2 SLP232 T02830206
14837KMSN MSN20020620135509206/20/02 13:55:31  5-MIN KMSN 201955Z VRB05KT 8SM CLR 28/21 A3023 580 62 2300 VRB/05 RMK AO2
14837KMSN MSN20020620140011206/20/02 14:00:31  5-MIN KMSN 202000Z 23007KT 200V270 10SM FEW040 29/21 A3023 580 60 2300 230/07 200V270 RMK AO2
14837KMSN MSN20020620140509606/20/02 14:05:31  5-MIN KMSN 202005Z VRB06KT 10SM FEW040 29/21 A3023 580 60 2300 VRB/06 RMK AO2
14837KMSN MSN20020620141009606/20/02 14:10:31  5-MIN KMSN 202010Z 24006KT 10SM FEW040 28/20 A3023 580 60 2300 240/06 RMK AO2
14837KMSN MSN20020620141509606/20/02 14:15:31  5-MIN KMSN 202015Z VRB04KT 10SM FEW040 28/20 A3023 580 60 2300 VRB/04 RMK AO2
14837KMSN MSN20020620142009606/20/02 14:20:31  5-MIN KMSN 202020Z VRB04KT 10SM FEW040 28/21 A3023 580 62 2300 VRB/04 RMK AO2
14837KMSN MSN20020620142509606/20/02 14:25:31  5-MIN KMSN 202025Z VRB04KT 10SM FEW040 28/20 A3023 580 60 2300 VRB/04 RMK AO2
14837KMSN MSN20020620143009606/20/02 14:30:31  5-MIN KMSN 202030Z 26005KT 10SM FEW040 28/21 A3023 580 64 2200 260/05 RMK AO2
14837KMSN MSN20020620143509606/20/02 14:35:31  5-MIN KMSN 202035Z VRB04KT 10SM FEW040 28/21 A3023 580 62 2300 VRB/04 RMK AO2
14837KMSN MSN20020620144009606/20/02 14:40:31  5-MIN KMSN 202040Z VRB04KT 10SM FEW040 28/21 A3023 580 64 2200 VRB/04 RMK AO2
14837KMSN MSN20020620144509606/20/02 14:45:31  5-MIN KMSN 202045Z 24004KT 10SM FEW040 28/21 A3023 580 62 2300 240/04 RMK AO2
14837KMSN MSN20020620145012606/20/02 14:50:31  5-MIN KMSN 202050Z VRB04KT 10SM FEW040 BKN100 28/21 A3023 580 62 2300 VRB/04 RMK AO2 SLP231 T02830206 51007
14837KMSN MSN20020620145509206/20/02 14:55:31  5-MIN KMSN 202055Z VRB05KT 8SM CLR 28/21 A3023 580 62 2300 VRB/05 RMK AO2
14837KMSN MSN20020620150009606/20/02 15:00:31  5-MIN KMSN 202100Z 27005KT 10SM BKN100 28/21 A3023 580 62 2300 270/05 RMK AO2
14837KMSN MSN20020620150509606/20/02 15:05:31  5-MIN KMSN 202105Z 27004KT 10SM BKN100 29/21 A3023 580 60 2300 270/04 RMK AO2
14837KMSN MSN20020620151009606/20/02 15:10:31  5-MIN KMSN 202110Z 25005KT 10SM BKN100 28/21 A3023 580 64 2300 250/05 RMK AO2
14837KMSN MSN20020620151509606/20/02 15:15:31  5-MIN KMSN 202115Z VRB04KT 10SM BKN100 29/21 A3024 570 62 2300 VRB/04 RMK AO2
14837KMSN MSN20020620152009606/20/02 15:20:31  5-MIN KMSN 202120Z 26005KT 10SM BKN100 29/21 A3024 570 62 2300 260/05 RMK AO2
14837KMSN MSN20020620152509606/20/02 15:25:31  5-MIN KMSN 202125Z 26005KT 10SM BKN100 29/21 A3023 580 62 2300 260/05 RMK AO2
14837KMSN MSN20020620153009606/20/02 15:30:31  5-MIN KMSN 202130Z VRB06KT 10SM BKN100 29/21 A3023 580 62 2300 VRB/06 RMK AO2
14837KMSN MSN20020620153509606/20/02 15:35:31  5-MIN KMSN 202135Z 24006KT 10SM SCT045 29/21 A3024 570 60 2300 240/06 RMK AO2
14837KMSN MSN20020620154009606/20/02 15:40:31  5-MIN KMSN 202140Z VRB06KT 10SM SCT045 29/21 A3023 580 60 2300 VRB/06 RMK AO2
14837KMSN MSN20020620154509606/20/02 15:45:31  5-MIN KMSN 202145Z VRB03KT 10SM SCT045 28/20 A3023 570 60 2300 VRB/03 RMK AO2
14837KMSN MSN20020620155012006/20/02 15:50:31  5-MIN KMSN 202150Z VRB04KT 10SM SCT045 SCT110 28/21 A3023 570 62 2300 VRB/04 RMK AO2 SLP233 T02830206
14837KMSN MSN20020620155510306/20/02 15:55:31  5-MIN KMSN 202155Z 28005KT 10SM SCT045 SCT110 29/21 A3024 570 60 2300 270/05 RMK AO2
14837KMSN MSN20020620160010306/20/02 16:00:31  5-MIN KMSN 202200Z 30005KT 10SM SCT045 SCT110 29/21 A3024 570 62 2300 300/05 RMK AO2
14837KMSN MSN20020620160510306/20/02 16:05:31  5-MIN KMSN 202205Z VRB05KT 10SM FEW045 SCT110 29/21 A3023 580 60 2400 VRB/05 RMK AO2
14837KMSN MSN20020620161010306/20/02 16:10:31  5-MIN KMSN 202210Z 30006KT 10SM FEW045 SCT110 29/21 A3023 580 60 2300 290/06 RMK AO2
14837KMSN MSN20020620161510306/20/02 16:15:31  5-MIN KMSN 202215Z 27006KT 10SM FEW045 SCT110 29/21 A3023 580 60 2300 270/06 RMK AO2
14837KMSN MSN20020620162010306/20/02 16:20:31  5-MIN KMSN 202220Z 29005KT 10SM FEW045 SCT110 29/21 A3023 580 60 2300 290/05 RMK AO2
14837KMSN MSN20020620162510306/20/02 16:25:31  5-MIN KMSN 202225Z 30005KT 10SM FEW045 SCT110 29/21 A3023 580 62 2300 300/05 RMK AO2
14837KMSN MSN20020620163010306/20/02 16:30:31  5-MIN KMSN 202230Z 29005KT 10SM FEW045 SCT110 29/21 A3023 580 60 2300 290/05 RMK AO2
14837KMSN MSN20020620163510306/20/02 16:35:31  5-MIN KMSN 202235Z 30005KT 10SM FEW045 SCT110 28/21 A3023 580 62 2300 300/05 RMK AO2
14837KMSN MSN20020620164010306/20/02 16:40:31  5-MIN KMSN 202240Z 30004KT 10SM FEW045 SCT110 28/21 A3023 580 62 2300 300/04 RMK AO2
14837KMSN MSN20020620164510306/20/02 16:45:31  5-MIN KMSN 202245Z 00000KT 10SM FEW045 SCT110 28/21 A3023 580 64 2300 000/00 RMK AO2
14837KMSN MSN20020620165011306/20/02 16:50:31  5-MIN KMSN 202250Z VRB03KT 10SM SCT110 28/21 A3023 580 64 2300 VRB/03 RMK AO2 SLP231 T02830211
14837KMSN MSN20020620165509606/20/02 16:55:31  5-MIN KMSN 202255Z VRB03KT 10SM SCT110 28/21 A3023 580 64 2300 VRB/03 RMK AO2
14837KMSN MSN20020620170009606/20/02 17:00:31  5-MIN KMSN 202300Z 30003KT 10SM SCT110 28/21 A3023 580 64 2300 300/03 RMK AO2
14837KMSN MSN20020620170509606/20/02 17:05:31  5-MIN KMSN 202305Z 30004KT 10SM SCT110 28/21 A3023 580 62 2300 300/04 RMK AO2
14837KMSN MSN20020620171009606/20/02 17:10:31  5-MIN KMSN 202310Z 30004KT 10SM SCT110 28/21 A3023 580 64 2300 300/04 RMK AO2
14837KMSN MSN20020620171509606/20/02 17:15:31  5-MIN KMSN 202315Z 29005KT 10SM FEW120 28/21 A3023 580 64 2300 290/05 RMK AO2
14837KMSN MSN20020620172009606/20/02 17:20:31  5-MIN KMSN 202320Z 31003KT 10SM FEW120 28/21 A3023 580 62 2300 310/03 RMK AO2
14837KMSN MSN20020620172509606/20/02 17:25:31  5-MIN KMSN 202325Z 29004KT 10SM FEW120 28/21 A3023 580 66 2200 290/04 RMK AO2
14837KMSN MSN20020620173009606/20/02 17:30:31  5-MIN KMSN 202330Z VRB03KT 10SM FEW038 28/21 A3023 580 66 2200 VRB/03 RMK AO2
14837KMSN MSN20020620173509306/20/02 17:35:31  5-MIN KMSN 202335Z 29004KT 10SM CLR 28/21 A3023 580 64 2300 290/04 RMK AO2
14837KMSN MSN20020620174009306/20/02 17:40:31  5-MIN KMSN 202340Z 31004KT 10SM CLR 28/21 A3023 580 64 2300 310/04 RMK AO2
14837KMSN MSN20020620174509306/20/02 17:45:31  5-MIN KMSN 202345Z 31003KT 10SM CLR 28/21 A3023 570 64 2300 310/03 RMK AO2
14837KMSN MSN20020620175012806/20/02 17:50:31  5-MIN KMSN 202350Z 32004KT 10SM CLR 28/22 A3024 570 69 2200 320/04 RMK AO2 SLP233 T02780217 10294 20278 58000
14837KMSN MSN20020620175509206/20/02 17:55:31  5-MIN KMSN 202355Z 33004KT 8SM CLR 28/22 A3024 570 69 2200 320/04 RMK AO2
14837KMSN MSN20020620180009206/20/02 18:00:31  5-MIN KMSN 210000Z 33003KT 8SM CLR 28/21 A3024 570 66 2200 330/03 RMK AO2
14837KMSN MSN20020620180509206/20/02 18:05:31  5-MIN KMSN 210005Z 32003KT 8SM CLR 27/22 A3024 570 71 2100 320/03 RMK AO2
14837KMSN MSN20020620181009206/20/02 18:10:31  5-MIN KMSN 210010Z 33003KT 8SM CLR 27/22 A3024 570 71 2100 330/03 RMK AO2
14837KMSN MSN20020620181509206/20/02 18:15:31  5-MIN KMSN 210015Z 33003KT 7SM CLR 27/22 A3024 570 71 2100 320/03 RMK AO2
14837KMSN MSN20020620182009206/20/02 18:20:31  5-MIN KMSN 210020Z 31004KT 7SM CLR 27/22 A3024 570 73 2100 310/04 RMK AO2
14837KMSN MSN20020620182509206/20/02 18:25:31  5-MIN KMSN 210025Z 32003KT 7SM CLR 27/22 A3024 570 73 2100 320/03 RMK AO2
14837KMSN MSN20020620183009206/20/02 18:30:31  5-MIN KMSN 210030Z 32003KT 7SM CLR 27/22 A3024 570 73 2100 320/03 RMK AO2
14837KMSN MSN20020620183509206/20/02 18:35:31  5-MIN KMSN 210035Z 32004KT 7SM CLR 27/22 A3024 570 73 2100 320/04 RMK AO2
14837KMSN MSN20020620184009206/20/02 18:40:31  5-MIN KMSN 210040Z 33003KT 7SM CLR 27/22 A3025 570 73 2100 330/03 RMK AO2
14837KMSN MSN20020620184509506/20/02 18:45:31  5-MIN KMSN 210045Z 00000KT 7SM FEW120 27/21 A3025 560 71 2100 000/00 RMK AO2
14837KMSN MSN20020620185011306/20/02 18:50:31  5-MIN KMSN 210050Z 34003KT 10SM FEW120 27/21 A3025 560 71 2100 330/03 RMK AO2 SLP237 T02670211
14837KMSN MSN20020620185509206/20/02 18:55:31  5-MIN KMSN 210055Z 34003KT 7SM CLR 26/22 A3025 560 76 2000 340/03 RMK AO2
14837KMSN MSN20020620190009206/20/02 19:00:31  5-MIN KMSN 210100Z 00000KT 7SM CLR 26/22 A3025 560 76 2000 000/00 RMK AO2
14837KMSN MSN20020620190509206/20/02 19:05:31  5-MIN KMSN 210105Z 00000KT 7SM CLR 26/22 A3025 560 79 1900 000/00 RMK AO2
14837KMSN MSN20020620191009206/20/02 19:10:31  5-MIN KMSN 210110Z 00000KT 9SM CLR 26/22 A3025 560 79 1900 000/00 RMK AO2
14837KMSN MSN20020620191509206/20/02 19:15:31  5-MIN KMSN 210115Z 00000KT 9SM CLR 26/22 A3025 560 76 2000 000/00 RMK AO2
14837KMSN MSN20020620192009206/20/02 19:20:31  5-MIN KMSN 210120Z 00000KT 9SM CLR 26/22 A3025 560 79 1900 000/00 RMK AO2
14837KMSN MSN20020620192509206/20/02 19:25:31  5-MIN KMSN 210125Z 00000KT 9SM CLR 26/22 A3025 560 79 1900 000/00 RMK AO2
14837KMSN MSN20020620193009206/20/02 19:30:31  5-MIN KMSN 210130Z 00000KT 9SM CLR 25/22 A3025 560 81 1900 000/00 RMK AO2
14837KMSN MSN20020620193509206/20/02 19:35:31  5-MIN KMSN 210135Z 00000KT 9SM CLR 24/22 A3025 560 84 1800 000/00 RMK AO2
14837KMSN MSN20020620194009206/20/02 19:40:31  5-MIN KMSN 210140Z 00000KT 8SM CLR 24/22 A3025 560 87 1800 000/00 RMK AO2
14837KMSN MSN20020620194509206/20/02 19:45:31  5-MIN KMSN 210145Z 00000KT 8SM CLR 24/21 A3024 570 84 1800 000/00 RMK AO2
14837KMSN MSN20020620195010906/20/02 19:50:31  5-MIN KMSN 210150Z 00000KT 8SM CLR 24/21 A3025 560 84 1800 000/00 RMK AO2 SLP238 T02390211
14837KMSN MSN20020620195509506/20/02 19:55:31  5-MIN KMSN 210155Z 00000KT 6SM HZ CLR 24/21 A3025 560 84 1800 000/00 RMK AO2
14837KMSN MSN20020620200009506/20/02 20:00:31  5-MIN KMSN 210200Z 00000KT 6SM BR CLR 23/21 A3025 560 87 1700 000/00 RMK AO2
14837KMSN MSN20020620200509506/20/02 20:05:31  5-MIN KMSN 210205Z 00000KT 6SM BR CLR 23/21 A3025 560 90 1600 000/00 RMK AO2
14837KMSN MSN20020620201009506/20/02 20:10:31  5-MIN KMSN 210210Z 00000KT 6SM BR CLR 23/21 A3025 560 90 1600 000/00 RMK AO2
14837KMSN MSN20020620201509506/20/02 20:15:31  5-MIN KMSN 210215Z 00000KT 6SM BR CLR 23/21 A3025 560 90 1600 000/00 RMK AO2
14837KMSN MSN20020620202009506/20/02 20:20:31  5-MIN KMSN 210220Z 00000KT 5SM BR CLR 23/21 A3025 560 90 1600 000/00 RMK AO2
14837KMSN MSN20020620202509506/20/02 20:25:31  5-MIN KMSN 210225Z 00000KT 5SM BR CLR 22/21 A3026 550 93 1600 000/00 RMK AO2
14837KMSN MSN20020620203009506/20/02 20:30:31  5-MIN KMSN 210230Z 32004KT 5SM BR CLR 23/21 A3026 550 90 1600 320/04 RMK AO2
14837KMSN MSN20020620203509506/20/02 20:35:31  5-MIN KMSN 210235Z 33004KT 6SM BR CLR 23/21 A3026 550 90 1600 320/04 RMK AO2
14837KMSN MSN20020620204009506/20/02 20:40:31  5-MIN KMSN 210240Z 00000KT 6SM BR CLR 23/21 A3026 550 87 1700 000/00 RMK AO2
14837KMSN MSN20020620204509506/20/02 20:45:31  5-MIN KMSN 210245Z 00000KT 6SM BR CLR 23/21 A3026 550 87 1600 000/00 RMK AO2
14837KMSN MSN20020620205011506/20/02 20:50:31  5-MIN KMSN 210250Z 00000KT 8SM CLR 23/21 A3026 550 87 1600 000/00 RMK AO2 SLP241 T02280206 51002
14837KMSN MSN20020620205509506/20/02 20:55:31  5-MIN KMSN 210255Z 00000KT 6SM BR CLR 23/21 A3026 550 90 1600 000/00 RMK AO2
14837KMSN MSN20020620210009506/20/02 21:00:31  5-MIN KMSN 210300Z 00000KT 6SM BR CLR 23/21 A3026 550 87 1600 000/00 RMK AO2
14837KMSN MSN20020620210509506/20/02 21:05:31  5-MIN KMSN 210305Z 00000KT 6SM BR CLR 22/21 A3027 550 90 1600 000/00 RMK AO2
14837KMSN MSN20020620211009506/20/02 21:10:31  5-MIN KMSN 210310Z 00000KT 5SM BR CLR 22/21 A3027 540 93 1500 000/00 RMK AO2
14837KMSN MSN20020620211509506/20/02 21:15:31  5-MIN KMSN 210315Z 00000KT 5SM BR CLR 22/21 A3027 540 93 1500 000/00 RMK AO2
14837KMSN MSN20020620212009506/20/02 21:20:31  5-MIN KMSN 210320Z 00000KT 5SM BR CLR 22/21 A3027 540 93 1500 000/00 RMK AO2
14837KMSN MSN20020620212509506/20/02 21:25:31  5-MIN KMSN 210325Z 30003KT 5SM BR CLR 22/21 A3027 540 93 1500 300/03 RMK AO2
14837KMSN MSN20020620213009506/20/02 21:30:31  5-MIN KMSN 210330Z 31003KT 5SM BR CLR 22/21 A3027 540 93 1500 310/03 RMK AO2
14837KMSN MSN20020620213509506/20/02 21:35:31  5-MIN KMSN 210335Z 00000KT 5SM BR CLR 22/21 A3027 540 93 1500 000/00 RMK AO2
14837KMSN MSN20020620214009506/20/02 21:40:31  5-MIN KMSN 210340Z 00000KT 5SM BR CLR 22/21 A3027 540 93 1500 000/00 RMK AO2
14837KMSN MSN20020620214509506/20/02 21:45:31  5-MIN KMSN 210345Z 00000KT 5SM BR CLR 21/20 A3027 540 93 1400 000/00 RMK AO2
14837KMSN MSN20020620215010906/20/02 21:50:31  5-MIN KMSN 210350Z 00000KT 8SM CLR 22/20 A3027 540 90 1500 000/00 RMK AO2 SLP247 T02170200
14837KMSN MSN20020620215509506/20/02 21:55:31  5-MIN KMSN 210355Z 00000KT 5SM BR CLR 22/20 A3028 540 90 1500 000/00 RMK AO2
14837KMSN MSN20020620220009506/20/02 22:00:31  5-MIN KMSN 210400Z 00000KT 5SM BR CLR 22/21 A3028 540 93 1500 000/00 RMK AO2
14837KMSN MSN20020620220509506/20/02 22:05:31  5-MIN KMSN 210405Z 00000KT 5SM BR CLR 21/20 A3027 540 93 1400 000/00 RMK AO2
14837KMSN MSN20020620221009506/20/02 22:10:31  5-MIN KMSN 210410Z 00000KT 5SM BR CLR 22/20 A3027 540 90 1500 000/00 RMK AO2
14837KMSN MSN20020620221509506/20/02 22:15:31  5-MIN KMSN 210415Z 00000KT 5SM BR CLR 22/20 A3027 540 90 1500 000/00 RMK AO2
14837KMSN MSN20020620222009506/20/02 22:20:31  5-MIN KMSN 210420Z 00000KT 5SM BR CLR 21/20 A3027 540 93 1400 000/00 RMK AO2
14837KMSN MSN20020620222509506/20/02 22:25:31  5-MIN KMSN 210425Z 00000KT 6SM BR CLR 21/20 A3028 540 93 1400 000/00 RMK AO2
14837KMSN MSN20020620223009506/20/02 22:30:31  5-MIN KMSN 210430Z 00000KT 6SM BR CLR 21/20 A3028 540 93 1400 000/00 RMK AO2
14837KMSN MSN20020620223509506/20/02 22:35:31  5-MIN KMSN 210435Z 00000KT 6SM BR CLR 21/19 A3028 530 93 1300 000/00 RMK AO2
14837KMSN MSN20020620224009506/20/02 22:40:31  5-MIN KMSN 210440Z 00000KT 6SM BR CLR 21/19 A3028 530 93 1300 000/00 RMK AO2
14837KMSN MSN20020620224509506/20/02 22:45:31  5-MIN KMSN 210445Z 00000KT 6SM BR CLR 21/19 A3028 530 90 1400 000/00 RMK AO2
14837KMSN MSN20020620225010906/20/02 22:50:31  5-MIN KMSN 210450Z 00000KT 8SM CLR 21/19 A3028 530 93 1300 000/00 RMK AO2 SLP249 T02060194
14837KMSN MSN20020620225509206/20/02 22:55:31  5-MIN KMSN 210455Z 00000KT 8SM CLR 21/19 A3028 530 93 1300 000/00 RMK AO2
14837KMSN MSN20020620230009206/20/02 23:00:31  5-MIN KMSN 210500Z 00000KT 8SM CLR 21/20 A3028 530 97 1300 000/00 RMK AO2
14837KMSN MSN20020620230509206/20/02 23:05:31  5-MIN KMSN 210505Z 00000KT 8SM CLR 20/19 A3028 530 97 1300 000/00 RMK AO2
14837KMSN MSN20020620231009206/20/02 23:10:31  5-MIN KMSN 210510Z 31003KT 8SM CLR 20/19 A3028 530 97 1300 310/03 RMK AO2
14837KMSN MSN20020620231509206/20/02 23:15:31  5-MIN KMSN 210515Z 00000KT 8SM CLR 21/19 A3028 530 93 1300 000/00 RMK AO2
14837KMSN MSN20020620232009206/20/02 23:20:31  5-MIN KMSN 210520Z 00000KT 8SM CLR 21/19 A3028 530 93 1300 000/00 RMK AO2
14837KMSN MSN20020620232509206/20/02 23:25:31  5-MIN KMSN 210525Z 00000KT 8SM CLR 21/19 A3028 530 93 1300 000/00 RMK AO2
14837KMSN MSN20020620233009206/20/02 23:30:31  5-MIN KMSN 210530Z 00000KT 8SM CLR 21/19 A3029 530 90 1300 000/00 RMK AO2
14837KMSN MSN20020620233509206/20/02 23:35:31  5-MIN KMSN 210535Z 34004KT 8SM CLR 20/19 A3029 530 93 1300 340/04 RMK AO2
14837KMSN MSN20020620234009206/20/02 23:40:31  5-MIN KMSN 210540Z 34004KT 8SM CLR 20/19 A3029 530 93 1300 340/04 RMK AO2
14837KMSN MSN20020620234509206/20/02 23:45:31  5-MIN KMSN 210545Z 34003KT 8SM CLR 20/19 A3029 530 93 1300 340/03 RMK AO2
14837KMSN MSN20020620235013706/20/02 23:50:31  5-MIN KMSN 210550Z 00000KT 8SM CLR 20/19 A3029 520 93 1300 000/00 RMK AO2 SLP252 T02000189 10278 20200 402940200 51007
14837KMSN MSN20020620235509506/20/02 23:55:31  5-MIN KMSN 210555Z 00000KT 5SM BR CLR 19/19 A3029 520 97 1200 000/00 RMK AO2
14837KMSN MSN20020621000009206/21/02 00:00:31  5-MIN KMSN 210600Z 00000KT 8SM CLR 19/19 A3029 520 97 1200 000/00 RMK AO2
14837KMSN MSN20020621000509206/21/02 00:05:31  5-MIN KMSN 210605Z 36003KT 8SM CLR 20/19 A3029 520 93 1300 360/03 RMK AO2
14837KMSN MSN20020621001009206/21/02 00:10:31  5-MIN KMSN 210610Z 01004KT 8SM CLR 19/19 A3029 520 97 1200 010/04 RMK AO2
14837KMSN MSN20020621001509206/21/02 00:15:31  5-MIN KMSN 210615Z 01003KT 8SM CLR 20/19 A3029 520 97 1300 010/03 RMK AO2
14837KMSN MSN20020621002009206/21/02 00:20:31  5-MIN KMSN 210620Z 01003KT 8SM CLR 21/19 A3029 520 93 1300 360/03 RMK AO2
14837KMSN MSN20020621002509206/21/02 00:25:31  5-MIN KMSN 210625Z 00000KT 8SM CLR 20/19 A3029 520 93 1300 000/00 RMK AO2
14837KMSN MSN20020621003009206/21/02 00:30:31  5-MIN KMSN 210630Z 00000KT 8SM CLR 20/19 A3029 520 93 1300 000/00 RMK AO2
14837KMSN MSN20020621003509206/21/02 00:35:31  5-MIN KMSN 210635Z 00000KT 8SM CLR 20/19 A3029 520 93 1300 000/00 RMK AO2
14837KMSN MSN20020621004009506/21/02 00:40:31  5-MIN KMSN 210640Z 00000KT 8SM FEW065 19/18 A3030 520 93 1200 000/00 RMK AO2
14837KMSN MSN20020621004509606/21/02 00:45:31  5-MIN KMSN 210645Z 00000KT 10SM SCT070 19/18 A3030 520 97 1100 000/00 RMK AO2
14837KMSN MSN20020621005011306/21/02 00:50:31  5-MIN KMSN 210650Z 00000KT 10SM SCT070 19/18 A3030 520 93 1200 000/00 RMK AO2 SLP255 T01940183
14837KMSN MSN20020621005509606/21/02 00:55:31  5-MIN KMSN 210655Z 00000KT 10SM BKN070 19/18 A3030 520 93 1200 000/00 RMK AO2
14837KMSN MSN20020621010009606/21/02 01:00:31  5-MIN KMSN 210700Z 00000KT 10SM BKN070 19/18 A3029 520 93 1200 000/00 RMK AO2
14837KMSN MSN20020621010509606/21/02 01:05:31  5-MIN KMSN 210705Z 00000KT 10SM BKN070 20/18 A3029 520 90 1300 000/00 RMK AO2
14837KMSN MSN20020621011009606/21/02 01:10:31  5-MIN KMSN 210710Z 00000KT 10SM SCT070 19/18 A3029 520 93 1200 000/00 RMK AO2
14837KMSN MSN20020621011509606/21/02 01:15:31  5-MIN KMSN 210715Z 00000KT 10SM BKN070 19/18 A3030 520 93 1200 000/00 RMK AO2
14837KMSN MSN20020621012009606/21/02 01:20:31  5-MIN KMSN 210720Z 32003KT 10SM BKN070 19/18 A3030 520 97 1100 320/03 RMK AO2
14837KMSN MSN20020621012509606/21/02 01:25:31  5-MIN KMSN 210725Z 00000KT 10SM BKN070 20/18 A3030 520 87 1300 000/00 RMK AO2
14837KMSN MSN20020621013009606/21/02 01:30:31  5-MIN KMSN 210730Z 00000KT 10SM BKN070 20/18 A3030 520 87 1300 000/00 RMK AO2
14837KMSN MSN20020621013509606/21/02 01:35:31  5-MIN KMSN 210735Z 00000KT 10SM BKN070 20/18 A3029 520 87 1300 000/00 RMK AO2
14837KMSN MSN20020621014009606/21/02 01:40:31  5-MIN KMSN 210740Z 00000KT 10SM SCT070 20/18 A3029 520 87 1300 000/00 RMK AO2
14837KMSN MSN20020621014509606/21/02 01:45:31  5-MIN KMSN 210745Z 00000KT 10SM SCT070 19/18 A3029 530 90 1200 000/00 RMK AO2
14837KMSN MSN20020621015011306/21/02 01:50:31  5-MIN KMSN 210750Z 36003KT 10SM FEW075 19/17 A3029 520 87 1200 360/03 RMK AO2 SLP252 T01940172
14837KMSN MSN20020621015509306/21/02 01:55:31  5-MIN KMSN 210755Z 00000KT 10SM CLR 19/17 A3029 520 87 1200 000/00 RMK AO2
14837KMSN MSN20020621020009306/21/02 02:00:31  5-MIN KMSN 210800Z 00000KT 10SM CLR 19/17 A3029 530 87 1200 000/00 RMK AO2
14837KMSN MSN20020621020509306/21/02 02:05:31  5-MIN KMSN 210805Z 00000KT 10SM CLR 19/17 A3028 530 87 1200 000/00 RMK AO2
14837KMSN MSN20020621021009306/21/02 02:10:31  5-MIN KMSN 210810Z 00000KT 10SM CLR 19/17 A3029 530 90 1100 000/00 RMK AO2
14837KMSN MSN20020621021509306/21/02 02:15:31  5-MIN KMSN 210815Z 00000KT 10SM CLR 19/17 A3029 530 87 1200 000/00 RMK AO2
14837KMSN MSN20020621022009306/21/02 02:20:31  5-MIN KMSN 210820Z 31003KT 10SM CLR 19/17 A3029 520 90 1100 310/03 RMK AO2
14837KMSN MSN20020621022509306/21/02 02:25:31  5-MIN KMSN 210825Z 00000KT 10SM CLR 19/17 A3029 530 87 1200 000/00 RMK AO2
14837KMSN MSN20020621023009306/21/02 02:30:31  5-MIN KMSN 210830Z 00000KT 10SM CLR 19/17 A3029 520 87 1200 000/00 RMK AO2
14837KMSN MSN20020621023509306/21/02 02:35:31  5-MIN KMSN 210835Z 00000KT 10SM CLR 19/17 A3029 520 87 1200 000/00 RMK AO2
14837KMSN MSN20020621024009606/21/02 02:40:31  5-MIN KMSN 210840Z 00000KT 10SM SCT044 19/17 A3029 520 90 1100 000/00 RMK AO2
14837KMSN MSN20020621024509606/21/02 02:45:31  5-MIN KMSN 210845Z 00000KT 10SM SCT044 19/17 A3029 520 87 1200 000/00 RMK AO2
14837KMSN MSN20020621025011906/21/02 02:50:31  5-MIN KMSN 210850Z 00000KT 10SM FEW044 19/17 A3029 520 90 1100 000/00 RMK AO2 SLP254 T01890172 51011
14837KMSN MSN20020621025509606/21/02 02:55:31  5-MIN KMSN 210855Z 00000KT 10SM FEW044 19/17 A3030 520 84 1200 000/00 RMK AO2
14837KMSN MSN20020621030011406/21/02 03:00:31  5-MIN KMSN 210900Z 00000KT 10SM SCT044 SCT060 19/17 A3030 510 90 1100 000/00 RMK AO2 LTG DSNT N
14837KMSN MSN20020621030511406/21/02 03:05:31  5-MIN KMSN 210905Z 00000KT 10SM SCT044 BKN060 19/17 A3030 520 90 1100 000/00 RMK AO2 LTG DSNT N
14837KMSN MSN20020621031010706/21/02 03:10:31  5-MIN KMSN 210910Z 30004KT 10SM SCT044 19/17 A3030 510 90 1100 300/04 RMK AO2 LTG DSNT N
14837KMSN MSN20020621031510706/21/02 03:15:31  5-MIN KMSN 210915Z 32004KT 10SM SCT044 19/17 A3031 510 90 1100 310/04 RMK AO2 LTG DSNT N
14837KMSN MSN20020621032010306/21/02 03:20:31  5-MIN KMSN 210920Z 31004KT 10SM SCT044 BKN055 19/17 A3031 510 87 1200 310/04 RMK AO2
14837KMSN MSN20020621032510306/21/02 03:25:31  5-MIN KMSN 210925Z 32003KT 10SM BKN044 BKN055 20/17 A3031 500 84 1200 320/03 RMK AO2
14837KMSN MSN20020621033010306/21/02 03:30:31  5-MIN KMSN 210930Z 32003KT 10SM BKN044 BKN055 19/17 A3031 500 87 1200 320/03 RMK AO2
14837KMSN MSN20020621033510306/21/02 03:35:31  5-MIN KMSN 210935Z 00000KT 10SM SCT044 SCT055 20/17 A3031 510 84 1200 000/00 RMK AO2
14837KMSN MSN20020621034011006/21/02 03:40:31  5-MIN KMSN 210940Z 00000KT 10SM SCT044 SCT055 SCT070 19/17 A3031 510 87 1200 000/00 RMK AO2
14837KMSN MSN20020621034511006/21/02 03:45:31  5-MIN KMSN 210945Z 00000KT 10SM FEW044 SCT055 BKN065 19/17 A3031 500 90 1100 000/00 RMK AO2
14837KMSN MSN20020621035012706/21/02 03:50:31  5-MIN KMSN 210950Z 02003KT 10SM SCT048 BKN060 BKN080 19/17 A3031 500 87 1200 020/03 RMK AO2 SLP261 T01940172
14837KMSN MSN20020621035511006/21/02 03:55:31  5-MIN KMSN 210955Z 36004KT 10SM FEW043 SCT050 BKN070 19/17 A3032 500 87 1200 350/04 RMK AO2
14837KMSN MSN20020621040011006/21/02 04:00:31  5-MIN KMSN 211000Z 35007KT 10SM FEW028 SCT041 BKN050 19/17 A3033 490 87 1200 350/07 RMK AO2
14837KMSN MSN20020621040511006/21/02 04:05:31  5-MIN KMSN 211005Z 35008KT 10SM SCT028 BKN041 OVC080 20/17 A3033 490 84 1200 350/08 RMK AO2
14837KMSN MSN20020621041011006/21/02 04:10:31  5-MIN KMSN 211010Z 35005KT 10SM BKN028 BKN050 BKN080 20/17 A3034 480 81 1200 350/05 RMK AO2
14837KMSN MSN20020621041513506/21/02 04:15:31  5-MIN KMSN 211015Z 33010G14KT 10SM BKN030 BKN040 OVC050 20/17 A3036 460 81 1200 330/10G14 RMK AO2 PRESRR LTG DSNT NE
14837KMSN MSN20020621042013506/21/02 04:20:31  5-MIN KMSN 211020Z 34014G22KT 10SM BKN030 BKN042 OVC050 21/16 A3037 450 75 1200 340/14G22 RMK AO2 PRESRR LTG DSNT NE
14837KMSN MSN20020621042512806/21/02 04:25:31  5-MIN KMSN 211025Z 36018G24KT 10SM BKN030 BKN043 OVC050 20/16 A3035 470 75 1200 360/18G24 RMK AO2 LTG DSNT NE
14837KMSN MSN20020621043012106/21/02 04:30:31  5-MIN KMSN 211030Z 36015G24KT 10SM SCT030 OVC047 20/16 A3035 470 75 1200 360/15G24 RMK AO2 LTG DSNT NE
14837KMSN MSN20020621043511606/21/02 04:35:31  5-MIN KMSN 211035Z 36014G21KT 10SM SCT030 BKN047 OVC100 19/15 A3035 470 75 1100 360/14G21 RMK AO2
14837KMSN MSN20020621044011606/21/02 04:40:31  5-MIN KMSN 211040Z 36015G19KT 10SM FEW032 SCT043 BKN050 19/15 A3035 470 75 1100 360/15G19 RMK AO2
14837KMSN MSN20020621044511606/21/02 04:45:31  5-MIN KMSN 211045Z 01015G21KT 10SM FEW043 SCT050 BKN095 19/15 A3035 470 78 1100 010/15G21 RMK AO2
14837KMSN MSN20020621045012606/21/02 04:50:31  5-MIN KMSN 211050Z 01013G21KT 10SM FEW050 BKN100 19/15 A3035 470 78 1100 010/13G21 RMK AO2 SLP273 T01890150
14837KMSN MSN20020621045511306/21/02 04:55:31  5-MIN KMSN 211055Z 02013KT 10SM -RA FEW048 BKN095 19/14 A3035 470 75 1100 020/13 RMK AO2 P0000
14837KMSN MSN20020621050011306/21/02 05:00:31  5-MIN KMSN 211100Z 02012KT 10SM -RA FEW029 BKN100 19/14 A3035 470 75 1100 020/12 RMK AO2 P0000
14837KMSN MSN20020621050512206/21/02 05:05:31  5-MIN KMSN 211105Z 03009KT 10SM FEW029 SCT090 BKN110 19/14 A3035 470 75 1100 030/09 RMK AO2 RAE05 P0000
14837KMSN MSN20020621051011506/21/02 05:10:31  5-MIN KMSN 211110Z 03009KT 10SM FEW090 SCT110 19/14 A3035 470 75 1100 030/09 RMK AO2 RAE05 P0000
14837KMSN MSN20020621051511506/21/02 05:15:31  5-MIN KMSN 211115Z 04011KT 10SM FEW090 SCT110 18/15 A3035 470 81 1000 040/11 RMK AO2 RAE05 P0000
14837KMSN MSN20020621052010806/21/02 05:20:31  5-MIN KMSN 211120Z 02009KT 10SM FEW090 18/15 A3035 470 81 1000 020/09 RMK AO2 RAE05 P0000
14837KMSN MSN20020621052510806/21/02 05:25:31  5-MIN KMSN 211125Z 01009KT 10SM FEW110 18/15 A3035 470 81 1000 010/09 RMK AO2 RAE05 P0000
14837KMSN MSN20020621053010806/21/02 05:30:31  5-MIN KMSN 211130Z 36009KT 10SM FEW110 18/15 A3035 470 81 1000 360/09 RMK AO2 RAE05 P0000
14837KMSN MSN20020621053510506/21/02 05:35:31  5-MIN KMSN 211135Z 01008KT 10SM CLR 18/15 A3035 470 81 1000 010/08 RMK AO2 RAE05 P0000
14837KMSN MSN20020621054010506/21/02 05:40:31  5-MIN KMSN 211140Z 36006KT 10SM CLR 18/16 A3036 460 84 1000 360/06 RMK AO2 RAE05 P0000
14837KMSN MSN20020621054510806/21/02 05:45:31  5-MIN KMSN 211145Z 01005KT 10SM FEW100 18/16 A3036 460 84 1000 360/05 RMK AO2 RAE05 P0000
14837KMSN MSN20020621055014906/21/02 05:50:31  5-MIN KMSN 211150Z 02007KT 10SM FEW100 18/16 A3036 460 84 1000 020/07 RMK AO2 RAE05 SLP277 P0000 60000 T01830156 10206 20183 51002
14837KMSN MSN20020621055509606/21/02 05:55:31  5-MIN KMSN 211155Z 04008KT 10SM FEW100 18/16 A3036 460 84 1000 030/08 RMK AO2
14837KMSN MSN20020621060009606/21/02 06:00:31  5-MIN KMSN 211200Z 04007KT 10SM FEW100 18/15 A3036 460 81 1000 040/07 RMK AO2
14837KMSN MSN20020621060509606/21/02 06:05:31  5-MIN KMSN 211205Z 05009KT 10SM FEW100 18/15 A3036 460 81 1000 050/09 RMK AO2
14837KMSN MSN20020621061009606/21/02 06:10:31  5-MIN KMSN 211210Z 04009KT 10SM FEW100 18/15 A3036 460 81 1000 040/09 RMK AO2
14837KMSN MSN20020621061510306/21/02 06:15:31  5-MIN KMSN 211215Z 05008KT 10SM SCT044 SCT100 18/15 A3036 460 81 1000 040/08 RMK AO2
14837KMSN MSN20020621062010306/21/02 06:20:31  5-MIN KMSN 211220Z 06008KT 10SM SCT044 SCT100 18/15 A3036 460 81 1000 060/08 RMK AO2
14837KMSN MSN20020621062510306/21/02 06:25:31  5-MIN KMSN 211225Z 07011KT 10SM SCT044 SCT100 19/15 A3036 460 78 1100 060/11 RMK AO2
14837KMSN MSN20020621063010306/21/02 06:30:31  5-MIN KMSN 211230Z 05010KT 10SM SCT044 SCT100 19/15 A3036 460 78 1100 050/10 RMK AO2
14837KMSN MSN20020621063510306/21/02 06:35:31  5-MIN KMSN 211235Z 05009KT 10SM SCT044 SCT100 19/15 A3036 460 78 1100 050/09 RMK AO2
14837KMSN MSN20020621064009606/21/02 06:40:31  5-MIN KMSN 211240Z 06008KT 10SM FEW044 19/15 A3036 460 78 1100 060/08 RMK AO2
14837KMSN MSN20020621064509606/21/02 06:45:31  5-MIN KMSN 211245Z 06008KT 10SM SCT046 19/15 A3036 460 78 1100 060/08 RMK AO2
14837KMSN MSN20020621065011306/21/02 06:50:31  5-MIN KMSN 211250Z 08009KT 10SM FEW046 19/15 A3036 460 75 1100 080/09 RMK AO2 SLP275 T01940150
14837KMSN MSN20020621065509606/21/02 06:55:31  5-MIN KMSN 211255Z 09010KT 10SM FEW046 19/15 A3035 470 75 1100 090/10 RMK AO2
14837KMSN MSN20020621070009606/21/02 07:00:31  5-MIN KMSN 211300Z 07010KT 10SM FEW046 19/15 A3036 460 75 1100 070/10 RMK AO2
14837KMSN MSN20020621070509306/21/02 07:05:31  5-MIN KMSN 211305Z 08009KT 10SM CLR 19/16 A3036 460 78 1100 080/09 RMK AO2
14837KMSN MSN20020621071009606/21/02 07:10:31  5-MIN KMSN 211310Z 08009KT 10SM SCT046 19/16 A3037 450 78 1100 080/09 RMK AO2
14837KMSN MSN20020621071509606/21/02 07:15:31  5-MIN KMSN 211315Z 07009KT 10SM SCT046 19/16 A3037 450 78 1100 070/09 RMK AO2
14837KMSN MSN20020621072009606/21/02 07:20:31  5-MIN KMSN 211320Z 08010KT 10SM SCT046 20/16 A3037 450 75 1200 080/10 RMK AO2
14837KMSN MSN20020621072509606/21/02 07:25:31  5-MIN KMSN 211325Z 08009KT 10SM SCT046 20/16 A3036 460 75 1200 080/09 RMK AO2
14837KMSN MSN20020621073009606/21/02 07:30:31  5-MIN KMSN 211330Z 09008KT 10SM SCT046 21/16 A3036 460 73 1300 080/08 RMK AO2
14837KMSN MSN20020621073509606/21/02 07:35:31  5-MIN KMSN 211335Z 09008KT 10SM SCT044 21/16 A3036 460 75 1300 090/08 RMK AO2
14837KMSN MSN20020621074009606/21/02 07:40:31  5-MIN KMSN 211340Z 09007KT 10SM FEW044 21/16 A3036 460 75 1300 090/07 RMK AO2
14837KMSN MSN20020621074509606/21/02 07:45:31  5-MIN KMSN 211345Z 09009KT 10SM FEW041 21/16 A3036 460 75 1300 090/09 RMK AO2
14837KMSN MSN20020621075011006/21/02 07:50:31  5-MIN KMSN 211350Z 09009KT 10SM CLR 21/16 A3036 460 73 1300 090/09 RMK AO2 SLP276 T02060156
14837KMSN MSN20020621075509306/21/02 07:55:31  5-MIN KMSN 211355Z 08009KT 10SM CLR 21/16 A3036 460 73 1300 080/09 RMK AO2
14837KMSN MSN20020621080009306/21/02 08:00:31  5-MIN KMSN 211400Z 08006KT 10SM CLR 21/16 A3035 470 73 1300 080/06 RMK AO2
14837KMSN MSN20020621080509306/21/02 08:05:31  5-MIN KMSN 211405Z 09006KT 10SM CLR 21/16 A3035 470 73 1300 090/06 RMK AO2
14837KMSN MSN20020621081009306/21/02 08:10:31  5-MIN KMSN 211410Z 09008KT 10SM CLR 21/16 A3034 470 73 1300 090/08 RMK AO2
14837KMSN MSN20020621081509306/21/02 08:15:31  5-MIN KMSN 211415Z 10009KT 10SM CLR 21/17 A3034 480 75 1300 100/09 RMK AO2
14837KMSN MSN20020621082009306/21/02 08:20:31  5-MIN KMSN 211420Z 10007KT 10SM CLR 21/16 A3034 480 73 1300 100/07 RMK AO2
14837KMSN MSN20020621082509306/21/02 08:25:31  5-MIN KMSN 211425Z 11005KT 10SM CLR 21/17 A3034 480 75 1300 110/05 RMK AO2
14837KMSN MSN20020621083009306/21/02 08:30:31  5-MIN KMSN 211430Z 10008KT 10SM CLR 22/17 A3034 480 73 1400 100/08 RMK AO2
14837KMSN MSN20020621083509306/21/02 08:35:31  5-MIN KMSN 211435Z 11008KT 10SM CLR 22/17 A3034 480 73 1400 110/08 RMK AO2
14837KMSN MSN20020621084009306/21/02 08:40:31  5-MIN KMSN 211440Z 11006KT 10SM CLR 22/17 A3034 480 73 1400 110/06 RMK AO2
14837KMSN MSN20020621084509306/21/02 08:45:31  5-MIN KMSN 211445Z 11007KT 10SM CLR 22/17 A3034 480 73 1400 110/07 RMK AO2
14837KMSN MSN20020621085011606/21/02 08:50:31  5-MIN KMSN 211450Z 13007KT 10SM CLR 22/17 A3034 470 73 1400 130/07 RMK AO2 SLP272 T02170167 51022
14837KMSN MSN20020621085509306/21/02 08:55:31  5-MIN KMSN 211455Z 11006KT 10SM CLR 22/17 A3035 470 73 1400 110/06 RMK AO2
14837KMSN MSN20020621090009306/21/02 09:00:31  5-MIN KMSN 211500Z 15005KT 10SM CLR 22/17 A3035 470 73 1400 150/05 RMK AO2
14837KMSN MSN20020621090509306/21/02 09:05:31  5-MIN KMSN 211505Z 15005KT 10SM CLR 22/17 A3035 470 73 1400 150/05 RMK AO2
14837KMSN MSN20020621091009306/21/02 09:10:31  5-MIN KMSN 211510Z 14004KT 10SM CLR 22/17 A3035 470 73 1400 140/04 RMK AO2
14837KMSN MSN20020621091509306/21/02 09:15:31  5-MIN KMSN 211515Z 14004KT 10SM CLR 22/17 A3035 470 70 1500 140/04 RMK AO2
14837KMSN MSN20020621092009306/21/02 09:20:31  5-MIN KMSN 211520Z 13004KT 10SM CLR 22/17 A3035 470 70 1500 130/04 RMK AO2
14837KMSN MSN20020621092509306/21/02 09:25:31  5-MIN KMSN 211525Z 12003KT 10SM CLR 22/17 A3035 470 70 1500 120/03 RMK AO2
14837KMSN MSN20020621093009306/21/02 09:30:31  5-MIN KMSN 211530Z 17004KT 10SM CLR 23/17 A3035 470 70 1500 170/04 RMK AO2
14837KMSN MSN20020621093509306/21/02 09:35:31  5-MIN KMSN 211535Z 00000KT 10SM CLR 23/17 A3036 460 68 1500 000/00 RMK AO2
14837KMSN MSN20020621094009306/21/02 09:40:31  5-MIN KMSN 211540Z 11003KT 10SM CLR 23/17 A3035 460 70 1500 110/03 RMK AO2
14837KMSN MSN20020621094509306/21/02 09:45:31  5-MIN KMSN 211545Z 12003KT 10SM CLR 23/17 A3035 470 68 1600 120/03 RMK AO2
14837KMSN MSN20020621095011006/21/02 09:50:31  5-MIN KMSN 211550Z 13005KT 10SM CLR 23/17 A3035 470 68 1600 130/05 RMK AO2 SLP274 T02330172
14837KMSN MSN20020621095509306/21/02 09:55:31  5-MIN KMSN 211555Z 12006KT 10SM CLR 23/17 A3035 470 68 1600 120/06 RMK AO2
14837KMSN MSN20020621100009306/21/02 10:00:31  5-MIN KMSN 211600Z 11006KT 10SM CLR 24/17 A3034 470 66 1700 110/06 RMK AO2
14837KMSN MSN20020621100509306/21/02 10:05:31  5-MIN KMSN 211605Z 14007KT 10SM CLR 24/18 A3034 480 66 1700 140/07 RMK AO2
14837KMSN MSN20020621101009306/21/02 10:10:31  5-MIN KMSN 211610Z 13007KT 10SM CLR 25/18 A3034 480 66 1800 120/07 RMK AO2
14837KMSN MSN20020621101509306/21/02 10:15:31  5-MIN KMSN 211615Z 14009KT 10SM CLR 25/18 A3033 480 64 1800 140/09 RMK AO2
14837KMSN MSN20020621102009306/21/02 10:20:31  5-MIN KMSN 211620Z 14008KT 10SM CLR 25/18 A3033 490 64 1800 140/08 RMK AO2
14837KMSN MSN20020621102509306/21/02 10:25:31  5-MIN KMSN 211625Z 11008KT 10SM CLR 25/18 A3033 490 64 1800 110/08 RMK AO2
14837KMSN MSN20020621103009906/21/02 10:30:31  5-MIN KMSN 211630Z 12007G15KT 10SM CLR 26/18 A3033 490 61 1900 120/07G15 RMK AO2
14837KMSN MSN20020621103509306/21/02 10:35:31  5-MIN KMSN 211635Z 13008KT 10SM CLR 26/18 A3033 490 61 1900 130/08 RMK AO2
14837KMSN MSN20020621104009306/21/02 10:40:31  5-MIN KMSN 211640Z 14006KT 10SM CLR 26/18 A3033 490 61 1900 140/06 RMK AO2
14837KMSN MSN20020621104509306/21/02 10:45:31  5-MIN KMSN 211645Z 09005KT 10SM CLR 26/18 A3033 490 64 1900 090/05 RMK AO2
14837KMSN MSN20020621105011006/21/02 10:50:31  5-MIN KMSN 211650Z 12007KT 10SM CLR 26/18 A3033 490 59 1900 120/07 RMK AO2 SLP264 T02610178
14837KMSN MSN20020621105509606/21/02 10:55:31  5-MIN KMSN 211655Z 12007KT 10SM FEW055 26/18 A3033 490 61 1900 120/07 RMK AO2
14837KMSN MSN20020621110009606/21/02 11:00:31  5-MIN KMSN 211700Z 11010KT 10SM SCT055 26/18 A3033 490 59 1900 110/10 RMK AO2
14837KMSN MSN20020621110509606/21/02 11:05:31  5-MIN KMSN 211705Z 11008KT 10SM SCT055 26/18 A3033 490 62 1900 110/08 RMK AO2
14837KMSN MSN20020621111009606/21/02 11:10:31  5-MIN KMSN 211710Z 13007KT 10SM FEW055 26/18 A3033 490 59 1900 130/07 RMK AO2
14837KMSN MSN20020621111509606/21/02 11:15:31  5-MIN KMSN 211715Z 11008KT 10SM FEW055 26/18 A3032 490 62 1900 110/08 RMK AO2
14837KMSN MSN20020621112009606/21/02 11:20:31  5-MIN KMSN 211720Z 11008KT 10SM FEW055 26/18 A3032 500 62 1900 110/08 RMK AO2
14837KMSN MSN20020621112509306/21/02 11:25:31  5-MIN KMSN 211725Z 10009KT 10SM CLR 27/19 A3032 500 62 2000 100/09 RMK AO2
14837KMSN MSN20020621113009306/21/02 11:30:31  5-MIN KMSN 211730Z 10008KT 10SM CLR 27/19 A3032 500 62 2000 100/08 RMK AO2
14837KMSN MSN20020621113509306/21/02 11:35:31  5-MIN KMSN 211735Z 10008KT 10SM CLR 27/19 A3032 500 62 2000 100/08 RMK AO2
14837KMSN MSN20020621114009606/21/02 11:40:31  5-MIN KMSN 211740Z 13008KT 10SM SCT065 27/19 A3032 500 62 2000 130/08 RMK AO2
14837KMSN MSN20020621114509606/21/02 11:45:31  5-MIN KMSN 211745Z 12008KT 10SM SCT065 27/19 A3032 500 62 2000 120/08 RMK AO2
14837KMSN MSN20020621115013106/21/02 11:50:31  5-MIN KMSN 211750Z 13009KT 10SM SCT065 27/19 A3032 500 62 2100 130/09 RMK AO2 SLP261 T02720194 10272 20183 58005
14837KMSN MSN20020621115509606/21/02 11:55:31  5-MIN KMSN 211755Z 14009KT 10SM SCT065 27/19 A3031 500 62 2100 140/09 RMK AO2
14837KMSN MSN20020621120009606/21/02 12:00:31  5-MIN KMSN 211800Z 11008KT 10SM SCT065 27/19 A3032 500 62 2100 110/08 RMK AO2
14837KMSN MSN20020621120509606/21/02 12:05:31  5-MIN KMSN 211805Z 11008KT 10SM SCT065 28/19 A3032 500 60 2100 110/08 RMK AO2
14837KMSN MSN20020621121009606/21/02 12:10:31  5-MIN KMSN 211810Z 12007KT 10SM SCT065 27/19 A3032 500 62 2100 120/07 RMK AO2
14837KMSN MSN20020621121511206/21/02 12:15:31  5-MIN KMSN 211815Z 13009KT 100V160 10SM SCT065 28/19 A3032 500 60 2100 130/09 100V160 RMK AO2
14837KMSN MSN20020621122009606/21/02 12:20:31  5-MIN KMSN 211820Z 13008KT 10SM SCT065 28/20 A3031 500 62 2100 130/08 RMK AO2
14837KMSN MSN20020621122509606/21/02 12:25:31  5-MIN KMSN 211825Z 12008KT 10SM SCT065 28/19 A3031 500 60 2100 120/08 RMK AO2
14837KMSN MSN20020621123009606/21/02 12:30:31  5-MIN KMSN 211830Z 15009KT 10SM FEW065 28/20 A3031 500 62 2100 150/09 RMK AO2
14837KMSN MSN20020621123509606/21/02 12:35:31  5-MIN KMSN 211835Z 15008KT 10SM FEW065 28/20 A3031 510 62 2100 150/08 RMK AO2
14837KMSN MSN20020621124009606/21/02 12:40:31  5-MIN KMSN 211840Z 16008KT 10SM FEW065 28/20 A3031 510 60 2200 160/08 RMK AO2
14837KMSN MSN20020621124509606/21/02 12:45:31  5-MIN KMSN 211845Z 15007KT 10SM FEW065 28/19 A3031 510 58 2200 150/07 RMK AO2
14837KMSN MSN20020621125011306/21/02 12:50:31  5-MIN KMSN 211850Z VRB05KT 10SM FEW065 28/20 A3031 510 60 2200 VRB/05 RMK AO2 SLP258 T02830200
14837KMSN MSN20020621125509606/21/02 12:55:31  5-MIN KMSN 211855Z 14009KT 10SM SCT065 28/20 A3031 510 60 2200 140/09 RMK AO2
14837KMSN MSN20020621130009606/21/02 13:00:31  5-MIN KMSN 211900Z 12008KT 10SM SCT065 28/20 A3030 510 60 2200 120/08 RMK AO2
14837KMSN MSN20020621130509606/21/02 13:05:31  5-MIN KMSN 211905Z 12007KT 10SM SCT065 28/21 A3030 510 62 2200 120/07 RMK AO2
14837KMSN MSN20020621131011206/21/02 13:10:31  5-MIN KMSN 211910Z 15009KT 120V180 10SM SCT065 28/21 A3030 520 62 2200 150/09 120V180 RMK AO2
14837KMSN MSN20020621131509606/21/02 13:15:31  5-MIN KMSN 211915Z 19008KT 10SM SCT065 28/19 A3030 520 58 2200 190/08 RMK AO2
14837KMSN MSN20020621132009606/21/02 13:20:31  5-MIN KMSN 211920Z 14008KT 10SM SCT065 28/20 A3030 520 60 2200 140/08 RMK AO2
14837KMSN MSN20020621132509606/21/02 13:25:31  5-MIN KMSN 211925Z 13006KT 10SM SCT065 28/21 A3030 520 62 2200 130/06 RMK AO2
14837KMSN MSN20020621133009606/21/02 13:30:31  5-MIN KMSN 211930Z 14009KT 10SM SCT040 28/20 A3029 520 60 2200 140/09 RMK AO2
14837KMSN MSN20020621133509606/21/02 13:35:31  5-MIN KMSN 211935Z 16008KT 10SM SCT040 28/20 A3029 520 60 2200 160/08 RMK AO2
14837KMSN MSN20020621134009606/21/02 13:40:31  5-MIN KMSN 211940Z 14007KT 10SM FEW040 28/20 A3029 520 60 2200 140/07 RMK AO2
14837KMSN MSN20020621134509606/21/02 13:45:31  5-MIN KMSN 211945Z 16007KT 10SM FEW040 28/20 A3030 520 60 2200 150/07 RMK AO2
14837KMSN MSN20020621135011306/21/02 13:50:31  5-MIN KMSN 211950Z 18005KT 10SM FEW040 28/20 A3030 520 62 2100 180/05 RMK AO2 SLP255 T02780200
14837KMSN MSN20020621135509306/21/02 13:55:31  5-MIN KMSN 211955Z 13008KT 10SM CLR 28/20 A3030 520 62 2100 130/08 RMK AO2
14837KMSN MSN20020621140009606/21/02 14:00:31  5-MIN KMSN 212000Z 13006KT 10SM FEW050 28/21 A3030 520 64 2100 130/06 RMK AO2
14837KMSN MSN20020621140509606/21/02 14:05:31  5-MIN KMSN 212005Z 15005KT 10SM FEW050 28/20 A3029 520 62 2100 150/05 RMK AO2
14837KMSN MSN20020621141009606/21/02 14:10:31  5-MIN KMSN 212010Z VRB05KT 10SM FEW050 28/20 A3029 520 60 2200 VRB/05 RMK AO2
14837KMSN MSN20020621141509606/21/02 14:15:31  5-MIN KMSN 212015Z 15004KT 10SM FEW050 28/21 A3029 520 64 2200 150/04 RMK AO2
14837KMSN MSN20020621142009606/21/02 14:20:31  5-MIN KMSN 212020Z 17006KT 10SM FEW050 28/21 A3029 530 64 2200 170/06 RMK AO2
14837KMSN MSN20020621142509606/21/02 14:25:31  5-MIN KMSN 212025Z VRB04KT 10SM FEW050 28/21 A3028 530 62 2200 VRB/04 RMK AO2
14837KMSN MSN20020621143009606/21/02 14:30:31  5-MIN KMSN 212030Z 12007KT 10SM FEW050 28/21 A3028 530 64 2200 120/07 RMK AO2
14837KMSN MSN20020621143509606/21/02 14:35:31  5-MIN KMSN 212035Z 13007KT 10SM FEW050 28/21 A3028 530 64 2200 130/07 RMK AO2
14837KMSN MSN20020621144009606/21/02 14:40:31  5-MIN KMSN 212040Z 13007KT 10SM FEW050 28/21 A3028 530 64 2200 130/07 RMK AO2
14837KMSN MSN20020621144509606/21/02 14:45:31  5-MIN KMSN 212045Z 12007KT 10SM FEW050 28/21 A3028 530 64 2200 120/07 RMK AO2
14837KMSN MSN20020621145012606/21/02 14:50:31  5-MIN KMSN 212050Z 13005KT 10SM FEW050 SCT110 28/21 A3028 540 64 2200 130/05 RMK AO2 SLP248 T02830211 58009
14837KMSN MSN20020621145510306/21/02 14:55:31  5-MIN KMSN 212055Z 13007KT 10SM FEW045 SCT110 28/21 A3028 540 62 2200 120/07 RMK AO2
14837KMSN MSN20020621150010306/21/02 15:00:31  5-MIN KMSN 212100Z 12007KT 10SM FEW045 SCT110 28/21 A3027 540 64 2200 120/07 RMK AO2
14837KMSN MSN20020621150510306/21/02 15:05:31  5-MIN KMSN 212105Z 12008KT 10SM FEW045 SCT110 29/22 A3027 550 64 2300 120/08 RMK AO2
14837KMSN MSN20020621151010206/21/02 15:10:31  5-MIN KMSN 212110Z 12008KT 9SM FEW045 SCT110 28/22 A3026 550 66 2200 120/08 RMK AO2
14837KMSN MSN20020621151510306/21/02 15:15:31  5-MIN KMSN 212115Z 11007KT 10SM FEW045 SCT110 28/21 A3026 550 64 2300 110/07 RMK AO2
14837KMSN MSN20020621152010306/21/02 15:20:31  5-MIN KMSN 212120Z 13008KT 10SM FEW045 SCT110 28/21 A3026 560 64 2300 130/08 RMK AO2
14837KMSN MSN20020621152510306/21/02 15:25:31  5-MIN KMSN 212125Z 12008KT 10SM FEW045 SCT110 28/21 A3025 560 64 2300 120/08 RMK AO2
14837KMSN MSN20020621153010306/21/02 15:30:31  5-MIN KMSN 212130Z 12008KT 10SM FEW045 SCT110 28/22 A3025 560 66 2300 120/08 RMK AO2
14837KMSN MSN20020621153509306/21/02 15:35:31  5-MIN KMSN 212135Z 12006KT 10SM CLR 28/22 A3025 560 66 2300 110/06 RMK AO2
14837KMSN MSN20020621154009306/21/02 15:40:31  5-MIN KMSN 212140Z 12008KT 10SM CLR 28/22 A3024 570 66 2300 120/08 RMK AO2
14837KMSN MSN20020621154509306/21/02 15:45:31  5-MIN KMSN 212145Z 13007KT 10SM CLR 28/22 A3024 570 66 2300 130/07 RMK AO2
14837KMSN MSN20020621155011306/21/02 15:50:31  5-MIN KMSN 212150Z 13007KT 10SM FEW045 28/21 A3023 570 64 2300 130/07 RMK AO2 SLP234 T02830211
14837KMSN MSN20020621155509306/21/02 15:55:31  5-MIN KMSN 212155Z 13006KT 10SM CLR 28/22 A3024 570 66 2300 130/06 RMK AO2
14837KMSN MSN20020621160009206/21/02 16:00:31  5-MIN KMSN 212200Z 15007KT 9SM CLR 28/22 A3024 570 66 2300 150/07 RMK AO2
14837KMSN MSN20020621160509206/21/02 16:05:31  5-MIN KMSN 212205Z 12008KT 9SM CLR 28/22 A3024 570 66 2300 120/08 RMK AO2
14837KMSN MSN20020621161009206/21/02 16:10:31  5-MIN KMSN 212210Z 13005KT 9SM CLR 28/22 A3023 570 66 2300 130/05 RMK AO2
14837KMSN MSN20020621161509206/21/02 16:15:31  5-MIN KMSN 212215Z 11008KT 9SM CLR 28/22 A3024 570 66 2300 110/08 RMK AO2
14837KMSN MSN20020621162009206/21/02 16:20:31  5-MIN KMSN 212220Z 11008KT 9SM CLR 28/22 A3024 570 69 2200 110/08 RMK AO2
14837KMSN MSN20020621162509206/21/02 16:25:31  5-MIN KMSN 212225Z 11007KT 9SM CLR 28/22 A3024 570 69 2200 110/07 RMK AO2
14837KMSN MSN20020621163009206/21/02 16:30:31  5-MIN KMSN 212230Z 11008KT 9SM CLR 28/21 A3024 570 66 2200 110/08 RMK AO2
14837KMSN MSN20020621163509506/21/02 16:35:31  5-MIN KMSN 212235Z 10007KT 9SM FEW049 28/22 A3024 570 69 2200 100/07 RMK AO2
14837KMSN MSN20020621164009506/21/02 16:40:31  5-MIN KMSN 212240Z 11006KT 9SM SCT049 28/22 A3024 570 69 2200 110/06 RMK AO2
14837KMSN MSN20020621164509506/21/02 16:45:31  5-MIN KMSN 212245Z 11006KT 9SM BKN049 28/22 A3025 560 69 2200 110/06 RMK AO2
14837KMSN MSN20020621165011306/21/02 16:50:31  5-MIN KMSN 212250Z 11006KT 10SM BKN049 28/22 A3024 570 69 2200 100/06 RMK AO2 SLP237 T02780217
14837KMSN MSN20020621165509506/21/02 16:55:31  5-MIN KMSN 212255Z 11005KT 9SM BKN047 28/22 A3025 560 69 2200 110/05 RMK AO2
14837KMSN MSN20020621170010206/21/02 17:00:31  5-MIN KMSN 212300Z 10007KT 9SM BKN047 BKN090 28/22 A3024 570 69 2200 100/07 RMK AO2
14837KMSN MSN20020621170510906/21/02 17:05:31  5-MIN KMSN 212305Z 12007KT 9SM BKN047 BKN060 OVC090 28/22 A3024 570 69 2200 120/07 RMK AO2
14837KMSN MSN20020621171010906/21/02 17:10:31  5-MIN KMSN 212310Z 18009KT 9SM FEW031 BKN049 OVC090 28/22 A3025 560 69 2200 170/09 RMK AO2
14837KMSN MSN20020621171510906/21/02 17:15:31  5-MIN KMSN 212315Z 17007KT 8SM FEW031 SCT042 BKN049 28/21 A3024 570 66 2200 170/07 RMK AO2
14837KMSN MSN20020621172010906/21/02 17:20:31  5-MIN KMSN 212320Z 15005KT 8SM FEW031 BKN055 BKN095 28/21 A3024 570 66 2200 150/05 RMK AO2
14837KMSN MSN20020621172510906/21/02 17:25:31  5-MIN KMSN 212325Z 14006KT 9SM FEW031 SCT055 SCT095 28/21 A3024 570 66 2200 140/06 RMK AO2
14837KMSN MSN20020621173009506/21/02 17:30:31  5-MIN KMSN 212330Z 11008KT 9SM FEW031 28/21 A3025 560 66 2200 110/08 RMK AO2
14837KMSN MSN20020621173509506/21/02 17:35:31  5-MIN KMSN 212335Z 14006KT 9SM FEW031 27/21 A3024 570 69 2100 140/06 RMK AO2
14837KMSN MSN20020621174009506/21/02 17:40:31  5-MIN KMSN 212340Z 14007KT 8SM FEW055 27/21 A3025 560 69 2100 140/07 RMK AO2
14837KMSN MSN20020621174510206/21/02 17:45:31  5-MIN KMSN 212345Z 13005KT 8SM FEW055 SCT100 27/21 A3025 560 69 2100 130/05 RMK AO2
14837KMSN MSN20020621175013806/21/02 17:50:31  5-MIN KMSN 212350Z VRB04KT 10SM FEW050 SCT100 27/21 A3025 560 69 2100 VRB/04 RMK AO2 SLP240 T02720211 10289 20272 58013
14837KMSN MSN20020621175509506/21/02 17:55:31  5-MIN KMSN 212355Z 12007KT 8SM FEW100 27/21 A3025 570 69 2100 120/07 RMK AO2
14837KMSN MSN20020621180010206/21/02 18:00:31  5-MIN KMSN 220000Z 14006KT 8SM FEW055 SCT100 27/21 A3025 560 69 2100 140/06 RMK AO2
14837KMSN MSN20020621180510206/21/02 18:05:31  5-MIN KMSN 220005Z 16007KT 8SM FEW046 SCT095 27/21 A3025 560 71 2100 160/07 RMK AO2
14837KMSN MSN20020621181010206/21/02 18:10:31  5-MIN KMSN 220010Z 16008KT 8SM FEW047 SCT095 27/21 A3025 560 69 2100 160/08 RMK AO2
14837KMSN MSN20020621181510206/21/02 18:15:31  5-MIN KMSN 220015Z 15007KT 7SM FEW049 SCT095 27/21 A3025 560 69 2100 150/07 RMK AO2
14837KMSN MSN20020621182009506/21/02 18:20:31  5-MIN KMSN 220020Z 15009KT 7SM FEW047 27/21 A3026 550 71 2100 150/09 RMK AO2
14837KMSN MSN20020621182511406/21/02 18:25:31  5-MIN KMSN 220025Z 16008KT 7SM FEW047 SCT055 27/22 A3026 550 73 2100 160/08 RMK AO2 TS SE MOV E
14837KMSN MSN20020621183011406/21/02 18:30:31  5-MIN KMSN 220030Z 15009KT 7SM FEW045 SCT055 27/22 A3026 550 73 2100 150/09 RMK AO2 TS SE MOV E
14837KMSN MSN20020621183511406/21/02 18:35:31  5-MIN KMSN 220035Z 15010KT 7SM FEW045 SCT060 27/22 A3026 560 73 2100 140/10 RMK AO2 TS SE MOV E
14837KMSN MSN20020621184011706/21/02 18:40:31  5-MIN KMSN 220040Z 13008KT 6SM HZ FEW045 SCT060 26/22 A3025 560 76 2000 130/08 RMK AO2 TS SE MOV E
14837KMSN MSN20020621184512406/21/02 18:45:31  5-MIN KMSN 220045Z 13012KT 6SM HZ FEW045 26/22 A3025 560 76 2000 130/12 RMK AO2 OCNL LTG DSNT E TS DSNT E
14837KMSN MSN20020621185014106/21/02 18:50:31  5-MIN KMSN 220050Z 14009KT 6SM HZ FEW045 26/21 A3025 560 73 1900 140/09 RMK AO2 SLP238 OCNL LTG DSNT E TS DSNT E T02560206
14837KMSN MSN20020621185509806/21/02 18:55:31  5-MIN KMSN 220055Z 13008KT 6SM HZ FEW060 26/21 A3025 560 76 2000 130/08 RMK AO2
14837KMSN MSN20020621190009806/21/02 19:00:31  5-MIN KMSN 220100Z 13010KT 6SM HZ FEW060 25/20 A3025 560 73 1900 130/10 RMK AO2
14837KMSN MSN20020621190509206/21/02 19:05:31  5-MIN KMSN 220105Z 14006KT 7SM CLR 25/19 A3025 570 71 1900 140/06 RMK AO2
14837KMSN MSN20020621191009206/21/02 19:10:31  5-MIN KMSN 220110Z 14008KT 8SM CLR 24/19 A3025 560 73 1800 140/08 RMK AO2
14837KMSN MSN20020621191509206/21/02 19:15:31  5-MIN KMSN 220115Z 13009KT 7SM CLR 24/20 A3025 560 76 1800 130/09 RMK AO2
14837KMSN MSN20020621192009206/21/02 19:20:31  5-MIN KMSN 220120Z 13007KT 7SM CLR 24/20 A3025 560 78 1800 130/07 RMK AO2
14837KMSN MSN20020621192509206/21/02 19:25:31  5-MIN KMSN 220125Z 13007KT 7SM CLR 24/19 A3026 560 76 1800 130/07 RMK AO2
14837KMSN MSN20020621193009206/21/02 19:30:31  5-MIN KMSN 220130Z 13006KT 8SM CLR 24/19 A3026 560 73 1800 130/06 RMK AO2
14837KMSN MSN20020621193509206/21/02 19:35:31  5-MIN KMSN 220135Z 13007KT 9SM CLR 24/19 A3025 560 73 1800 130/07 RMK AO2
14837KMSN MSN20020621194009206/21/02 19:40:31  5-MIN KMSN 220140Z 13008KT 9SM CLR 23/19 A3025 560 76 1700 130/08 RMK AO2
14837KMSN MSN20020621194509206/21/02 19:45:31  5-MIN KMSN 220145Z 13007KT 9SM CLR 23/19 A3024 570 76 1700 130/07 RMK AO2
14837KMSN MSN20020621195010906/21/02 19:50:31  5-MIN KMSN 220150Z 13008KT 9SM CLR 23/19 A3024 570 76 1700 130/08 RMK AO2 SLP237 T02330189
14837KMSN MSN20020621195509306/21/02 19:55:31  5-MIN KMSN 220155Z 13006KT 10SM CLR 23/19 A3024 570 76 1700 130/06 RMK AO2
14837KMSN MSN20020621200009306/21/02 20:00:31  5-MIN KMSN 220200Z 13007KT 10SM CLR 23/19 A3024 570 78 1700 120/07 RMK AO2
14837KMSN MSN20020621200509206/21/02 20:05:31  5-MIN KMSN 220205Z 14005KT 9SM CLR 23/19 A3024 570 78 1700 140/05 RMK AO2
14837KMSN MSN20020621201009206/21/02 20:10:31  5-MIN KMSN 220210Z 15007KT 9SM CLR 23/20 A3024 570 81 1700 150/07 RMK AO2
14837KMSN MSN20020621201509206/21/02 20:15:31  5-MIN KMSN 220215Z 15008KT 8SM CLR 23/20 A3024 570 81 1700 150/08 RMK AO2
14837KMSN MSN20020621202009206/21/02 20:20:31  5-MIN KMSN 220220Z 15007KT 8SM CLR 23/20 A3024 570 81 1700 140/07 RMK AO2
14837KMSN MSN20020621202509206/21/02 20:25:31  5-MIN KMSN 220225Z 15008KT 8SM CLR 23/21 A3024 570 84 1700 150/08 RMK AO2
14837KMSN MSN20020621203009206/21/02 20:30:31  5-MIN KMSN 220230Z 15007KT 7SM CLR 24/21 A3025 560 81 1800 150/07 RMK AO2
14837KMSN MSN20020621203509206/21/02 20:35:31  5-MIN KMSN 220235Z 15008KT 7SM CLR 24/21 A3025 560 81 1800 150/08 RMK AO2
14837KMSN MSN20020621204009206/21/02 20:40:31  5-MIN KMSN 220240Z 15006KT 7SM CLR 24/21 A3025 560 84 1800 150/06 RMK AO2
14837KMSN MSN20020621204509506/21/02 20:45:31  5-MIN KMSN 220245Z 16005KT 6SM HZ CLR 24/21 A3024 570 84 1800 160/05 RMK AO2
14837KMSN MSN20020621205011506/21/02 20:50:31  5-MIN KMSN 220250Z 17005KT 8SM CLR 24/21 A3025 560 84 1800 170/05 RMK AO2 SLP237 T02390211 55009
14837KMSN MSN20020621205509506/21/02 20:55:31  5-MIN KMSN 220255Z 17006KT 6SM BR CLR 23/21 A3024 570 87 1700 170/06 RMK AO2
14837KMSN MSN20020621210009506/21/02 21:00:31  5-MIN KMSN 220300Z 17006KT 6SM BR CLR 23/21 A3024 570 87 1700 170/06 RMK AO2
14837KMSN MSN20020621210509506/21/02 21:05:31  5-MIN KMSN 220305Z 16006KT 6SM BR CLR 23/21 A3024 570 87 1700 160/06 RMK AO2
14837KMSN MSN20020621211009506/21/02 21:10:31  5-MIN KMSN 220310Z 17006KT 5SM BR CLR 23/21 A3024 570 87 1700 170/06 RMK AO2
14837KMSN MSN20020621211509506/21/02 21:15:31  5-MIN KMSN 220315Z 17006KT 5SM BR CLR 23/21 A3024 570 87 1700 170/06 RMK AO2
14837KMSN MSN20020621212009506/21/02 21:20:31  5-MIN KMSN 220320Z 16009KT 5SM BR CLR 23/21 A3024 570 87 1700 160/09 RMK AO2
14837KMSN MSN20020621212509506/21/02 21:25:31  5-MIN KMSN 220325Z 16008KT 5SM BR CLR 23/22 A3023 580 90 1700 160/08 RMK AO2
14837KMSN MSN20020621213009506/21/02 21:30:31  5-MIN KMSN 220330Z 16008KT 5SM BR CLR 23/22 A3023 580 90 1700 160/08 RMK AO2
14837KMSN MSN20020621213509506/21/02 21:35:31  5-MIN KMSN 220335Z 16008KT 5SM BR CLR 23/22 A3023 580 90 1700 160/08 RMK AO2
14837KMSN MSN20020621214009506/21/02 21:40:31  5-MIN KMSN 220340Z 17007KT 4SM BR CLR 23/22 A3023 580 90 1700 160/07 RMK AO2
14837KMSN MSN20020621214509506/21/02 21:45:31  5-MIN KMSN 220345Z 17006KT 6SM BR CLR 23/22 A3023 580 90 1700 170/06 RMK AO2
14837KMSN MSN20020621215011206/21/02 21:50:31  5-MIN KMSN 220350Z 17006KT 6SM BR CLR 23/22 A3023 580 90 1700 170/06 RMK AO2 SLP233 T02330217
14837KMSN MSN20020621215509506/21/02 21:55:31  5-MIN KMSN 220355Z 16005KT 4SM BR CLR 23/22 A3023 580 90 1700 160/05 RMK AO2
14837KMSN MSN20020621220009506/21/02 22:00:31  5-MIN KMSN 220400Z 17005KT 4SM BR CLR 23/22 A3023 570 90 1700 170/05 RMK AO2
14837KMSN MSN20020621220509506/21/02 22:05:31  5-MIN KMSN 220405Z 18005KT 4SM BR CLR 23/22 A3024 570 90 1700 180/05 RMK AO2
14837KMSN MSN20020621221009506/21/02 22:10:31  5-MIN KMSN 220410Z 17003KT 4SM BR CLR 23/22 A3024 570 90 1700 170/03 RMK AO2
14837KMSN MSN20020621221509506/21/02 22:15:31  5-MIN KMSN 220415Z 16003KT 4SM BR CLR 23/22 A3024 570 93 1600 160/03 RMK AO2
14837KMSN MSN20020621222009506/21/02 22:20:31  5-MIN KMSN 220420Z 00000KT 4SM BR CLR 23/22 A3025 560 90 1700 000/00 RMK AO2
14837KMSN MSN20020621222509506/21/02 22:25:31  5-MIN KMSN 220425Z 00000KT 4SM BR CLR 23/22 A3025 560 90 1700 000/00 RMK AO2
14837KMSN MSN20020621223009506/21/02 22:30:31  5-MIN KMSN 220430Z 16003KT 4SM BR CLR 23/22 A3025 560 93 1600 160/03 RMK AO2
14837KMSN MSN20020621223509506/21/02 22:35:31  5-MIN KMSN 220435Z 15004KT 4SM BR CLR 23/22 A3026 560 90 1700 150/04 RMK AO2
14837KMSN MSN20020621224009506/21/02 22:40:31  5-MIN KMSN 220440Z 15004KT 4SM BR CLR 23/21 A3026 560 90 1600 150/04 RMK AO2
14837KMSN MSN20020621224509506/21/02 22:45:31  5-MIN KMSN 220445Z 00000KT 3SM BR CLR 23/21 A3026 550 90 1600 000/00 RMK AO2
14837KMSN MSN20020621225011206/21/02 22:50:31  5-MIN KMSN 220450Z 00000KT 4SM BR CLR 23/21 A3026 550 90 1600 000/00 RMK AO2 SLP241 T02280211
14837KMSN MSN20020621225509506/21/02 22:55:31  5-MIN KMSN 220455Z 00000KT 3SM BR CLR 23/21 A3026 550 90 1600 000/00 RMK AO2
14837KMSN MSN20020621230009506/21/02 23:00:31  5-MIN KMSN 220500Z 13004KT 3SM BR CLR 23/21 A3026 560 90 1600 130/04 RMK AO2
14837KMSN MSN20020621230509506/21/02 23:05:31  5-MIN KMSN 220505Z 14004KT 4SM BR CLR 23/21 A3026 550 90 1600 140/04 RMK AO2
14837KMSN MSN20020621231009506/21/02 23:10:31  5-MIN KMSN 220510Z 15004KT 4SM BR CLR 23/21 A3026 560 90 1600 150/04 RMK AO2
14837KMSN MSN20020621231509506/21/02 23:15:31  5-MIN KMSN 220515Z 15004KT 4SM BR CLR 23/21 A3025 560 90 1600 150/04 RMK AO2
14837KMSN MSN20020621232009506/21/02 23:20:31  5-MIN KMSN 220520Z 16004KT 4SM BR CLR 23/21 A3026 560 90 1600 160/04 RMK AO2
14837KMSN MSN20020621232509506/21/02 23:25:31  5-MIN KMSN 220525Z 18004KT 4SM BR CLR 23/21 A3025 560 90 1600 180/04 RMK AO2
14837KMSN MSN20020621233009506/21/02 23:30:31  5-MIN KMSN 220530Z 17005KT 4SM BR CLR 23/21 A3025 560 90 1600 170/05 RMK AO2
14837KMSN MSN20020621233509506/21/02 23:35:31  5-MIN KMSN 220535Z 17004KT 4SM BR CLR 23/21 A3025 560 90 1600 170/04 RMK AO2
14837KMSN MSN20020621234009506/21/02 23:40:31  5-MIN KMSN 220540Z 16004KT 4SM BR CLR 23/21 A3026 560 90 1600 160/04 RMK AO2
14837KMSN MSN20020621234509506/21/02 23:45:31  5-MIN KMSN 220545Z 16003KT 4SM BR CLR 23/21 A3026 550 90 1600 160/03 RMK AO2
14837KMSN MSN20020621235014006/21/02 23:50:31  5-MIN KMSN 220550Z 14003KT 4SM BR CLR 23/21 A3026 550 90 1600 140/03 RMK AO2 SLP241 T02280211 10272 20228 402890183 55001
14837KMSN MSN20020621235509506/21/02 23:55:31  5-MIN KMSN 220555Z 13003KT 4SM BR CLR 23/21 A3026 550 90 1600 130/03 RMK AO2
14837KMSN MSN20020622000009506/22/02 00:00:31  5-MIN KMSN 220600Z 11005KT 4SM BR CLR 23/21 A3026 550 90 1600 110/05 RMK AO2
14837KMSN MSN20020622000509506/22/02 00:05:31  5-MIN KMSN 220605Z 11004KT 4SM BR CLR 22/21 A3026 550 90 1600 110/04 RMK AO2
14837KMSN MSN20020622001009506/22/02 00:10:31  5-MIN KMSN 220610Z 09003KT 4SM BR CLR 22/21 A3026 550 90 1600 080/03 RMK AO2
14837KMSN MSN20020622001509506/22/02 00:15:31  5-MIN KMSN 220615Z 10003KT 4SM BR CLR 22/21 A3026 550 93 1500 100/03 RMK AO2
14837KMSN MSN20020622002009506/22/02 00:20:31  5-MIN KMSN 220620Z 09004KT 4SM BR CLR 22/21 A3026 550 93 1500 090/04 RMK AO2
14837KMSN MSN20020622002509506/22/02 00:25:31  5-MIN KMSN 220625Z 07004KT 4SM BR CLR 22/21 A3026 550 93 1500 070/04 RMK AO2
14837KMSN MSN20020622003009506/22/02 00:30:31  5-MIN KMSN 220630Z 06006KT 4SM BR CLR 22/21 A3026 550 93 1500 060/06 RMK AO2
14837KMSN MSN20020622003509506/22/02 00:35:31  5-MIN KMSN 220635Z 06007KT 4SM BR CLR 22/21 A3027 550 93 1500 060/07 RMK AO2
14837KMSN MSN20020622004009806/22/02 00:40:31  5-MIN KMSN 220640Z 07007KT 4SM BR FEW050 22/21 A3027 550 93 1500 070/07 RMK AO2
14837KMSN MSN20020622004509806/22/02 00:45:31  5-MIN KMSN 220645Z 07007KT 4SM BR FEW050 22/20 A3027 550 90 1500 070/07 RMK AO2
14837KMSN MSN20020622005011506/22/02 00:50:31  5-MIN KMSN 220650Z 08006KT 3SM BR FEW050 22/20 A3027 550 90 1500 080/06 RMK AO2 SLP243 T02170200
14837KMSN MSN20020622005509806/22/02 00:55:31  5-MIN KMSN 220655Z 09005KT 3SM BR FEW050 22/20 A3026 550 90 1500 090/05 RMK AO2
14837KMSN MSN20020622010009806/22/02 01:00:31  5-MIN KMSN 220700Z 08005KT 3SM BR FEW050 22/21 A3026 550 90 1600 080/05 RMK AO2
14837KMSN MSN20020622010509806/22/02 01:05:31  5-MIN KMSN 220705Z 07006KT 3SM BR FEW050 22/21 A3026 550 93 1500 070/06 RMK AO2
14837KMSN MSN20020622011009906/22/02 01:10:31  5-MIN KMSN 220710Z 07005KT 2 1/2SM BR CLR 22/21 A3026 550 93 1500 070/05 RMK AO2
14837KMSN MSN20020622011510206/22/02 01:15:31  5-MIN KMSN 220715Z 09004KT 2 1/2SM BR FEW050 22/21 A3026 550 93 1500 090/04 RMK AO2
14837KMSN MSN20020622012010206/22/02 01:20:31  5-MIN KMSN 220720Z 09005KT 2 1/2SM BR FEW050 22/21 A3026 550 93 1500 090/05 RMK AO2
14837KMSN MSN20020622012509806/22/02 01:25:31  5-MIN KMSN 220725Z 10004KT 2SM BR FEW050 22/21 A3026 550 93 1500 100/04 RMK AO2
14837KMSN MSN20020622013009806/22/02 01:30:31  5-MIN KMSN 220730Z 07004KT 2SM BR FEW050 21/20 A3026 550 93 1400 070/04 RMK AO2
14837KMSN MSN20020622013509806/22/02 01:35:31  5-MIN KMSN 220735Z 06004KT 2SM BR FEW050 21/20 A3026 560 93 1400 060/04 RMK AO2
14837KMSN MSN20020622014009806/22/02 01:40:31  5-MIN KMSN 220740Z 07004KT 2SM BR FEW050 21/20 A3026 560 93 1400 070/04 RMK AO2
14837KMSN MSN20020622014509806/22/02 01:45:31  5-MIN KMSN 220745Z 07004KT 2SM BR FEW050 21/20 A3026 550 93 1400 070/04 RMK AO2
14837KMSN MSN20020622015011506/22/02 01:50:31  5-MIN KMSN 220750Z 07004KT 2SM BR FEW050 21/20 A3026 550 93 1400 070/04 RMK AO2 SLP242 T02110200
14837KMSN MSN20020622015509906/22/02 01:55:31  5-MIN KMSN 220755Z 06003KT 1 1/2SM BR CLR 21/20 A3026 550 93 1400 060/03 RMK AO2
14837KMSN MSN20020622020009906/22/02 02:00:31  5-MIN KMSN 220800Z 00000KT 1 1/2SM BR CLR 21/20 A3027 550 93 1400 000/00 RMK AO2
14837KMSN MSN20020622020510206/22/02 02:05:31  5-MIN KMSN 220805Z 03004KT 1 3/4SM BR FEW060 21/20 A3027 540 93 1400 030/04 RMK AO2
14837KMSN MSN20020622021010206/22/02 02:10:31  5-MIN KMSN 220810Z 06004KT 1 3/4SM BR SCT055 21/20 A3027 540 93 1400 060/04 RMK AO2
14837KMSN MSN20020622021510206/22/02 02:15:31  5-MIN KMSN 220815Z 06004KT 1 3/4SM BR BKN055 21/20 A3027 550 93 1400 060/04 RMK AO2
14837KMSN MSN20020622022010906/22/02 02:20:31  5-MIN KMSN 220820Z 05005KT 1 1/2SM BR BKN055 BKN070 22/20 A3027 550 90 1500 050/05 RMK AO2
14837KMSN MSN20020622022510906/22/02 02:25:31  5-MIN KMSN 220825Z 04004KT 1 1/2SM BR BKN055 BKN070 22/20 A3027 550 90 1500 040/04 RMK AO2
14837KMSN MSN20020622023010206/22/02 02:30:31  5-MIN KMSN 220830Z VRB04KT 1 1/2SM BR BKN055 22/20 A3026 550 90 1500 VRB/04 RMK AO2
14837KMSN MSN20020622023510906/22/02 02:35:31  5-MIN KMSN 220835Z 08005KT 1 1/2SM BR BKN055 OVC070 22/20 A3026 550 90 1500 080/05 RMK AO2
14837KMSN MSN20020622024010906/22/02 02:40:31  5-MIN KMSN 220840Z 09004KT 1 1/2SM BR BKN055 OVC070 22/20 A3026 550 90 1500 090/04 RMK AO2
14837KMSN MSN20020622024510906/22/02 02:45:31  5-MIN KMSN 220845Z 09006KT 1 1/2SM BR BKN055 BKN070 22/19 A3026 560 87 1500 090/06 RMK AO2
14837KMSN MSN20020622025013206/22/02 02:50:31  5-MIN KMSN 220850Z 09004KT 2 1/2SM BR BKN055 BKN070 21/19 A3025 560 87 1400 090/04 RMK AO2 SLP239 T02110189 53005
14837KMSN MSN20020622025510906/22/02 02:55:31  5-MIN KMSN 220855Z 09004KT 2 1/2SM BR BKN055 BKN070 21/19 A3025 560 87 1400 080/04 RMK AO2
14837KMSN MSN20020622030010906/22/02 03:00:31  5-MIN KMSN 220900Z 10004KT 2 1/2SM BR BKN055 OVC070 21/19 A3025 560 87 1400 100/04 RMK AO2
14837KMSN MSN20020622030510506/22/02 03:05:31  5-MIN KMSN 220905Z 11005KT 3SM BR BKN055 BKN070 21/19 A3025 560 87 1400 110/05 RMK AO2
14837KMSN MSN20020622031010506/22/02 03:10:31  5-MIN KMSN 220910Z 12003KT 3SM BR SCT055 BKN070 21/19 A3025 560 87 1400 120/03 RMK AO2
14837KMSN MSN20020622031510506/22/02 03:15:31  5-MIN KMSN 220915Z 12003KT 3SM BR SCT055 BKN070 21/18 A3025 560 87 1400 120/03 RMK AO2
14837KMSN MSN20020622032010506/22/02 03:20:31  5-MIN KMSN 220920Z 11004KT 4SM BR FEW050 SCT065 21/18 A3025 560 87 1400 110/04 RMK AO2
14837KMSN MSN20020622032510506/22/02 03:25:31  5-MIN KMSN 220925Z 11005KT 4SM BR FEW050 SCT065 21/18 A3025 560 87 1400 110/05 RMK AO2
14837KMSN MSN20020622033010506/22/02 03:30:31  5-MIN KMSN 220930Z 11004KT 4SM BR FEW055 SCT070 21/18 A3025 560 87 1400 110/04 RMK AO2
14837KMSN MSN20020622033509806/22/02 03:35:31  5-MIN KMSN 220935Z 11004KT 4SM BR FEW055 20/18 A3025 560 90 1300 110/04 RMK AO2
14837KMSN MSN20020622034009806/22/02 03:40:31  5-MIN KMSN 220940Z 12004KT 4SM BR FEW055 20/18 A3025 560 90 1300 120/04 RMK AO2
14837KMSN MSN20020622034509806/22/02 03:45:31  5-MIN KMSN 220945Z 11004KT 4SM BR FEW055 20/18 A3025 560 90 1300 110/04 RMK AO2
14837KMSN MSN20020622035011506/22/02 03:50:31  5-MIN KMSN 220950Z 12005KT 3SM BR FEW050 20/18 A3025 560 90 1300 120/05 RMK AO2 SLP240 T02000183
14837KMSN MSN20020622035509806/22/02 03:55:31  5-MIN KMSN 220955Z 13004KT 3SM BR FEW055 20/18 A3025 560 90 1300 130/04 RMK AO2
14837KMSN MSN20020622040009806/22/02 04:00:31  5-MIN KMSN 221000Z 13004KT 3SM BR FEW060 20/18 A3026 560 90 1300 130/04 RMK AO2
14837KMSN MSN20020622040509806/22/02 04:05:31  5-MIN KMSN 221005Z 13004KT 3SM BR SCT060 20/18 A3025 560 90 1300 130/04 RMK AO2
14837KMSN MSN20020622041009806/22/02 04:10:31  5-MIN KMSN 221010Z 12004KT 3SM BR SCT060 21/19 A3026 550 90 1400 120/04 RMK AO2
14837KMSN MSN20020622041510206/22/02 04:15:31  5-MIN KMSN 221015Z 12004KT 2 1/2SM BR SCT060 21/19 A3026 550 90 1400 120/04 RMK AO2
14837KMSN MSN20020622042010206/22/02 04:20:31  5-MIN KMSN 221020Z 13003KT 2 1/2SM BR BKN055 21/19 A3026 550 90 1400 130/03 RMK AO2
14837KMSN MSN20020622042509806/22/02 04:25:31  5-MIN KMSN 221025Z 11003KT 2SM BR BKN055 21/19 A3026 550 90 1400 110/03 RMK AO2
14837KMSN MSN20020622043010306/22/02 04:30:31  5-MIN KMSN 221030Z 09003KT 2SM BR BCFG BKN055 20/19 A3026 550 93 1300 090/03 RMK AO2
14837KMSN MSN20020622043510306/22/02 04:35:31  5-MIN KMSN 221035Z 10005KT 2SM BR BCFG SCT055 21/19 A3026 550 90 1400 100/05 RMK AO2
14837KMSN MSN20020622044010306/22/02 04:40:31  5-MIN KMSN 221040Z 11005KT 2SM BR BCFG FEW055 21/19 A3026 550 90 1400 110/05 RMK AO2
14837KMSN MSN20020622044510306/22/02 04:45:31  5-MIN KMSN 221045Z 11004KT 2SM BR BCFG FEW055 20/19 A3026 550 93 1300 110/04 RMK AO2
14837KMSN MSN20020622045012006/22/02 04:50:31  5-MIN KMSN 221050Z 12003KT 2SM BR BCFG FEW055 20/19 A3026 550 93 1300 120/03 RMK AO2 SLP243 T02000189
14837KMSN MSN20020622045510006/22/02 04:55:31  5-MIN KMSN 221055Z 13003KT 2SM BR BCFG CLR 20/19 A3026 550 93 1300 130/03 RMK AO2
14837KMSN MSN20020622050010006/22/02 05:00:31  5-MIN KMSN 221100Z 13003KT 2SM BR BCFG CLR 21/19 A3026 550 90 1400 130/03 RMK AO2
14837KMSN MSN20020622050510006/22/02 05:05:31  5-MIN KMSN 221105Z 13003KT 2SM BR BCFG CLR 21/19 A3026 550 90 1400 130/03 RMK AO2
14837KMSN MSN20020622051010006/22/02 05:10:31  5-MIN KMSN 221110Z 12003KT 2SM BR BCFG CLR 21/19 A3026 550 90 1400 110/03 RMK AO2
14837KMSN MSN20020622051510006/22/02 05:15:31  5-MIN KMSN 221115Z 12003KT 2SM BR BCFG CLR 21/19 A3026 550 90 1400 120/03 RMK AO2
14837KMSN MSN20020622052010006/22/02 05:20:31  5-MIN KMSN 221120Z 13003KT 2SM BR BCFG CLR 21/19 A3026 550 93 1400 130/03 RMK AO2
14837KMSN MSN20020622052510406/22/02 05:25:31  5-MIN KMSN 221125Z 00000KT 1 3/4SM BR BCFG CLR 21/19 A3026 550 90 1400 000/00 RMK AO2
14837KMSN MSN20020622053010406/22/02 05:30:31  5-MIN KMSN 221130Z 00000KT 1 3/4SM BR BCFG CLR 21/19 A3026 550 90 1400 000/00 RMK AO2
14837KMSN MSN20020622053510406/22/02 05:35:31  5-MIN KMSN 221135Z 13003KT 1 3/4SM BR BCFG CLR 21/19 A3026 550 93 1400 120/03 RMK AO2
14837KMSN MSN20020622054010406/22/02 05:40:31  5-MIN KMSN 221140Z 14004KT 1 3/4SM BR BCFG CLR 21/19 A3026 550 93 1400 140/04 RMK AO2
14837KMSN MSN20020622054510406/22/02 05:45:31  5-MIN KMSN 221145Z 16003KT 1 1/2SM BR BCFG CLR 21/19 A3026 550 90 1400 160/03 RMK AO2
14837KMSN MSN20020622055013906/22/02 05:50:31  5-MIN KMSN 221150Z 00000KT 1 1/2SM BR BCFG CLR 22/20 A3026 550 90 1500 000/00 RMK AO2 SLP243 T02170200 10228 20200 58002
14837KMSN MSN20020622055510406/22/02 05:55:31  5-MIN KMSN 221155Z 00000KT 1 1/2SM BR BCFG CLR 22/19 A3026 550 87 1500 000/00 RMK AO2
14837KMSN MSN20020622060010406/22/02 06:00:31  5-MIN KMSN 221200Z 18004KT 1 1/2SM BR BCFG CLR 22/20 A3026 550 90 1500 180/04 RMK AO2
14837KMSN MSN20020622060510406/22/02 06:05:31  5-MIN KMSN 221205Z 19006KT 1 1/2SM BR BCFG CLR 22/20 A3026 550 90 1500 190/06 RMK AO2
14837KMSN MSN20020622061010406/22/02 06:10:31  5-MIN KMSN 221210Z 19004KT 1 1/2SM BR BCFG CLR 22/20 A3026 550 90 1500 180/04 RMK AO2
14837KMSN MSN20020622061510406/22/02 06:15:31  5-MIN KMSN 221215Z 18006KT 1 1/2SM BR BCFG CLR 22/20 A3026 550 87 1600 180/06 RMK AO2
14837KMSN MSN20020622062010406/22/02 06:20:31  5-MIN KMSN 221220Z 18005KT 1 1/2SM BR BCFG CLR 22/20 A3026 550 87 1600 180/05 RMK AO2
14837KMSN MSN20020622062510406/22/02 06:25:31  5-MIN KMSN 221225Z 17006KT 1 1/2SM BR BCFG CLR 22/20 A3026 550 87 1600 170/06 RMK AO2
14837KMSN MSN20020622063010406/22/02 06:30:31  5-MIN KMSN 221230Z 18005KT 1 1/2SM BR BCFG CLR 23/20 A3026 550 84 1600 180/05 RMK AO2
14837KMSN MSN20020622063509906/22/02 06:35:31  5-MIN KMSN 221235Z 18006KT 1 1/2SM HZ CLR 23/20 A3026 550 84 1600 180/06 RMK AO2
14837KMSN MSN20020622064009906/22/02 06:40:31  5-MIN KMSN 221240Z 18006KT 1 1/2SM HZ CLR 23/21 A3026 550 84 1700 180/06 RMK AO2
14837KMSN MSN20020622064510906/22/02 06:45:31  5-MIN KMSN 221245Z 19006KT 1 1/2SM HZ CLR 23/20 A3026 550 81 1700 190/06 RMK AO2 TWR VIS 2
14837KMSN MSN20020622065011206/22/02 06:50:31  5-MIN KMSN 221250Z 19007KT 2SM HZ CLR 23/20 A3026 550 81 1700 190/07 RMK AO2 SLP243 T02330200
14837KMSN MSN20020622065509506/22/02 06:55:31  5-MIN KMSN 221255Z 19006KT 2SM HZ CLR 23/20 A3026 550 81 1700 190/06 RMK AO2
14837KMSN MSN20020622070009906/22/02 07:00:31  5-MIN KMSN 221300Z 19005KT 2 1/2SM HZ CLR 24/20 A3027 550 78 1700 190/05 RMK AO2
14837KMSN MSN20020622070509906/22/02 07:05:31  5-MIN KMSN 221305Z 19004KT 2 1/2SM HZ CLR 24/21 A3027 540 81 1700 190/04 RMK AO2
14837KMSN MSN20020622071009906/22/02 07:10:31  5-MIN KMSN 221310Z 18004KT 2 1/2SM HZ CLR 24/21 A3027 540 78 1800 180/04 RMK AO2
14837KMSN MSN20020622071510206/22/02 07:15:31  5-MIN KMSN 221315Z 16005KT 2 1/2SM HZ FEW055 24/21 A3027 540 78 1800 160/05 RMK AO2
14837KMSN MSN20020622072010206/22/02 07:20:31  5-MIN KMSN 221320Z 19004KT 2 1/2SM HZ BKN055 24/21 A3027 540 78 1800 190/04 RMK AO2
14837KMSN MSN20020622072510206/22/02 07:25:31  5-MIN KMSN 221325Z 16004KT 2 1/2SM HZ BKN055 24/21 A3027 540 78 1800 150/04 RMK AO2
14837KMSN MSN20020622073011206/22/02 07:30:31  5-MIN KMSN 221330Z 15004KT 2 1/2SM HZ BKN055 24/21 A3027 540 78 1800 150/04 RMK AO2 SFC VIS 3
14837KMSN MSN20020622073509806/22/02 07:35:31  5-MIN KMSN 221335Z 16004KT 3SM HZ BKN055 24/21 A3027 540 78 1800 160/04 RMK AO2
14837KMSN MSN20020622074009806/22/02 07:40:31  5-MIN KMSN 221340Z 18003KT 3SM HZ BKN055 24/21 A3027 540 78 1800 170/03 RMK AO2
14837KMSN MSN20020622074509806/22/02 07:45:31  5-MIN KMSN 221345Z 15004KT 3SM HZ BKN055 25/21 A3027 540 76 1900 150/04 RMK AO2
14837KMSN MSN20020622075012506/22/02 07:50:31  5-MIN KMSN 221350Z 19004KT 3SM HZ BKN060 26/21 A3027 540 73 1900 190/04 RMK AO2 SFC VIS 4 SLP245 T02560206
14837KMSN MSN20020622075510806/22/02 07:55:31  5-MIN KMSN 221355Z 19005KT 3SM HZ BKN060 25/21 A3027 540 76 1900 190/05 RMK AO2 SFC VIS 4
14837KMSN MSN20020622080011506/22/02 08:00:31  5-MIN KMSN 221400Z 19006KT 3SM HZ BKN060 BKN070 26/21 A3027 550 73 1900 180/06 RMK AO2 SFC VIS 4
14837KMSN MSN20020622080511506/22/02 08:05:31  5-MIN KMSN 221405Z 22004KT 3SM HZ BKN060 BKN070 26/21 A3027 540 73 1900 220/04 RMK AO2 SFC VIS 4
14837KMSN MSN20020622081011506/22/02 08:10:31  5-MIN KMSN 221410Z VRB05KT 3SM HZ SCT060 BKN070 26/21 A3027 550 71 2000 VRB/05 RMK AO2 SFC VIS 4
14837KMSN MSN20020622081510806/22/02 08:15:31  5-MIN KMSN 221415Z 22005KT 3SM HZ BKN065 26/21 A3027 550 71 2000 220/05 RMK AO2 SFC VIS 4
14837KMSN MSN20020622082011506/22/02 08:20:31  5-MIN KMSN 221420Z 21005KT 3SM HZ FEW060 SCT070 26/21 A3027 550 71 2000 200/05 RMK AO2 SFC VIS 4
14837KMSN MSN20020622082511506/22/02 08:25:31  5-MIN KMSN 221425Z VRB05KT 3SM HZ FEW060 SCT070 27/21 A3027 550 69 2100 VRB/05 RMK AO2 SFC VIS 4
14837KMSN MSN20020622083011506/22/02 08:30:31  5-MIN KMSN 221430Z 23004KT 3SM HZ FEW060 SCT070 27/21 A3027 540 69 2100 230/04 RMK AO2 SFC VIS 4
14837KMSN MSN20020622083511506/22/02 08:35:31  5-MIN KMSN 221435Z VRB04KT 3SM HZ FEW060 BKN070 27/21 A3027 540 69 2100 VRB/04 RMK AO2 SFC VIS 4
14837KMSN MSN20020622084011506/22/02 08:40:31  5-MIN KMSN 221440Z 26004KT 3SM HZ FEW060 BKN070 27/21 A3027 540 69 2100 260/04 RMK AO2 SFC VIS 4
14837KMSN MSN20020622084511506/22/02 08:45:31  5-MIN KMSN 221445Z VRB04KT 3SM HZ FEW060 BKN070 27/21 A3027 540 69 2000 VRB/04 RMK AO2 SFC VIS 4
14837KMSN MSN20020622085013806/22/02 08:50:31  5-MIN KMSN 221450Z 23005KT 3SM HZ FEW060 BKN070 27/21 A3027 540 69 2000 230/05 RMK AO2 SFC VIS 4 SLP245 T02670206 53004
14837KMSN MSN20020622085509806/22/02 08:55:31  5-MIN KMSN 221455Z 22004KT 5SM HZ BKN070 27/21 A3027 540 71 2000 220/04 RMK AO2
14837KMSN MSN20020622090009806/22/02 09:00:31  5-MIN KMSN 221500Z VRB06KT 5SM HZ BKN070 27/21 A3027 540 69 2100 VRB/06 RMK AO2
14837KMSN MSN20020622090509806/22/02 09:05:31  5-MIN KMSN 221505Z 31006KT 5SM HZ BKN070 28/21 A3027 540 64 2200 310/06 RMK AO2
14837KMSN MSN20020622091009806/22/02 09:10:31  5-MIN KMSN 221510Z VRB05KT 5SM HZ BKN070 27/21 A3028 540 69 2000 VRB/05 RMK AO2
14837KMSN MSN20020622091509806/22/02 09:15:31  5-MIN KMSN 221515Z VRB04KT 5SM HZ BKN060 27/21 A3028 540 69 2000 VRB/04 RMK AO2
14837KMSN MSN20020622092009806/22/02 09:20:31  5-MIN KMSN 221520Z 28005KT 5SM HZ BKN060 27/21 A3027 540 69 2000 280/05 RMK AO2
14837KMSN MSN20020622092509806/22/02 09:25:31  5-MIN KMSN 221525Z VRB04KT 5SM HZ BKN060 28/21 A3027 540 66 2200 VRB/04 RMK AO2
14837KMSN MSN20020622093011106/22/02 09:30:31  5-MIN KMSN 221530Z 32008KT 5SM -RA BKN060 28/22 A3028 530 66 2200 320/08 RMK AO2 RAB28 P0000
14837KMSN MSN20020622093513306/22/02 09:35:31  5-MIN KMSN 221535Z 33011G14KT 6SM HZ FEW032 BKN050 BKN100 27/21 A3029 530 71 2000 330/11G14 RMK AO2 RAB28E34 P0000
14837KMSN MSN20020622094013306/22/02 09:40:31  5-MIN KMSN 221540Z 35013G17KT 6SM HZ FEW032 BKN050 BKN100 24/21 A3029 520 78 1800 350/13G17 RMK AO2 RAB28E34 P0000
14837KMSN MSN20020622094513306/22/02 09:45:31  5-MIN KMSN 221545Z 36015G19KT 6SM HZ SCT028 BKN034 BKN100 24/20 A3029 520 78 1700 360/15G19 RMK AO2 RAB28E34 P0000
14837KMSN MSN20020622095015006/22/02 09:50:31  5-MIN KMSN 221550Z 36013G19KT 6SM HZ FEW023 BKN031 OVC100 23/20 A3029 520 81 1600 360/13G19 RMK AO2 RAB28E34 SLP253 P0000 T02330200
14837KMSN MSN20020622095511506/22/02 09:55:31  5-MIN KMSN 221555Z 36016G19KT 7SM FEW027 SCT034 BKN055 23/19 A3029 520 78 1600 360/16G19 RMK AO2
14837KMSN MSN20020622100011506/22/02 10:00:31  5-MIN KMSN 221600Z 36011G19KT 7SM FEW027 SCT034 BKN055 23/19 A3029 530 78 1700 360/11G19 RMK AO2
14837KMSN MSN20020622100510206/22/02 10:05:31  5-MIN KMSN 221605Z 36012KT 7SM FEW024 SCT055 24/19 A3028 530 73 1800 350/12 RMK AO2
14837KMSN MSN20020622101010206/22/02 10:10:31  5-MIN KMSN 221610Z 01012KT 7SM FEW024 BKN055 25/20 A3029 530 73 1800 360/12 RMK AO2
14837KMSN MSN20020622101510206/22/02 10:15:31  5-MIN KMSN 221615Z 36010KT 7SM FEW024 SCT055 25/20 A3028 530 73 1900 360/10 RMK AO2
14837KMSN MSN20020622102010206/22/02 10:20:31  5-MIN KMSN 221620Z 36007KT 8SM FEW024 SCT055 26/20 A3028 530 71 1900 360/07 RMK AO2
14837KMSN MSN20020622102510206/22/02 10:25:31  5-MIN KMSN 221625Z 36006KT 8SM FEW024 SCT055 26/20 A3028 530 71 1900 360/06 RMK AO2
14837KMSN MSN20020622103010206/22/02 10:30:31  5-MIN KMSN 221630Z VRB03KT 7SM FEW024 SCT055 26/20 A3028 540 68 2000 VRB/03 RMK AO2
14837KMSN MSN20020622103510206/22/02 10:35:31  5-MIN KMSN 221635Z VRB04KT 7SM FEW024 SCT055 26/20 A3027 540 68 2000 VRB/04 RMK AO2
14837KMSN MSN20020622104010206/22/02 10:40:31  5-MIN KMSN 221640Z VRB03KT 7SM FEW024 SCT055 26/20 A3027 550 68 2000 VRB/03 RMK AO2
14837KMSN MSN20020622104509506/22/02 10:45:31  5-MIN KMSN 221645Z 00000KT 7SM SCT060 26/19 A3026 550 66 2000 000/00 RMK AO2
14837KMSN MSN20020622105011206/22/02 10:50:31  5-MIN KMSN 221650Z 00000KT 7SM SCT060 27/20 A3026 560 66 2100 000/00 RMK AO2 SLP240 T02670200
14837KMSN MSN20020622105509506/22/02 10:55:31  5-MIN KMSN 221655Z 17005KT 7SM FEW060 27/21 A3025 560 69 2100 170/05 RMK AO2
14837KMSN MSN20020622110009506/22/02 11:00:31  5-MIN KMSN 221700Z 14006KT 7SM FEW060 27/21 A3025 560 66 2100 140/06 RMK AO2
14837KMSN MSN20020622110509506/22/02 11:05:31  5-MIN KMSN 221705Z 17006KT 7SM FEW060 27/20 A3024 570 64 2100 170/06 RMK AO2
14837KMSN MSN20020622111009506/22/02 11:10:31  5-MIN KMSN 221710Z 17004KT 8SM FEW060 28/21 A3024 570 64 2200 170/04 RMK AO2
14837KMSN MSN20020622111509506/22/02 11:15:31  5-MIN KMSN 221715Z VRB06KT 8SM FEW060 28/20 A3024 570 62 2200 VRB/06 RMK AO2
14837KMSN MSN20020622112009506/22/02 11:20:31  5-MIN KMSN 221720Z VRB03KT 7SM FEW060 28/21 A3024 570 62 2300 VRB/03 RMK AO2
14837KMSN MSN20020622112509506/22/02 11:25:31  5-MIN KMSN 221725Z 21005KT 7SM FEW060 28/21 A3023 580 62 2300 210/05 RMK AO2
14837KMSN MSN20020622113009506/22/02 11:30:31  5-MIN KMSN 221730Z 22005KT 7SM FEW060 28/20 A3023 580 60 2300 220/05 RMK AO2
14837KMSN MSN20020622113509206/22/02 11:35:31  5-MIN KMSN 221735Z 24005KT 8SM CLR 28/19 A3023 580 60 2200 230/05 RMK AO2
14837KMSN MSN20020622114009206/22/02 11:40:31  5-MIN KMSN 221740Z VRB04KT 9SM CLR 28/20 A3022 590 60 2300 VRB/04 RMK AO2
14837KMSN MSN20020622114509206/22/02 11:45:31  5-MIN KMSN 221745Z 23005KT 8SM CLR 28/21 A3022 590 62 2300 230/05 RMK AO2
14837KMSN MSN20020622115013306/22/02 11:50:31  5-MIN KMSN 221750Z VRB06KT 8SM CLR 28/20 A3022 590 60 2300 VRB/06 RMK AO2 SLP226 60000 T02830200 10283 20217 53003
14837KMSN MSN20020622115509206/22/02 11:55:31  5-MIN KMSN 221755Z 19006KT 8SM CLR 28/21 A3022 590 62 2300 190/06 RMK AO2
14837KMSN MSN20020622120009206/22/02 12:00:31  5-MIN KMSN 221800Z 20006KT 8SM CLR 29/20 A3021 590 58 2400 200/06 RMK AO2
14837KMSN MSN20020622120509206/22/02 12:05:31  5-MIN KMSN 221805Z 19007KT 9SM CLR 29/21 A3021 600 60 2400 190/07 RMK AO2
14837KMSN MSN20020622121009206/22/02 12:10:31  5-MIN KMSN 221810Z 23007KT 7SM CLR 28/20 A3021 600 60 2300 230/07 RMK AO2
14837KMSN MSN20020622121509206/22/02 12:15:31  5-MIN KMSN 221815Z 24006KT 8SM CLR 28/21 A3021 600 62 2300 240/06 RMK AO2
14837KMSN MSN20020622122009206/22/02 12:20:31  5-MIN KMSN 221820Z 20007KT 8SM CLR 29/21 A3020 600 60 2400 200/07 RMK AO2
14837KMSN MSN20020622122509206/22/02 12:25:31  5-MIN KMSN 221825Z VRB06KT 8SM CLR 29/21 A3020 610 60 2400 VRB/06 RMK AO2
14837KMSN MSN20020622123009206/22/02 12:30:31  5-MIN KMSN 221830Z 24005KT 8SM CLR 29/21 A3020 610 62 2400 240/05 RMK AO2
14837KMSN MSN20020622123509206/22/02 12:35:31  5-MIN KMSN 221835Z 24006KT 8SM CLR 28/21 A3019 610 62 2300 230/06 RMK AO2
14837KMSN MSN20020622124009206/22/02 12:40:31  5-MIN KMSN 221840Z 19007KT 8SM CLR 29/21 A3019 620 62 2400 190/07 RMK AO2
14837KMSN MSN20020622124509206/22/02 12:45:31  5-MIN KMSN 221845Z 21007KT 8SM CLR 29/21 A3019 620 62 2400 210/07 RMK AO2
14837KMSN MSN20020622125010906/22/02 12:50:31  5-MIN KMSN 221850Z 19007KT 8SM CLR 29/21 A3019 620 62 2400 190/07 RMK AO2 SLP216 T02890211
14837KMSN MSN20020622125509206/22/02 12:55:31  5-MIN KMSN 221855Z 18008KT 8SM CLR 29/21 A3018 620 60 2500 180/08 RMK AO2
14837KMSN MSN20020622130009206/22/02 13:00:31  5-MIN KMSN 221900Z 19006KT 8SM CLR 29/21 A3018 620 60 2500 190/06 RMK AO2
14837KMSN MSN20020622130509206/22/02 13:05:31  5-MIN KMSN 221905Z 19005KT 7SM CLR 29/22 A3018 630 62 2500 190/05 RMK AO2
14837KMSN MSN20020622131009206/22/02 13:10:31  5-MIN KMSN 221910Z 22007KT 7SM CLR 30/22 A3018 630 60 2500 220/07 RMK AO2
14837KMSN MSN20020622131509506/22/02 13:15:31  5-MIN KMSN 221915Z 18007KT 7SM FEW040 30/21 A3017 630 58 2500 180/07 RMK AO2
14837KMSN MSN20020622132009506/22/02 13:20:31  5-MIN KMSN 221920Z VRB06KT 7SM FEW040 30/22 A3017 630 60 2500 VRB/06 RMK AO2
14837KMSN MSN20020622132509506/22/02 13:25:31  5-MIN KMSN 221925Z VRB06KT 8SM FEW040 30/22 A3017 640 60 2500 VRB/06 RMK AO2
14837KMSN MSN20020622133009506/22/02 13:30:31  5-MIN KMSN 221930Z 19009KT 8SM FEW040 30/22 A3017 640 60 2500 190/09 RMK AO2
14837KMSN MSN20020622133509506/22/02 13:35:31  5-MIN KMSN 221935Z 19006KT 8SM FEW040 30/21 A3016 640 58 2500 190/06 RMK AO2
14837KMSN MSN20020622134009506/22/02 13:40:31  5-MIN KMSN 221940Z 19009KT 8SM FEW040 30/22 A3016 640 60 2500 190/09 RMK AO2
14837KMSN MSN20020622134509506/22/02 13:45:31  5-MIN KMSN 221945Z 18008KT 8SM FEW040 30/22 A3016 650 62 2500 180/08 RMK AO2
14837KMSN MSN20020622135011206/22/02 13:50:31  5-MIN KMSN 221950Z 22006KT 8SM SCT040 31/22 A3015 650 60 2600 220/06 RMK AO2 SLP204 T03060222
14837KMSN MSN20020622135509506/22/02 13:55:31  5-MIN KMSN 221955Z 21009KT 8SM SCT040 31/21 A3015 660 56 2600 210/09 RMK AO2
14837KMSN MSN20020622140009506/22/02 14:00:31  5-MIN KMSN 222000Z 21011KT 9SM SCT040 31/21 A3014 660 54 2700 210/11 RMK AO2
14837KMSN MSN20020622140510206/22/02 14:05:31  5-MIN KMSN 222005Z 22009G14KT 10SM SCT045 31/20 A3014 660 52 2600 220/09G14 RMK AO2
14837KMSN MSN20020622141010206/22/02 14:10:31  5-MIN KMSN 222010Z 20009G14KT 10SM SCT045 31/21 A3014 660 54 2600 200/09G14 RMK AO2
14837KMSN MSN20020622141510106/22/02 14:15:31  5-MIN KMSN 222015Z 22010G16KT 9SM SCT045 31/20 A3014 660 51 2700 210/10G16 RMK AO2
14837KMSN MSN20020622142010106/22/02 14:20:31  5-MIN KMSN 222020Z 21010G16KT 9SM SCT045 31/20 A3014 660 51 2700 210/10G16 RMK AO2
14837KMSN MSN20020622142510206/22/02 14:25:31  5-MIN KMSN 222025Z 20009G16KT 10SM SCT045 31/21 A3014 670 53 2700 200/09G16 RMK AO2
14837KMSN MSN20020622143010206/22/02 14:30:31  5-MIN KMSN 222030Z 22010G16KT 10SM SCT045 31/21 A3014 670 53 2700 220/10G16 RMK AO2
14837KMSN MSN20020622143510106/22/02 14:35:31  5-MIN KMSN 222035Z 21011G15KT 9SM SCT045 31/21 A3014 660 53 2700 210/11G15 RMK AO2
14837KMSN MSN20020622144011806/22/02 14:40:31  5-MIN KMSN 222040Z 21008G15KT 170V240 10SM SCT045 31/21 A3014 670 54 2600 210/08G15 170V240 RMK AO2
14837KMSN MSN20020622144510206/22/02 14:45:31  5-MIN KMSN 222045Z 21009G15KT 10SM SCT045 31/20 A3013 670 51 2700 210/09G15 RMK AO2
14837KMSN MSN20020622145011906/22/02 14:50:31  5-MIN KMSN 222050Z 22009KT 10SM SCT045 31/20 A3013 670 52 2600 210/09 RMK AO2 SLP198 T03060200 58018
14837KMSN MSN20020622145509606/22/02 14:55:31  5-MIN KMSN 222055Z 21010KT 10SM SCT045 31/20 A3013 670 51 2700 200/10 RMK AO2
14837KMSN MSN20020622150010206/22/02 15:00:31  5-MIN KMSN 222100Z 21009G16KT 10SM FEW045 31/19 A3013 670 49 2700 210/09G16 RMK AO2
14837KMSN MSN20020622150510206/22/02 15:05:31  5-MIN KMSN 222105Z 22009G16KT 10SM FEW045 31/19 A3013 670 49 2700 220/09G16 RMK AO2
14837KMSN MSN20020622151009606/22/02 15:10:31  5-MIN KMSN 222110Z 22009KT 10SM FEW045 31/19 A3013 670 49 2700 220/09 RMK AO2
14837KMSN MSN20020622151509606/22/02 15:15:31  5-MIN KMSN 222115Z 22011KT 10SM FEW045 31/19 A3013 670 47 2700 220/11 RMK AO2
14837KMSN MSN20020622152009606/22/02 15:20:31  5-MIN KMSN 222120Z 22010KT 10SM FEW045 31/18 A3013 670 46 2700 220/10 RMK AO2
14837KMSN MSN20020622152509606/22/02 15:25:31  5-MIN KMSN 222125Z 23008KT 10SM FEW045 31/19 A3013 670 47 2700 230/08 RMK AO2
14837KMSN MSN20020622153009606/22/02 15:30:31  5-MIN KMSN 222130Z 22010KT 10SM FEW045 31/19 A3013 670 47 2700 220/10 RMK AO2
14837KMSN MSN20020622153510206/22/02 15:35:31  5-MIN KMSN 222135Z 22011G16KT 10SM FEW045 31/19 A3013 670 49 2600 220/11G16 RMK AO2
14837KMSN MSN20020622154010206/22/02 15:40:31  5-MIN KMSN 222140Z 22009G16KT 10SM FEW045 31/19 A3013 680 49 2600 220/09G16 RMK AO2
14837KMSN MSN20020622154510206/22/02 15:45:31  5-MIN KMSN 222145Z 22008G15KT 10SM FEW045 31/19 A3013 680 49 2600 220/08G15 RMK AO2
14837KMSN MSN20020622155011906/22/02 15:50:31  5-MIN KMSN 222150Z 22010G15KT 10SM FEW045 31/19 A3012 680 49 2700 220/10G15 RMK AO2 SLP195 T03110192
14837KMSN MSN20020622155509306/22/02 15:55:31  5-MIN KMSN 222155Z 22010KT 10SM CLR 31/18 A3012 680 47 2600 220/10 RMK AO2
14837KMSN MSN20020622160009906/22/02 16:00:31  5-MIN KMSN 222200Z 22007G14KT 10SM CLR 31/19 A3012 680 47 2700 220/07G14 RMK AO2
14837KMSN MSN20020622160509306/22/02 16:05:31  5-MIN KMSN 222205Z 22009KT 10SM CLR 31/18 A3012 680 47 2700 220/09 RMK AO2
14837KMSN MSN20020622161009306/22/02 16:10:31  5-MIN KMSN 222210Z 22011KT 10SM CLR 31/18 A3012 680 47 2700 220/11 RMK AO2
14837KMSN MSN20020622161509906/22/02 16:15:31  5-MIN KMSN 222215Z 23011G19KT 10SM CLR 31/18 A3011 690 46 2700 220/11G19 RMK AO2
14837KMSN MSN20020622162009906/22/02 16:20:31  5-MIN KMSN 222220Z 22011G19KT 10SM CLR 31/18 A3011 690 46 2700 220/11G19 RMK AO2
14837KMSN MSN20020622162509306/22/02 16:25:31  5-MIN KMSN 222225Z 22008KT 10SM CLR 31/18 A3012 680 47 2700 220/08 RMK AO2
14837KMSN MSN20020622163009906/22/02 16:30:31  5-MIN KMSN 222230Z 22008G14KT 10SM CLR 31/19 A3012 680 49 2700 220/08G14 RMK AO2
14837KMSN MSN20020622163509906/22/02 16:35:31  5-MIN KMSN 222235Z 23009G15KT 10SM CLR 30/19 A3012 680 51 2600 230/09G15 RMK AO2
14837KMSN MSN20020622164009906/22/02 16:40:31  5-MIN KMSN 222240Z 23009G15KT 10SM CLR 30/19 A3012 680 51 2600 230/09G15 RMK AO2
14837KMSN MSN20020622164510906/22/02 16:45:31  5-MIN KMSN 222245Z 23008KT 190V260 10SM CLR 30/19 A3012 680 51 2600 230/08 190V260 RMK AO2
14837KMSN MSN20020622165011006/22/02 16:50:31  5-MIN KMSN 222250Z 24005KT 10SM CLR 30/19 A3011 690 51 2600 240/05 RMK AO2 SLP192 T03000189
14837KMSN MSN20020622165509306/22/02 16:55:31  5-MIN KMSN 222255Z 21008KT 10SM CLR 31/19 A3011 690 49 2700 210/08 RMK AO2
14837KMSN MSN20020622170009906/22/02 17:00:31  5-MIN KMSN 222300Z 22007G16KT 10SM CLR 31/19 A3011 690 49 2700 220/07G16 RMK AO2
14837KMSN MSN20020622170509806/22/02 17:05:31  5-MIN KMSN 222305Z 23007G16KT 9SM CLR 30/19 A3011 690 51 2600 230/07G16 RMK AO2
14837KMSN MSN20020622171009206/22/02 17:10:31  5-MIN KMSN 222310Z 23008KT 9SM CLR 30/19 A3011 690 51 2600 220/08 RMK AO2
14837KMSN MSN20020622171509206/22/02 17:15:31  5-MIN KMSN 222315Z 22008KT 9SM CLR 30/19 A3011 690 52 2600 220/08 RMK AO2
14837KMSN MSN20020622172009206/22/02 17:20:31  5-MIN KMSN 222320Z 21006KT 9SM CLR 30/19 A3011 690 52 2600 210/06 RMK AO2
14837KMSN MSN20020622172509806/22/02 17:25:31  5-MIN KMSN 222325Z 22010G14KT 9SM CLR 30/19 A3010 700 51 2600 220/10G14 RMK AO2
14837KMSN MSN20020622173009206/22/02 17:30:31  5-MIN KMSN 222330Z 22008KT 9SM CLR 30/18 A3010 700 49 2600 220/08 RMK AO2
14837KMSN MSN20020622173510806/22/02 17:35:31  5-MIN KMSN 222335Z 21009KT 180V250 9SM CLR 30/19 A3010 700 51 2600 210/09 180V250 RMK AO2
14837KMSN MSN20020622174010806/22/02 17:40:31  5-MIN KMSN 222340Z 21009KT 180V250 9SM CLR 30/18 A3010 700 49 2600 210/09 180V250 RMK AO2
14837KMSN MSN20020622174509206/22/02 17:45:31  5-MIN KMSN 222345Z 22009KT 9SM CLR 30/18 A3010 700 49 2600 220/09 RMK AO2
14837KMSN MSN20020622175012806/22/02 17:50:31  5-MIN KMSN 222350Z 21009KT 10SM CLR 30/19 A3010 700 51 2600 210/09 RMK AO2 SLP186 T03000189 10311 20283 56028
14837KMSN MSN20020622175509206/22/02 17:55:31  5-MIN KMSN 222355Z 20007KT 9SM CLR 30/19 A3010 700 51 2600 200/07 RMK AO2
14837KMSN MSN20020622180009206/22/02 18:00:31  5-MIN KMSN 230000Z 21008KT 8SM CLR 29/19 A3010 700 52 2600 200/08 RMK AO2
14837KMSN MSN20020622180509206/22/02 18:05:31  5-MIN KMSN 230005Z VRB06KT 8SM CLR 29/18 A3010 700 50 2600 VRB/06 RMK AO2
14837KMSN MSN20020622181009206/22/02 18:10:31  5-MIN KMSN 230010Z 21006KT 9SM CLR 29/18 A3010 700 50 2600 210/06 RMK AO2
14837KMSN MSN20020622181509206/22/02 18:15:31  5-MIN KMSN 230015Z 21006KT 8SM CLR 29/19 A3010 700 52 2600 210/06 RMK AO2
14837KMSN MSN20020622182009206/22/02 18:20:31  5-MIN KMSN 230020Z 21007KT 8SM CLR 29/19 A3010 700 52 2600 210/07 RMK AO2
14837KMSN MSN20020622182509206/22/02 18:25:31  5-MIN KMSN 230025Z 21006KT 8SM CLR 29/19 A3010 700 52 2600 210/06 RMK AO2
14837KMSN MSN20020622183009206/22/02 18:30:31  5-MIN KMSN 230030Z 21006KT 8SM CLR 29/19 A3010 700 54 2500 210/06 RMK AO2
14837KMSN MSN20020622183509206/22/02 18:35:31  5-MIN KMSN 230035Z 21005KT 8SM CLR 29/19 A3010 700 54 2500 210/05 RMK AO2
14837KMSN MSN20020622184009306/22/02 18:40:31  5-MIN KMSN 230040Z 21008KT 10SM CLR 29/19 A3009 700 56 2500 210/08 RMK AO2
14837KMSN MSN20020622184509306/22/02 18:45:31  5-MIN KMSN 230045Z 21007KT 10SM CLR 29/19 A3009 700 56 2500 210/07 RMK AO2
14837KMSN MSN20020622185011006/22/02 18:50:31  5-MIN KMSN 230050Z 21006KT 10SM CLR 29/19 A3010 700 56 2500 210/06 RMK AO2 SLP186 T02890194
14837KMSN MSN20020622185509206/22/02 18:55:31  5-MIN KMSN 230055Z 21008KT 8SM CLR 29/18 A3010 700 52 2500 210/08 RMK AO2
14837KMSN MSN20020622190009206/22/02 19:00:31  5-MIN KMSN 230100Z 20005KT 8SM CLR 29/18 A3010 700 52 2500 200/05 RMK AO2
14837KMSN MSN20020622190509206/22/02 19:05:31  5-MIN KMSN 230105Z 20006KT 8SM CLR 29/18 A3010 700 52 2500 200/06 RMK AO2
14837KMSN MSN20020622191009206/22/02 19:10:31  5-MIN KMSN 230110Z 21006KT 8SM CLR 28/18 A3010 690 54 2400 210/06 RMK AO2
14837KMSN MSN20020622191509206/22/02 19:15:31  5-MIN KMSN 230115Z 20005KT 8SM CLR 28/18 A3011 690 54 2400 200/05 RMK AO2
14837KMSN MSN20020622192009206/22/02 19:20:31  5-MIN KMSN 230120Z 21007KT 8SM CLR 28/18 A3011 690 54 2400 200/07 RMK AO2
14837KMSN MSN20020622192509206/22/02 19:25:31  5-MIN KMSN 230125Z 20006KT 8SM CLR 28/18 A3011 690 54 2400 200/06 RMK AO2
14837KMSN MSN20020622193009206/22/02 19:30:31  5-MIN KMSN 230130Z 21006KT 8SM CLR 28/18 A3011 690 54 2400 210/06 RMK AO2
14837KMSN MSN20020622193509206/22/02 19:35:31  5-MIN KMSN 230135Z 21006KT 8SM CLR 28/18 A3011 690 56 2400 210/06 RMK AO2
14837KMSN MSN20020622194009206/22/02 19:40:31  5-MIN KMSN 230140Z 20005KT 8SM CLR 28/18 A3011 690 56 2400 200/05 RMK AO2
14837KMSN MSN20020622194509206/22/02 19:45:31  5-MIN KMSN 230145Z 20004KT 8SM CLR 28/18 A3011 690 56 2400 200/04 RMK AO2
14837KMSN MSN20020622195010906/22/02 19:50:31  5-MIN KMSN 230150Z 20005KT 9SM CLR 28/19 A3011 690 58 2400 200/05 RMK AO2 SLP190 T02780189
14837KMSN MSN20020622195509206/22/02 19:55:31  5-MIN KMSN 230155Z 20004KT 8SM CLR 28/18 A3012 680 56 2300 200/04 RMK AO2
14837KMSN MSN20020622200009206/22/02 20:00:31  5-MIN KMSN 230200Z VRB03KT 8SM CLR 27/18 A3012 680 58 2300 VRB/03 RMK AO2
14837KMSN MSN20020622200509206/22/02 20:05:31  5-MIN KMSN 230205Z 00000KT 9SM CLR 27/19 A3012 680 62 2200 000/00 RMK AO2
14837KMSN MSN20020622201009206/22/02 20:10:31  5-MIN KMSN 230210Z 00000KT 8SM CLR 27/19 A3012 680 62 2200 000/00 RMK AO2
14837KMSN MSN20020622201509206/22/02 20:15:31  5-MIN KMSN 230215Z 16003KT 8SM CLR 26/19 A3012 680 64 2200 160/03 RMK AO2
14837KMSN MSN20020622202009206/22/02 20:20:31  5-MIN KMSN 230220Z 16004KT 8SM CLR 26/19 A3012 680 66 2100 160/04 RMK AO2
14837KMSN MSN20020622202509206/22/02 20:25:31  5-MIN KMSN 230225Z 17005KT 8SM CLR 25/19 A3012 680 68 2000 160/05 RMK AO2
14837KMSN MSN20020622203009206/22/02 20:30:31  5-MIN KMSN 230230Z 17005KT 8SM CLR 25/19 A3012 680 68 2000 160/05 RMK AO2
14837KMSN MSN20020622203509206/22/02 20:35:31  5-MIN KMSN 230235Z 16004KT 8SM CLR 26/19 A3013 680 68 2100 160/04 RMK AO2
14837KMSN MSN20020622204009206/22/02 20:40:31  5-MIN KMSN 230240Z 17005KT 8SM CLR 26/19 A3012 680 66 2100 170/05 RMK AO2
14837KMSN MSN20020622204509206/22/02 20:45:31  5-MIN KMSN 230245Z 17005KT 8SM CLR 26/19 A3012 680 66 2100 170/05 RMK AO2
14837KMSN MSN20020622205011506/22/02 20:50:31  5-MIN KMSN 230250Z 17006KT 8SM CLR 26/19 A3012 680 66 2200 170/06 RMK AO2 SLP194 T02610194 58010
14837KMSN MSN20020622205509206/22/02 20:55:31  5-MIN KMSN 230255Z 18005KT 8SM CLR 26/19 A3012 680 68 2100 170/05 RMK AO2
14837KMSN MSN20020622210009206/22/02 21:00:31  5-MIN KMSN 230300Z 18005KT 8SM CLR 26/19 A3012 680 66 2200 180/05 RMK AO2
14837KMSN MSN20020622210509206/22/02 21:05:31  5-MIN KMSN 230305Z 18005KT 8SM CLR 26/19 A3012 680 66 2200 180/05 RMK AO2
14837KMSN MSN20020622211009206/22/02 21:10:31  5-MIN KMSN 230310Z 17005KT 8SM CLR 26/19 A3012 680 68 2100 170/05 RMK AO2
14837KMSN MSN20020622211509206/22/02 21:15:31  5-MIN KMSN 230315Z 17006KT 8SM CLR 26/19 A3012 680 68 2100 170/06 RMK AO2
14837KMSN MSN20020622212009206/22/02 21:20:31  5-MIN KMSN 230320Z 18005KT 8SM CLR 26/19 A3012 680 68 2100 170/05 RMK AO2
14837KMSN MSN20020622212509206/22/02 21:25:31  5-MIN KMSN 230325Z 17006KT 7SM CLR 25/19 A3011 690 71 2000 170/06 RMK AO2
14837KMSN MSN20020622213009206/22/02 21:30:31  5-MIN KMSN 230330Z 18006KT 7SM CLR 25/19 A3011 690 71 2000 180/06 RMK AO2
14837KMSN MSN20020622213509206/22/02 21:35:31  5-MIN KMSN 230335Z 18006KT 7SM CLR 25/19 A3011 690 71 2000 170/06 RMK AO2
14837KMSN MSN20020622214009206/22/02 21:40:31  5-MIN KMSN 230340Z 18007KT 7SM CLR 25/19 A3011 690 71 2000 180/07 RMK AO2
14837KMSN MSN20020622214509206/22/02 21:45:31  5-MIN KMSN 230345Z 18006KT 7SM CLR 25/19 A3010 700 68 2100 180/06 RMK AO2
14837KMSN MSN20020622215010906/22/02 21:50:31  5-MIN KMSN 230350Z 18006KT 8SM CLR 25/19 A3010 700 68 2100 180/06 RMK AO2 SLP187 T02500189
14837KMSN MSN20020622215509206/22/02 21:55:31  5-MIN KMSN 230355Z 18006KT 7SM CLR 25/19 A3009 710 68 2100 170/06 RMK AO2
14837KMSN MSN20020622220009206/22/02 22:00:31  5-MIN KMSN 230400Z 18006KT 7SM CLR 25/19 A3009 700 68 2100 180/06 RMK AO2
14837KMSN MSN20020622220509206/22/02 22:05:31  5-MIN KMSN 230405Z 18007KT 8SM CLR 25/18 A3009 700 66 2100 180/07 RMK AO2
14837KMSN MSN20020622221009206/22/02 22:10:31  5-MIN KMSN 230410Z 18007KT 8SM CLR 25/18 A3009 700 66 2100 180/07 RMK AO2
14837KMSN MSN20020622221509206/22/02 22:15:31  5-MIN KMSN 230415Z 18006KT 8SM CLR 25/18 A3009 700 66 2100 180/06 RMK AO2
14837KMSN MSN20020622222009206/22/02 22:20:31  5-MIN KMSN 230420Z 17006KT 8SM CLR 25/18 A3009 700 66 2100 170/06 RMK AO2
14837KMSN MSN20020622222509206/22/02 22:25:31  5-MIN KMSN 230425Z 17007KT 8SM CLR 24/18 A3009 710 68 2000 170/07 RMK AO2
14837KMSN MSN20020622223009206/22/02 22:30:31  5-MIN KMSN 230430Z 18007KT 8SM CLR 24/18 A3009 710 68 2000 180/07 RMK AO2
14837KMSN MSN20020622223509206/22/02 22:35:31  5-MIN KMSN 230435Z 19006KT 8SM CLR 25/18 A3009 710 64 2100 180/06 RMK AO2
14837KMSN MSN20020622224009206/22/02 22:40:31  5-MIN KMSN 230440Z 19005KT 8SM CLR 25/18 A3009 710 64 2100 190/05 RMK AO2
14837KMSN MSN20020622224509206/22/02 22:45:31  5-MIN KMSN 230445Z 18007KT 8SM CLR 26/17 A3009 710 59 2100 180/07 RMK AO2
14837KMSN MSN20020622225010906/22/02 22:50:31  5-MIN KMSN 230450Z 19007KT 9SM CLR 25/17 A3009 710 61 2100 180/07 RMK AO2 SLP183 T02500172
14837KMSN MSN20020622225509206/22/02 22:55:31  5-MIN KMSN 230455Z 20007KT 9SM CLR 26/17 A3009 710 59 2100 200/07 RMK AO2
14837KMSN MSN20020622230009206/22/02 23:00:31  5-MIN KMSN 230500Z 19006KT 9SM CLR 26/17 A3009 710 59 2100 190/06 RMK AO2
14837KMSN MSN20020622230509206/22/02 23:05:31  5-MIN KMSN 230505Z 18006KT 9SM CLR 26/17 A3008 710 57 2100 180/06 RMK AO2
14837KMSN MSN20020622231009206/22/02 23:10:31  5-MIN KMSN 230510Z 19007KT 9SM CLR 26/17 A3008 710 57 2100 190/07 RMK AO2
14837KMSN MSN20020622231509206/22/02 23:15:31  5-MIN KMSN 230515Z 19007KT 9SM CLR 26/17 A3008 710 59 2100 190/07 RMK AO2
14837KMSN MSN20020622232009206/22/02 23:20:31  5-MIN KMSN 230520Z 19007KT 9SM CLR 26/17 A3009 710 59 2100 190/07 RMK AO2
14837KMSN MSN20020622232509206/22/02 23:25:31  5-MIN KMSN 230525Z 19007KT 9SM CLR 26/17 A3010 700 59 2100 190/07 RMK AO2
14837KMSN MSN20020622233009206/22/02 23:30:31  5-MIN KMSN 230530Z 19006KT 9SM CLR 26/17 A3010 700 59 2100 190/06 RMK AO2
14837KMSN MSN20020622233509206/22/02 23:35:31  5-MIN KMSN 230535Z 20005KT 8SM CLR 25/17 A3010 700 61 2100 200/05 RMK AO2
14837KMSN MSN20020622234009206/22/02 23:40:31  5-MIN KMSN 230540Z VRB06KT 8SM CLR 25/17 A3010 700 61 2100 VRB/06 RMK AO2
14837KMSN MSN20020622234509206/22/02 23:45:31  5-MIN KMSN 230545Z 18005KT 8SM CLR 25/17 A3010 700 61 2000 180/05 RMK AO2
14837KMSN MSN20020622235013706/22/02 23:50:31  5-MIN KMSN 230550Z 19005KT 8SM CLR 24/17 A3011 690 63 2000 190/05 RMK AO2 SLP188 T02440172 10300 20244 403110050 53008
14837KMSN MSN20020622235509206/22/02 23:55:31  5-MIN KMSN 230555Z 19005KT 8SM CLR 24/17 A3011 690 63 2000 190/05 RMK AO2
14837KMSN MSN20020623000009206/23/02 00:00:31  5-MIN KMSN 230600Z 19004KT 8SM CLR 24/17 A3011 690 63 2000 190/04 RMK AO2
14837KMSN MSN20020623000509206/23/02 00:05:31  5-MIN KMSN 230605Z 18005KT 8SM CLR 24/17 A3012 680 66 1900 180/05 RMK AO2
14837KMSN MSN20020623001009206/23/02 00:10:31  5-MIN KMSN 230610Z 19005KT 8SM CLR 23/17 A3012 680 68 1800 190/05 RMK AO2
14837KMSN MSN20020623001509206/23/02 00:15:31  5-MIN KMSN 230615Z VRB04KT 8SM CLR 24/17 A3012 680 66 1900 VRB/04 RMK AO2
14837KMSN MSN20020623002009206/23/02 00:20:31  5-MIN KMSN 230620Z 22003KT 8SM CLR 24/17 A3013 670 63 2000 220/03 RMK AO2
14837KMSN MSN20020623002509206/23/02 00:25:31  5-MIN KMSN 230625Z 22005KT 8SM CLR 24/17 A3013 670 63 2000 220/05 RMK AO2
14837KMSN MSN20020623003009206/23/02 00:30:31  5-MIN KMSN 230630Z VRB04KT 8SM CLR 24/17 A3013 670 63 2000 VRB/04 RMK AO2
14837KMSN MSN20020623003509206/23/02 00:35:31  5-MIN KMSN 230635Z 26003KT 8SM CLR 23/17 A3013 670 68 1800 260/03 RMK AO2
14837KMSN MSN20020623004009206/23/02 00:40:31  5-MIN KMSN 230640Z 23003KT 8SM CLR 23/17 A3013 670 68 1800 230/03 RMK AO2
14837KMSN MSN20020623004509206/23/02 00:45:31  5-MIN KMSN 230645Z 20004KT 8SM CLR 24/18 A3013 670 71 1900 200/04 RMK AO2
14837KMSN MSN20020623005010906/23/02 00:50:31  5-MIN KMSN 230650Z 19004KT 8SM CLR 24/18 A3013 670 71 1900 190/04 RMK AO2 SLP196 T02390183
14837KMSN MSN20020623005509206/23/02 00:55:31  5-MIN KMSN 230655Z 20004KT 8SM CLR 24/17 A3013 670 66 1900 200/04 RMK AO2
14837KMSN MSN20020623010009206/23/02 01:00:31  5-MIN KMSN 230700Z 21003KT 7SM CLR 23/17 A3013 670 68 1800 210/03 RMK AO2
14837KMSN MSN20020623010509206/23/02 01:05:31  5-MIN KMSN 230705Z 22004KT 7SM CLR 23/17 A3013 670 68 1800 220/04 RMK AO2
14837KMSN MSN20020623011009206/23/02 01:10:31  5-MIN KMSN 230710Z 21003KT 7SM CLR 23/17 A3013 670 68 1800 210/03 RMK AO2
14837KMSN MSN20020623011509206/23/02 01:15:31  5-MIN KMSN 230715Z 20003KT 7SM CLR 23/17 A3013 670 68 1800 200/03 RMK AO2
14837KMSN MSN20020623012009206/23/02 01:20:31  5-MIN KMSN 230720Z 20004KT 8SM CLR 23/17 A3012 680 68 1800 190/04 RMK AO2
14837KMSN MSN20020623012509206/23/02 01:25:31  5-MIN KMSN 230725Z 20004KT 8SM CLR 23/17 A3013 670 70 1800 200/04 RMK AO2
14837KMSN MSN20020623013009206/23/02 01:30:31  5-MIN KMSN 230730Z 20004KT 8SM CLR 23/17 A3012 680 68 1800 200/04 RMK AO2
14837KMSN MSN20020623013509206/23/02 01:35:31  5-MIN KMSN 230735Z 19005KT 8SM CLR 23/17 A3012 680 68 1800 190/05 RMK AO2
14837KMSN MSN20020623014009206/23/02 01:40:31  5-MIN KMSN 230740Z 19005KT 8SM CLR 23/17 A3012 680 68 1800 190/05 RMK AO2
14837KMSN MSN20020623014509206/23/02 01:45:31  5-MIN KMSN 230745Z 19005KT 8SM CLR 23/17 A3012 680 70 1800 190/05 RMK AO2
14837KMSN MSN20020623015010906/23/02 01:50:31  5-MIN KMSN 230750Z 20005KT 8SM CLR 23/17 A3012 680 68 1800 200/05 RMK AO2 SLP193 T02330172
14837KMSN MSN20020623015509206/23/02 01:55:31  5-MIN KMSN 230755Z 20004KT 8SM CLR 23/17 A3012 680 68 1800 190/04 RMK AO2
14837KMSN MSN20020623020009206/23/02 02:00:31  5-MIN KMSN 230800Z 19005KT 8SM CLR 23/17 A3012 680 66 1800 190/05 RMK AO2
14837KMSN MSN20020623020509206/23/02 02:05:31  5-MIN KMSN 230805Z 20004KT 8SM CLR 23/17 A3012 680 70 1800 200/04 RMK AO2
14837KMSN MSN20020623021009206/23/02 02:10:31  5-MIN KMSN 230810Z 20003KT 7SM CLR 23/17 A3012 680 68 1800 200/03 RMK AO2
14837KMSN MSN20020623021509206/23/02 02:15:31  5-MIN KMSN 230815Z 00000KT 8SM CLR 23/17 A3012 680 70 1800 000/00 RMK AO2
14837KMSN MSN20020623022009206/23/02 02:20:31  5-MIN KMSN 230820Z 18003KT 8SM CLR 23/17 A3011 690 70 1800 170/03 RMK AO2
14837KMSN MSN20020623022509206/23/02 02:25:31  5-MIN KMSN 230825Z 18003KT 7SM CLR 23/17 A3011 690 68 1800 180/03 RMK AO2
14837KMSN MSN20020623023009206/23/02 02:30:31  5-MIN KMSN 230830Z 19003KT 7SM CLR 23/17 A3011 690 68 1800 190/03 RMK AO2
14837KMSN MSN20020623023509206/23/02 02:35:31  5-MIN KMSN 230835Z 20003KT 8SM CLR 22/17 A3011 690 73 1700 200/03 RMK AO2
14837KMSN MSN20020623024009206/23/02 02:40:31  5-MIN KMSN 230840Z 00000KT 8SM CLR 23/17 A3011 690 70 1800 000/00 RMK AO2
14837KMSN MSN20020623024509206/23/02 02:45:31  5-MIN KMSN 230845Z 20003KT 8SM CLR 22/17 A3011 690 73 1700 200/03 RMK AO2
14837KMSN MSN20020623025011506/23/02 02:50:31  5-MIN KMSN 230850Z 21003KT 8SM CLR 22/17 A3011 680 73 1700 200/03 RMK AO2 SLP191 T02220172 55005
14837KMSN MSN20020623025509206/23/02 02:55:31  5-MIN KMSN 230855Z 00000KT 8SM CLR 22/17 A3011 690 73 1700 000/00 RMK AO2
14837KMSN MSN20020623030009206/23/02 03:00:31  5-MIN KMSN 230900Z 21003KT 8SM CLR 22/17 A3011 690 73 1700 210/03 RMK AO2
14837KMSN MSN20020623030509206/23/02 03:05:31  5-MIN KMSN 230905Z 20005KT 8SM CLR 23/17 A3011 690 68 1800 200/05 RMK AO2
14837KMSN MSN20020623031009206/23/02 03:10:31  5-MIN KMSN 230910Z 20005KT 8SM CLR 23/17 A3011 690 68 1800 200/05 RMK AO2
14837KMSN MSN20020623031509206/23/02 03:15:31  5-MIN KMSN 230915Z 20004KT 8SM CLR 23/17 A3011 690 70 1800 200/04 RMK AO2
14837KMSN MSN20020623032009206/23/02 03:20:31  5-MIN KMSN 230920Z 21004KT 8SM CLR 23/17 A3011 690 68 1800 200/04 RMK AO2
14837KMSN MSN20020623032509206/23/02 03:25:31  5-MIN KMSN 230925Z 19006KT 8SM CLR 23/17 A3011 690 68 1800 190/06 RMK AO2
14837KMSN MSN20020623033009206/23/02 03:30:31  5-MIN KMSN 230930Z 19005KT 8SM CLR 23/17 A3011 690 68 1800 180/05 RMK AO2
14837KMSN MSN20020623033509206/23/02 03:35:31  5-MIN KMSN 230935Z 19004KT 8SM CLR 22/17 A3011 690 70 1700 190/04 RMK AO2
14837KMSN MSN20020623034009206/23/02 03:40:31  5-MIN KMSN 230940Z 20003KT 8SM CLR 23/17 A3010 690 68 1800 200/03 RMK AO2
14837KMSN MSN20020623034509206/23/02 03:45:31  5-MIN KMSN 230945Z 21004KT 8SM CLR 23/17 A3011 690 68 1800 210/04 RMK AO2
14837KMSN MSN20020623035010906/23/02 03:50:31  5-MIN KMSN 230950Z 21005KT 7SM CLR 23/17 A3011 690 66 1900 210/05 RMK AO2 SLP188 T02330167
14837KMSN MSN20020623035509206/23/02 03:55:31  5-MIN KMSN 230955Z 21006KT 7SM CLR 23/17 A3010 690 66 1900 210/06 RMK AO2
14837KMSN MSN20020623040009206/23/02 04:00:31  5-MIN KMSN 231000Z 20007KT 7SM CLR 23/17 A3010 700 68 1800 200/07 RMK AO2
14837KMSN MSN20020623040509506/23/02 04:05:31  5-MIN KMSN 231005Z 20006KT 5SM HZ CLR 23/17 A3010 700 68 1800 200/06 RMK AO2
14837KMSN MSN20020623041009506/23/02 04:10:31  5-MIN KMSN 231010Z 20005KT 5SM HZ CLR 23/17 A3010 700 68 1800 200/05 RMK AO2
14837KMSN MSN20020623041509506/23/02 04:15:31  5-MIN KMSN 231015Z 20005KT 5SM HZ CLR 23/17 A3011 690 68 1800 200/05 RMK AO2
14837KMSN MSN20020623042009506/23/02 04:20:31  5-MIN KMSN 231020Z 21004KT 5SM HZ CLR 23/17 A3011 690 68 1800 210/04 RMK AO2
14837KMSN MSN20020623042509206/23/02 04:25:31  5-MIN KMSN 231025Z 22004KT 7SM CLR 22/17 A3011 690 70 1700 220/04 RMK AO2
14837KMSN MSN20020623043009506/23/02 04:30:31  5-MIN KMSN 231030Z 21003KT 6SM HZ CLR 22/17 A3010 700 70 1700 200/03 RMK AO2
14837KMSN MSN20020623043509506/23/02 04:35:31  5-MIN KMSN 231035Z 20004KT 6SM HZ CLR 22/17 A3010 700 70 1700 200/04 RMK AO2
14837KMSN MSN20020623044009506/23/02 04:40:31  5-MIN KMSN 231040Z 20003KT 6SM HZ CLR 22/17 A3010 690 70 1700 200/03 RMK AO2
14837KMSN MSN20020623044509506/23/02 04:45:31  5-MIN KMSN 231045Z 21004KT 6SM HZ CLR 22/17 A3010 690 70 1700 210/04 RMK AO2
14837KMSN MSN20020623045011206/23/02 04:50:31  5-MIN KMSN 231050Z 21003KT 5SM HZ CLR 22/17 A3010 690 70 1700 200/03 RMK AO2 SLP188 T02220167
14837KMSN MSN20020623045509506/23/02 04:55:31  5-MIN KMSN 231055Z 20004KT 5SM HZ CLR 22/17 A3010 700 70 1700 200/04 RMK AO2
14837KMSN MSN20020623050009506/23/02 05:00:31  5-MIN KMSN 231100Z 21004KT 5SM HZ CLR 22/17 A3010 700 70 1700 210/04 RMK AO2
14837KMSN MSN20020623050509506/23/02 05:05:31  5-MIN KMSN 231105Z 21003KT 5SM HZ CLR 22/17 A3010 700 70 1700 210/03 RMK AO2
14837KMSN MSN20020623051009506/23/02 05:10:31  5-MIN KMSN 231110Z 21003KT 5SM HZ CLR 22/17 A3011 690 70 1700 210/03 RMK AO2
14837KMSN MSN20020623051509506/23/02 05:15:31  5-MIN KMSN 231115Z 20003KT 5SM HZ CLR 22/17 A3011 690 73 1700 200/03 RMK AO2
14837KMSN MSN20020623052009506/23/02 05:20:31  5-MIN KMSN 231120Z 20004KT 5SM HZ CLR 22/17 A3010 690 73 1700 200/04 RMK AO2
14837KMSN MSN20020623052509506/23/02 05:25:31  5-MIN KMSN 231125Z 20004KT 4SM HZ CLR 22/17 A3010 700 73 1700 190/04 RMK AO2
14837KMSN MSN20020623053009506/23/02 05:30:31  5-MIN KMSN 231130Z 21004KT 4SM HZ CLR 22/17 A3011 690 73 1700 210/04 RMK AO2
14837KMSN MSN20020623053509506/23/02 05:35:31  5-MIN KMSN 231135Z 21005KT 4SM HZ CLR 22/17 A3011 690 73 1700 210/05 RMK AO2
14837KMSN MSN20020623054009506/23/02 05:40:31  5-MIN KMSN 231140Z 21004KT 4SM HZ CLR 22/17 A3011 690 73 1700 210/04 RMK AO2
14837KMSN MSN20020623054509506/23/02 05:45:31  5-MIN KMSN 231145Z 21004KT 4SM HZ CLR 22/17 A3011 690 73 1700 210/04 RMK AO2
14837KMSN MSN20020623055013006/23/02 05:50:31  5-MIN KMSN 231150Z 21004KT 4SM HZ CLR 22/17 A3011 690 73 1700 200/04 RMK AO2 SLP191 T02220172 10250 20217 50002
14837KMSN MSN20020623055509506/23/02 05:55:31  5-MIN KMSN 231155Z 21004KT 4SM HZ CLR 23/17 A3011 690 70 1800 200/04 RMK AO2
14837KMSN MSN20020623060009506/23/02 06:00:31  5-MIN KMSN 231200Z VRB04KT 4SM HZ CLR 23/17 A3011 690 70 1800 VRB/04 RMK AO2
14837KMSN MSN20020623060509506/23/02 06:05:31  5-MIN KMSN 231205Z VRB03KT 4SM HZ CLR 23/18 A3012 680 73 1800 VRB/03 RMK AO2
14837KMSN MSN20020623061009506/23/02 06:10:31  5-MIN KMSN 231210Z 20004KT 4SM HZ CLR 23/17 A3012 680 70 1800 200/04 RMK AO2
14837KMSN MSN20020623061509506/23/02 06:15:31  5-MIN KMSN 231215Z 21003KT 4SM HZ CLR 23/18 A3012 680 70 1800 210/03 RMK AO2
14837KMSN MSN20020623062009506/23/02 06:20:31  5-MIN KMSN 231220Z 20004KT 4SM HZ CLR 23/17 A3012 680 68 1800 200/04 RMK AO2
14837KMSN MSN20020623062509506/23/02 06:25:31  5-MIN KMSN 231225Z 20005KT 4SM HZ CLR 23/17 A3012 680 68 1800 200/05 RMK AO2
14837KMSN MSN20020623063009506/23/02 06:30:31  5-MIN KMSN 231230Z 22004KT 4SM HZ CLR 23/17 A3012 680 68 1800 220/04 RMK AO2
14837KMSN MSN20020623063509506/23/02 06:35:31  5-MIN KMSN 231235Z VRB04KT 4SM HZ CLR 24/18 A3012 680 68 1900 VRB/04 RMK AO2
14837KMSN MSN20020623064009506/23/02 06:40:31  5-MIN KMSN 231240Z 21003KT 4SM HZ CLR 24/18 A3012 680 68 1900 210/03 RMK AO2
14837KMSN MSN20020623064509506/23/02 06:45:31  5-MIN KMSN 231245Z 20003KT 4SM HZ CLR 24/18 A3013 680 68 1900 200/03 RMK AO2
14837KMSN MSN20020623065011206/23/02 06:50:31  5-MIN KMSN 231250Z VRB06KT 4SM HZ CLR 24/18 A3013 670 66 2000 VRB/06 RMK AO2 SLP195 T02440178
14837KMSN MSN20020623065509506/23/02 06:55:31  5-MIN KMSN 231255Z 21005KT 4SM HZ CLR 24/18 A3013 670 66 2000 210/05 RMK AO2
14837KMSN MSN20020623070009506/23/02 07:00:31  5-MIN KMSN 231300Z 21004KT 4SM HZ CLR 25/17 A3013 670 61 2000 210/04 RMK AO2
14837KMSN MSN20020623070509506/23/02 07:05:31  5-MIN KMSN 231305Z 21005KT 4SM HZ CLR 25/18 A3013 670 64 2000 210/05 RMK AO2
14837KMSN MSN20020623071009506/23/02 07:10:31  5-MIN KMSN 231310Z 22005KT 4SM HZ CLR 25/17 A3013 670 61 2000 220/05 RMK AO2
14837KMSN MSN20020623071509506/23/02 07:15:31  5-MIN KMSN 231315Z VRB05KT 4SM HZ CLR 25/17 A3013 670 61 2000 VRB/05 RMK AO2
14837KMSN MSN20020623072009506/23/02 07:20:31  5-MIN KMSN 231320Z 23005KT 4SM HZ CLR 25/17 A3013 670 61 2000 230/05 RMK AO2
14837KMSN MSN20020623072509506/23/02 07:25:31  5-MIN KMSN 231325Z 22006KT 4SM HZ CLR 25/18 A3013 670 64 2000 220/06 RMK AO2
14837KMSN MSN20020623073009506/23/02 07:30:31  5-MIN KMSN 231330Z 23006KT 4SM HZ CLR 25/18 A3013 670 64 2000 230/06 RMK AO2
14837KMSN MSN20020623073509506/23/02 07:35:31  5-MIN KMSN 231335Z VRB05KT 4SM HZ CLR 26/18 A3013 670 61 2100 VRB/05 RMK AO2
14837KMSN MSN20020623074009506/23/02 07:40:31  5-MIN KMSN 231340Z 21006KT 5SM HZ CLR 26/18 A3013 670 61 2100 210/06 RMK AO2
14837KMSN MSN20020623074509506/23/02 07:45:31  5-MIN KMSN 231345Z 20006KT 5SM HZ CLR 26/18 A3013 670 62 2100 200/06 RMK AO2
14837KMSN MSN20020623075011206/23/02 07:50:31  5-MIN KMSN 231350Z 22005KT 5SM HZ CLR 26/18 A3013 670 59 2100 220/05 RMK AO2 SLP197 T02610178
14837KMSN MSN20020623075509506/23/02 07:55:31  5-MIN KMSN 231355Z 20005KT 5SM HZ CLR 26/18 A3013 670 62 2100 200/05 RMK AO2
14837KMSN MSN20020623080009506/23/02 08:00:31  5-MIN KMSN 231400Z 21006KT 5SM HZ CLR 26/18 A3013 670 59 2100 210/06 RMK AO2
14837KMSN MSN20020623080509506/23/02 08:05:31  5-MIN KMSN 231405Z 20006KT 5SM HZ CLR 27/18 A3013 670 60 2200 200/06 RMK AO2
14837KMSN MSN20020623081009506/23/02 08:10:31  5-MIN KMSN 231410Z 20005KT 5SM HZ CLR 27/18 A3013 670 60 2200 200/05 RMK AO2
14837KMSN MSN20020623081509506/23/02 08:15:31  5-MIN KMSN 231415Z 23008KT 5SM HZ CLR 27/18 A3013 670 60 2200 230/08 RMK AO2
14837KMSN MSN20020623082009506/23/02 08:20:31  5-MIN KMSN 231420Z VRB05KT 6SM HZ CLR 27/19 A3013 670 62 2200 VRB/05 RMK AO2
14837KMSN MSN20020623082509506/23/02 08:25:31  5-MIN KMSN 231425Z 22005KT 6SM HZ CLR 27/18 A3013 670 58 2300 220/05 RMK AO2
14837KMSN MSN20020623083009506/23/02 08:30:31  5-MIN KMSN 231430Z VRB06KT 6SM HZ CLR 27/19 A3014 670 60 2300 VRB/06 RMK AO2
14837KMSN MSN20020623083509506/23/02 08:35:31  5-MIN KMSN 231435Z VRB04KT 6SM HZ CLR 27/19 A3013 670 60 2300 VRB/04 RMK AO2
14837KMSN MSN20020623084009506/23/02 08:40:31  5-MIN KMSN 231440Z 24004KT 6SM HZ CLR 27/19 A3014 670 60 2300 230/04 RMK AO2
14837KMSN MSN20020623084509506/23/02 08:45:31  5-MIN KMSN 231445Z VRB06KT 6SM HZ CLR 28/19 A3014 670 58 2300 VRB/06 RMK AO2
14837KMSN MSN20020623085011806/23/02 08:50:31  5-MIN KMSN 231450Z 25006KT 6SM HZ CLR 28/18 A3014 670 56 2300 240/06 RMK AO2 SLP198 T02780183 55001
14837KMSN MSN20020623085509506/23/02 08:55:31  5-MIN KMSN 231455Z 24006KT 6SM HZ CLR 28/18 A3014 660 56 2300 240/06 RMK AO2
14837KMSN MSN20020623090009506/23/02 09:00:31  5-MIN KMSN 231500Z 22006KT 6SM HZ CLR 28/19 A3014 660 56 2400 220/06 RMK AO2
14837KMSN MSN20020623090509506/23/02 09:05:31  5-MIN KMSN 231505Z VRB06KT 6SM HZ CLR 28/18 A3014 660 54 2400 VRB/06 RMK AO2
14837KMSN MSN20020623091009506/23/02 09:10:31  5-MIN KMSN 231510Z 23005KT 6SM HZ CLR 28/19 A3014 660 56 2400 230/05 RMK AO2
14837KMSN MSN20020623091509506/23/02 09:15:31  5-MIN KMSN 231515Z 23005KT 6SM HZ CLR 28/18 A3014 660 54 2400 230/05 RMK AO2
14837KMSN MSN20020623092009506/23/02 09:20:31  5-MIN KMSN 231520Z 22007KT 6SM HZ CLR 28/19 A3014 660 56 2400 220/07 RMK AO2
14837KMSN MSN20020623092509506/23/02 09:25:31  5-MIN KMSN 231525Z 22007KT 6SM HZ CLR 28/18 A3014 660 54 2400 220/07 RMK AO2
14837KMSN MSN20020623093009506/23/02 09:30:31  5-MIN KMSN 231530Z 22006KT 6SM HZ CLR 29/19 A3014 660 54 2400 220/06 RMK AO2
14837KMSN MSN20020623093509506/23/02 09:35:31  5-MIN KMSN 231535Z 23008KT 6SM HZ CLR 29/18 A3014 660 52 2400 230/08 RMK AO2
14837KMSN MSN20020623094009506/23/02 09:40:31  5-MIN KMSN 231540Z 22008KT 6SM HZ CLR 29/18 A3014 660 52 2400 220/08 RMK AO2
14837KMSN MSN20020623094509506/23/02 09:45:31  5-MIN KMSN 231545Z 22008KT 6SM HZ CLR 29/18 A3014 670 52 2400 220/08 RMK AO2
14837KMSN MSN20020623095010906/23/02 09:50:31  5-MIN KMSN 231550Z 22010KT 7SM CLR 29/18 A3014 670 50 2400 210/10 RMK AO2 SLP198 T02890178
14837KMSN MSN20020623095509206/23/02 09:55:31  5-MIN KMSN 231555Z 22010KT 7SM CLR 29/18 A3013 670 50 2500 220/10 RMK AO2
14837KMSN MSN20020623100009206/23/02 10:00:31  5-MIN KMSN 231600Z 23008KT 7SM CLR 29/17 A3013 670 47 2500 230/08 RMK AO2
14837KMSN MSN20020623100509206/23/02 10:05:31  5-MIN KMSN 231605Z 22007KT 7SM CLR 29/18 A3014 670 50 2500 220/07 RMK AO2
14837KMSN MSN20020623101009206/23/02 10:10:31  5-MIN KMSN 231610Z 23007KT 7SM CLR 29/18 A3014 670 49 2500 230/07 RMK AO2
14837KMSN MSN20020623101509806/23/02 10:15:31  5-MIN KMSN 231615Z 23008G14KT 7SM CLR 29/18 A3014 670 49 2500 230/08G14 RMK AO2
14837KMSN MSN20020623102009806/23/02 10:20:31  5-MIN KMSN 231620Z 23008G15KT 7SM CLR 30/17 A3014 660 45 2600 230/08G15 RMK AO2
14837KMSN MSN20020623102509806/23/02 10:25:31  5-MIN KMSN 231625Z 22007G15KT 7SM CLR 30/17 A3014 660 45 2600 220/07G15 RMK AO2
14837KMSN MSN20020623103010806/23/02 10:30:31  5-MIN KMSN 231630Z 22008KT 200V260 8SM CLR 29/18 A3014 660 49 2500 220/08 200V260 RMK AO2
14837KMSN MSN20020623103509506/23/02 10:35:31  5-MIN KMSN 231635Z 23010KT 7SM FEW050 30/17 A3014 660 45 2600 220/10 RMK AO2
14837KMSN MSN20020623104009506/23/02 10:40:31  5-MIN KMSN 231640Z 22008KT 7SM FEW050 30/17 A3014 660 45 2600 220/08 RMK AO2
14837KMSN MSN20020623104509506/23/02 10:45:31  5-MIN KMSN 231645Z 22012KT 7SM FEW050 30/17 A3014 660 44 2600 220/12 RMK AO2
14837KMSN MSN20020623105011806/23/02 10:50:31  5-MIN KMSN 231650Z 22009G15KT 8SM FEW050 30/17 A3014 660 45 2600 220/09G15 RMK AO2 SLP200 T03000172
14837KMSN MSN20020623105509506/23/02 10:55:31  5-MIN KMSN 231655Z 22009KT 8SM FEW050 30/17 A3015 660 44 2600 220/09 RMK AO2
14837KMSN MSN20020623110009506/23/02 11:00:31  5-MIN KMSN 231700Z 22009KT 8SM FEW050 30/17 A3014 660 44 2600 220/09 RMK AO2
14837KMSN MSN20020623110509506/23/02 11:05:31  5-MIN KMSN 231705Z 24009KT 8SM FEW050 30/17 A3014 660 44 2600 230/09 RMK AO2
14837KMSN MSN20020623111009506/23/02 11:10:31  5-MIN KMSN 231710Z VRB06KT 8SM FEW050 31/17 A3014 660 44 2600 VRB/06 RMK AO2
14837KMSN MSN20020623111511106/23/02 11:15:31  5-MIN KMSN 231715Z 24007KT 210V270 8SM FEW050 31/17 A3014 660 44 2600 240/07 210V270 RMK AO2
14837KMSN MSN20020623112009506/23/02 11:20:31  5-MIN KMSN 231720Z 23006KT 8SM FEW050 31/17 A3014 660 42 2600 230/06 RMK AO2
14837KMSN MSN20020623112511106/23/02 11:25:31  5-MIN KMSN 231725Z 23007KT 210V270 8SM FEW050 31/17 A3014 660 42 2600 230/07 210V270 RMK AO2
14837KMSN MSN20020623113011106/23/02 11:30:31  5-MIN KMSN 231730Z 23008KT 190V260 8SM FEW050 31/17 A3014 660 44 2600 230/08 190V260 RMK AO2
14837KMSN MSN20020623113509506/23/02 11:35:31  5-MIN KMSN 231735Z 23008KT 8SM FEW050 31/17 A3014 660 44 2600 230/08 RMK AO2
14837KMSN MSN20020623114009506/23/02 11:40:31  5-MIN KMSN 231740Z 22007KT 8SM FEW050 31/17 A3013 670 44 2600 220/07 RMK AO2
14837KMSN MSN20020623114509506/23/02 11:45:31  5-MIN KMSN 231745Z 22007KT 8SM FEW050 31/17 A3013 670 42 2600 220/07 RMK AO2
14837KMSN MSN20020623115013006/23/02 11:50:31  5-MIN KMSN 231750Z 22008KT 8SM FEW050 31/17 A3013 670 42 2600 220/08 RMK AO2 SLP197 T03060167 10306 20228 51008
14837KMSN MSN20020623115509506/23/02 11:55:31  5-MIN KMSN 231755Z 23007KT 8SM FEW050 31/17 A3013 670 44 2600 230/07 RMK AO2
14837KMSN MSN20020623120009506/23/02 12:00:31  5-MIN KMSN 231800Z VRB06KT 8SM FEW050 31/17 A3013 670 42 2700 VRB/06 RMK AO2
14837KMSN MSN20020623120509506/23/02 12:05:31  5-MIN KMSN 231805Z 22007KT 8SM FEW050 31/17 A3013 670 44 2600 220/07 RMK AO2
14837KMSN MSN20020623121009506/23/02 12:10:31  5-MIN KMSN 231810Z 22009KT 8SM FEW050 31/17 A3012 680 42 2600 220/09 RMK AO2
14837KMSN MSN20020623121510106/23/02 12:15:31  5-MIN KMSN 231815Z VRB06G14KT 8SM FEW050 31/17 A3012 680 42 2700 VRB/06G14 RMK AO2
14837KMSN MSN20020623122009506/23/02 12:20:31  5-MIN KMSN 231820Z 22008KT 8SM FEW050 31/17 A3011 690 41 2700 220/08 RMK AO2
14837KMSN MSN20020623122509506/23/02 12:25:31  5-MIN KMSN 231825Z 22008KT 8SM FEW050 31/17 A3011 690 41 2700 220/08 RMK AO2
14837KMSN MSN20020623123011106/23/02 12:30:31  5-MIN KMSN 231830Z 23008KT 200V260 8SM FEW050 31/17 A3011 690 41 2700 230/08 200V260 RMK AO2
14837KMSN MSN20020623123509506/23/02 12:35:31  5-MIN KMSN 231835Z 23007KT 8SM FEW050 31/17 A3010 700 42 2700 230/07 RMK AO2
14837KMSN MSN20020623124009506/23/02 12:40:31  5-MIN KMSN 231840Z 21008KT 8SM FEW050 31/16 A3010 700 40 2700 210/08 RMK AO2
14837KMSN MSN20020623124509506/23/02 12:45:31  5-MIN KMSN 231845Z 22007KT 9SM FEW050 31/16 A3010 700 40 2700 220/07 RMK AO2
14837KMSN MSN20020623125011206/23/02 12:50:31  5-MIN KMSN 231850Z 22009KT 9SM FEW050 31/16 A3009 700 38 2700 220/09 RMK AO2 SLP184 T03110156
14837KMSN MSN20020623125509506/23/02 12:55:31  5-MIN KMSN 231855Z 23007KT 8SM FEW050 31/16 A3009 710 40 2700 230/07 RMK AO2
14837KMSN MSN20020623130009506/23/02 13:00:31  5-MIN KMSN 231900Z 21009KT 8SM FEW050 32/16 A3009 710 38 2800 210/09 RMK AO2
14837KMSN MSN20020623130511106/23/02 13:05:31  5-MIN KMSN 231905Z 23007KT 190V260 9SM FEW050 32/16 A3009 710 38 2800 230/07 190V260 RMK AO2
14837KMSN MSN20020623131009506/23/02 13:10:31  5-MIN KMSN 231910Z 20010KT 9SM FEW050 32/16 A3009 710 38 2800 200/10 RMK AO2
14837KMSN MSN20020623131510106/23/02 13:15:31  5-MIN KMSN 231915Z 20010G15KT 8SM FEW050 32/16 A3009 710 37 2800 200/10G15 RMK AO2
14837KMSN MSN20020623132010106/23/02 13:20:31  5-MIN KMSN 231920Z 21009G15KT 8SM FEW050 32/15 A3009 710 36 2800 210/09G15 RMK AO2
14837KMSN MSN20020623132509506/23/02 13:25:31  5-MIN KMSN 231925Z 21009KT 8SM FEW050 32/16 A3008 710 37 2800 210/09 RMK AO2
14837KMSN MSN20020623133009506/23/02 13:30:31  5-MIN KMSN 231930Z 22010KT 8SM FEW050 31/16 A3008 710 38 2800 220/10 RMK AO2
14837KMSN MSN20020623133509506/23/02 13:35:31  5-MIN KMSN 231935Z 22007KT 9SM FEW050 31/16 A3008 720 38 2800 220/07 RMK AO2
14837KMSN MSN20020623134009506/23/02 13:40:31  5-MIN KMSN 231940Z 21008KT 8SM FEW050 32/16 A3008 720 38 2800 210/08 RMK AO2
14837KMSN MSN20020623134509506/23/02 13:45:31  5-MIN KMSN 231945Z 21008KT 8SM FEW050 32/16 A3008 720 38 2800 210/08 RMK AO2
14837KMSN MSN20020623135011206/23/02 13:50:31  5-MIN KMSN 231950Z 23007KT 8SM FEW050 32/16 A3008 720 38 2800 230/07 RMK AO2 SLP178 T03170161
14837KMSN MSN20020623135509506/23/02 13:55:31  5-MIN KMSN 231955Z 19012KT 8SM FEW060 32/16 A3007 720 38 2800 190/12 RMK AO2
14837KMSN MSN20020623140010106/23/02 14:00:31  5-MIN KMSN 232000Z 19012G17KT 8SM FEW060 32/15 A3007 730 36 2800 190/12G17 RMK AO2
14837KMSN MSN20020623140510106/23/02 14:05:31  5-MIN KMSN 232005Z 20012G17KT 8SM FEW060 32/16 A3006 730 36 2900 200/12G17 RMK AO2
14837KMSN MSN20020623141009506/23/02 14:10:31  5-MIN KMSN 232010Z 21009KT 8SM FEW060 32/16 A3006 730 38 2800 210/09 RMK AO2
14837KMSN MSN20020623141511106/23/02 14:15:31  5-MIN KMSN 232015Z 21008KT 170V240 8SM FEW060 32/17 A3006 740 40 2800 210/08 170V240 RMK AO2
14837KMSN MSN20020623142009506/23/02 14:20:31  5-MIN KMSN 232020Z 21011KT 8SM FEW060 32/17 A3006 740 40 2800 210/11 RMK AO2
14837KMSN MSN20020623142509506/23/02 14:25:31  5-MIN KMSN 232025Z 19015KT 7SM FEW060 32/17 A3006 740 40 2800 190/15 RMK AO2
14837KMSN MSN20020623143010106/23/02 14:30:31  5-MIN KMSN 232030Z 21010G20KT 8SM FEW060 32/16 A3006 740 38 2800 210/10G20 RMK AO2
14837KMSN MSN20020623143511706/23/02 14:35:31  5-MIN KMSN 232035Z 21010G20KT 180V240 8SM FEW060 31/16 A3006 740 40 2800 210/10G20 180V240 RMK AO2
14837KMSN MSN20020623144009206/23/02 14:40:31  5-MIN KMSN 232040Z 22009KT 8SM CLR 31/16 A3006 740 40 2800 220/09 RMK AO2
14837KMSN MSN20020623144509206/23/02 14:45:31  5-MIN KMSN 232045Z 20009KT 8SM CLR 32/17 A3006 740 41 2800 200/09 RMK AO2
14837KMSN MSN20020623145012106/23/02 14:50:31  5-MIN KMSN 232050Z 20009G15KT 8SM CLR 32/17 A3005 740 40 2800 200/09G15 RMK AO2 SLP170 T03170167 58002
14837KMSN MSN20020623145509806/23/02 14:55:31  5-MIN KMSN 232055Z 21012G16KT 8SM CLR 32/16 A3005 740 38 2900 210/12G16 RMK AO2
14837KMSN MSN20020623150009806/23/02 15:00:31  5-MIN KMSN 232100Z 21012G18KT 8SM CLR 32/16 A3005 740 37 2900 210/12G18 RMK AO2
14837KMSN MSN20020623150509806/23/02 15:05:31  5-MIN KMSN 232105Z 21011G18KT 8SM CLR 32/16 A3005 750 37 2900 210/11G18 RMK AO2
14837KMSN MSN20020623151009206/23/02 15:10:31  5-MIN KMSN 232110Z 21009KT 8SM CLR 31/16 A3005 750 38 2800 210/09 RMK AO2
14837KMSN MSN20020623151509206/23/02 15:15:31  5-MIN KMSN 232115Z 22009KT 8SM CLR 32/16 A3005 740 38 2900 210/09 RMK AO2
14837KMSN MSN20020623152009806/23/02 15:20:31  5-MIN KMSN 232120Z 22009G15KT 8SM CLR 31/16 A3005 750 40 2800 220/09G15 RMK AO2
14837KMSN MSN20020623152509806/23/02 15:25:31  5-MIN KMSN 232125Z 21012G16KT 8SM CLR 31/16 A3005 750 40 2800 210/12G16 RMK AO2
14837KMSN MSN20020623153011406/23/02 15:30:31  5-MIN KMSN 232130Z 20008G15KT 180V250 8SM CLR 31/16 A3005 750 40 2800 200/08G15 180V250 RMK AO2
14837KMSN MSN20020623153509806/23/02 15:35:31  5-MIN KMSN 232135Z 22008G15KT 8SM CLR 31/17 A3005 750 41 2800 220/08G15 RMK AO2
14837KMSN MSN20020623154009206/23/02 15:40:31  5-MIN KMSN 232140Z 22010KT 8SM CLR 31/16 A3005 740 40 2800 220/10 RMK AO2
14837KMSN MSN20020623154509206/23/02 15:45:31  5-MIN KMSN 232145Z 23009KT 8SM CLR 31/16 A3005 740 40 2800 220/09 RMK AO2
14837KMSN MSN20020623155010906/23/02 15:50:31  5-MIN KMSN 232150Z 21008KT 8SM CLR 31/16 A3005 740 40 2800 210/08 RMK AO2 SLP169 T03110161
14837KMSN MSN20020623155509206/23/02 15:55:31  5-MIN KMSN 232155Z 22008KT 7SM CLR 31/17 A3005 740 41 2800 220/08 RMK AO2
14837KMSN MSN20020623160009206/23/02 16:00:31  5-MIN KMSN 232200Z 22009KT 7SM CLR 31/16 A3005 740 40 2800 220/09 RMK AO2
14837KMSN MSN20020623160509206/23/02 16:05:31  5-MIN KMSN 232205Z 22009KT 7SM CLR 31/16 A3005 750 38 2800 220/09 RMK AO2
14837KMSN MSN20020623161009206/23/02 16:10:31  5-MIN KMSN 232210Z 22007KT 7SM CLR 31/16 A3005 740 40 2800 220/07 RMK AO2
14837KMSN MSN20020623161509806/23/02 16:15:31  5-MIN KMSN 232215Z 22009G15KT 7SM CLR 31/16 A3005 750 39 2700 220/09G15 RMK AO2
14837KMSN MSN20020623162009806/23/02 16:20:31  5-MIN KMSN 232220Z 22010G15KT 7SM CLR 31/16 A3005 740 38 2800 220/10G15 RMK AO2
14837KMSN MSN20020623162509206/23/02 16:25:31  5-MIN KMSN 232225Z 22008KT 7SM CLR 31/16 A3005 740 39 2700 220/08 RMK AO2
14837KMSN MSN20020623163009506/23/02 16:30:31  5-MIN KMSN 232230Z 23008KT 6SM HZ CLR 31/16 A3005 750 39 2700 230/08 RMK AO2
14837KMSN MSN20020623163509206/23/02 16:35:31  5-MIN KMSN 232235Z 23007KT 7SM CLR 31/16 A3005 740 39 2700 220/07 RMK AO2
14837KMSN MSN20020623164009206/23/02 16:40:31  5-MIN KMSN 232240Z 22008KT 7SM CLR 31/16 A3005 740 39 2700 220/08 RMK AO2
14837KMSN MSN20020623164509206/23/02 16:45:31  5-MIN KMSN 232245Z 22009KT 7SM CLR 31/15 A3005 740 38 2700 220/09 RMK AO2
14837KMSN MSN20020623165010906/23/02 16:50:31  5-MIN KMSN 232250Z 21010KT 7SM CLR 31/15 A3005 740 38 2700 210/10 RMK AO2 SLP170 T03060150
14837KMSN MSN20020623165509206/23/02 16:55:31  5-MIN KMSN 232255Z 21006KT 7SM CLR 31/14 A3005 740 37 2700 210/06 RMK AO2
14837KMSN MSN20020623170009206/23/02 17:00:31  5-MIN KMSN 232300Z 21008KT 7SM CLR 31/15 A3005 740 38 2700 210/08 RMK AO2
14837KMSN MSN20020623170509206/23/02 17:05:31  5-MIN KMSN 232305Z 22006KT 7SM CLR 31/15 A3006 740 38 2700 210/06 RMK AO2
14837KMSN MSN20020623171009206/23/02 17:10:31  5-MIN KMSN 232310Z 21005KT 7SM CLR 31/15 A3006 740 38 2700 210/05 RMK AO2
14837KMSN MSN20020623171509206/23/02 17:15:31  5-MIN KMSN 232315Z VRB06KT 7SM CLR 31/15 A3006 740 38 2700 VRB/06 RMK AO2
14837KMSN MSN20020623172009206/23/02 17:20:31  5-MIN KMSN 232320Z 21008KT 7SM CLR 30/15 A3006 740 39 2700 210/08 RMK AO2
14837KMSN MSN20020623172509206/23/02 17:25:31  5-MIN KMSN 232325Z 21006KT 7SM CLR 31/15 A3006 740 38 2700 210/06 RMK AO2
14837KMSN MSN20020623173009206/23/02 17:30:31  5-MIN KMSN 232330Z 21007KT 7SM CLR 30/16 A3006 730 41 2700 210/07 RMK AO2
14837KMSN MSN20020623173509206/23/02 17:35:31  5-MIN KMSN 232335Z 21008KT 7SM CLR 30/15 A3006 740 39 2700 210/08 RMK AO2
14837KMSN MSN20020623174009506/23/02 17:40:31  5-MIN KMSN 232340Z 22007KT 6SM HZ CLR 30/15 A3006 730 39 2700 210/07 RMK AO2
14837KMSN MSN20020623174509506/23/02 17:45:31  5-MIN KMSN 232345Z 22007KT 6SM HZ CLR 30/15 A3006 730 39 2700 210/07 RMK AO2
14837KMSN MSN20020623175012706/23/02 17:50:31  5-MIN KMSN 232350Z 22007KT 7SM CLR 30/15 A3006 730 39 2700 220/07 RMK AO2 SLP174 T03000150 10322 20300 56026
14837KMSN MSN20020623175509506/23/02 17:55:31  5-MIN KMSN 232355Z 21005KT 6SM HZ CLR 30/15 A3006 730 39 2700 210/05 RMK AO2
14837KMSN MSN20020623180009506/23/02 18:00:31  5-MIN KMSN 240000Z 22006KT 6SM HZ CLR 29/15 A3006 730 41 2600 220/06 RMK AO2
14837KMSN MSN20020623180509506/23/02 18:05:31  5-MIN KMSN 240005Z 21005KT 6SM HZ CLR 29/15 A3006 730 41 2600 210/05 RMK AO2
14837KMSN MSN20020623181009506/23/02 18:10:31  5-MIN KMSN 240010Z 22004KT 6SM HZ CLR 29/16 A3007 730 42 2600 220/04 RMK AO2
14837KMSN MSN20020623181509506/23/02 18:15:31  5-MIN KMSN 240015Z 23004KT 6SM HZ CLR 29/16 A3007 730 42 2600 230/04 RMK AO2
14837KMSN MSN20020623182009506/23/02 18:20:31  5-MIN KMSN 240020Z 22005KT 6SM HZ CLR 29/16 A3007 730 42 2600 220/05 RMK AO2
14837KMSN MSN20020623182509506/23/02 18:25:31  5-MIN KMSN 240025Z 23004KT 6SM HZ CLR 29/16 A3007 730 44 2500 230/04 RMK AO2
14837KMSN MSN20020623183009506/23/02 18:30:31  5-MIN KMSN 240030Z 24004KT 6SM HZ CLR 28/16 A3007 730 47 2500 240/04 RMK AO2
14837KMSN MSN20020623183509506/23/02 18:35:31  5-MIN KMSN 240035Z 24004KT 6SM HZ CLR 28/16 A3007 730 47 2500 240/04 RMK AO2
14837KMSN MSN20020623184009506/23/02 18:40:31  5-MIN KMSN 240040Z 25003KT 6SM HZ CLR 28/17 A3007 720 48 2500 250/03 RMK AO2
14837KMSN MSN20020623184509506/23/02 18:45:31  5-MIN KMSN 240045Z 24003KT 6SM HZ CLR 28/17 A3007 720 48 2500 240/03 RMK AO2
14837KMSN MSN20020623185010906/23/02 18:50:31  5-MIN KMSN 240050Z 24003KT 7SM CLR 28/17 A3008 720 52 2400 240/03 RMK AO2 SLP179 T02780172
14837KMSN MSN20020623185509506/23/02 18:55:31  5-MIN KMSN 240055Z 24003KT 6SM HZ CLR 27/18 A3008 720 57 2300 240/03 RMK AO2
14837KMSN MSN20020623190009506/23/02 19:00:31  5-MIN KMSN 240100Z 23003KT 6SM HZ CLR 27/17 A3008 720 54 2300 230/03 RMK AO2
14837KMSN MSN20020623190509506/23/02 19:05:31  5-MIN KMSN 240105Z 00000KT 6SM HZ CLR 27/17 A3008 720 52 2300 000/00 RMK AO2
14837KMSN MSN20020623191009506/23/02 19:10:31  5-MIN KMSN 240110Z 21003KT 6SM HZ CLR 27/18 A3008 720 57 2300 200/03 RMK AO2
14837KMSN MSN20020623191509506/23/02 19:15:31  5-MIN KMSN 240115Z 00000KT 6SM HZ CLR 27/17 A3008 720 55 2300 000/00 RMK AO2
14837KMSN MSN20020623192009506/23/02 19:20:31  5-MIN KMSN 240120Z 20003KT 5SM HZ CLR 26/17 A3008 720 57 2200 200/03 RMK AO2
14837KMSN MSN20020623192509506/23/02 19:25:31  5-MIN KMSN 240125Z 23003KT 5SM HZ CLR 26/17 A3008 720 57 2200 230/03 RMK AO2
14837KMSN MSN20020623193009506/23/02 19:30:31  5-MIN KMSN 240130Z 23003KT 5SM HZ CLR 26/17 A3008 720 57 2200 230/03 RMK AO2
14837KMSN MSN20020623193509506/23/02 19:35:31  5-MIN KMSN 240135Z 22003KT 5SM HZ CLR 25/17 A3008 720 61 2100 220/03 RMK AO2
14837KMSN MSN20020623194009506/23/02 19:40:31  5-MIN KMSN 240140Z 00000KT 5SM HZ CLR 25/17 A3008 720 61 2100 000/00 RMK AO2
14837KMSN MSN20020623194509206/23/02 19:45:31  5-MIN KMSN 240145Z 00000KT 7SM CLR 24/18 A3008 710 68 1900 000/00 RMK AO2
14837KMSN MSN20020623195010906/23/02 19:50:31  5-MIN KMSN 240150Z 00000KT 7SM CLR 23/18 A3008 710 70 1900 000/00 RMK AO2 SLP181 T02330178
14837KMSN MSN20020623195509506/23/02 19:55:31  5-MIN KMSN 240155Z 00000KT 5SM HZ CLR 24/17 A3009 710 63 2000 000/00 RMK AO2
14837KMSN MSN20020623200009506/23/02 20:00:31  5-MIN KMSN 240200Z 00000KT 5SM HZ CLR 24/18 A3009 710 66 2000 000/00 RMK AO2
14837KMSN MSN20020623200509506/23/02 20:05:31  5-MIN KMSN 240205Z 21003KT 5SM HZ CLR 24/18 A3009 710 68 1900 210/03 RMK AO2
14837KMSN MSN20020623201009506/23/02 20:10:31  5-MIN KMSN 240210Z 21004KT 6SM HZ CLR 24/17 A3009 710 63 2000 210/04 RMK AO2
14837KMSN MSN20020623201509506/23/02 20:15:31  5-MIN KMSN 240215Z 00000KT 5SM HZ CLR 24/17 A3009 710 66 1900 000/00 RMK AO2
14837KMSN MSN20020623202009506/23/02 20:20:31  5-MIN KMSN 240220Z 00000KT 5SM HZ CLR 24/17 A3009 710 66 1900 000/00 RMK AO2
14837KMSN MSN20020623202509506/23/02 20:25:31  5-MIN KMSN 240225Z 00000KT 6SM HZ CLR 23/17 A3009 710 68 1900 000/00 RMK AO2
14837KMSN MSN20020623203009506/23/02 20:30:31  5-MIN KMSN 240230Z 19003KT 6SM HZ CLR 23/17 A3009 710 68 1900 190/03 RMK AO2
14837KMSN MSN20020623203509506/23/02 20:35:31  5-MIN KMSN 240235Z 00000KT 6SM HZ CLR 23/17 A3009 700 68 1900 000/00 RMK AO2
14837KMSN MSN20020623204009506/23/02 20:40:31  5-MIN KMSN 240240Z 22003KT 6SM HZ CLR 23/17 A3010 700 70 1800 220/03 RMK AO2
14837KMSN MSN20020623204509506/23/02 20:45:31  5-MIN KMSN 240245Z 21003KT 6SM HZ CLR 23/18 A3009 700 73 1800 210/03 RMK AO2
14837KMSN MSN20020623205011506/23/02 20:50:31  5-MIN KMSN 240250Z 20003KT 7SM CLR 23/18 A3009 700 73 1800 200/03 RMK AO2 SLP185 T02280178 53004
14837KMSN MSN20020623205509506/23/02 20:55:31  5-MIN KMSN 240255Z 20003KT 6SM HZ CLR 23/18 A3009 710 70 1900 200/03 RMK AO2
14837KMSN MSN20020623210009506/23/02 21:00:31  5-MIN KMSN 240300Z 00000KT 6SM HZ CLR 23/17 A3009 710 68 1900 000/00 RMK AO2
14837KMSN MSN20020623210509506/23/02 21:05:31  5-MIN KMSN 240305Z 22003KT 6SM HZ CLR 23/17 A3009 710 70 1800 220/03 RMK AO2
14837KMSN MSN20020623211009506/23/02 21:10:31  5-MIN KMSN 240310Z 22003KT 6SM HZ CLR 24/17 A3010 700 63 1900 220/03 RMK AO2
14837KMSN MSN20020623211509506/23/02 21:15:31  5-MIN KMSN 240315Z 00000KT 6SM HZ CLR 23/17 A3009 700 70 1800 000/00 RMK AO2
14837KMSN MSN20020623212009506/23/02 21:20:31  5-MIN KMSN 240320Z 00000KT 6SM HZ CLR 23/17 A3009 700 70 1800 000/00 RMK AO2
14837KMSN MSN20020623212509506/23/02 21:25:31  5-MIN KMSN 240325Z 22003KT 6SM HZ CLR 23/17 A3009 700 70 1800 220/03 RMK AO2
14837KMSN MSN20020623213009506/23/02 21:30:31  5-MIN KMSN 240330Z 22003KT 6SM HZ CLR 22/17 A3009 710 73 1700 220/03 RMK AO2
14837KMSN MSN20020623213509506/23/02 21:35:31  5-MIN KMSN 240335Z 21003KT 6SM HZ CLR 23/17 A3009 710 68 1900 210/03 RMK AO2
14837KMSN MSN20020623214009506/23/02 21:40:31  5-MIN KMSN 240340Z 22003KT 6SM HZ CLR 23/17 A3009 710 70 1800 210/03 RMK AO2
14837KMSN MSN20020623214509206/23/02 21:45:31  5-MIN KMSN 240345Z 21003KT 7SM CLR 23/17 A3009 710 70 1800 200/03 RMK AO2
14837KMSN MSN20020623215010906/23/02 21:50:31  5-MIN KMSN 240350Z 00000KT 7SM CLR 23/17 A3009 710 70 1800 000/00 RMK AO2 SLP182 T02280172
14837KMSN MSN20020623215509506/23/02 21:55:31  5-MIN KMSN 240355Z 00000KT 5SM HZ CLR 23/17 A3009 710 70 1800 000/00 RMK AO2
14837KMSN MSN20020623220009506/23/02 22:00:31  5-MIN KMSN 240400Z 00000KT 6SM HZ CLR 23/17 A3009 710 68 1800 000/00 RMK AO2
14837KMSN MSN20020623220509506/23/02 22:05:31  5-MIN KMSN 240405Z 00000KT 6SM HZ CLR 23/17 A3009 710 68 1800 000/00 RMK AO2
14837KMSN MSN20020623221009506/23/02 22:10:31  5-MIN KMSN 240410Z 00000KT 5SM HZ CLR 23/17 A3009 710 68 1800 000/00 RMK AO2
14837KMSN MSN20020623221509506/23/02 22:15:31  5-MIN KMSN 240415Z 21003KT 6SM HZ CLR 23/17 A3009 710 70 1800 210/03 RMK AO2
14837KMSN MSN20020623222009506/23/02 22:20:31  5-MIN KMSN 240420Z 22003KT 6SM HZ CLR 23/17 A3009 710 66 1900 220/03 RMK AO2
14837KMSN MSN20020623222509506/23/02 22:25:31  5-MIN KMSN 240425Z 22004KT 5SM HZ CLR 23/17 A3008 710 66 1900 220/04 RMK AO2
14837KMSN MSN20020623223009506/23/02 22:30:31  5-MIN KMSN 240430Z 22004KT 5SM HZ CLR 23/17 A3008 710 70 1800 220/04 RMK AO2
14837KMSN MSN20020623223509506/23/02 22:35:31  5-MIN KMSN 240435Z 20004KT 6SM HZ CLR 24/17 A3008 720 63 2000 200/04 RMK AO2
14837KMSN MSN20020623224009506/23/02 22:40:31  5-MIN KMSN 240440Z 22004KT 6SM HZ CLR 23/17 A3008 720 66 1900 220/04 RMK AO2
14837KMSN MSN20020623224509206/23/02 22:45:31  5-MIN KMSN 240445Z 22005KT 7SM CLR 23/17 A3008 720 66 1900 220/05 RMK AO2
14837KMSN MSN20020623225010906/23/02 22:50:31  5-MIN KMSN 240450Z 22005KT 7SM CLR 24/17 A3008 720 63 2000 220/05 RMK AO2 SLP178 T02390167
14837KMSN MSN20020623225509506/23/02 22:55:31  5-MIN KMSN 240455Z 22004KT 6SM HZ CLR 24/16 A3008 720 59 2000 220/04 RMK AO2
14837KMSN MSN20020623230009506/23/02 23:00:31  5-MIN KMSN 240500Z 22004KT 6SM HZ CLR 24/16 A3008 720 59 2000 220/04 RMK AO2
14837KMSN MSN20020623230509506/23/02 23:05:31  5-MIN KMSN 240505Z 22004KT 6SM HZ CLR 24/16 A3008 720 61 2000 220/04 RMK AO2
14837KMSN MSN20020623231009506/23/02 23:10:31  5-MIN KMSN 240510Z 21004KT 6SM HZ CLR 24/16 A3008 720 61 2000 210/04 RMK AO2
14837KMSN MSN20020623231509506/23/02 23:15:31  5-MIN KMSN 240515Z 21003KT 6SM HZ CLR 24/16 A3008 720 61 2000 210/03 RMK AO2
14837KMSN MSN20020623232009506/23/02 23:20:31  5-MIN KMSN 240520Z 20003KT 6SM HZ CLR 24/16 A3008 720 59 2000 200/03 RMK AO2
14837KMSN MSN20020623232509506/23/02 23:25:31  5-MIN KMSN 240525Z 20003KT 6SM HZ CLR 24/16 A3008 720 57 2000 200/03 RMK AO2
14837KMSN MSN20020623233009506/23/02 23:30:31  5-MIN KMSN 240530Z 22004KT 6SM HZ CLR 24/16 A3008 720 61 2000 220/04 RMK AO2
14837KMSN MSN20020623233509506/23/02 23:35:31  5-MIN KMSN 240535Z 00000KT 6SM HZ CLR 23/16 A3008 720 61 1900 000/00 RMK AO2
14837KMSN MSN20020623234009506/23/02 23:40:31  5-MIN KMSN 240540Z 17004KT 5SM HZ CLR 22/16 A3008 720 68 1800 170/04 RMK AO2
14837KMSN MSN20020623234509506/23/02 23:45:31  5-MIN KMSN 240545Z 16005KT 5SM HZ CLR 22/16 A3008 720 70 1700 160/05 RMK AO2
14837KMSN MSN20020623235014006/23/02 23:50:31  5-MIN KMSN 240550Z 19003KT 5SM HZ CLR 22/17 A3009 710 73 1700 190/03 RMK AO2 SLP182 T02170167 10300 20211 403220211 51009
14837KMSN MSN20020623235509506/23/02 23:55:31  5-MIN KMSN 240555Z 00000KT 5SM HZ CLR 22/16 A3009 710 70 1700 000/00 RMK AO2
14837KMSN MSN20020624000009506/24/02 00:00:31  5-MIN KMSN 240600Z 00000KT 5SM HZ CLR 22/16 A3009 710 70 1700 000/00 RMK AO2
14837KMSN MSN20020624000509506/24/02 00:05:31  5-MIN KMSN 240605Z 00000KT 5SM HZ CLR 21/16 A3009 710 75 1600 000/00 RMK AO2
14837KMSN MSN20020624001009506/24/02 00:10:31  5-MIN KMSN 240610Z 21004KT 5SM HZ CLR 22/16 A3009 710 70 1700 200/04 RMK AO2
14837KMSN MSN20020624001509506/24/02 00:15:31  5-MIN KMSN 240615Z 21003KT 5SM HZ CLR 22/17 A3009 710 70 1700 210/03 RMK AO2
14837KMSN MSN20020624002009506/24/02 00:20:31  5-MIN KMSN 240620Z 22003KT 5SM HZ CLR 23/17 A3009 710 68 1800 220/03 RMK AO2
14837KMSN MSN20020624002509506/24/02 00:25:31  5-MIN KMSN 240625Z 21003KT 5SM HZ CLR 22/16 A3009 710 68 1700 210/03 RMK AO2
14837KMSN MSN20020624003009506/24/02 00:30:31  5-MIN KMSN 240630Z 21003KT 5SM HZ CLR 23/16 A3009 710 65 1800 210/03 RMK AO2
14837KMSN MSN20020624003509506/24/02 00:35:31  5-MIN KMSN 240635Z 21003KT 5SM HZ CLR 22/16 A3009 710 70 1700 210/03 RMK AO2
14837KMSN MSN20020624004009506/24/02 00:40:31  5-MIN KMSN 240640Z 00000KT 5SM HZ CLR 21/16 A3009 710 73 1600 000/00 RMK AO2
14837KMSN MSN20020624004509506/24/02 00:45:31  5-MIN KMSN 240645Z 00000KT 4SM HZ CLR 19/16 A3009 700 81 1400 000/00 RMK AO2
14837KMSN MSN20020624005011206/24/02 00:50:31  5-MIN KMSN 240650Z 00000KT 4SM HZ CLR 19/16 A3009 700 81 1400 000/00 RMK AO2 SLP185 T01940161
14837KMSN MSN20020624005509506/24/02 00:55:31  5-MIN KMSN 240655Z 00000KT 4SM HZ CLR 19/16 A3010 700 81 1400 000/00 RMK AO2
14837KMSN MSN20020624010009506/24/02 01:00:31  5-MIN KMSN 240700Z 00000KT 4SM HZ CLR 20/16 A3010 700 78 1500 000/00 RMK AO2
14837KMSN MSN20020624010509506/24/02 01:05:31  5-MIN KMSN 240705Z 00000KT 4SM HZ CLR 20/16 A3010 700 78 1500 000/00 RMK AO2
14837KMSN MSN20020624011009506/24/02 01:10:31  5-MIN KMSN 240710Z 00000KT 4SM HZ CLR 19/16 A3009 710 81 1400 000/00 RMK AO2
14837KMSN MSN20020624011509506/24/02 01:15:31  5-MIN KMSN 240715Z 00000KT 4SM HZ CLR 19/16 A3009 710 81 1400 000/00 RMK AO2
14837KMSN MSN20020624012009506/24/02 01:20:31  5-MIN KMSN 240720Z 00000KT 4SM HZ CLR 19/16 A3009 710 84 1400 000/00 RMK AO2
14837KMSN MSN20020624012509506/24/02 01:25:31  5-MIN KMSN 240725Z 08003KT 4SM HZ CLR 19/16 A3009 710 84 1400 080/03 RMK AO2
14837KMSN MSN20020624013009506/24/02 01:30:31  5-MIN KMSN 240730Z 06003KT 4SM HZ CLR 18/16 A3009 710 84 1300 060/03 RMK AO2
14837KMSN MSN20020624013509506/24/02 01:35:31  5-MIN KMSN 240735Z 00000KT 4SM HZ CLR 18/16 A3009 700 84 1300 000/00 RMK AO2
14837KMSN MSN20020624014009506/24/02 01:40:31  5-MIN KMSN 240740Z 00000KT 4SM HZ CLR 19/16 A3010 700 81 1400 000/00 RMK AO2
14837KMSN MSN20020624014509506/24/02 01:45:31  5-MIN KMSN 240745Z 00000KT 4SM HZ CLR 19/16 A3009 710 81 1400 000/00 RMK AO2
14837KMSN MSN20020624015011206/24/02 01:50:31  5-MIN KMSN 240750Z 00000KT 4SM HZ CLR 19/16 A3009 710 81 1400 000/00 RMK AO2 SLP183 T01940161
14837KMSN MSN20020624015509506/24/02 01:55:31  5-MIN KMSN 240755Z 00000KT 4SM HZ CLR 19/16 A3009 710 81 1400 000/00 RMK AO2
14837KMSN MSN20020624020009506/24/02 02:00:31  5-MIN KMSN 240800Z 00000KT 4SM BR CLR 18/16 A3009 710 87 1300 000/00 RMK AO2
14837KMSN MSN20020624020509506/24/02 02:05:31  5-MIN KMSN 240805Z 00000KT 3SM BR CLR 18/16 A3009 710 87 1300 000/00 RMK AO2
14837KMSN MSN20020624021009506/24/02 02:10:31  5-MIN KMSN 240810Z 00000KT 3SM BR CLR 18/16 A3009 710 90 1200 000/00 RMK AO2
14837KMSN MSN20020624021509506/24/02 02:15:31  5-MIN KMSN 240815Z 00000KT 3SM BR CLR 18/16 A3009 710 87 1300 000/00 RMK AO2
14837KMSN MSN20020624022009506/24/02 02:20:31  5-MIN KMSN 240820Z 00000KT 3SM BR CLR 18/16 A3009 710 87 1300 000/00 RMK AO2
14837KMSN MSN20020624022509506/24/02 02:25:31  5-MIN KMSN 240825Z 00000KT 3SM BR CLR 18/16 A3008 710 87 1300 000/00 RMK AO2
14837KMSN MSN20020624023009506/24/02 02:30:31  5-MIN KMSN 240830Z 00000KT 3SM BR CLR 18/16 A3008 710 90 1200 000/00 RMK AO2
14837KMSN MSN20020624023509506/24/02 02:35:31  5-MIN KMSN 240835Z 00000KT 3SM BR CLR 18/16 A3008 710 87 1300 000/00 RMK AO2
14837KMSN MSN20020624024009506/24/02 02:40:31  5-MIN KMSN 240840Z 00000KT 3SM HZ CLR 19/16 A3008 710 84 1400 000/00 RMK AO2
14837KMSN MSN20020624024509506/24/02 02:45:31  5-MIN KMSN 240845Z 00000KT 3SM BR CLR 18/16 A3009 710 87 1300 000/00 RMK AO2
14837KMSN MSN20020624025011806/24/02 02:50:31  5-MIN KMSN 240850Z 00000KT 5SM BR CLR 17/16 A3009 710 93 1200 000/00 RMK AO2 SLP185 T01720161 55002
14837KMSN MSN20020624025509506/24/02 02:55:31  5-MIN KMSN 240855Z 00000KT 3SM BR CLR 17/16 A3009 700 93 1200 000/00 RMK AO2
14837KMSN MSN20020624030009906/24/02 03:00:31  5-MIN KMSN 240900Z 00000KT 2 1/2SM BR CLR 17/16 A3010 700 93 1200 000/00 RMK AO2
14837KMSN MSN20020624030509506/24/02 03:05:31  5-MIN KMSN 240905Z 00000KT 5SM BR CLR 17/16 A3010 700 93 1200 000/00 RMK AO2
14837KMSN MSN20020624031009506/24/02 03:10:31  5-MIN KMSN 240910Z 00000KT 5SM BR CLR 17/16 A3010 700 93 1200 000/00 RMK AO2
14837KMSN MSN20020624031509506/24/02 03:15:31  5-MIN KMSN 240915Z 00000KT 5SM BR CLR 17/16 A3010 700 90 1200 000/00 RMK AO2
14837KMSN MSN20020624032009506/24/02 03:20:31  5-MIN KMSN 240920Z 00000KT 5SM BR CLR 17/16 A3010 700 93 1100 000/00 RMK AO2
14837KMSN MSN20020624032509506/24/02 03:25:31  5-MIN KMSN 240925Z 00000KT 5SM BR CLR 17/16 A3010 700 93 1200 000/00 RMK AO2
14837KMSN MSN20020624033009506/24/02 03:30:31  5-MIN KMSN 240930Z 00000KT 3SM BR CLR 17/16 A3010 700 93 1200 000/00 RMK AO2
14837KMSN MSN20020624033509506/24/02 03:35:31  5-MIN KMSN 240935Z 00000KT 3SM BR CLR 17/16 A3010 700 93 1200 000/00 RMK AO2
14837KMSN MSN20020624034009506/24/02 03:40:31  5-MIN KMSN 240940Z 00000KT 3SM BR CLR 17/16 A3010 700 93 1200 000/00 RMK AO2
14837KMSN MSN20020624034509506/24/02 03:45:31  5-MIN KMSN 240945Z 00000KT 3SM BR CLR 17/16 A3010 700 93 1200 000/00 RMK AO2
14837KMSN MSN20020624035011206/24/02 03:50:31  5-MIN KMSN 240950Z 00000KT 3SM BR CLR 17/16 A3010 700 93 1200 000/00 RMK AO2 SLP188 T01720161
14837KMSN MSN20020624035509506/24/02 03:55:31  5-MIN KMSN 240955Z 00000KT 3SM BR CLR 17/16 A3010 700 96 1100 000/00 RMK AO2
14837KMSN MSN20020624040009506/24/02 04:00:31  5-MIN KMSN 241000Z 00000KT 3SM BR CLR 17/16 A3010 700 93 1200 000/00 RMK AO2
14837KMSN MSN20020624040509506/24/02 04:05:31  5-MIN KMSN 241005Z 00000KT 3SM BR CLR 18/16 A3010 700 90 1200 000/00 RMK AO2
14837KMSN MSN20020624041009506/24/02 04:10:31  5-MIN KMSN 241010Z 00000KT 3SM BR CLR 18/16 A3010 700 90 1200 000/00 RMK AO2
14837KMSN MSN20020624041509506/24/02 04:15:31  5-MIN KMSN 241015Z 00000KT 3SM BR CLR 18/16 A3010 700 90 1200 000/00 RMK AO2
14837KMSN MSN20020624042009506/24/02 04:20:31  5-MIN KMSN 241020Z 00000KT 3SM BR CLR 18/16 A3010 700 90 1200 000/00 RMK AO2
14837KMSN MSN20020624042509506/24/02 04:25:31  5-MIN KMSN 241025Z 00000KT 3SM BR CLR 18/16 A3010 700 87 1200 000/00 RMK AO2
14837KMSN MSN20020624043009506/24/02 04:30:31  5-MIN KMSN 241030Z 14004KT 3SM BR CLR 17/16 A3009 710 90 1200 140/04 RMK AO2
14837KMSN MSN20020624043509506/24/02 04:35:31  5-MIN KMSN 241035Z VRB03KT 3SM HZ CLR 18/15 A3009 710 83 1200 VRB/03 RMK AO2
14837KMSN MSN20020624044009506/24/02 04:40:31  5-MIN KMSN 241040Z 18003KT 3SM BR CLR 18/16 A3009 710 87 1200 180/03 RMK AO2
14837KMSN MSN20020624044509506/24/02 04:45:31  5-MIN KMSN 241045Z 18005KT 3SM BR CLR 19/17 A3009 710 87 1400 180/05 RMK AO2
14837KMSN MSN20020624045011206/24/02 04:50:31  5-MIN KMSN 241050Z 18005KT 3SM HZ CLR 20/17 A3009 710 84 1500 180/05 RMK AO2 SLP182 T02000172
14837KMSN MSN20020624045509506/24/02 04:55:31  5-MIN KMSN 241055Z 18005KT 3SM HZ CLR 20/17 A3009 710 84 1500 180/05 RMK AO2
14837KMSN MSN20020624050009506/24/02 05:00:31  5-MIN KMSN 241100Z 18005KT 3SM HZ CLR 21/17 A3009 710 81 1600 180/05 RMK AO2
14837KMSN MSN20020624050509506/24/02 05:05:31  5-MIN KMSN 241105Z 18005KT 3SM HZ CLR 21/17 A3009 710 81 1600 180/05 RMK AO2
14837KMSN MSN20020624051009506/24/02 05:10:31  5-MIN KMSN 241110Z 18005KT 3SM HZ CLR 21/17 A3009 710 81 1600 180/05 RMK AO2
14837KMSN MSN20020624051509506/24/02 05:15:31  5-MIN KMSN 241115Z 18004KT 3SM HZ CLR 21/17 A3009 710 81 1600 180/04 RMK AO2
14837KMSN MSN20020624052009506/24/02 05:20:31  5-MIN KMSN 241120Z 18005KT 3SM HZ CLR 21/17 A3009 710 81 1600 180/05 RMK AO2
14837KMSN MSN20020624052509506/24/02 05:25:31  5-MIN KMSN 241125Z 18005KT 3SM HZ CLR 21/17 A3009 710 78 1600 180/05 RMK AO2
14837KMSN MSN20020624053009506/24/02 05:30:31  5-MIN KMSN 241130Z 19005KT 3SM HZ CLR 21/17 A3009 710 78 1600 180/05 RMK AO2
14837KMSN MSN20020624053509506/24/02 05:35:31  5-MIN KMSN 241135Z 18005KT 3SM HZ CLR 21/17 A3009 710 78 1600 180/05 RMK AO2
14837KMSN MSN20020624054009506/24/02 05:40:31  5-MIN KMSN 241140Z 18006KT 3SM HZ CLR 22/17 A3009 710 75 1700 180/06 RMK AO2
14837KMSN MSN20020624054509506/24/02 05:45:31  5-MIN KMSN 241145Z 18005KT 3SM HZ CLR 22/18 A3009 710 78 1700 180/05 RMK AO2
14837KMSN MSN20020624055013006/24/02 05:50:31  5-MIN KMSN 241150Z 18005KT 3SM HZ CLR 22/18 A3009 710 75 1700 180/05 RMK AO2 SLP184 T02220178 10228 20167 51002
14837KMSN MSN20020624055509506/24/02 05:55:31  5-MIN KMSN 241155Z 20004KT 3SM HZ CLR 22/17 A3010 700 73 1700 200/04 RMK AO2
14837KMSN MSN20020624060009506/24/02 06:00:31  5-MIN KMSN 241200Z 20004KT 3SM HZ CLR 22/18 A3010 700 75 1700 200/04 RMK AO2
14837KMSN MSN20020624060510506/24/02 06:05:31  5-MIN KMSN 241205Z 20003KT 3SM HZ CLR 23/17 A3010 700 70 1800 200/03 RMK AO2 TWR VIS 5
14837KMSN MSN20020624061010506/24/02 06:10:31  5-MIN KMSN 241210Z 21004KT 3SM HZ CLR 23/18 A3010 700 73 1800 210/04 RMK AO2 TWR VIS 5
14837KMSN MSN20020624061510506/24/02 06:15:31  5-MIN KMSN 241215Z 21004KT 3SM HZ CLR 23/17 A3010 700 68 1900 210/04 RMK AO2 TWR VIS 5
14837KMSN MSN20020624062010506/24/02 06:20:31  5-MIN KMSN 241220Z 22005KT 3SM HZ CLR 23/18 A3010 690 70 1900 210/05 RMK AO2 TWR VIS 5
14837KMSN MSN20020624062510506/24/02 06:25:31  5-MIN KMSN 241225Z 22004KT 3SM HZ CLR 23/17 A3011 690 68 1900 220/04 RMK AO2 TWR VIS 5
14837KMSN MSN20020624063010506/24/02 06:30:31  5-MIN KMSN 241230Z 25004KT 3SM HZ CLR 23/18 A3012 680 70 1800 250/04 RMK AO2 TWR VIS 5
14837KMSN MSN20020624063510506/24/02 06:35:31  5-MIN KMSN 241235Z 22004KT 3SM HZ CLR 23/17 A3011 690 68 1800 220/04 RMK AO2 TWR VIS 5
14837KMSN MSN20020624064010506/24/02 06:40:31  5-MIN KMSN 241240Z 22003KT 3SM HZ CLR 23/18 A3011 690 70 1900 220/03 RMK AO2 TWR VIS 5
14837KMSN MSN20020624064510506/24/02 06:45:31  5-MIN KMSN 241245Z 22005KT 3SM HZ CLR 24/18 A3012 680 68 1900 220/05 RMK AO2 TWR VIS 5
14837KMSN MSN20020624065012206/24/02 06:50:31  5-MIN KMSN 241250Z 22005KT 3SM HZ CLR 24/18 A3011 690 68 1900 210/05 RMK AO2 TWR VIS 5 SLP192 T02390178
14837KMSN MSN20020624065509506/24/02 06:55:31  5-MIN KMSN 241255Z 22006KT 4SM HZ CLR 24/18 A3011 690 68 1900 220/06 RMK AO2
14837KMSN MSN20020624070009506/24/02 07:00:31  5-MIN KMSN 241300Z 22005KT 4SM HZ CLR 24/18 A3012 680 68 1900 220/05 RMK AO2
14837KMSN MSN20020624070509506/24/02 07:05:31  5-MIN KMSN 241305Z 22005KT 4SM HZ CLR 24/18 A3011 690 66 2000 220/05 RMK AO2
14837KMSN MSN20020624071009506/24/02 07:10:31  5-MIN KMSN 241310Z 22005KT 4SM HZ CLR 24/18 A3011 690 66 2000 220/05 RMK AO2
14837KMSN MSN20020624071509506/24/02 07:15:31  5-MIN KMSN 241315Z 22005KT 5SM HZ CLR 24/17 A3011 690 63 2000 220/05 RMK AO2
14837KMSN MSN20020624072009506/24/02 07:20:31  5-MIN KMSN 241320Z 22006KT 5SM HZ CLR 24/17 A3011 690 63 2000 220/06 RMK AO2
14837KMSN MSN20020624072509506/24/02 07:25:31  5-MIN KMSN 241325Z 22004KT 5SM HZ CLR 24/17 A3011 690 63 2000 220/04 RMK AO2
14837KMSN MSN20020624073009506/24/02 07:30:31  5-MIN KMSN 241330Z 23006KT 5SM HZ CLR 25/18 A3011 690 64 2000 230/06 RMK AO2
14837KMSN MSN20020624073509506/24/02 07:35:31  5-MIN KMSN 241335Z 23005KT 5SM HZ CLR 25/18 A3012 680 64 2000 220/05 RMK AO2
14837KMSN MSN20020624074009506/24/02 07:40:31  5-MIN KMSN 241340Z 22005KT 5SM HZ CLR 25/18 A3012 680 64 2000 220/05 RMK AO2
14837KMSN MSN20020624074509506/24/02 07:45:31  5-MIN KMSN 241345Z 22006KT 5SM HZ CLR 25/18 A3012 680 64 2000 220/06 RMK AO2
14837KMSN MSN20020624075011206/24/02 07:50:31  5-MIN KMSN 241350Z 23004KT 5SM HZ CLR 26/18 A3012 680 64 2100 230/04 RMK AO2 SLP194 T02560183
14837KMSN MSN20020624075509506/24/02 07:55:31  5-MIN KMSN 241355Z 22004KT 4SM HZ CLR 26/18 A3012 680 61 2100 210/04 RMK AO2
14837KMSN MSN20020624080009506/24/02 08:00:31  5-MIN KMSN 241400Z 22004KT 5SM HZ CLR 26/18 A3012 680 61 2100 220/04 RMK AO2
14837KMSN MSN20020624080509506/24/02 08:05:31  5-MIN KMSN 241405Z VRB03KT 5SM HZ CLR 26/18 A3012 680 62 2200 VRB/03 RMK AO2
14837KMSN MSN20020624081009506/24/02 08:10:31  5-MIN KMSN 241410Z VRB03KT 5SM HZ CLR 26/18 A3012 680 62 2200 VRB/03 RMK AO2
14837KMSN MSN20020624081509506/24/02 08:15:31  5-MIN KMSN 241415Z VRB05KT 5SM HZ CLR 26/18 A3012 680 62 2200 VRB/05 RMK AO2
14837KMSN MSN20020624082009506/24/02 08:20:31  5-MIN KMSN 241420Z 22006KT 5SM HZ CLR 26/18 A3012 680 59 2200 220/06 RMK AO2
14837KMSN MSN20020624082509506/24/02 08:25:31  5-MIN KMSN 241425Z 24006KT 5SM HZ CLR 26/18 A3012 680 59 2200 240/06 RMK AO2
14837KMSN MSN20020624083009506/24/02 08:30:31  5-MIN KMSN 241430Z 21005KT 5SM HZ CLR 26/18 A3012 680 59 2200 210/05 RMK AO2
14837KMSN MSN20020624083509506/24/02 08:35:31  5-MIN KMSN 241435Z 21005KT 5SM HZ CLR 27/18 A3011 690 57 2200 210/05 RMK AO2
14837KMSN MSN20020624084009506/24/02 08:40:31  5-MIN KMSN 241440Z 22006KT 5SM HZ CLR 27/18 A3011 690 57 2200 220/06 RMK AO2
14837KMSN MSN20020624084509506/24/02 08:45:31  5-MIN KMSN 241445Z 23006KT 6SM HZ CLR 27/18 A3011 690 57 2200 230/06 RMK AO2
14837KMSN MSN20020624085011806/24/02 08:50:31  5-MIN KMSN 241450Z 22004KT 6SM HZ CLR 27/18 A3011 690 56 2300 220/04 RMK AO2 SLP192 T02720178 52001
14837KMSN MSN20020624085509506/24/02 08:55:31  5-MIN KMSN 241455Z 23004KT 5SM HZ CLR 27/18 A3011 690 58 2300 230/04 RMK AO2
14837KMSN MSN20020624090009506/24/02 09:00:31  5-MIN KMSN 241500Z 24004KT 5SM HZ CLR 28/18 A3011 690 56 2300 240/04 RMK AO2
14837KMSN MSN20020624090509506/24/02 09:05:31  5-MIN KMSN 241505Z 22006KT 5SM HZ CLR 28/18 A3011 690 54 2300 220/06 RMK AO2
14837KMSN MSN20020624091009506/24/02 09:10:31  5-MIN KMSN 241510Z VRB04KT 6SM HZ CLR 28/18 A3012 680 56 2300 VRB/04 RMK AO2
14837KMSN MSN20020624091509506/24/02 09:15:31  5-MIN KMSN 241515Z VRB05KT 6SM HZ CLR 28/18 A3012 680 54 2300 VRB/05 RMK AO2
14837KMSN MSN20020624092009506/24/02 09:20:31  5-MIN KMSN 241520Z 23005KT 6SM HZ CLR 28/18 A3012 680 52 2400 230/05 RMK AO2
14837KMSN MSN20020624092509506/24/02 09:25:31  5-MIN KMSN 241525Z 23006KT 6SM HZ CLR 28/17 A3012 680 52 2300 230/06 RMK AO2
14837KMSN MSN20020624093009506/24/02 09:30:31  5-MIN KMSN 241530Z VRB05KT 6SM HZ CLR 28/17 A3012 680 50 2400 VRB/05 RMK AO2
14837KMSN MSN20020624093509506/24/02 09:35:31  5-MIN KMSN 241535Z VRB06KT 6SM HZ CLR 28/17 A3012 680 50 2400 VRB/06 RMK AO2
14837KMSN MSN20020624094009506/24/02 09:40:31  5-MIN KMSN 241540Z 24005KT 6SM HZ CLR 28/17 A3012 680 48 2400 240/05 RMK AO2
14837KMSN MSN20020624094509506/24/02 09:45:31  5-MIN KMSN 241545Z 23004KT 6SM HZ CLR 28/17 A3012 680 50 2400 230/04 RMK AO2
14837KMSN MSN20020624095010906/24/02 09:50:31  5-MIN KMSN 241550Z 23006KT 8SM CLR 29/17 A3012 680 47 2500 220/06 RMK AO2 SLP194 T02890167
14837KMSN MSN20020624095509206/24/02 09:55:31  5-MIN KMSN 241555Z 23006KT 7SM CLR 29/16 A3012 680 45 2500 230/06 RMK AO2
14837KMSN MSN20020624100009206/24/02 10:00:31  5-MIN KMSN 241600Z VRB04KT 8SM CLR 29/16 A3012 680 45 2500 VRB/04 RMK AO2
14837KMSN MSN20020624100509206/24/02 10:05:31  5-MIN KMSN 241605Z 24006KT 8SM CLR 29/16 A3013 670 45 2500 240/06 RMK AO2
14837KMSN MSN20020624101009206/24/02 10:10:31  5-MIN KMSN 241610Z 23007KT 8SM CLR 29/16 A3013 670 45 2500 230/07 RMK AO2
14837KMSN MSN20020624101509206/24/02 10:15:31  5-MIN KMSN 241615Z 24006KT 8SM CLR 29/16 A3013 670 44 2500 240/06 RMK AO2
14837KMSN MSN20020624102009206/24/02 10:20:31  5-MIN KMSN 241620Z 23007KT 8SM CLR 29/15 A3013 670 42 2500 230/07 RMK AO2
14837KMSN MSN20020624102509206/24/02 10:25:31  5-MIN KMSN 241625Z VRB06KT 8SM CLR 29/15 A3013 670 42 2500 VRB/06 RMK AO2
14837KMSN MSN20020624103009206/24/02 10:30:31  5-MIN KMSN 241630Z VRB06KT 8SM CLR 29/15 A3013 670 42 2500 VRB/06 RMK AO2
14837KMSN MSN20020624103509206/24/02 10:35:31  5-MIN KMSN 241635Z 24008KT 8SM CLR 29/16 A3013 670 42 2500 240/08 RMK AO2
14837KMSN MSN20020624104009306/24/02 10:40:31  5-MIN KMSN 241640Z VRB06KT 10SM CLR 29/16 A3013 670 44 2500 VRB/06 RMK AO2
14837KMSN MSN20020624104509306/24/02 10:45:31  5-MIN KMSN 241645Z 23006KT 10SM CLR 29/16 A3013 670 42 2500 230/06 RMK AO2
14837KMSN MSN20020624105011006/24/02 10:50:31  5-MIN KMSN 241650Z 21008KT 10SM CLR 29/16 A3013 670 44 2500 210/08 RMK AO2 SLP195 T02890156
14837KMSN MSN20020624105509206/24/02 10:55:31  5-MIN KMSN 241655Z 21008KT 8SM CLR 29/16 A3013 670 44 2500 210/08 RMK AO2
14837KMSN MSN20020624110009506/24/02 11:00:31  5-MIN KMSN 241700Z 22008KT 8SM FEW030 29/16 A3013 670 42 2500 220/08 RMK AO2
14837KMSN MSN20020624110509506/24/02 11:05:31  5-MIN KMSN 241705Z 22008KT 8SM FEW055 29/16 A3013 670 44 2500 220/08 RMK AO2
14837KMSN MSN20020624111009506/24/02 11:10:31  5-MIN KMSN 241710Z 22008KT 8SM FEW055 29/16 A3013 670 44 2500 220/08 RMK AO2
14837KMSN MSN20020624111509506/24/02 11:15:31  5-MIN KMSN 241715Z 23008KT 8SM FEW055 29/16 A3013 670 42 2500 230/08 RMK AO2
14837KMSN MSN20020624112009506/24/02 11:20:31  5-MIN KMSN 241720Z VRB05KT 8SM FEW055 29/16 A3013 670 44 2500 VRB/05 RMK AO2
14837KMSN MSN20020624112509506/24/02 11:25:31  5-MIN KMSN 241725Z 23008KT 8SM FEW055 29/16 A3013 670 44 2500 230/08 RMK AO2
14837KMSN MSN20020624113009506/24/02 11:30:31  5-MIN KMSN 241730Z 23006KT 8SM FEW055 29/16 A3013 670 44 2500 230/06 RMK AO2
14837KMSN MSN20020624113509506/24/02 11:35:31  5-MIN KMSN 241735Z VRB04KT 8SM FEW055 29/16 A3012 680 44 2500 VRB/04 RMK AO2
14837KMSN MSN20020624114009506/24/02 11:40:31  5-MIN KMSN 241740Z 22006KT 8SM FEW055 29/16 A3012 680 44 2500 220/06 RMK AO2
14837KMSN MSN20020624114509506/24/02 11:45:31  5-MIN KMSN 241745Z 23006KT 8SM FEW055 29/17 A3012 680 45 2500 230/06 RMK AO2
14837KMSN MSN20020624115013006/24/02 11:50:31  5-MIN KMSN 241750Z 20007KT 8SM FEW055 29/16 A3012 680 44 2500 200/07 RMK AO2 SLP194 T02940161 10300 20222 50006
14837KMSN MSN20020624115509306/24/02 11:55:31  5-MIN KMSN 241755Z VRB06KT 10SM CLR 30/17 A3012 680 44 2600 VRB/06 RMK AO2
14837KMSN MSN20020624120009606/24/02 12:00:31  5-MIN KMSN 241800Z 21008KT 10SM FEW055 30/17 A3012 680 44 2600 210/08 RMK AO2
14837KMSN MSN20020624120509606/24/02 12:05:31  5-MIN KMSN 241805Z 22008KT 10SM FEW055 29/16 A3012 680 44 2500 220/08 RMK AO2
14837KMSN MSN20020624121009606/24/02 12:10:31  5-MIN KMSN 241810Z 22006KT 10SM FEW055 30/17 A3012 680 44 2600 220/06 RMK AO2
14837KMSN MSN20020624121509606/24/02 12:15:31  5-MIN KMSN 241815Z VRB05KT 10SM FEW055 30/17 A3011 690 44 2600 VRB/05 RMK AO2
14837KMSN MSN20020624122009606/24/02 12:20:31  5-MIN KMSN 241820Z 20006KT 10SM SCT055 30/17 A3011 690 44 2600 200/06 RMK AO2
14837KMSN MSN20020624122509606/24/02 12:25:31  5-MIN KMSN 241825Z 23006KT 10SM SCT055 30/17 A3011 690 44 2600 230/06 RMK AO2
14837KMSN MSN20020624123009606/24/02 12:30:31  5-MIN KMSN 241830Z VRB05KT 10SM SCT055 30/17 A3011 690 45 2600 VRB/05 RMK AO2
14837KMSN MSN20020624123509606/24/02 12:35:31  5-MIN KMSN 241835Z VRB04KT 10SM SCT055 31/17 A3011 690 44 2700 VRB/04 RMK AO2
14837KMSN MSN20020624124009606/24/02 12:40:31  5-MIN KMSN 241840Z VRB05KT 10SM SCT055 30/17 A3011 690 44 2600 VRB/05 RMK AO2
14837KMSN MSN20020624124509606/24/02 12:45:31  5-MIN KMSN 241845Z 29007KT 10SM SCT055 31/17 A3011 690 44 2700 290/07 RMK AO2
14837KMSN MSN20020624125011306/24/02 12:50:31  5-MIN KMSN 241850Z VRB04KT 10SM SCT055 31/17 A3011 690 44 2700 VRB/04 RMK AO2 SLP190 T03060172
14837KMSN MSN20020624125509806/24/02 12:55:31  5-MIN KMSN 241855Z VRB06KT 6SM HZ FEW060 31/17 A3011 690 42 2700 VRB/06 RMK AO2
14837KMSN MSN20020624130009506/24/02 13:00:31  5-MIN KMSN 241900Z VRB04KT 8SM SCT060 31/17 A3011 690 44 2700 VRB/04 RMK AO2
14837KMSN MSN20020624130509506/24/02 13:05:31  5-MIN KMSN 241905Z VRB05KT 8SM SCT060 31/17 A3010 700 42 2700 VRB/05 RMK AO2
14837KMSN MSN20020624131009506/24/02 13:10:31  5-MIN KMSN 241910Z VRB05KT 8SM SCT060 31/17 A3010 700 42 2700 VRB/05 RMK AO2
14837KMSN MSN20020624131509506/24/02 13:15:31  5-MIN KMSN 241915Z 31005KT 8SM SCT060 31/17 A3010 700 42 2700 310/05 RMK AO2
14837KMSN MSN20020624132009506/24/02 13:20:31  5-MIN KMSN 241920Z 28004KT 8SM SCT060 31/17 A3010 700 42 2700 280/04 RMK AO2
14837KMSN MSN20020624132509506/24/02 13:25:31  5-MIN KMSN 241925Z VRB03KT 8SM SCT060 31/17 A3009 710 41 2700 VRB/03 RMK AO2
14837KMSN MSN20020624133009506/24/02 13:30:31  5-MIN KMSN 241930Z 19007KT 8SM SCT060 31/17 A3009 710 42 2700 190/07 RMK AO2
14837KMSN MSN20020624133509506/24/02 13:35:31  5-MIN KMSN 241935Z 22006KT 8SM SCT060 31/17 A3009 710 42 2700 220/06 RMK AO2
14837KMSN MSN20020624134009506/24/02 13:40:31  5-MIN KMSN 241940Z 20004KT 8SM SCT060 31/17 A3008 710 44 2700 200/04 RMK AO2
14837KMSN MSN20020624134509506/24/02 13:45:31  5-MIN KMSN 241945Z VRB06KT 7SM SCT060 31/17 A3008 710 44 2700 VRB/06 RMK AO2
14837KMSN MSN20020624135011206/24/02 13:50:31  5-MIN KMSN 241950Z VRB06KT 7SM FEW060 31/17 A3008 720 44 2700 VRB/06 RMK AO2 SLP180 T03060172
14837KMSN MSN20020624135509506/24/02 13:55:31  5-MIN KMSN 241955Z VRB06KT 7SM FEW060 30/17 A3008 720 45 2600 VRB/06 RMK AO2
14837KMSN MSN20020624140009506/24/02 14:00:31  5-MIN KMSN 242000Z VRB04KT 7SM FEW060 30/17 A3008 720 44 2600 VRB/04 RMK AO2
14837KMSN MSN20020624140509506/24/02 14:05:31  5-MIN KMSN 242005Z 24006KT 7SM FEW060 31/17 A3007 730 44 2700 240/06 RMK AO2
14837KMSN MSN20020624141009506/24/02 14:10:31  5-MIN KMSN 242010Z 20005KT 7SM FEW060 31/17 A3007 720 44 2700 200/05 RMK AO2
14837KMSN MSN20020624141509506/24/02 14:15:31  5-MIN KMSN 242015Z VRB04KT 7SM FEW060 31/17 A3007 730 44 2700 VRB/04 RMK AO2
14837KMSN MSN20020624142009506/24/02 14:20:31  5-MIN KMSN 242020Z VRB05KT 7SM FEW060 31/18 A3007 730 46 2700 VRB/05 RMK AO2
14837KMSN MSN20020624142509506/24/02 14:25:31  5-MIN KMSN 242025Z 26005KT 8SM FEW060 31/17 A3007 730 44 2700 260/05 RMK AO2
14837KMSN MSN20020624143009506/24/02 14:30:31  5-MIN KMSN 242030Z 22004KT 8SM FEW060 31/17 A3007 720 44 2700 220/04 RMK AO2
14837KMSN MSN20020624143509506/24/02 14:35:31  5-MIN KMSN 242035Z VRB04KT 8SM FEW060 31/17 A3007 730 44 2700 VRB/04 RMK AO2
14837KMSN MSN20020624144009506/24/02 14:40:31  5-MIN KMSN 242040Z VRB06KT 8SM FEW060 31/17 A3006 730 44 2700 VRB/06 RMK AO2
14837KMSN MSN20020624144509506/24/02 14:45:31  5-MIN KMSN 242045Z VRB06KT 8SM FEW060 31/17 A3006 740 42 2700 VRB/06 RMK AO2
14837KMSN MSN20020624145011806/24/02 14:50:31  5-MIN KMSN 242050Z VRB05KT 8SM FEW060 31/17 A3006 740 44 2700 VRB/05 RMK AO2 SLP174 T03060172 50002
14837KMSN MSN20020624145509206/24/02 14:55:31  5-MIN KMSN 242055Z VRB05KT 8SM CLR 31/17 A3005 740 44 2700 VRB/05 RMK AO2
14837KMSN MSN20020624150009206/24/02 15:00:31  5-MIN KMSN 242100Z VRB04KT 8SM CLR 31/17 A3006 740 44 2700 VRB/04 RMK AO2
14837KMSN MSN20020624150509206/24/02 15:05:31  5-MIN KMSN 242105Z 23006KT 8SM CLR 31/17 A3006 740 44 2700 230/06 RMK AO2
14837KMSN MSN20020624151009206/24/02 15:10:31  5-MIN KMSN 242110Z 21006KT 8SM CLR 31/17 A3006 740 44 2700 210/06 RMK AO2
14837KMSN MSN20020624151509206/24/02 15:15:31  5-MIN KMSN 242115Z VRB05KT 8SM CLR 31/17 A3006 730 44 2700 VRB/05 RMK AO2
14837KMSN MSN20020624152009206/24/02 15:20:31  5-MIN KMSN 242120Z 26007KT 8SM CLR 31/17 A3006 740 44 2700 260/07 RMK AO2
14837KMSN MSN20020624152509506/24/02 15:25:31  5-MIN KMSN 242125Z 23006KT 7SM FEW090 31/17 A3006 740 44 2700 230/06 RMK AO2
14837KMSN MSN20020624153009506/24/02 15:30:31  5-MIN KMSN 242130Z 21006KT 7SM FEW090 31/17 A3005 740 42 2700 210/06 RMK AO2
14837KMSN MSN20020624153509506/24/02 15:35:31  5-MIN KMSN 242135Z 22008KT 7SM FEW090 31/16 A3005 750 41 2700 220/08 RMK AO2
14837KMSN MSN20020624154009506/24/02 15:40:31  5-MIN KMSN 242140Z 20007KT 7SM FEW090 31/17 A3005 750 42 2700 200/07 RMK AO2
14837KMSN MSN20020624154509506/24/02 15:45:31  5-MIN KMSN 242145Z VRB06KT 7SM FEW090 31/17 A3004 750 42 2700 VRB/06 RMK AO2
14837KMSN MSN20020624155010906/24/02 15:50:31  5-MIN KMSN 242150Z 21008KT 7SM CLR 31/17 A3004 750 42 2700 210/08 RMK AO2 SLP167 T03060167
14837KMSN MSN20020624155509206/24/02 15:55:31  5-MIN KMSN 242155Z 21009KT 7SM CLR 31/17 A3004 760 44 2700 210/09 RMK AO2
14837KMSN MSN20020624160009206/24/02 16:00:31  5-MIN KMSN 242200Z 19010KT 7SM CLR 31/17 A3003 760 42 2700 180/10 RMK AO2
14837KMSN MSN20020624160509506/24/02 16:05:31  5-MIN KMSN 242205Z 20010KT 6SM HZ CLR 31/16 A3003 760 40 2800 190/10 RMK AO2
14837KMSN MSN20020624161009506/24/02 16:10:31  5-MIN KMSN 242210Z 20010KT 6SM HZ CLR 31/16 A3003 770 41 2800 190/10 RMK AO2
14837KMSN MSN20020624161509506/24/02 16:15:31  5-MIN KMSN 242215Z 19013KT 6SM HZ CLR 31/16 A3002 770 41 2800 190/13 RMK AO2
14837KMSN MSN20020624162009506/24/02 16:20:31  5-MIN KMSN 242220Z 18011KT 6SM HZ CLR 31/17 A3002 770 42 2800 180/11 RMK AO2
14837KMSN MSN20020624162510206/24/02 16:25:31  5-MIN KMSN 242225Z 17013KT 6SM HZ CLR 31/17 A3001 780 41 2800 170/13 RMK AO2 PRESFR
14837KMSN MSN20020624163010106/24/02 16:30:31  5-MIN KMSN 242230Z 18015G19KT 6SM HZ CLR 31/16 A3001 790 40 2800 180/15G19 RMK AO2
14837KMSN MSN20020624163509806/24/02 16:35:31  5-MIN KMSN 242235Z 18012G19KT 7SM CLR 31/16 A3001 780 39 2800 180/12G19 RMK AO2
14837KMSN MSN20020624164009806/24/02 16:40:31  5-MIN KMSN 242240Z 21007G18KT 7SM CLR 31/16 A3001 780 39 2800 210/07G18 RMK AO2
14837KMSN MSN20020624164509806/24/02 16:45:31  5-MIN KMSN 242245Z 21009G14KT 7SM CLR 31/16 A3001 780 39 2800 210/09G14 RMK AO2
14837KMSN MSN20020624165010906/24/02 16:50:31  5-MIN KMSN 242250Z 20011KT 7SM CLR 31/16 A3001 790 41 2800 200/11 RMK AO2 SLP155 T03060161
14837KMSN MSN20020624165509806/24/02 16:55:31  5-MIN KMSN 242255Z 20008G16KT 7SM CLR 31/16 A3001 790 41 2800 200/08G16 RMK AO2
14837KMSN MSN20020624170009806/24/02 17:00:31  5-MIN KMSN 242300Z 21008G16KT 7SM CLR 31/17 A3001 780 42 2800 210/08G16 RMK AO2
14837KMSN MSN20020624170509206/24/02 17:05:31  5-MIN KMSN 242305Z 21008KT 7SM CLR 31/16 A3001 790 39 2800 210/08 RMK AO2
14837KMSN MSN20020624171009206/24/02 17:10:31  5-MIN KMSN 242310Z 22008KT 7SM CLR 30/16 A3001 780 41 2700 210/08 RMK AO2
14837KMSN MSN20020624171509806/24/02 17:15:31  5-MIN KMSN 242315Z 21008G16KT 8SM CLR 30/15 A3001 780 39 2700 210/08G16 RMK AO2
14837KMSN MSN20020624172009806/24/02 17:20:31  5-MIN KMSN 242320Z 20010G16KT 7SM CLR 30/16 A3001 780 41 2700 200/10G16 RMK AO2
14837KMSN MSN20020624172509806/24/02 17:25:31  5-MIN KMSN 242325Z 22008G15KT 7SM CLR 30/16 A3001 780 41 2700 220/08G15 RMK AO2
14837KMSN MSN20020624173009206/24/02 17:30:31  5-MIN KMSN 242330Z 19011KT 8SM CLR 30/14 A3001 780 38 2700 190/11 RMK AO2
14837KMSN MSN20020624173509806/24/02 17:35:31  5-MIN KMSN 242335Z 23006G15KT 8SM CLR 30/15 A3001 780 39 2700 220/06G15 RMK AO2
14837KMSN MSN20020624174009206/24/02 17:40:31  5-MIN KMSN 242340Z 22007KT 8SM CLR 30/16 A3001 780 41 2700 220/07 RMK AO2
14837KMSN MSN20020624174509206/24/02 17:45:31  5-MIN KMSN 242345Z 22008KT 8SM CLR 29/16 A3001 780 42 2600 220/08 RMK AO2
14837KMSN MSN20020624175012706/24/02 17:50:31  5-MIN KMSN 242350Z 22005KT 8SM CLR 29/16 A3002 780 44 2600 220/05 RMK AO2 SLP158 T02940161 10311 20294 58021
14837KMSN MSN20020624175509206/24/02 17:55:31  5-MIN KMSN 242355Z 22005KT 8SM CLR 29/16 A3002 770 44 2600 220/05 RMK AO2
14837KMSN MSN20020624180009206/24/02 18:00:31  5-MIN KMSN 250000Z 21006KT 8SM CLR 29/17 A3001 780 45 2600 210/06 RMK AO2
14837KMSN MSN20020624180509206/24/02 18:05:31  5-MIN KMSN 250005Z VRB06KT 8SM CLR 29/17 A3001 780 45 2700 VRB/06 RMK AO2
14837KMSN MSN20020624181009206/24/02 18:10:31  5-MIN KMSN 250010Z 22005KT 8SM CLR 29/17 A3001 780 45 2600 220/05 RMK AO2
14837KMSN MSN20020624181509206/24/02 18:15:31  5-MIN KMSN 250015Z VRB04KT 8SM CLR 29/17 A3002 770 45 2600 VRB/04 RMK AO2
14837KMSN MSN20020624182009206/24/02 18:20:31  5-MIN KMSN 250020Z VRB04KT 8SM CLR 29/17 A3002 770 47 2600 VRB/04 RMK AO2
14837KMSN MSN20020624182509206/24/02 18:25:31  5-MIN KMSN 250025Z 22006KT 8SM CLR 29/17 A3002 770 47 2600 220/06 RMK AO2
14837KMSN MSN20020624183009206/24/02 18:30:31  5-MIN KMSN 250030Z 22006KT 8SM CLR 29/17 A3002 770 48 2600 220/06 RMK AO2
14837KMSN MSN20020624183509206/24/02 18:35:31  5-MIN KMSN 250035Z 21006KT 8SM CLR 29/17 A3002 770 48 2600 210/06 RMK AO2
14837KMSN MSN20020624184009206/24/02 18:40:31  5-MIN KMSN 250040Z 20007KT 8SM CLR 29/17 A3002 770 48 2600 200/07 RMK AO2
14837KMSN MSN20020624184509206/24/02 18:45:31  5-MIN KMSN 250045Z 21006KT 8SM CLR 29/17 A3002 770 47 2600 210/06 RMK AO2
14837KMSN MSN20020624185010906/24/02 18:50:31  5-MIN KMSN 250050Z 21006KT 8SM CLR 29/17 A3002 770 47 2600 210/06 RMK AO2 SLP159 T02890167
14837KMSN MSN20020624185509206/24/02 18:55:31  5-MIN KMSN 250055Z 22007KT 8SM CLR 28/17 A3002 770 48 2500 220/07 RMK AO2
14837KMSN MSN20020624190009206/24/02 19:00:31  5-MIN KMSN 250100Z 21006KT 8SM CLR 28/17 A3003 770 48 2500 210/06 RMK AO2
14837KMSN MSN20020624190509206/24/02 19:05:31  5-MIN KMSN 250105Z 22006KT 7SM CLR 28/17 A3003 760 48 2500 220/06 RMK AO2
14837KMSN MSN20020624191009206/24/02 19:10:31  5-MIN KMSN 250110Z 22006KT 7SM CLR 28/17 A3003 760 48 2500 220/06 RMK AO2
14837KMSN MSN20020624191509206/24/02 19:15:31  5-MIN KMSN 250115Z 23003KT 7SM CLR 28/17 A3004 760 48 2500 230/03 RMK AO2
14837KMSN MSN20020624192009206/24/02 19:20:31  5-MIN KMSN 250120Z VRB04KT 7SM CLR 28/17 A3004 750 50 2400 VRB/04 RMK AO2
14837KMSN MSN20020624192509206/24/02 19:25:31  5-MIN KMSN 250125Z 25003KT 7SM CLR 28/17 A3004 750 52 2400 250/03 RMK AO2
14837KMSN MSN20020624193009206/24/02 19:30:31  5-MIN KMSN 250130Z 24003KT 7SM CLR 27/17 A3005 750 55 2300 240/03 RMK AO2
14837KMSN MSN20020624193509206/24/02 19:35:31  5-MIN KMSN 250135Z 00000KT 7SM CLR 26/17 A3005 750 57 2200 000/00 RMK AO2
14837KMSN MSN20020624194009206/24/02 19:40:31  5-MIN KMSN 250140Z 23003KT 8SM CLR 26/18 A3005 750 59 2200 230/03 RMK AO2
14837KMSN MSN20020624194509206/24/02 19:45:31  5-MIN KMSN 250145Z 24004KT 8SM CLR 26/18 A3005 740 61 2200 240/04 RMK AO2
14837KMSN MSN20020624195011206/24/02 19:50:31  5-MIN KMSN 250150Z 23003KT 6SM HZ CLR 24/18 A3006 740 68 2000 230/03 RMK AO2 SLP172 T02390178
14837KMSN MSN20020624195509506/24/02 19:55:31  5-MIN KMSN 250155Z 00000KT 6SM HZ CLR 25/18 A3006 730 64 2100 000/00 RMK AO2
14837KMSN MSN20020624200009206/24/02 20:00:31  5-MIN KMSN 250200Z 00000KT 7SM CLR 24/18 A3007 730 68 2000 000/00 RMK AO2
14837KMSN MSN20020624200509506/24/02 20:05:31  5-MIN KMSN 250205Z 00000KT 6SM HZ CLR 23/18 A3007 720 70 1900 000/00 RMK AO2
14837KMSN MSN20020624201010206/24/02 20:10:31  5-MIN KMSN 250210Z 31003KT 6SM HZ CLR 23/18 A3008 720 70 1900 310/03 RMK AO2 PRESRR
14837KMSN MSN20020624201509506/24/02 20:15:31  5-MIN KMSN 250215Z 00000KT 6SM HZ CLR 23/18 A3008 710 70 1900 000/00 RMK AO2
14837KMSN MSN20020624202009506/24/02 20:20:31  5-MIN KMSN 250220Z 00000KT 6SM HZ CLR 23/18 A3009 710 76 1800 000/00 RMK AO2
14837KMSN MSN20020624202509506/24/02 20:25:31  5-MIN KMSN 250225Z 00000KT 6SM HZ CLR 23/18 A3009 710 73 1900 000/00 RMK AO2
14837KMSN MSN20020624203009506/24/02 20:30:31  5-MIN KMSN 250230Z 00000KT 6SM HZ CLR 23/18 A3009 710 76 1800 000/00 RMK AO2
14837KMSN MSN20020624203509506/24/02 20:35:31  5-MIN KMSN 250235Z 00000KT 6SM HZ CLR 22/18 A3009 700 78 1700 000/00 RMK AO2
14837KMSN MSN20020624204009506/24/02 20:40:31  5-MIN KMSN 250240Z 00000KT 6SM HZ CLR 23/18 A3009 700 76 1800 000/00 RMK AO2
14837KMSN MSN20020624204509506/24/02 20:45:31  5-MIN KMSN 250245Z 00000KT 6SM HZ CLR 22/18 A3010 700 78 1700 000/00 RMK AO2
14837KMSN MSN20020624205011506/24/02 20:50:31  5-MIN KMSN 250250Z 00000KT 7SM CLR 22/18 A3009 700 81 1700 000/00 RMK AO2 SLP186 T02170183 55013
14837KMSN MSN20020624205509506/24/02 20:55:31  5-MIN KMSN 250255Z 00000KT 6SM HZ CLR 22/18 A3009 710 78 1700 000/00 RMK AO2
14837KMSN MSN20020624210009506/24/02 21:00:31  5-MIN KMSN 250300Z 00000KT 6SM HZ CLR 22/18 A3009 710 78 1800 000/00 RMK AO2
14837KMSN MSN20020624210509506/24/02 21:05:31  5-MIN KMSN 250305Z 00000KT 6SM HZ CLR 22/18 A3008 710 78 1800 000/00 RMK AO2
14837KMSN MSN20020624211009506/24/02 21:10:31  5-MIN KMSN 250310Z 00000KT 6SM HZ CLR 22/18 A3008 720 81 1700 000/00 RMK AO2
14837KMSN MSN20020624211509506/24/02 21:15:31  5-MIN KMSN 250315Z 00000KT 6SM HZ CLR 22/18 A3008 720 78 1700 000/00 RMK AO2
14837KMSN MSN20020624212009506/24/02 21:20:31  5-MIN KMSN 250320Z 00000KT 6SM HZ CLR 22/18 A3008 720 78 1700 000/00 RMK AO2
14837KMSN MSN20020624212509506/24/02 21:25:31  5-MIN KMSN 250325Z 00000KT 6SM HZ CLR 22/18 A3007 720 81 1700 000/00 RMK AO2
14837KMSN MSN20020624213009506/24/02 21:30:31  5-MIN KMSN 250330Z 00000KT 6SM HZ CLR 22/18 A3007 720 78 1800 000/00 RMK AO2
14837KMSN MSN20020624213509506/24/02 21:35:31  5-MIN KMSN 250335Z 00000KT 6SM HZ CLR 22/18 A3007 720 81 1700 000/00 RMK AO2
14837KMSN MSN20020624214009506/24/02 21:40:31  5-MIN KMSN 250340Z 00000KT 6SM HZ CLR 21/18 A3007 720 84 1600 000/00 RMK AO2
14837KMSN MSN20020624214509506/24/02 21:45:31  5-MIN KMSN 250345Z 00000KT 5SM HZ CLR 21/18 A3007 720 84 1600 000/00 RMK AO2
14837KMSN MSN20020624215011206/24/02 21:50:31  5-MIN KMSN 250350Z 00000KT 6SM BR CLR 21/18 A3007 730 87 1600 000/00 RMK AO2 SLP177 T02060183
14837KMSN MSN20020624215509506/24/02 21:55:31  5-MIN KMSN 250355Z 00000KT 6SM HZ CLR 21/18 A3007 730 84 1600 000/00 RMK AO2
14837KMSN MSN20020624220009506/24/02 22:00:31  5-MIN KMSN 250400Z 00000KT 6SM BR CLR 21/18 A3007 730 87 1600 000/00 RMK AO2
14837KMSN MSN20020624220509506/24/02 22:05:31  5-MIN KMSN 250405Z 00000KT 6SM BR CLR 21/18 A3007 730 87 1600 000/00 RMK AO2
14837KMSN MSN20020624221009506/24/02 22:10:31  5-MIN KMSN 250410Z 00000KT 6SM BR CLR 21/18 A3007 730 87 1600 000/00 RMK AO2
14837KMSN MSN20020624221509506/24/02 22:15:31  5-MIN KMSN 250415Z 00000KT 6SM HZ CLR 21/18 A3007 730 84 1700 000/00 RMK AO2
14837KMSN MSN20020624222009506/24/02 22:20:31  5-MIN KMSN 250420Z 00000KT 6SM HZ CLR 22/18 A3006 730 81 1700 000/00 RMK AO2
14837KMSN MSN20020624222509506/24/02 22:25:31  5-MIN KMSN 250425Z 00000KT 6SM HZ CLR 22/18 A3006 730 81 1700 000/00 RMK AO2
14837KMSN MSN20020624223009506/24/02 22:30:31  5-MIN KMSN 250430Z 00000KT 6SM BR CLR 20/18 A3007 730 90 1500 000/00 RMK AO2
14837KMSN MSN20020624223509506/24/02 22:35:31  5-MIN KMSN 250435Z 00000KT 6SM BR CLR 20/18 A3006 730 90 1500 000/00 RMK AO2
14837KMSN MSN20020624224009506/24/02 22:40:31  5-MIN KMSN 250440Z 00000KT 5SM HZ CLR 21/18 A3006 740 84 1700 000/00 RMK AO2
14837KMSN MSN20020624224509506/24/02 22:45:31  5-MIN KMSN 250445Z 00000KT 5SM HZ CLR 21/18 A3006 740 84 1700 000/00 RMK AO2
14837KMSN MSN20020624225011206/24/02 22:50:31  5-MIN KMSN 250450Z 00000KT 5SM BR CLR 20/18 A3005 740 90 1500 000/00 RMK AO2 SLP172 T02000183
14837KMSN MSN20020624225509506/24/02 22:55:31  5-MIN KMSN 250455Z 18003KT 5SM BR CLR 21/18 A3005 750 87 1600 180/03 RMK AO2
14837KMSN MSN20020624230009506/24/02 23:00:31  5-MIN KMSN 250500Z 18004KT 5SM HZ CLR 21/18 A3004 750 84 1700 180/04 RMK AO2
14837KMSN MSN20020624230509506/24/02 23:05:31  5-MIN KMSN 250505Z 19003KT 5SM HZ CLR 21/18 A3004 750 84 1700 190/03 RMK AO2
14837KMSN MSN20020624231009506/24/02 23:10:31  5-MIN KMSN 250510Z 18003KT 5SM HZ CLR 21/18 A3004 750 84 1700 180/03 RMK AO2
14837KMSN MSN20020624231509506/24/02 23:15:31  5-MIN KMSN 250515Z 18004KT 5SM HZ CLR 22/18 A3004 760 81 1700 170/04 RMK AO2
14837KMSN MSN20020624232009506/24/02 23:20:31  5-MIN KMSN 250520Z 18004KT 5SM HZ CLR 22/19 A3003 760 81 1800 180/04 RMK AO2
14837KMSN MSN20020624232509506/24/02 23:25:31  5-MIN KMSN 250525Z 18006KT 5SM HZ CLR 23/19 A3003 770 81 1900 180/06 RMK AO2
14837KMSN MSN20020624233009506/24/02 23:30:31  5-MIN KMSN 250530Z 18006KT 5SM HZ CLR 23/19 A3003 760 78 1900 180/06 RMK AO2
14837KMSN MSN20020624233509506/24/02 23:35:31  5-MIN KMSN 250535Z VRB04KT 5SM HZ CLR 23/19 A3003 760 81 1900 VRB/04 RMK AO2
14837KMSN MSN20020624234009506/24/02 23:40:31  5-MIN KMSN 250540Z 00000KT 5SM HZ CLR 23/19 A3003 760 78 1900 000/00 RMK AO2
14837KMSN MSN20020624234509506/24/02 23:45:31  5-MIN KMSN 250545Z 00000KT 5SM HZ CLR 22/19 A3003 760 81 1800 000/00 RMK AO2
14837KMSN MSN20020624235014006/24/02 23:50:31  5-MIN KMSN 250550Z 20003KT 5SM HZ CLR 21/18 A3003 760 84 1700 200/03 RMK AO2 SLP164 T02110183 10294 20200 403110167 53025
14837KMSN MSN20020624235509506/24/02 23:55:31  5-MIN KMSN 250555Z 20003KT 5SM BR CLR 21/19 A3004 760 87 1700 200/03 RMK AO2
14837KMSN MSN20020625000009506/25/02 00:00:31  5-MIN KMSN 250600Z 21003KT 5SM BR CLR 21/19 A3004 760 87 1700 210/03 RMK AO2
14837KMSN MSN20020625000509506/25/02 00:05:31  5-MIN KMSN 250605Z 00000KT 5SM BR CLR 20/18 A3003 760 90 1600 000/00 RMK AO2
14837KMSN MSN20020625001009506/25/02 00:10:31  5-MIN KMSN 250610Z 23003KT 5SM BR CLR 21/19 A3004 760 90 1600 220/03 RMK AO2
14837KMSN MSN20020625001509506/25/02 00:15:31  5-MIN KMSN 250615Z 20004KT 5SM HZ CLR 22/19 A3003 760 81 1800 190/04 RMK AO2
14837KMSN MSN20020625002009506/25/02 00:20:31  5-MIN KMSN 250620Z 20004KT 6SM HZ CLR 23/18 A3003 760 76 1900 200/04 RMK AO2
14837KMSN MSN20020625002509506/25/02 00:25:31  5-MIN KMSN 250625Z VRB05KT 6SM HZ CLR 23/18 A3003 760 73 1900 VRB/05 RMK AO2
14837KMSN MSN20020625003009506/25/02 00:30:31  5-MIN KMSN 250630Z VRB04KT 6SM HZ CLR 23/18 A3003 760 73 1900 VRB/04 RMK AO2
14837KMSN MSN20020625003509506/25/02 00:35:31  5-MIN KMSN 250635Z 31003KT 6SM HZ CLR 23/18 A3003 760 73 1900 310/03 RMK AO2
14837KMSN MSN20020625004009506/25/02 00:40:31  5-MIN KMSN 250640Z 29004KT 6SM HZ CLR 23/18 A3003 760 76 1900 290/04 RMK AO2
14837KMSN MSN20020625004509506/25/02 00:45:31  5-MIN KMSN 250645Z VRB04KT 6SM HZ CLR 23/19 A3003 760 76 1900 VRB/04 RMK AO2
14837KMSN MSN20020625005011206/25/02 00:50:31  5-MIN KMSN 250650Z VRB04KT 6SM HZ CLR 23/19 A3003 760 76 1900 VRB/04 RMK AO2 SLP162 T02330189
14837KMSN MSN20020625005509506/25/02 00:55:31  5-MIN KMSN 250655Z VRB04KT 6SM HZ CLR 23/18 A3003 760 73 1900 VRB/04 RMK AO2
14837KMSN MSN20020625010009506/25/02 01:00:31  5-MIN KMSN 250700Z VRB05KT 6SM HZ CLR 23/18 A3003 760 76 1900 VRB/05 RMK AO2
14837KMSN MSN20020625010509506/25/02 01:05:31  5-MIN KMSN 250705Z VRB04KT 6SM HZ CLR 23/18 A3003 760 73 1900 VRB/04 RMK AO2
14837KMSN MSN20020625011009506/25/02 01:10:31  5-MIN KMSN 250710Z 18003KT 6SM HZ CLR 23/18 A3003 770 76 1900 180/03 RMK AO2
14837KMSN MSN20020625011509506/25/02 01:15:31  5-MIN KMSN 250715Z 00000KT 6SM HZ CLR 22/18 A3002 770 75 1800 000/00 RMK AO2
14837KMSN MSN20020625012009506/25/02 01:20:31  5-MIN KMSN 250720Z 25003KT 5SM HZ CLR 22/18 A3002 770 78 1800 250/03 RMK AO2
14837KMSN MSN20020625012509506/25/02 01:25:31  5-MIN KMSN 250725Z 23003KT 6SM HZ CLR 22/18 A3002 770 78 1800 230/03 RMK AO2
14837KMSN MSN20020625013009506/25/02 01:30:31  5-MIN KMSN 250730Z 24004KT 6SM HZ CLR 23/18 A3002 770 76 1900 240/04 RMK AO2
14837KMSN MSN20020625013509506/25/02 01:35:31  5-MIN KMSN 250735Z 23005KT 6SM HZ CLR 23/18 A3002 770 70 2000 230/05 RMK AO2
14837KMSN MSN20020625014009506/25/02 01:40:31  5-MIN KMSN 250740Z VRB05KT 6SM HZ CLR 23/18 A3002 770 70 2000 VRB/05 RMK AO2
14837KMSN MSN20020625014509506/25/02 01:45:31  5-MIN KMSN 250745Z 21005KT 6SM HZ CLR 23/18 A3002 780 73 2000 210/05 RMK AO2
14837KMSN MSN20020625015011206/25/02 01:50:31  5-MIN KMSN 250750Z 20005KT 6SM HZ CLR 23/18 A3001 780 73 1900 200/05 RMK AO2 SLP156 T02280178
14837KMSN MSN20020625015509506/25/02 01:55:31  5-MIN KMSN 250755Z 20006KT 6SM HZ CLR 23/18 A3001 780 70 2000 200/06 RMK AO2
14837KMSN MSN20020625020009506/25/02 02:00:31  5-MIN KMSN 250800Z VRB04KT 6SM HZ CLR 23/18 A3001 780 70 2000 VRB/04 RMK AO2
14837KMSN MSN20020625020509506/25/02 02:05:31  5-MIN KMSN 250805Z 23004KT 6SM HZ CLR 23/18 A3002 780 70 2000 230/04 RMK AO2
14837KMSN MSN20020625021009506/25/02 02:10:31  5-MIN KMSN 250810Z 22005KT 6SM HZ CLR 23/18 A3002 770 70 2000 220/05 RMK AO2
14837KMSN MSN20020625021509506/25/02 02:15:31  5-MIN KMSN 250815Z 22006KT 6SM HZ CLR 23/18 A3002 780 70 2000 220/06 RMK AO2
14837KMSN MSN20020625022009506/25/02 02:20:31  5-MIN KMSN 250820Z 22005KT 6SM HZ CLR 23/18 A3002 770 70 2000 220/05 RMK AO2
14837KMSN MSN20020625022509506/25/02 02:25:31  5-MIN KMSN 250825Z 22005KT 6SM HZ CLR 23/18 A3002 770 70 2000 220/05 RMK AO2
14837KMSN MSN20020625023009506/25/02 02:30:31  5-MIN KMSN 250830Z 22003KT 6SM HZ CLR 23/18 A3003 760 73 1900 220/03 RMK AO2
14837KMSN MSN20020625023510206/25/02 02:35:31  5-MIN KMSN 250835Z 23003KT 6SM HZ CLR 23/18 A3004 760 73 1900 230/03 RMK AO2 PRESRR
14837KMSN MSN20020625024009506/25/02 02:40:31  5-MIN KMSN 250840Z 21006KT 6SM HZ CLR 23/18 A3004 760 70 1900 210/06 RMK AO2
14837KMSN MSN20020625024509506/25/02 02:45:31  5-MIN KMSN 250845Z 22006KT 6SM HZ CLR 23/18 A3004 760 70 1900 220/06 RMK AO2
14837KMSN MSN20020625025011806/25/02 02:50:31  5-MIN KMSN 250850Z 23003KT 6SM HZ CLR 23/18 A3004 750 70 1900 230/03 RMK AO2 SLP166 T02330178 56020
14837KMSN MSN20020625025509506/25/02 02:55:31  5-MIN KMSN 250855Z 23006KT 6SM HZ CLR 23/18 A3005 750 70 1900 230/06 RMK AO2
14837KMSN MSN20020625030009506/25/02 03:00:31  5-MIN KMSN 250900Z 24003KT 6SM HZ CLR 23/18 A3005 740 70 1900 240/03 RMK AO2
14837KMSN MSN20020625030509506/25/02 03:05:31  5-MIN KMSN 250905Z 00000KT 6SM HZ CLR 23/18 A3005 740 70 1900 000/00 RMK AO2
14837KMSN MSN20020625031009506/25/02 03:10:31  5-MIN KMSN 250910Z 22003KT 6SM HZ CLR 23/18 A3006 740 73 1900 220/03 RMK AO2
14837KMSN MSN20020625031509506/25/02 03:15:31  5-MIN KMSN 250915Z VRB03KT 6SM HZ CLR 23/18 A3006 740 73 1800 VRB/03 RMK AO2
14837KMSN MSN20020625032009506/25/02 03:20:31  5-MIN KMSN 250920Z VRB05KT 6SM HZ CLR 23/18 A3006 740 73 1800 VRB/05 RMK AO2
14837KMSN MSN20020625032509506/25/02 03:25:31  5-MIN KMSN 250925Z 24004KT 6SM HZ CLR 23/18 A3006 730 70 1900 230/04 RMK AO2
14837KMSN MSN20020625033009506/25/02 03:30:31  5-MIN KMSN 250930Z 22005KT 6SM HZ CLR 23/18 A3006 730 70 1900 210/05 RMK AO2
14837KMSN MSN20020625033509506/25/02 03:35:31  5-MIN KMSN 250935Z 22005KT 6SM HZ CLR 23/18 A3006 730 70 1900 220/05 RMK AO2
14837KMSN MSN20020625034009506/25/02 03:40:31  5-MIN KMSN 250940Z 22004KT 6SM HZ CLR 23/18 A3006 730 70 1900 220/04 RMK AO2
14837KMSN MSN20020625034509806/25/02 03:45:31  5-MIN KMSN 250945Z 00000KT 6SM HZ FEW050 23/18 A3007 730 73 1800 000/00 RMK AO2
14837KMSN MSN20020625035011506/25/02 03:50:31  5-MIN KMSN 250950Z 00000KT 5SM HZ FEW050 22/18 A3007 730 75 1800 000/00 RMK AO2 SLP176 T02220178
14837KMSN MSN20020625035509806/25/02 03:55:31  5-MIN KMSN 250955Z 00000KT 5SM HZ SCT050 22/18 A3007 730 75 1800 000/00 RMK AO2
14837KMSN MSN20020625040009806/25/02 04:00:31  5-MIN KMSN 251000Z 00000KT 6SM HZ BKN050 22/18 A3007 730 75 1800 000/00 RMK AO2
14837KMSN MSN20020625040509806/25/02 04:05:31  5-MIN KMSN 251005Z 21004KT 5SM HZ BKN050 22/18 A3007 730 78 1800 210/04 RMK AO2
14837KMSN MSN20020625041009806/25/02 04:10:31  5-MIN KMSN 251010Z 21005KT 6SM HZ BKN050 23/18 A3006 730 76 1800 210/05 RMK AO2
14837KMSN MSN20020625041509806/25/02 04:15:31  5-MIN KMSN 251015Z 21004KT 6SM HZ SCT050 23/18 A3006 730 76 1800 210/04 RMK AO2
14837KMSN MSN20020625042009806/25/02 04:20:31  5-MIN KMSN 251020Z 21003KT 5SM HZ SCT050 22/18 A3006 730 81 1700 210/03 RMK AO2
14837KMSN MSN20020625042509806/25/02 04:25:31  5-MIN KMSN 251025Z 20003KT 5SM HZ FEW050 22/18 A3006 740 78 1800 200/03 RMK AO2
14837KMSN MSN20020625043009806/25/02 04:30:31  5-MIN KMSN 251030Z 20004KT 4SM HZ FEW050 22/18 A3006 730 81 1700 200/04 RMK AO2
14837KMSN MSN20020625043509506/25/02 04:35:31  5-MIN KMSN 251035Z 21005KT 4SM HZ CLR 23/18 A3006 730 76 1800 210/05 RMK AO2
14837KMSN MSN20020625044009506/25/02 04:40:31  5-MIN KMSN 251040Z 21005KT 4SM HZ CLR 23/18 A3006 730 76 1800 210/05 RMK AO2
14837KMSN MSN20020625044509506/25/02 04:45:31  5-MIN KMSN 251045Z 21006KT 4SM HZ CLR 23/18 A3006 730 76 1800 210/06 RMK AO2
14837KMSN MSN20020625045011206/25/02 04:50:31  5-MIN KMSN 251050Z 21005KT 4SM HZ CLR 23/18 A3006 740 76 1800 210/05 RMK AO2 SLP172 T02280183
14837KMSN MSN20020625045509506/25/02 04:55:31  5-MIN KMSN 251055Z 20004KT 4SM HZ CLR 23/18 A3006 740 76 1900 200/04 RMK AO2
14837KMSN MSN20020625050009506/25/02 05:00:31  5-MIN KMSN 251100Z 20005KT 4SM HZ CLR 23/18 A3006 740 76 1800 200/05 RMK AO2
14837KMSN MSN20020625050509506/25/02 05:05:31  5-MIN KMSN 251105Z 20004KT 4SM HZ CLR 23/18 A3006 740 73 1900 200/04 RMK AO2
14837KMSN MSN20020625051009506/25/02 05:10:31  5-MIN KMSN 251110Z 20003KT 4SM HZ CLR 23/18 A3006 740 76 1800 200/03 RMK AO2
14837KMSN MSN20020625051509506/25/02 05:15:31  5-MIN KMSN 251115Z 18005KT 4SM HZ CLR 23/18 A3006 740 76 1800 180/05 RMK AO2
14837KMSN MSN20020625052009506/25/02 05:20:31  5-MIN KMSN 251120Z 19006KT 4SM HZ CLR 22/18 A3006 740 78 1800 190/06 RMK AO2
14837KMSN MSN20020625052509506/25/02 05:25:31  5-MIN KMSN 251125Z 19006KT 4SM HZ CLR 23/19 A3006 740 78 1900 180/06 RMK AO2
14837KMSN MSN20020625053009506/25/02 05:30:31  5-MIN KMSN 251130Z 19007KT 4SM HZ CLR 23/19 A3005 740 78 1900 190/07 RMK AO2
14837KMSN MSN20020625053509506/25/02 05:35:31  5-MIN KMSN 251135Z 19007KT 4SM HZ CLR 23/19 A3005 750 78 1900 190/07 RMK AO2
14837KMSN MSN20020625054009506/25/02 05:40:31  5-MIN KMSN 251140Z 20005KT 4SM HZ CLR 23/19 A3004 750 78 1900 200/05 RMK AO2
14837KMSN MSN20020625054509506/25/02 05:45:31  5-MIN KMSN 251145Z 19005KT 4SM HZ CLR 23/19 A3004 750 76 1900 190/05 RMK AO2
14837KMSN MSN20020625055013006/25/02 05:50:31  5-MIN KMSN 251150Z 19004KT 4SM HZ CLR 23/19 A3004 750 76 1900 190/04 RMK AO2 SLP166 T02330189 10239 20200 53004
14837KMSN MSN20020625055509506/25/02 05:55:31  5-MIN KMSN 251155Z 20005KT 4SM HZ CLR 23/19 A3004 750 76 1900 200/05 RMK AO2
14837KMSN MSN20020625060009506/25/02 06:00:31  5-MIN KMSN 251200Z 19005KT 4SM HZ CLR 24/19 A3004 750 73 2000 190/05 RMK AO2
14837KMSN MSN20020625060509506/25/02 06:05:31  5-MIN KMSN 251205Z 21005KT 4SM HZ CLR 24/19 A3004 750 73 2000 210/05 RMK AO2
14837KMSN MSN20020625061009506/25/02 06:10:31  5-MIN KMSN 251210Z 21005KT 4SM HZ CLR 24/19 A3004 750 73 2000 210/05 RMK AO2
14837KMSN MSN20020625061509506/25/02 06:15:31  5-MIN KMSN 251215Z 21004KT 4SM HZ CLR 24/19 A3004 750 76 2000 210/04 RMK AO2
14837KMSN MSN20020625062009506/25/02 06:20:31  5-MIN KMSN 251220Z 21006KT 4SM HZ CLR 24/19 A3004 750 73 2100 210/06 RMK AO2
14837KMSN MSN20020625062509506/25/02 06:25:31  5-MIN KMSN 251225Z 21005KT 5SM HZ CLR 24/19 A3004 750 73 2100 210/05 RMK AO2
14837KMSN MSN20020625063009506/25/02 06:30:31  5-MIN KMSN 251230Z 21004KT 5SM HZ CLR 24/19 A3004 750 73 2100 210/04 RMK AO2
14837KMSN MSN20020625063509506/25/02 06:35:31  5-MIN KMSN 251235Z 20005KT 5SM HZ CLR 25/19 A3004 750 71 2100 200/05 RMK AO2
14837KMSN MSN20020625064009506/25/02 06:40:31  5-MIN KMSN 251240Z 21004KT 5SM HZ CLR 25/19 A3004 750 71 2100 210/04 RMK AO2
14837KMSN MSN20020625064509506/25/02 06:45:31  5-MIN KMSN 251245Z 21005KT 5SM HZ CLR 25/19 A3004 750 71 2100 210/05 RMK AO2
14837KMSN MSN20020625065011206/25/02 06:50:31  5-MIN KMSN 251250Z 22005KT 5SM HZ CLR 25/20 A3005 750 73 2100 220/05 RMK AO2 SLP167 T02500200
14837KMSN MSN20020625065509506/25/02 06:55:31  5-MIN KMSN 251255Z 22005KT 5SM HZ CLR 25/19 A3005 750 71 2100 220/05 RMK AO2
14837KMSN MSN20020625070009506/25/02 07:00:31  5-MIN KMSN 251300Z 23004KT 5SM HZ CLR 26/20 A3005 750 71 2200 230/04 RMK AO2
14837KMSN MSN20020625070509506/25/02 07:05:31  5-MIN KMSN 251305Z 23006KT 5SM HZ CLR 26/19 A3005 750 68 2200 230/06 RMK AO2
14837KMSN MSN20020625071009506/25/02 07:10:31  5-MIN KMSN 251310Z 22005KT 6SM HZ CLR 26/19 A3005 740 68 2200 220/05 RMK AO2
14837KMSN MSN20020625071509506/25/02 07:15:31  5-MIN KMSN 251315Z VRB04KT 6SM HZ CLR 26/20 A3005 740 71 2200 VRB/04 RMK AO2
14837KMSN MSN20020625072009506/25/02 07:20:31  5-MIN KMSN 251320Z 22006KT 6SM HZ CLR 26/20 A3005 740 68 2200 220/06 RMK AO2
14837KMSN MSN20020625072509506/25/02 07:25:31  5-MIN KMSN 251325Z 23005KT 6SM HZ CLR 26/20 A3005 740 71 2200 230/05 RMK AO2
14837KMSN MSN20020625073009506/25/02 07:30:31  5-MIN KMSN 251330Z 22006KT 6SM HZ CLR 26/20 A3006 740 68 2200 220/06 RMK AO2
14837KMSN MSN20020625073509506/25/02 07:35:31  5-MIN KMSN 251335Z 23005KT 6SM HZ CLR 26/20 A3005 740 68 2200 230/05 RMK AO2
14837KMSN MSN20020625074009506/25/02 07:40:31  5-MIN KMSN 251340Z 23005KT 6SM HZ CLR 27/20 A3005 740 66 2300 230/05 RMK AO2
14837KMSN MSN20020625074509506/25/02 07:45:31  5-MIN KMSN 251345Z 22006KT 6SM HZ CLR 26/20 A3005 740 68 2200 220/06 RMK AO2
14837KMSN MSN20020625075011206/25/02 07:50:31  5-MIN KMSN 251350Z 22005KT 6SM HZ CLR 27/20 A3005 740 66 2300 220/05 RMK AO2 SLP171 T02670200
14837KMSN MSN20020625075509506/25/02 07:55:31  5-MIN KMSN 251355Z 23005KT 6SM HZ CLR 27/20 A3006 740 66 2300 230/05 RMK AO2
14837KMSN MSN20020625080009506/25/02 08:00:31  5-MIN KMSN 251400Z 23006KT 6SM HZ CLR 27/21 A3005 740 66 2400 230/06 RMK AO2
14837KMSN MSN20020625080509506/25/02 08:05:31  5-MIN KMSN 251405Z 22006KT 6SM HZ CLR 27/21 A3005 740 66 2400 220/06 RMK AO2
14837KMSN MSN20020625081009506/25/02 08:10:31  5-MIN KMSN 251410Z 22007KT 6SM HZ CLR 27/20 A3005 750 64 2400 220/07 RMK AO2
14837KMSN MSN20020625081509506/25/02 08:15:31  5-MIN KMSN 251415Z 21006KT 6SM HZ CLR 27/21 A3005 750 66 2400 210/06 RMK AO2
14837KMSN MSN20020625082009506/25/02 08:20:31  5-MIN KMSN 251420Z 22006KT 6SM HZ CLR 28/21 A3005 750 64 2400 220/06 RMK AO2
14837KMSN MSN20020625082509206/25/02 08:25:31  5-MIN KMSN 251425Z VRB05KT 7SM CLR 28/21 A3004 750 64 2400 VRB/05 RMK AO2
14837KMSN MSN20020625083009206/25/02 08:30:31  5-MIN KMSN 251430Z VRB04KT 7SM CLR 28/21 A3004 750 64 2400 VRB/04 RMK AO2
14837KMSN MSN20020625083509506/25/02 08:35:31  5-MIN KMSN 251435Z 23007KT 6SM HZ CLR 28/21 A3005 750 64 2400 220/07 RMK AO2
14837KMSN MSN20020625084009206/25/02 08:40:31  5-MIN KMSN 251440Z VRB06KT 7SM CLR 28/21 A3004 750 64 2400 VRB/06 RMK AO2
14837KMSN MSN20020625084509206/25/02 08:45:31  5-MIN KMSN 251445Z VRB06KT 7SM CLR 28/21 A3004 750 64 2400 VRB/06 RMK AO2
14837KMSN MSN20020625085011506/25/02 08:50:31  5-MIN KMSN 251450Z 23007KT 8SM CLR 28/21 A3004 750 62 2500 220/07 RMK AO2 SLP167 T02830206 58001
14837KMSN MSN20020625085509206/25/02 08:55:31  5-MIN KMSN 251455Z VRB06KT 7SM CLR 28/21 A3004 750 62 2500 VRB/06 RMK AO2
14837KMSN MSN20020625090009206/25/02 09:00:31  5-MIN KMSN 251500Z 21005KT 8SM CLR 28/21 A3004 750 62 2500 210/05 RMK AO2
14837KMSN MSN20020625090509206/25/02 09:05:31  5-MIN KMSN 251505Z VRB05KT 8SM CLR 29/21 A3004 750 60 2600 VRB/05 RMK AO2
14837KMSN MSN20020625091009206/25/02 09:10:31  5-MIN KMSN 251510Z 21007KT 8SM CLR 29/21 A3004 750 60 2600 210/07 RMK AO2
14837KMSN MSN20020625091509206/25/02 09:15:31  5-MIN KMSN 251515Z 23008KT 8SM CLR 28/21 A3005 750 62 2500 230/08 RMK AO2
14837KMSN MSN20020625092010906/25/02 09:20:31  5-MIN KMSN 251520Z 22008KT 190V260 10SM CLR 29/21 A3005 750 60 2500 220/08 190V260 RMK AO2
14837KMSN MSN20020625092509306/25/02 09:25:31  5-MIN KMSN 251525Z 22007KT 10SM CLR 29/20 A3005 750 58 2500 220/07 RMK AO2
14837KMSN MSN20020625093009306/25/02 09:30:31  5-MIN KMSN 251530Z 22009KT 10SM CLR 29/20 A3005 750 58 2500 220/09 RMK AO2
14837KMSN MSN20020625093509306/25/02 09:35:31  5-MIN KMSN 251535Z VRB06KT 10SM CLR 29/21 A3005 740 60 2500 VRB/06 RMK AO2
14837KMSN MSN20020625094009306/25/02 09:40:31  5-MIN KMSN 251540Z 22007KT 10SM CLR 29/20 A3005 750 58 2500 220/07 RMK AO2
14837KMSN MSN20020625094510906/25/02 09:45:31  5-MIN KMSN 251545Z 22007KT 180V260 10SM CLR 29/20 A3005 740 56 2600 220/07 180V260 RMK AO2
14837KMSN MSN20020625095011006/25/02 09:50:31  5-MIN KMSN 251550Z 24006KT 10SM CLR 29/21 A3005 740 58 2600 240/06 RMK AO2 SLP170 T02940206
14837KMSN MSN20020625095509206/25/02 09:55:31  5-MIN KMSN 251555Z 22006KT 8SM CLR 29/21 A3005 750 58 2600 220/06 RMK AO2
14837KMSN MSN20020625100009306/25/02 10:00:31  5-MIN KMSN 251600Z 22008KT 10SM CLR 29/21 A3005 750 58 2600 220/08 RMK AO2
14837KMSN MSN20020625100509606/25/02 10:05:31  5-MIN KMSN 251605Z 22005KT 10SM FEW035 30/21 A3005 750 56 2700 220/05 RMK AO2
14837KMSN MSN20020625101009606/25/02 10:10:31  5-MIN KMSN 251610Z 22008KT 10SM FEW035 29/20 A3005 750 56 2600 220/08 RMK AO2
14837KMSN MSN20020625101509606/25/02 10:15:31  5-MIN KMSN 251615Z 22007KT 10SM FEW035 29/20 A3005 750 56 2600 220/07 RMK AO2
14837KMSN MSN20020625102009606/25/02 10:20:31  5-MIN KMSN 251620Z 21010KT 10SM FEW035 30/20 A3005 750 54 2700 210/10 RMK AO2
14837KMSN MSN20020625102509606/25/02 10:25:31  5-MIN KMSN 251625Z 22008KT 10SM FEW035 30/20 A3004 750 54 2700 220/08 RMK AO2
14837KMSN MSN20020625103009606/25/02 10:30:31  5-MIN KMSN 251630Z 24007KT 10SM FEW035 30/20 A3004 750 54 2700 240/07 RMK AO2
14837KMSN MSN20020625103509606/25/02 10:35:31  5-MIN KMSN 251635Z 22007KT 10SM FEW035 30/19 A3004 750 52 2700 220/07 RMK AO2
14837KMSN MSN20020625104009606/25/02 10:40:31  5-MIN KMSN 251640Z VRB06KT 10SM FEW035 31/19 A3004 750 51 2700 VRB/06 RMK AO2
14837KMSN MSN20020625104509606/25/02 10:45:31  5-MIN KMSN 251645Z 21008KT 10SM FEW035 30/19 A3004 750 52 2700 210/08 RMK AO2
14837KMSN MSN20020625105011306/25/02 10:50:31  5-MIN KMSN 251650Z 22009KT 10SM FEW035 30/19 A3004 750 52 2700 220/09 RMK AO2 SLP166 T03000194
14837KMSN MSN20020625105510906/25/02 10:55:31  5-MIN KMSN 251655Z 23008KT 210V280 10SM CLR 30/19 A3004 760 52 2700 230/08 210V280 RMK AO2
14837KMSN MSN20020625110009606/25/02 11:00:31  5-MIN KMSN 251700Z 23008KT 10SM FEW035 31/19 A3004 760 51 2700 230/08 RMK AO2
14837KMSN MSN20020625110509606/25/02 11:05:31  5-MIN KMSN 251705Z 23008KT 10SM FEW035 31/19 A3004 760 51 2700 230/08 RMK AO2
14837KMSN MSN20020625111009606/25/02 11:10:31  5-MIN KMSN 251710Z 23009KT 10SM FEW035 31/19 A3004 760 51 2700 220/09 RMK AO2
14837KMSN MSN20020625111509606/25/02 11:15:31  5-MIN KMSN 251715Z 24008KT 10SM FEW040 31/19 A3004 760 51 2700 240/08 RMK AO2
14837KMSN MSN20020625112011206/25/02 11:20:31  5-MIN KMSN 251720Z 24007KT 210V270 10SM FEW040 31/19 A3003 760 49 2700 240/07 210V270 RMK AO2
14837KMSN MSN20020625112511206/25/02 11:25:31  5-MIN KMSN 251725Z 23007KT 180V260 10SM FEW040 31/19 A3003 760 51 2700 230/07 180V260 RMK AO2
14837KMSN MSN20020625113009606/25/02 11:30:31  5-MIN KMSN 251730Z 23008KT 10SM FEW040 31/19 A3003 760 51 2700 230/08 RMK AO2
14837KMSN MSN20020625113509606/25/02 11:35:31  5-MIN KMSN 251735Z 24008KT 10SM FEW040 31/19 A3003 760 49 2700 240/08 RMK AO2
14837KMSN MSN20020625114009606/25/02 11:40:31  5-MIN KMSN 251740Z 23010KT 10SM FEW040 31/19 A3003 760 47 2800 230/10 RMK AO2
14837KMSN MSN20020625114509606/25/02 11:45:31  5-MIN KMSN 251745Z VRB06KT 10SM FEW040 31/19 A3003 760 49 2800 VRB/06 RMK AO2
14837KMSN MSN20020625115014706/25/02 11:50:31  5-MIN KMSN 251750Z 23008KT 200V270 10SM FEW040 31/19 A3003 760 51 2800 230/08 200V270 RMK AO2 SLP163 T03060194 10311 20233 58000
14837KMSN MSN20020625115509606/25/02 11:55:31  5-MIN KMSN 251755Z VRB05KT 10SM FEW040 31/19 A3002 770 47 2800 VRB/05 RMK AO2
14837KMSN MSN20020625120011206/25/02 12:00:31  5-MIN KMSN 251800Z 24008KT 210V280 10SM FEW040 31/19 A3002 770 47 2800 230/08 210V280 RMK AO2
14837KMSN MSN20020625120509606/25/02 12:05:31  5-MIN KMSN 251805Z 26007KT 10SM FEW040 31/19 A3002 770 47 2800 260/07 RMK AO2
14837KMSN MSN20020625121009606/25/02 12:10:31  5-MIN KMSN 251810Z VRB06KT 10SM FEW040 31/19 A3002 770 47 2800 VRB/06 RMK AO2
14837KMSN MSN20020625121511206/25/02 12:15:31  5-MIN KMSN 251815Z 24007KT 210V280 10SM FEW040 31/19 A3002 780 47 2800 240/07 210V280 RMK AO2
14837KMSN MSN20020625122009606/25/02 12:20:31  5-MIN KMSN 251820Z VRB06KT 10SM FEW040 31/18 A3002 780 46 2800 VRB/06 RMK AO2
14837KMSN MSN20020625122509606/25/02 12:25:31  5-MIN KMSN 251825Z 23009KT 10SM FEW040 31/18 A3002 770 46 2800 230/09 RMK AO2
14837KMSN MSN20020625123009606/25/02 12:30:31  5-MIN KMSN 251830Z VRB06KT 10SM FEW040 32/19 A3002 770 46 2900 VRB/06 RMK AO2
14837KMSN MSN20020625123509606/25/02 12:35:31  5-MIN KMSN 251835Z 25006KT 10SM FEW040 31/19 A3002 770 47 2800 250/06 RMK AO2
14837KMSN MSN20020625124011206/25/02 12:40:31  5-MIN KMSN 251840Z 22008KT 180V260 10SM FEW040 32/19 A3002 770 46 2900 220/08 180V260 RMK AO2
14837KMSN MSN20020625124509606/25/02 12:45:31  5-MIN KMSN 251845Z 24005KT 10SM FEW040 32/19 A3002 780 46 2900 240/05 RMK AO2
14837KMSN MSN20020625125011306/25/02 12:50:31  5-MIN KMSN 251850Z 21007KT 10SM FEW040 32/19 A3001 780 46 2900 210/07 RMK AO2 SLP156 T03170189
14837KMSN MSN20020625125509306/25/02 12:55:31  5-MIN KMSN 251855Z 22006KT 10SM CLR 32/19 A3001 780 46 2900 220/06 RMK AO2
14837KMSN MSN20020625130009606/25/02 13:00:31  5-MIN KMSN 251900Z 24006KT 10SM SCT050 32/18 A3001 780 44 2900 240/06 RMK AO2
14837KMSN MSN20020625130509606/25/02 13:05:31  5-MIN KMSN 251905Z 25005KT 10SM SCT050 32/18 A3001 780 44 2900 250/05 RMK AO2
14837KMSN MSN20020625131011206/25/02 13:10:31  5-MIN KMSN 251910Z 23007KT 200V260 10SM SCT050 32/18 A3001 780 43 3000 230/07 200V260 RMK AO2
14837KMSN MSN20020625131509606/25/02 13:15:31  5-MIN KMSN 251915Z 25006KT 10SM SCT050 32/18 A3001 780 44 2900 250/06 RMK AO2
14837KMSN MSN20020625132009606/25/02 13:20:31  5-MIN KMSN 251920Z 22007KT 10SM SCT050 32/18 A3001 780 44 2900 220/07 RMK AO2
14837KMSN MSN20020625132509606/25/02 13:25:31  5-MIN KMSN 251925Z 24008KT 10SM SCT050 32/18 A3001 780 43 2900 240/08 RMK AO2
14837KMSN MSN20020625133009506/25/02 13:30:31  5-MIN KMSN 251930Z VRB04KT 9SM SCT050 32/18 A3001 780 43 3000 VRB/04 RMK AO2
14837KMSN MSN20020625133509606/25/02 13:35:31  5-MIN KMSN 251935Z 22008KT 10SM SCT050 32/19 A3001 780 46 2900 220/08 RMK AO2
14837KMSN MSN20020625134009606/25/02 13:40:31  5-MIN KMSN 251940Z 22009KT 10SM SCT050 32/18 A3000 790 44 2900 210/09 RMK AO2
14837KMSN MSN20020625134511206/25/02 13:45:31  5-MIN KMSN 251945Z 24009KT 200V270 10SM SCT055 32/18 A3000 790 43 2900 240/09 200V270 RMK AO2
14837KMSN MSN20020625135011306/25/02 13:50:31  5-MIN KMSN 251950Z 24008KT 10SM SCT055 32/18 A3000 790 43 2900 240/08 RMK AO2 SLP152 T03170178
14837KMSN MSN20020625135511206/25/02 13:55:31  5-MIN KMSN 251955Z 24007KT 210V270 10SM SCT060 32/18 A3000 790 43 2900 240/07 210V270 RMK AO2
14837KMSN MSN20020625140011206/25/02 14:00:31  5-MIN KMSN 252000Z 23007KT 180V260 10SM SCT060 32/18 A3000 790 43 2900 230/07 180V260 RMK AO2
14837KMSN MSN20020625140509606/25/02 14:05:31  5-MIN KMSN 252005Z 23008KT 10SM SCT060 32/17 A3000 790 41 2900 230/08 RMK AO2
14837KMSN MSN20020625141009606/25/02 14:10:31  5-MIN KMSN 252010Z 22010KT 10SM SCT060 32/18 A3000 790 43 2900 220/10 RMK AO2
14837KMSN MSN20020625141509606/25/02 14:15:31  5-MIN KMSN 252015Z VRB04KT 10SM SCT060 32/18 A2999 800 43 3000 VRB/04 RMK AO2
14837KMSN MSN20020625142009606/25/02 14:20:31  5-MIN KMSN 252020Z VRB05KT 10SM SCT060 32/18 A2999 800 41 3000 VRB/05 RMK AO2
14837KMSN MSN20020625142509606/25/02 14:25:31  5-MIN KMSN 252025Z VRB06KT 10SM SCT060 32/18 A2999 800 43 2900 VRB/06 RMK AO2
14837KMSN MSN20020625143009606/25/02 14:30:31  5-MIN KMSN 252030Z VRB05KT 10SM SCT060 32/18 A2998 810 43 2900 VRB/05 RMK AO2
14837KMSN MSN20020625143509606/25/02 14:35:31  5-MIN KMSN 252035Z VRB06KT 10SM SCT060 32/18 A2998 810 41 3000 VRB/06 RMK AO2
14837KMSN MSN20020625144009606/25/02 14:40:31  5-MIN KMSN 252040Z 22009KT 10SM SCT060 32/17 A2998 810 40 3000 220/09 RMK AO2
14837KMSN MSN20020625144509606/25/02 14:45:31  5-MIN KMSN 252045Z VRB06KT 10SM SCT060 32/17 A2998 810 40 3000 VRB/06 RMK AO2
14837KMSN MSN20020625145013506/25/02 14:50:31  5-MIN KMSN 252050Z 27007KT 240V310 10SM SCT060 32/17 A2998 810 40 3000 270/07 240V310 RMK AO2 SLP146 T03220172 58005
14837KMSN MSN20020625145510906/25/02 14:55:31  5-MIN KMSN 252055Z 27007KT 240V320 10SM CLR 32/16 A2999 800 37 3000 270/07 240V320 RMK AO2
14837KMSN MSN20020625150009306/25/02 15:00:31  5-MIN KMSN 252100Z 25008KT 10SM CLR 32/17 A2998 810 38 3000 250/08 RMK AO2
14837KMSN MSN20020625150509306/25/02 15:05:31  5-MIN KMSN 252105Z 26007KT 10SM CLR 32/16 A2998 810 38 2900 260/07 RMK AO2
14837KMSN MSN20020625151009606/25/02 15:10:31  5-MIN KMSN 252110Z VRB06KT 10SM FEW060 32/17 A2998 810 40 3000 VRB/06 RMK AO2
14837KMSN MSN20020625151509606/25/02 15:15:31  5-MIN KMSN 252115Z 29006KT 10SM FEW060 32/17 A2998 810 40 3000 290/06 RMK AO2
14837KMSN MSN20020625152009606/25/02 15:20:31  5-MIN KMSN 252120Z 29009KT 10SM FEW060 32/18 A2997 810 41 3000 290/09 RMK AO2
14837KMSN MSN20020625152509606/25/02 15:25:31  5-MIN KMSN 252125Z 30008KT 10SM FEW060 32/17 A2997 820 38 3000 300/08 RMK AO2
14837KMSN MSN20020625153009606/25/02 15:30:31  5-MIN KMSN 252130Z VRB06KT 10SM FEW060 32/18 A2997 820 41 3000 VRB/06 RMK AO2
14837KMSN MSN20020625153509606/25/02 15:35:31  5-MIN KMSN 252135Z VRB06KT 10SM FEW060 32/18 A2997 820 41 3000 VRB/06 RMK AO2
14837KMSN MSN20020625154011206/25/02 15:40:31  5-MIN KMSN 252140Z 29007KT 250V330 10SM FEW060 32/18 A2997 820 43 3000 290/07 250V330 RMK AO2
14837KMSN MSN20020625154509606/25/02 15:45:31  5-MIN KMSN 252145Z VRB06KT 10SM FEW060 32/18 A2997 820 44 2900 VRB/06 RMK AO2
14837KMSN MSN20020625155011306/25/02 15:50:31  5-MIN KMSN 252150Z 29006KT 10SM FEW060 32/19 A2996 830 46 3000 290/06 RMK AO2 SLP139 T03170189
14837KMSN MSN20020625155509306/25/02 15:55:31  5-MIN KMSN 252155Z VRB05KT 10SM CLR 32/18 A2996 830 44 3000 VRB/05 RMK AO2
14837KMSN MSN20020625160009306/25/02 16:00:31  5-MIN KMSN 252200Z 30006KT 10SM CLR 32/18 A2996 830 44 3000 300/06 RMK AO2
14837KMSN MSN20020625160510906/25/02 16:05:31  5-MIN KMSN 252205Z 25008KT 220V280 10SM CLR 31/18 A2996 830 46 2900 240/08 220V280 RMK AO2
14837KMSN MSN20020625161009306/25/02 16:10:31  5-MIN KMSN 252210Z VRB05KT 10SM CLR 31/19 A2996 830 47 2900 VRB/05 RMK AO2
14837KMSN MSN20020625161509306/25/02 16:15:31  5-MIN KMSN 252215Z VRB05KT 10SM CLR 31/19 A2996 830 47 2900 VRB/05 RMK AO2
14837KMSN MSN20020625162009306/25/02 16:20:31  5-MIN KMSN 252220Z VRB05KT 10SM CLR 31/18 A2995 830 46 2900 VRB/05 RMK AO2
14837KMSN MSN20020625162509306/25/02 16:25:31  5-MIN KMSN 252225Z 24005KT 10SM CLR 32/18 A2996 830 44 3000 240/05 RMK AO2
14837KMSN MSN20020625163009306/25/02 16:30:31  5-MIN KMSN 252230Z VRB04KT 10SM CLR 32/18 A2995 830 44 3000 VRB/04 RMK AO2
14837KMSN MSN20020625163509306/25/02 16:35:31  5-MIN KMSN 252235Z 23007KT 10SM CLR 32/18 A2995 840 43 3000 230/07 RMK AO2
14837KMSN MSN20020625164009306/25/02 16:40:31  5-MIN KMSN 252240Z 00000KT 10SM CLR 32/18 A2995 830 43 3000 000/00 RMK AO2
14837KMSN MSN20020625164509306/25/02 16:45:31  5-MIN KMSN 252245Z VRB04KT 10SM CLR 32/18 A2995 830 43 3000 VRB/04 RMK AO2
14837KMSN MSN20020625165011006/25/02 16:50:31  5-MIN KMSN 252250Z VRB05KT 10SM CLR 32/18 A2995 830 44 3000 VRB/05 RMK AO2 SLP136 T03170183
14837KMSN MSN20020625165509306/25/02 16:55:31  5-MIN KMSN 252255Z 29005KT 10SM CLR 32/17 A2995 830 41 3000 290/05 RMK AO2
14837KMSN MSN20020625170009306/25/02 17:00:31  5-MIN KMSN 252300Z VRB04KT 10SM CLR 32/18 A2995 840 43 3000 VRB/04 RMK AO2
14837KMSN MSN20020625170509306/25/02 17:05:31  5-MIN KMSN 252305Z VRB05KT 10SM CLR 32/18 A2995 840 43 3000 VRB/05 RMK AO2
14837KMSN MSN20020625171009306/25/02 17:10:31  5-MIN KMSN 252310Z VRB03KT 10SM CLR 31/18 A2995 840 46 2900 VRB/03 RMK AO2
14837KMSN MSN20020625171509306/25/02 17:15:31  5-MIN KMSN 252315Z 30005KT 10SM CLR 32/19 A2995 840 46 3000 300/05 RMK AO2
14837KMSN MSN20020625172009306/25/02 17:20:31  5-MIN KMSN 252320Z 29005KT 10SM CLR 31/18 A2995 840 46 2900 290/05 RMK AO2
14837KMSN MSN20020625172509206/25/02 17:25:31  5-MIN KMSN 252325Z 27005KT 9SM CLR 31/18 A2994 840 46 2900 270/05 RMK AO2
14837KMSN MSN20020625173009506/25/02 17:30:31  5-MIN KMSN 252330Z 29006KT 9SM FEW060 31/18 A2994 840 46 2900 290/06 RMK AO2
14837KMSN MSN20020625173509506/25/02 17:35:31  5-MIN KMSN 252335Z 32007KT 9SM FEW060 31/19 A2995 840 49 2900 320/07 RMK AO2
14837KMSN MSN20020625174009506/25/02 17:40:31  5-MIN KMSN 252340Z 30007KT 9SM FEW060 31/20 A2995 840 52 2800 300/07 RMK AO2
14837KMSN MSN20020625174509506/25/02 17:45:31  5-MIN KMSN 252345Z 33007KT 9SM FEW060 31/20 A2995 840 52 2800 330/07 RMK AO2
14837KMSN MSN20020625175013106/25/02 17:50:31  5-MIN KMSN 252350Z 32008KT 10SM FEW060 30/19 A2995 840 52 2800 320/08 RMK AO2 SLP134 T03000194 10322 20300 58013
14837KMSN MSN20020625175509206/25/02 17:55:31  5-MIN KMSN 252355Z 31006KT 8SM CLR 30/19 A2995 840 52 2800 310/06 RMK AO2
14837KMSN MSN20020625180009206/25/02 18:00:31  5-MIN KMSN 260000Z 32005KT 8SM CLR 30/19 A2995 840 52 2800 320/05 RMK AO2
14837KMSN MSN20020625180509206/25/02 18:05:31  5-MIN KMSN 260005Z 32004KT 8SM CLR 29/19 A2995 840 54 2700 320/04 RMK AO2
14837KMSN MSN20020625181009206/25/02 18:10:31  5-MIN KMSN 260010Z 32005KT 8SM CLR 29/19 A2995 840 54 2700 320/05 RMK AO2
14837KMSN MSN20020625181509206/25/02 18:15:31  5-MIN KMSN 260015Z 33004KT 8SM CLR 29/19 A2995 830 54 2700 320/04 RMK AO2
14837KMSN MSN20020625182009206/25/02 18:20:31  5-MIN KMSN 260020Z 34003KT 8SM CLR 29/20 A2995 830 56 2700 330/03 RMK AO2
14837KMSN MSN20020625182509206/25/02 18:25:31  5-MIN KMSN 260025Z 32003KT 8SM CLR 29/20 A2995 830 56 2700 320/03 RMK AO2
14837KMSN MSN20020625183009206/25/02 18:30:31  5-MIN KMSN 260030Z 00000KT 8SM CLR 29/20 A2995 840 58 2700 000/00 RMK AO2
14837KMSN MSN20020625183509206/25/02 18:35:31  5-MIN KMSN 260035Z 00000KT 8SM CLR 29/21 A2995 840 62 2700 000/00 RMK AO2
14837KMSN MSN20020625184009206/25/02 18:40:31  5-MIN KMSN 260040Z 00000KT 7SM CLR 29/21 A2995 840 62 2700 000/00 RMK AO2
14837KMSN MSN20020625184509206/25/02 18:45:31  5-MIN KMSN 260045Z 00000KT 7SM CLR 29/22 A2995 840 64 2700 000/00 RMK AO2
14837KMSN MSN20020625185011306/25/02 18:50:31  5-MIN KMSN 260050Z 00000KT 10SM FEW060 28/21 A2995 840 64 2600 000/00 RMK AO2 SLP135 T02830211
14837KMSN MSN20020625185509506/25/02 18:55:31  5-MIN KMSN 260055Z 00000KT 9SM FEW060 28/21 A2995 840 64 2600 000/00 RMK AO2
14837KMSN MSN20020625190009506/25/02 19:00:31  5-MIN KMSN 260100Z 00000KT 9SM FEW060 28/21 A2995 840 64 2600 000/00 RMK AO2
14837KMSN MSN20020625190509506/25/02 19:05:31  5-MIN KMSN 260105Z 00000KT 9SM FEW060 28/21 A2995 840 62 2600 000/00 RMK AO2
14837KMSN MSN20020625191009506/25/02 19:10:31  5-MIN KMSN 260110Z 00000KT 9SM FEW060 28/21 A2995 840 62 2600 000/00 RMK AO2
14837KMSN MSN20020625191509506/25/02 19:15:31  5-MIN KMSN 260115Z 00000KT 9SM FEW060 28/21 A2995 840 64 2500 000/00 RMK AO2
14837KMSN MSN20020625192009506/25/02 19:20:31  5-MIN KMSN 260120Z 00000KT 9SM FEW060 28/21 A2994 840 64 2500 000/00 RMK AO2
14837KMSN MSN20020625192509506/25/02 19:25:31  5-MIN KMSN 260125Z 00000KT 9SM FEW060 27/21 A2994 840 71 2400 000/00 RMK AO2
14837KMSN MSN20020625193009506/25/02 19:30:31  5-MIN KMSN 260130Z 21003KT 9SM FEW060 27/21 A2994 850 69 2400 210/03 RMK AO2
14837KMSN MSN20020625193509506/25/02 19:35:31  5-MIN KMSN 260135Z 21003KT 9SM FEW060 27/21 A2994 840 66 2500 210/03 RMK AO2
14837KMSN MSN20020625194009506/25/02 19:40:31  5-MIN KMSN 260140Z 22003KT 9SM FEW060 28/20 A2994 850 62 2500 220/03 RMK AO2
14837KMSN MSN20020625194509506/25/02 19:45:31  5-MIN KMSN 260145Z 21003KT 9SM FEW060 27/21 A2994 850 69 2400 210/03 RMK AO2
14837KMSN MSN20020625195011206/25/02 19:50:31  5-MIN KMSN 260150Z 21003KT 9SM FEW060 27/21 A2994 850 69 2400 210/03 RMK AO2 SLP130 T02670206
14837KMSN MSN20020625195509206/25/02 19:55:31  5-MIN KMSN 260155Z 21003KT 7SM CLR 27/21 A2993 850 69 2400 210/03 RMK AO2
14837KMSN MSN20020625200009206/25/02 20:00:31  5-MIN KMSN 260200Z 00000KT 8SM CLR 26/21 A2993 850 71 2400 000/00 RMK AO2
14837KMSN MSN20020625200509206/25/02 20:05:31  5-MIN KMSN 260205Z 00000KT 8SM CLR 26/21 A2993 850 73 2300 000/00 RMK AO2
14837KMSN MSN20020625201009206/25/02 20:10:31  5-MIN KMSN 260210Z 00000KT 8SM CLR 25/21 A2993 850 76 2200 000/00 RMK AO2
14837KMSN MSN20020625201509206/25/02 20:15:31  5-MIN KMSN 260215Z 00000KT 8SM CLR 25/21 A2994 850 76 2200 000/00 RMK AO2
14837KMSN MSN20020625202009206/25/02 20:20:31  5-MIN KMSN 260220Z 20003KT 8SM CLR 26/21 A2994 850 73 2300 200/03 RMK AO2
14837KMSN MSN20020625202509206/25/02 20:25:31  5-MIN KMSN 260225Z 19003KT 7SM CLR 25/21 A2994 850 76 2200 190/03 RMK AO2
14837KMSN MSN20020625203009206/25/02 20:30:31  5-MIN KMSN 260230Z 18004KT 7SM CLR 26/20 A2994 850 71 2300 170/04 RMK AO2
14837KMSN MSN20020625203509206/25/02 20:35:31  5-MIN KMSN 260235Z 16008KT 7SM CLR 27/20 A2994 850 66 2400 160/08 RMK AO2
14837KMSN MSN20020625204009206/25/02 20:40:31  5-MIN KMSN 260240Z 18008KT 8SM CLR 27/20 A2994 850 64 2500 180/08 RMK AO2
14837KMSN MSN20020625204509206/25/02 20:45:31  5-MIN KMSN 260245Z 18009KT 8SM CLR 27/21 A2994 850 66 2500 180/09 RMK AO2
14837KMSN MSN20020625205011506/25/02 20:50:31  5-MIN KMSN 260250Z 17011KT 8SM CLR 27/21 A2994 850 69 2400 170/11 RMK AO2 SLP131 T02670206 56013
14837KMSN MSN20020625205509206/25/02 20:55:31  5-MIN KMSN 260255Z 18012KT 8SM CLR 27/21 A2994 850 69 2400 170/12 RMK AO2
14837KMSN MSN20020625210009206/25/02 21:00:31  5-MIN KMSN 260300Z 18012KT 9SM CLR 26/21 A2993 850 71 2400 180/12 RMK AO2
14837KMSN MSN20020625210509206/25/02 21:05:31  5-MIN KMSN 260305Z 18010KT 9SM CLR 26/21 A2993 850 71 2400 180/10 RMK AO2
14837KMSN MSN20020625211009306/25/02 21:10:31  5-MIN KMSN 260310Z 18010KT 10SM CLR 26/21 A2993 860 71 2400 180/10 RMK AO2
14837KMSN MSN20020625211509306/25/02 21:15:31  5-MIN KMSN 260315Z 19010KT 10SM CLR 26/21 A2993 860 71 2400 180/10 RMK AO2
14837KMSN MSN20020625212009306/25/02 21:20:31  5-MIN KMSN 260320Z 18010KT 10SM CLR 26/21 A2993 860 71 2400 180/10 RMK AO2
14837KMSN MSN20020625212509306/25/02 21:25:31  5-MIN KMSN 260325Z 19009KT 10SM CLR 26/21 A2993 860 71 2400 190/09 RMK AO2
14837KMSN MSN20020625213009306/25/02 21:30:31  5-MIN KMSN 260330Z 18009KT 10SM CLR 26/20 A2993 860 68 2400 180/09 RMK AO2
14837KMSN MSN20020625213509306/25/02 21:35:31  5-MIN KMSN 260335Z 18009KT 10SM CLR 26/20 A2993 860 71 2300 180/09 RMK AO2
14837KMSN MSN20020625214009306/25/02 21:40:31  5-MIN KMSN 260340Z 19008KT 10SM CLR 26/20 A2993 850 71 2300 180/08 RMK AO2
14837KMSN MSN20020625214509306/25/02 21:45:31  5-MIN KMSN 260345Z 19006KT 10SM CLR 26/20 A2993 850 71 2300 190/06 RMK AO2
14837KMSN MSN20020625215011006/25/02 21:50:31  5-MIN KMSN 260350Z VRB06KT 10SM CLR 26/20 A2993 850 71 2300 VRB/06 RMK AO2 SLP129 T02560200
14837KMSN MSN20020625215509306/25/02 21:55:31  5-MIN KMSN 260355Z 20008KT 10SM CLR 26/20 A2994 850 71 2300 200/08 RMK AO2
14837KMSN MSN20020625220009306/25/02 22:00:31  5-MIN KMSN 260400Z 19008KT 10SM CLR 26/20 A2994 850 71 2300 190/08 RMK AO2
14837KMSN MSN20020625220509306/25/02 22:05:31  5-MIN KMSN 260405Z 20008KT 10SM CLR 26/20 A2994 850 68 2400 200/08 RMK AO2
14837KMSN MSN20020625221009306/25/02 22:10:31  5-MIN KMSN 260410Z 20009KT 10SM CLR 26/20 A2994 840 71 2300 200/09 RMK AO2
14837KMSN MSN20020625221509306/25/02 22:15:31  5-MIN KMSN 260415Z 20006KT 10SM CLR 26/20 A2994 840 71 2300 200/06 RMK AO2
14837KMSN MSN20020625222009306/25/02 22:20:31  5-MIN KMSN 260420Z 21007KT 10SM CLR 26/20 A2994 840 71 2300 210/07 RMK AO2
14837KMSN MSN20020625222509306/25/02 22:25:31  5-MIN KMSN 260425Z 23006KT 10SM CLR 26/20 A2995 840 71 2300 230/06 RMK AO2
14837KMSN MSN20020625223009306/25/02 22:30:31  5-MIN KMSN 260430Z 22005KT 10SM CLR 25/20 A2995 830 73 2200 220/05 RMK AO2
14837KMSN MSN20020625223509306/25/02 22:35:31  5-MIN KMSN 260435Z 21005KT 10SM CLR 25/20 A2995 830 73 2200 210/05 RMK AO2
14837KMSN MSN20020625224009306/25/02 22:40:31  5-MIN KMSN 260440Z 21008KT 10SM CLR 25/20 A2996 830 73 2200 210/08 RMK AO2
14837KMSN MSN20020625224509306/25/02 22:45:31  5-MIN KMSN 260445Z 21007KT 10SM CLR 25/21 A2996 830 76 2200 210/07 RMK AO2
14837KMSN MSN20020625225011006/25/02 22:50:31  5-MIN KMSN 260450Z 21007KT 10SM CLR 25/21 A2996 830 76 2200 210/07 RMK AO2 SLP138 T02500206
14837KMSN MSN20020625225509306/25/02 22:55:31  5-MIN KMSN 260455Z 21007KT 10SM CLR 25/21 A2995 830 76 2200 210/07 RMK AO2
14837KMSN MSN20020625230009306/25/02 23:00:31  5-MIN KMSN 260500Z 20005KT 10SM CLR 25/21 A2995 830 76 2200 200/05 RMK AO2
14837KMSN MSN20020625230509306/25/02 23:05:31  5-MIN KMSN 260505Z 21006KT 10SM CLR 25/21 A2995 830 76 2200 210/06 RMK AO2
14837KMSN MSN20020625231009606/25/02 23:10:31  5-MIN KMSN 260510Z 20007KT 10SM SCT065 25/21 A2995 840 76 2200 190/07 RMK AO2
14837KMSN MSN20020625231509606/25/02 23:15:31  5-MIN KMSN 260515Z 19006KT 10SM SCT065 25/21 A2994 840 76 2200 190/06 RMK AO2
14837KMSN MSN20020625232009606/25/02 23:20:31  5-MIN KMSN 260520Z 19008KT 10SM FEW065 25/21 A2994 850 76 2200 190/08 RMK AO2
14837KMSN MSN20020625232509606/25/02 23:25:31  5-MIN KMSN 260525Z 19007KT 10SM FEW065 25/21 A2994 850 76 2200 190/07 RMK AO2
14837KMSN MSN20020625233009606/25/02 23:30:31  5-MIN KMSN 260530Z 19007KT 10SM FEW065 25/21 A2994 850 76 2200 190/07 RMK AO2
14837KMSN MSN20020625233509606/25/02 23:35:31  5-MIN KMSN 260535Z 19006KT 10SM FEW065 25/21 A2994 850 76 2200 190/06 RMK AO2
14837KMSN MSN20020625234009306/25/02 23:40:31  5-MIN KMSN 260540Z 18007KT 10SM CLR 25/21 A2994 850 76 2200 180/07 RMK AO2
14837KMSN MSN20020625234509206/25/02 23:45:31  5-MIN KMSN 260545Z 20006KT 9SM CLR 25/21 A2993 850 76 2200 200/06 RMK AO2
14837KMSN MSN20020625235013806/25/02 23:50:31  5-MIN KMSN 260550Z 20006KT 10SM CLR 25/21 A2994 850 76 2200 200/06 RMK AO2 SLP130 T02500206 10300 20250 403220200 55004
14837KMSN MSN20020625235509306/25/02 23:55:31  5-MIN KMSN 260555Z 21005KT 10SM CLR 25/21 A2993 850 76 2200 200/05 RMK AO2
14837KMSN MSN20020626000009306/26/02 00:00:31  5-MIN KMSN 260600Z 20007KT 10SM CLR 25/20 A2993 850 73 2200 190/07 RMK AO2
14837KMSN MSN20020626000509306/26/02 00:05:31  5-MIN KMSN 260605Z 21007KT 10SM CLR 25/20 A2993 850 73 2200 210/07 RMK AO2
14837KMSN MSN20020626001009306/26/02 00:10:31  5-MIN KMSN 260610Z 19007KT 10SM CLR 24/20 A2993 850 76 2200 190/07 RMK AO2
14837KMSN MSN20020626001509306/26/02 00:15:31  5-MIN KMSN 260615Z 21005KT 10SM CLR 24/20 A2993 850 76 2200 210/05 RMK AO2
14837KMSN MSN20020626002009606/26/02 00:20:31  5-MIN KMSN 260620Z 20006KT 10SM FEW070 24/20 A2993 850 76 2200 200/06 RMK AO2
14837KMSN MSN20020626002510306/26/02 00:25:31  5-MIN KMSN 260625Z 19007KT 10SM FEW055 SCT065 24/20 A2993 860 76 2200 190/07 RMK AO2
14837KMSN MSN20020626003010306/26/02 00:30:31  5-MIN KMSN 260630Z 21006KT 10SM FEW055 SCT065 24/20 A2992 860 76 2200 210/06 RMK AO2
14837KMSN MSN20020626003509606/26/02 00:35:31  5-MIN KMSN 260635Z 21007KT 10SM SCT065 24/20 A2992 860 76 2200 210/07 RMK AO2
14837KMSN MSN20020626004009606/26/02 00:40:31  5-MIN KMSN 260640Z 20007KT 10SM SCT065 24/20 A2992 870 76 2200 200/07 RMK AO2
14837KMSN MSN20020626004509606/26/02 00:45:31  5-MIN KMSN 260645Z 20008KT 10SM SCT065 24/21 A2992 870 81 2200 200/08 RMK AO2
14837KMSN MSN20020626005011306/26/02 00:50:31  5-MIN KMSN 260650Z 19006KT 10SM SCT065 25/21 A2991 870 79 2300 190/06 RMK AO2 SLP122 T02500211
14837KMSN MSN20020626005509606/26/02 00:55:31  5-MIN KMSN 260655Z 20007KT 10SM FEW065 24/20 A2991 880 78 2100 200/07 RMK AO2
14837KMSN MSN20020626010009606/26/02 01:00:31  5-MIN KMSN 260700Z 19008KT 10SM FEW060 24/20 A2990 880 78 2200 190/08 RMK AO2
14837KMSN MSN20020626010509506/26/02 01:05:31  5-MIN KMSN 260705Z 20009KT 9SM FEW065 24/20 A2990 880 78 2200 200/09 RMK AO2
14837KMSN MSN20020626011009206/26/02 01:10:31  5-MIN KMSN 260710Z 20008KT 9SM CLR 24/20 A2990 880 78 2200 190/08 RMK AO2
14837KMSN MSN20020626011509306/26/02 01:15:31  5-MIN KMSN 260715Z 19008KT 10SM CLR 24/20 A2990 880 78 2200 190/08 RMK AO2
14837KMSN MSN20020626012009306/26/02 01:20:31  5-MIN KMSN 260720Z 20007KT 10SM CLR 24/20 A2990 880 78 2200 200/07 RMK AO2
14837KMSN MSN20020626012509206/26/02 01:25:31  5-MIN KMSN 260725Z 20006KT 9SM CLR 24/20 A2990 880 78 2200 200/06 RMK AO2
14837KMSN MSN20020626013009206/26/02 01:30:31  5-MIN KMSN 260730Z 22005KT 9SM CLR 24/20 A2990 880 78 2100 220/05 RMK AO2
14837KMSN MSN20020626013509206/26/02 01:35:31  5-MIN KMSN 260735Z VRB04KT 9SM CLR 24/20 A2991 880 78 2100 VRB/04 RMK AO2
14837KMSN MSN20020626014009506/26/02 01:40:31  5-MIN KMSN 260740Z VRB04KT 9SM FEW060 24/20 A2991 870 78 2100 VRB/04 RMK AO2
14837KMSN MSN20020626014509506/26/02 01:45:31  5-MIN KMSN 260745Z VRB04KT 9SM SCT060 23/20 A2991 870 81 2100 VRB/04 RMK AO2
14837KMSN MSN20020626015011906/26/02 01:50:31  5-MIN KMSN 260750Z 22006KT 9SM SCT060 BKN075 24/20 A2991 870 78 2100 220/06 RMK AO2 SLP121 T02390200
14837KMSN MSN20020626015510206/26/02 01:55:31  5-MIN KMSN 260755Z 22004KT 9SM BKN065 BKN085 24/20 A2991 870 78 2100 220/04 RMK AO2
14837KMSN MSN20020626020010206/26/02 02:00:31  5-MIN KMSN 260800Z 31007KT 9SM BKN065 BKN085 24/20 A2992 870 78 2100 310/07 RMK AO2
14837KMSN MSN20020626020512506/26/02 02:05:31  5-MIN KMSN 260805Z 32008KT 280V010 9SM FEW019 BKN060 OVC085 23/20 A2993 860 81 2100 320/08 280V010 RMK AO2
14837KMSN MSN20020626021010906/26/02 02:10:31  5-MIN KMSN 260810Z 33005KT 9SM SCT019 BKN060 OVC085 23/20 A2992 860 81 2100 330/05 RMK AO2
14837KMSN MSN20020626021510906/26/02 02:15:31  5-MIN KMSN 260815Z 32006KT 9SM BKN019 BKN060 OVC085 23/20 A2992 860 81 2100 320/06 RMK AO2
14837KMSN MSN20020626022012006/26/02 02:20:31  5-MIN KMSN 260820Z 34006KT 8SM BKN021 OVC060 23/20 A2992 860 81 2100 340/06 RMK AO2 FRQ LTG DSNT W-NE
14837KMSN MSN20020626022512006/26/02 02:25:31  5-MIN KMSN 260825Z 33005KT 9SM BKN021 OVC060 23/19 A2992 860 78 2100 330/05 RMK AO2 FRQ LTG DSNT W-NE
14837KMSN MSN20020626023011306/26/02 02:30:31  5-MIN KMSN 260830Z 35006KT 9SM OVC021 23/18 A2993 860 70 2100 350/06 RMK AO2 FRQ LTG DSNT W-NE
14837KMSN MSN20020626023511406/26/02 02:35:31  5-MIN KMSN 260835Z 36010KT 10SM OVC023 23/16 A2994 850 65 2000 360/10 RMK AO2 FRQ LTG DSNT W-NE
14837KMSN MSN20020626024012106/26/02 02:40:31  5-MIN KMSN 260840Z 01015KT 10SM BKN023 OVC032 22/16 A2994 850 65 1900 010/15 RMK AO2 FRQ LTG DSNT W-NE
14837KMSN MSN20020626024512806/26/02 02:45:31  5-MIN KMSN 260845Z 02013KT 10SM SCT023 OVC029 22/16 A2995 830 70 1800 020/13 RMK AO2 PRESRR FRQ LTG DSNT W-NE
14837KMSN MSN20020626025016706/26/02 02:50:31  5-MIN KMSN 260850Z 02013KT 10SM VCTS BKN026 OVC034 21/16 A2995 830 73 1800 010/13 RMK AO2 TSB49 SLP136 FRQ LTGICCC VC TS W-NE MOV SE T02110161 58001
14837KMSN MSN20020626025511506/26/02 02:55:31  5-MIN KMSN 260855Z 01009KT 10SM VCTS BKN028 OVC036 21/16 A2996 820 75 1700 010/09 RMK AO2 PRESRR
14837KMSN MSN20020626030013806/26/02 03:00:31  5-MIN KMSN 260900Z 02012KT 10SM VCTS SCT028 OVC036 21/16 A2996 830 75 1700 020/12 RMK AO2 FRQ LTGICCC VC TS W-NE MOV SE
14837KMSN MSN20020626030516106/26/02 03:05:31  5-MIN KMSN 260905Z 33007KT 300V010 10SM VCTS SCT030 OVC038 21/16 A2998 810 75 1700 330/07 300V010 RMK AO2 PRESRR FRQ LTGICCC VC TS W-NE MOV SE
14837KMSN MSN20020626031014406/26/02 03:10:31  5-MIN KMSN 260910Z 34013G18KT 10SM VCTS SCT030 OVC038 21/16 A2999 800 75 1700 340/13G18 RMK AO2 FRQ LTGICCC VC TS W-NE MOV SE
14837KMSN MSN20020626031518606/26/02 03:15:31  5-MIN KMSN 260915Z 33009G18KT 290V360 9SM -TSRA FEW023 BKN036 OVC046 19/17 A3000 790 84 1500 330/09G18 290V360 RMK AO2 RAB11 PRESRR FRQ LTGICCC OHD TS OHD MOV SE P0000
14837KMSN MSN20020626032015706/26/02 03:20:31  5-MIN KMSN 260920Z 33010KT 5SM -TSRA FEW019 BKN038 OVC046 19/17 A3000 790 84 1500 330/10 RMK AO2 RAB11 FRQ LTGICCC OHD TS OHD MOV SE P0003
14837KMSN MSN20020626032516406/26/02 03:25:31  5-MIN KMSN 260925Z 33008KT 2 1/2SM +TSRA BR SCT016 BKN023 OVC048 19/17 A3000 790 90 1500 320/08 RMK AO2 RAB11 FRQ LTGICCC OHD TS OHD MOV SE P0009
14837KMSN MSN20020626033016406/26/02 03:30:31  5-MIN KMSN 260930Z 31005KT 1 1/2SM +TSRA BR BKN014 BKN023 OVC048 18/17 A2999 800 93 1400 310/05 RMK AO2 RAB11 FRQ LTGICCC OHD TS OHD MOV SE P0019
14837KMSN MSN20020626033517106/26/02 03:35:31  5-MIN KMSN 260935Z 36005KT 1 1/2SM +TSRA BR BKN014 BKN023 OVC045 18/17 A2998 810 93 1400 360/05 RMK AO2 RAB11 PRESFR FRQ LTGICCC OHD TS OHD MOV SE P0025
14837KMSN MSN20020626034016406/26/02 03:40:31  5-MIN KMSN 260940Z 00000KT 2 1/2SM -TSRA BR BKN018 BKN048 OVC095 18/17 A2998 810 93 1400 000/00 RMK AO2 RAB11 FRQ LTGICCC OHD TS OHD MOV SE P0025
14837KMSN MSN20020626034515806/26/02 03:45:31  5-MIN KMSN 260945Z 11004KT 10SM -TSRA BKN018 OVC090 18/17 A2997 820 93 1400 110/04 RMK AO2 RAB11 PRESFR FRQ LTGICCC OHD TS OHD MOV SE P0025
14837KMSN MSN20020626035015006/26/02 03:50:31  5-MIN KMSN 260950Z 10004KT 10SM SCT016 OVC090 18/17 A2997 820 93 1400 100/04 RMK AO2 TSE48RAB11E46 SLP141 TS MOV SE P0025 T01830172
14837KMSN MSN20020626035510306/26/02 03:55:31  5-MIN KMSN 260955Z 06003KT 10SM SCT025 OVC090 18/17 A2996 820 93 1400 060/03 RMK AO2
14837KMSN MSN20020626090009306/26/02 09:00:31  5-MIN KMSN 261500Z VRB04KT 10SM CLR 20/17 A2990 880 84 1700 VRB/04 RMK AO2
14837KMSN MSN20020626090509306/26/02 09:05:31  5-MIN KMSN 261505Z VRB05KT 10SM CLR 20/17 A2990 880 84 1700 VRB/05 RMK AO2
14837KMSN MSN20020626091010906/26/02 09:10:31  5-MIN KMSN 261510Z 23007KT 190V270 10SM CLR 20/17 A2990 880 84 1700 230/07 190V270 RMK AO2
14837KMSN MSN20020626091509306/26/02 09:15:31  5-MIN KMSN 261515Z 22009KT 10SM CLR 20/17 A2990 880 81 1700 220/09 RMK AO2
14837KMSN MSN20020626092009306/26/02 09:20:31  5-MIN KMSN 261520Z 23008KT 10SM CLR 21/17 A2990 880 78 1800 230/08 RMK AO2
14837KMSN MSN20020626092509306/26/02 09:25:31  5-MIN KMSN 261525Z VRB06KT 10SM CLR 21/17 A2990 880 78 1800 VRB/06 RMK AO2
14837KMSN MSN20020626093009306/26/02 09:30:31  5-MIN KMSN 261530Z 21007KT 10SM CLR 21/17 A2990 880 78 1800 210/07 RMK AO2
14837KMSN MSN20020626093509306/26/02 09:35:31  5-MIN KMSN 261535Z 22006KT 10SM CLR 21/17 A2990 890 78 1800 220/06 RMK AO2
14837KMSN MSN20020626094009306/26/02 09:40:31  5-MIN KMSN 261540Z VRB04KT 10SM CLR 21/17 A2990 890 78 1800 VRB/04 RMK AO2
14837KMSN MSN20020626094510906/26/02 09:45:31  5-MIN KMSN 261545Z 22008KT 180V240 10SM CLR 21/17 A2989 890 75 1800 220/08 180V240 RMK AO2
14837KMSN MSN20020626095011006/26/02 09:50:31  5-MIN KMSN 261550Z 21007KT 10SM CLR 21/17 A2989 890 75 1900 210/07 RMK AO2 SLP116 T02110167
14837KMSN MSN20020626095509306/26/02 09:55:31  5-MIN KMSN 261555Z 21005KT 10SM CLR 21/17 A2989 900 75 1900 210/05 RMK AO2
14837KMSN MSN20020626100009306/26/02 10:00:31  5-MIN KMSN 261600Z 23003KT 10SM CLR 22/17 A2989 900 75 1900 230/03 RMK AO2
14837KMSN MSN20020626100509306/26/02 10:05:31  5-MIN KMSN 261605Z VRB06KT 10SM CLR 22/17 A2989 890 75 1900 VRB/06 RMK AO2
14837KMSN MSN20020626101009306/26/02 10:10:31  5-MIN KMSN 261610Z 23005KT 10SM CLR 22/17 A2989 890 73 1900 230/05 RMK AO2
14837KMSN MSN20020626101509306/26/02 10:15:31  5-MIN KMSN 261615Z 22005KT 10SM CLR 22/17 A2988 900 73 2000 220/05 RMK AO2
14837KMSN MSN20020626102009306/26/02 10:20:31  5-MIN KMSN 261620Z 23007KT 10SM CLR 22/17 A2988 900 70 2000 220/07 RMK AO2
14837KMSN MSN20020626102509306/26/02 10:25:31  5-MIN KMSN 261625Z 22006KT 10SM CLR 23/17 A2988 900 70 2000 220/06 RMK AO2
14837KMSN MSN20020626103009306/26/02 10:30:31  5-MIN KMSN 261630Z 22007KT 10SM CLR 23/17 A2988 900 70 2000 220/07 RMK AO2
14837KMSN MSN20020626103509306/26/02 10:35:31  5-MIN KMSN 261635Z 22008KT 10SM CLR 23/17 A2988 900 70 2100 220/08 RMK AO2
14837KMSN MSN20020626104009306/26/02 10:40:31  5-MIN KMSN 261640Z 21007KT 10SM CLR 23/17 A2988 900 66 2100 210/07 RMK AO2
14837KMSN MSN20020626104509306/26/02 10:45:31  5-MIN KMSN 261645Z 22007KT 10SM CLR 23/17 A2988 900 66 2100 210/07 RMK AO2
14837KMSN MSN20020626105011006/26/02 10:50:31  5-MIN KMSN 261650Z 23007KT 10SM CLR 23/17 A2988 900 68 2100 230/07 RMK AO2 SLP113 T02330172
14837KMSN MSN20020626105509306/26/02 10:55:31  5-MIN KMSN 261655Z 22007KT 10SM CLR 23/17 A2988 900 66 2100 220/07 RMK AO2
14837KMSN MSN20020626110009306/26/02 11:00:31  5-MIN KMSN 261700Z 22008KT 10SM CLR 23/17 A2988 900 66 2100 220/08 RMK AO2
14837KMSN MSN20020626110509306/26/02 11:05:31  5-MIN KMSN 261705Z 22007KT 10SM CLR 23/17 A2988 900 68 2100 220/07 RMK AO2
14837KMSN MSN20020626111009306/26/02 11:10:31  5-MIN KMSN 261710Z 22006KT 10SM CLR 24/17 A2988 910 66 2200 220/06 RMK AO2
14837KMSN MSN20020626111509306/26/02 11:15:31  5-MIN KMSN 261715Z 22007KT 10SM CLR 24/17 A2987 910 66 2200 220/07 RMK AO2
14837KMSN MSN20020626112009306/26/02 11:20:31  5-MIN KMSN 261720Z 21008KT 10SM CLR 24/17 A2988 910 63 2200 210/08 RMK AO2
14837KMSN MSN20020626112509306/26/02 11:25:31  5-MIN KMSN 261725Z 23006KT 10SM CLR 24/18 A2988 910 66 2200 220/06 RMK AO2
14837KMSN MSN20020626113009606/26/02 11:30:31  5-MIN KMSN 261730Z VRB05KT 10SM SCT043 25/18 A2987 910 66 2300 VRB/05 RMK AO2
14837KMSN MSN20020626113511206/26/02 11:35:31  5-MIN KMSN 261735Z 24007KT 200V260 10SM FEW043 26/18 A2987 910 62 2400 240/07 200V260 RMK AO2
14837KMSN MSN20020626114009606/26/02 11:40:31  5-MIN KMSN 261740Z VRB06KT 10SM SCT043 27/18 A2987 910 60 2500 VRB/06 RMK AO2
14837KMSN MSN20020626114509606/26/02 11:45:31  5-MIN KMSN 261745Z 22010KT 10SM SCT043 27/18 A2987 910 57 2500 220/10 RMK AO2
14837KMSN MSN20020626115013706/26/02 11:50:31  5-MIN KMSN 261750Z 23008KT 10SM SCT043 26/17 A2987 910 59 2400 230/08 RMK AO2 SLP110 60003 T02560172 10267 20189 55015
14837KMSN MSN20020626115511206/26/02 11:55:31  5-MIN KMSN 261755Z 23007KT 190V260 10SM BKN043 26/18 A2987 910 59 2400 230/07 190V260 RMK AO2
14837KMSN MSN20020626120011206/26/02 12:00:31  5-MIN KMSN 261800Z 23007KT 190V270 10SM BKN045 26/17 A2987 910 59 2400 230/07 190V270 RMK AO2
14837KMSN MSN20020626120509606/26/02 12:05:31  5-MIN KMSN 261805Z VRB06KT 10SM OVC045 26/17 A2987 910 57 2400 VRB/06 RMK AO2
14837KMSN MSN20020626121009606/26/02 12:10:31  5-MIN KMSN 261810Z 22006KT 10SM OVC045 26/18 A2987 910 59 2400 220/06 RMK AO2
14837KMSN MSN20020626121509606/26/02 12:15:31  5-MIN KMSN 261815Z 23008KT 10SM OVC045 26/17 A2986 920 57 2400 220/08 RMK AO2
14837KMSN MSN20020626122009606/26/02 12:20:31  5-MIN KMSN 261820Z 22009KT 10SM OVC045 26/17 A2986 920 57 2400 220/09 RMK AO2
14837KMSN MSN20020626122511206/26/02 12:25:31  5-MIN KMSN 261825Z 24008KT 210V290 10SM OVC045 27/18 A2986 920 57 2500 240/08 210V290 RMK AO2
14837KMSN MSN20020626123009606/26/02 12:30:31  5-MIN KMSN 261830Z 25009KT 10SM BKN045 27/18 A2985 920 57 2500 250/09 RMK AO2
14837KMSN MSN20020626123509606/26/02 12:35:31  5-MIN KMSN 261835Z 22007KT 10SM BKN045 27/18 A2986 920 56 2600 220/07 RMK AO2
14837KMSN MSN20020626124009606/26/02 12:40:31  5-MIN KMSN 261840Z 23008KT 10SM BKN045 27/18 A2985 930 57 2500 220/08 RMK AO2
14837KMSN MSN20020626124511206/26/02 12:45:31  5-MIN KMSN 261845Z 24007KT 210V270 10SM BKN043 27/18 A2985 930 58 2600 240/07 210V270 RMK AO2
14837KMSN MSN20020626125012906/26/02 12:50:31  5-MIN KMSN 261850Z 23008KT 200V270 10SM SCT043 27/19 A2984 940 60 2600 220/08 200V270 RMK AO2 SLP100 T02720189
14837KMSN MSN20020626125509606/26/02 12:55:31  5-MIN KMSN 261855Z 22008KT 10SM FEW043 27/18 A2984 940 58 2600 220/08 RMK AO2
14837KMSN MSN20020626130009606/26/02 13:00:31  5-MIN KMSN 261900Z 23008KT 10SM FEW043 28/19 A2984 930 58 2700 230/08 RMK AO2
14837KMSN MSN20020626130509606/26/02 13:05:31  5-MIN KMSN 261905Z 23008KT 10SM FEW043 27/19 A2984 930 60 2600 220/08 RMK AO2
14837KMSN MSN20020626131009606/26/02 13:10:31  5-MIN KMSN 261910Z 22008KT 10SM SCT043 28/19 A2984 940 58 2700 220/08 RMK AO2
14837KMSN MSN20020626131511206/26/02 13:15:31  5-MIN KMSN 261915Z 24007KT 200V270 10SM SCT043 28/19 A2984 940 60 2700 240/07 200V270 RMK AO2
14837KMSN MSN20020626132011806/26/02 13:20:31  5-MIN KMSN 261920Z 25007G15KT 220V280 10SM SCT043 28/19 A2984 940 58 2700 250/07G15 220V280 RMK AO2
14837KMSN MSN20020626132511806/26/02 13:25:31  5-MIN KMSN 261925Z 25007G15KT 220V280 10SM SCT043 28/19 A2984 940 58 2700 250/07G15 220V280 RMK AO2
14837KMSN MSN20020626133010206/26/02 13:30:31  5-MIN KMSN 261930Z 26007G15KT 10SM SCT043 28/19 A2984 940 60 2700 260/07G15 RMK AO2
14837KMSN MSN20020626133510206/26/02 13:35:31  5-MIN KMSN 261935Z 26010G17KT 10SM SCT043 28/19 A2984 940 60 2700 260/10G17 RMK AO2
14837KMSN MSN20020626134010206/26/02 13:40:31  5-MIN KMSN 261940Z 28007G17KT 10SM SCT043 28/19 A2984 940 58 2700 270/07G17 RMK AO2
14837KMSN MSN20020626134509606/26/02 13:45:31  5-MIN KMSN 261945Z 25008KT 10SM SCT043 28/19 A2983 940 60 2700 250/08 RMK AO2
14837KMSN MSN20020626135011306/26/02 13:50:31  5-MIN KMSN 261950Z 25008KT 10SM SCT043 28/19 A2983 940 60 2700 240/08 RMK AO2 SLP096 T02780194
14837KMSN MSN20020626135509306/26/02 13:55:31  5-MIN KMSN 261955Z 29008KT 10SM CLR 28/20 A2983 940 62 2700 290/08 RMK AO2
14837KMSN MSN20020626140010206/26/02 14:00:31  5-MIN KMSN 262000Z 26009G14KT 10SM SCT045 28/20 A2984 940 62 2700 260/09G14 RMK AO2
14837KMSN MSN20020626140511806/26/02 14:05:31  5-MIN KMSN 262005Z 28010G15KT 220V310 10SM SCT045 28/20 A2983 940 60 2700 270/10G15 220V310 RMK AO2
14837KMSN MSN20020626141010206/26/02 14:10:31  5-MIN KMSN 262010Z VRB06G15KT 10SM SCT045 28/20 A2983 950 60 2700 VRB/06G15 RMK AO2
14837KMSN MSN20020626141511206/26/02 14:15:31  5-MIN KMSN 262015Z 25008KT 220V280 10SM BKN033 28/20 A2983 950 62 2700 250/08 220V280 RMK AO2
14837KMSN MSN20020626142009606/26/02 14:20:31  5-MIN KMSN 262020Z VRB05KT 10SM BKN033 28/20 A2983 950 62 2700 VRB/05 RMK AO2
14837KMSN MSN20020626142509606/26/02 14:25:31  5-MIN KMSN 262025Z VRB06KT 10SM BKN033 28/21 A2983 950 64 2700 VRB/06 RMK AO2
14837KMSN MSN20020626143009606/26/02 14:30:31  5-MIN KMSN 262030Z 25006KT 10SM BKN033 28/21 A2983 950 64 2700 250/06 RMK AO2
14837KMSN MSN20020626143510206/26/02 14:35:31  5-MIN KMSN 262035Z 26008G14KT 10SM BKN033 27/20 A2983 950 64 2600 260/08G14 RMK AO2
14837KMSN MSN20020626144011806/26/02 14:40:31  5-MIN KMSN 262040Z 24007G14KT 200V280 10SM BKN033 28/21 A2982 960 64 2700 240/07G14 200V280 RMK AO2
14837KMSN MSN20020626144509606/26/02 14:45:31  5-MIN KMSN 262045Z 28009KT 10SM BKN033 28/21 A2982 960 62 2700 270/09 RMK AO2
14837KMSN MSN20020626145013506/26/02 14:50:31  5-MIN KMSN 262050Z 28010KT 240V320 10SM SCT033 28/20 A2982 960 62 2700 280/10 240V320 RMK AO2 SLP091 T02780200 56010
14837KMSN MSN20020626145511206/26/02 14:55:31  5-MIN KMSN 262055Z 25007KT 200V320 10SM BKN033 27/21 A2982 960 66 2600 250/07 200V320 RMK AO2
14837KMSN MSN20020626150009606/26/02 15:00:31  5-MIN KMSN 262100Z VRB06KT 10SM SCT033 28/21 A2982 960 64 2700 VRB/06 RMK AO2
14837KMSN MSN20020626150511906/26/02 15:05:31  5-MIN KMSN 262105Z 24007KT 210V280 10SM SCT032 SCT040 28/21 A2981 960 64 2700 240/07 210V280 RMK AO2
14837KMSN MSN20020626151009606/26/02 15:10:31  5-MIN KMSN 262110Z VRB06KT 10SM SCT034 28/21 A2981 970 62 2800 VRB/06 RMK AO2
14837KMSN MSN20020626151509606/26/02 15:15:31  5-MIN KMSN 262115Z 26008KT 10SM SCT032 28/21 A2981 970 62 2800 260/08 RMK AO2
14837KMSN MSN20020626152011206/26/02 15:20:31  5-MIN KMSN 262120Z 26008KT 220V290 10SM FEW032 28/20 A2981 970 62 2700 260/08 220V290 RMK AO2
14837KMSN MSN20020626152511206/26/02 15:25:31  5-MIN KMSN 262125Z 25008KT 220V290 10SM BKN032 28/21 A2981 970 64 2700 250/08 220V290 RMK AO2
14837KMSN MSN20020626153011206/26/02 15:30:31  5-MIN KMSN 262130Z 25008KT 220V280 10SM BKN032 28/21 A2981 970 64 2700 250/08 220V280 RMK AO2
14837KMSN MSN20020626153509606/26/02 15:35:31  5-MIN KMSN 262135Z VRB06KT 10SM BKN032 27/21 A2980 970 66 2600 VRB/06 RMK AO2
14837KMSN MSN20020626154010906/26/02 15:40:31  5-MIN KMSN 262140Z 27009G14KT 10SM FEW032 SCT042 27/20 A2981 970 64 2600 270/09G14 RMK AO2
14837KMSN MSN20020626154510906/26/02 15:45:31  5-MIN KMSN 262145Z VRB06G14KT 10SM FEW032 SCT060 28/21 A2980 980 64 2700 VRB/06G14 RMK AO2
14837KMSN MSN20020626155011306/26/02 15:50:31  5-MIN KMSN 262150Z VRB05KT 10SM FEW032 28/21 A2980 980 64 2700 VRB/05 RMK AO2 SLP086 T02780206
14837KMSN MSN20020626155509606/26/02 15:55:31  5-MIN KMSN 262155Z 24007KT 10SM FEW034 28/21 A2980 980 64 2700 240/07 RMK AO2
14837KMSN MSN20020626160011906/26/02 16:00:31  5-MIN KMSN 262200Z 27007KT 220V290 10SM FEW034 SCT060 27/21 A2979 980 66 2600 270/07 220V290 RMK AO2
14837KMSN MSN20020626160510306/26/02 16:05:31  5-MIN KMSN 262205Z 29009KT 10SM FEW034 SCT060 27/21 A2979 990 66 2700 290/09 RMK AO2
14837KMSN MSN20020626161010306/26/02 16:10:31  5-MIN KMSN 262210Z 27006KT 10SM FEW034 SCT060 27/21 A2979 990 66 2700 270/06 RMK AO2
14837KMSN MSN20020626161510306/26/02 16:15:31  5-MIN KMSN 262215Z 28006KT 10SM FEW034 SCT060 27/21 A2978 990 66 2700 280/06 RMK AO2
14837KMSN MSN20020626162010306/26/02 16:20:31  5-MIN KMSN 262220Z 25006KT 10SM FEW034 SCT060 27/21 A2978 990 66 2700 250/06 RMK AO2
14837KMSN MSN20020626162510306/26/02 16:25:31  5-MIN KMSN 262225Z VRB06KT 10SM FEW034 SCT060 27/21 A2978 990 69 2700 VRB/06 RMK AO2
14837KMSN MSN20020626163011206/26/02 16:30:31  5-MIN KMSN 262230Z 25007KT 220V290 10SM FEW026 27/21 A2978 990 66 2700 250/07 220V290 RMK AO2
14837KMSN MSN20020626163511206/26/02 16:35:31  5-MIN KMSN 262235Z 26007KT 230V300 10SM FEW026 27/21 A2979 990 69 2700 260/07 230V300 RMK AO2
14837KMSN MSN20020626164009606/26/02 16:40:31  5-MIN KMSN 262240Z VRB06KT 10SM FEW026 27/21 A2979 990 69 2600 VRB/06 RMK AO2
14837KMSN MSN20020626164509606/26/02 16:45:31  5-MIN KMSN 262245Z 25008KT 10SM FEW028 27/21 A2979 990 66 2700 250/08 RMK AO2
14837KMSN MSN20020626165011306/26/02 16:50:31  5-MIN KMSN 262250Z VRB06KT 10SM FEW028 27/21 A2979 990 69 2700 VRB/06 RMK AO2 SLP082 T02720211
14837KMSN MSN20020626165511906/26/02 16:55:31  5-MIN KMSN 262255Z 27007KT 210V320 10SM FEW028 SCT036 27/21 A2979 980 69 2700 270/07 210V320 RMK AO2
14837KMSN MSN20020626170012506/26/02 17:00:31  5-MIN KMSN 262300Z 27007G14KT 230V320 10SM FEW028 SCT036 27/21 A2979 980 66 2700 270/07G14 230V320 RMK AO2
14837KMSN MSN20020626170510306/26/02 17:05:31  5-MIN KMSN 262305Z VRB05KT 10SM FEW028 SCT036 27/21 A2979 990 69 2600 VRB/05 RMK AO2
14837KMSN MSN20020626171010306/26/02 17:10:31  5-MIN KMSN 262310Z VRB05KT 10SM FEW028 SCT036 27/21 A2979 990 69 2700 VRB/05 RMK AO2
14837KMSN MSN20020626171510306/26/02 17:15:31  5-MIN KMSN 262315Z VRB06KT 10SM FEW028 SCT036 27/21 A2979 980 69 2600 VRB/06 RMK AO2
14837KMSN MSN20020626172009606/26/02 17:20:31  5-MIN KMSN 262320Z 24007KT 10SM SCT028 26/21 A2979 980 71 2500 240/07 RMK AO2
14837KMSN MSN20020626172511206/26/02 17:25:31  5-MIN KMSN 262325Z 25008KT 200V280 10SM BKN028 26/21 A2979 980 71 2500 250/08 200V280 RMK AO2
14837KMSN MSN20020626173011206/26/02 17:30:31  5-MIN KMSN 262330Z 25007KT 220V290 10SM SCT028 26/21 A2979 990 71 2500 250/07 220V290 RMK AO2
14837KMSN MSN20020626173509606/26/02 17:35:31  5-MIN KMSN 262335Z VRB04KT 10SM FEW028 26/21 A2979 990 71 2500 VRB/04 RMK AO2
14837KMSN MSN20020626174009606/26/02 17:40:31  5-MIN KMSN 262340Z VRB06KT 10SM FEW028 26/21 A2979 980 73 2500 VRB/06 RMK AO2
14837KMSN MSN20020626174509606/26/02 17:45:31  5-MIN KMSN 262345Z VRB06KT 10SM FEW028 26/21 A2979 980 73 2500 VRB/06 RMK AO2
14837KMSN MSN20020626175013106/26/02 17:50:31  5-MIN KMSN 262350Z VRB06KT 10SM FEW028 26/21 A2979 980 73 2500 VRB/06 RMK AO2 SLP084 T02610211 10283 20256 56018
14837KMSN MSN20020626175509306/26/02 17:55:31  5-MIN KMSN 262355Z 25007KT 10SM CLR 26/21 A2979 980 71 2500 250/07 RMK AO2
14837KMSN MSN20020626180009306/26/02 18:00:31  5-MIN KMSN 270000Z VRB05KT 10SM CLR 26/21 A2979 980 73 2500 VRB/05 RMK AO2
14837KMSN MSN20020626180509306/26/02 18:05:31  5-MIN KMSN 270005Z VRB06KT 10SM CLR 26/21 A2979 980 73 2500 VRB/06 RMK AO2
14837KMSN MSN20020626181009606/26/02 18:10:31  5-MIN KMSN 270010Z 24004KT 10SM FEW032 26/21 A2980 980 73 2500 240/04 RMK AO2
14837KMSN MSN20020626181509606/26/02 18:15:31  5-MIN KMSN 270015Z VRB05KT 10SM FEW028 26/21 A2980 980 73 2500 VRB/05 RMK AO2
14837KMSN MSN20020626182009606/26/02 18:20:31  5-MIN KMSN 270020Z VRB05KT 10SM FEW028 26/21 A2980 980 73 2500 VRB/05 RMK AO2
14837KMSN MSN20020626182509506/26/02 18:25:31  5-MIN KMSN 270025Z VRB05KT 9SM FEW028 26/21 A2980 980 76 2500 VRB/05 RMK AO2
14837KMSN MSN20020626183009606/26/02 18:30:31  5-MIN KMSN 270030Z VRB05KT 10SM FEW030 26/21 A2980 980 76 2500 VRB/05 RMK AO2
14837KMSN MSN20020626183509606/26/02 18:35:31  5-MIN KMSN 270035Z 27004KT 10SM FEW030 26/21 A2980 980 76 2500 270/04 RMK AO2
14837KMSN MSN20020626184009606/26/02 18:40:31  5-MIN KMSN 270040Z VRB04KT 10SM FEW030 26/21 A2980 970 76 2500 VRB/04 RMK AO2
14837KMSN MSN20020626184509306/26/02 18:45:31  5-MIN KMSN 270045Z 24005KT 10SM CLR 26/21 A2980 970 76 2500 240/05 RMK AO2
14837KMSN MSN20020626185011306/26/02 18:50:31  5-MIN KMSN 270050Z VRB04KT 10SM FEW030 26/21 A2980 970 76 2500 VRB/04 RMK AO2 SLP087 T02560211
14837KMSN MSN20020626185511206/26/02 18:55:31  5-MIN KMSN 270055Z 25007KT 220V280 10SM FEW030 26/21 A2980 980 76 2500 250/07 220V280 RMK AO2
14837KMSN MSN20020626190009606/26/02 19:00:31  5-MIN KMSN 270100Z VRB06KT 10SM FEW030 26/21 A2980 970 76 2500 VRB/06 RMK AO2
14837KMSN MSN20020626190509606/26/02 19:05:31  5-MIN KMSN 270105Z 26005KT 10SM FEW030 26/21 A2981 970 76 2400 260/05 RMK AO2
14837KMSN MSN20020626191009606/26/02 19:10:31  5-MIN KMSN 270110Z 33006KT 10SM SCT026 26/21 A2981 970 76 2400 330/06 RMK AO2
14837KMSN MSN20020626191509606/26/02 19:15:31  5-MIN KMSN 270115Z 31007KT 10SM SCT026 26/21 A2981 960 76 2400 310/07 RMK AO2
14837KMSN MSN20020626192009606/26/02 19:20:31  5-MIN KMSN 270120Z 31004KT 10SM SCT026 25/21 A2981 960 76 2400 310/04 RMK AO2
14837KMSN MSN20020626192509606/26/02 19:25:31  5-MIN KMSN 270125Z 32007KT 10SM SCT026 25/21 A2982 960 76 2400 320/07 RMK AO2
14837KMSN MSN20020626193011006/26/02 19:30:31  5-MIN KMSN 270130Z 32009KT 10SM SCT022 BKN031 BKN041 25/21 A2982 960 76 2400 320/09 RMK AO2
14837KMSN MSN20020626193511006/26/02 19:35:31  5-MIN KMSN 270135Z VRB05KT 10SM SCT022 SCT031 BKN042 24/19 A2982 960 71 2300 VRB/05 RMK AO2
14837KMSN MSN20020626194011006/26/02 19:40:31  5-MIN KMSN 270140Z 31004KT 10SM FEW022 SCT031 SCT043 24/19 A2982 960 71 2300 310/04 RMK AO2
14837KMSN MSN20020626194511006/26/02 19:45:31  5-MIN KMSN 270145Z 33006KT 10SM FEW025 SCT033 BKN041 24/19 A2982 960 71 2300 330/06 RMK AO2
14837KMSN MSN20020626195012706/26/02 19:50:31  5-MIN KMSN 270150Z 32005KT 10SM FEW020 SCT029 SCT040 24/19 A2982 960 73 2300 320/05 RMK AO2 SLP092 T02440194
14837KMSN MSN20020626195509606/26/02 19:55:31  5-MIN KMSN 270155Z VRB04KT 10SM FEW022 24/20 A2982 960 78 2300 VRB/04 RMK AO2
14837KMSN MSN20020626200009606/26/02 20:00:31  5-MIN KMSN 270200Z 34004KT 10SM FEW034 24/20 A2982 960 78 2200 340/04 RMK AO2
14837KMSN MSN20020626200509606/26/02 20:05:31  5-MIN KMSN 270205Z 34007KT 10SM FEW034 24/19 A2982 960 76 2200 340/07 RMK AO2
14837KMSN MSN20020626201009306/26/02 20:10:31  5-MIN KMSN 270210Z VRB06KT 10SM CLR 24/19 A2982 960 76 2200 VRB/06 RMK AO2
14837KMSN MSN20020626201509306/26/02 20:15:31  5-MIN KMSN 270215Z 34008KT 10SM CLR 23/19 A2982 950 76 2200 330/08 RMK AO2
14837KMSN MSN20020626202009306/26/02 20:20:31  5-MIN KMSN 270220Z 33008KT 10SM CLR 23/18 A2983 950 73 2200 330/08 RMK AO2
14837KMSN MSN20020626202509306/26/02 20:25:31  5-MIN KMSN 270225Z 33008KT 10SM CLR 23/18 A2983 950 73 2200 330/08 RMK AO2
14837KMSN MSN20020626203009306/26/02 20:30:31  5-MIN KMSN 270230Z 33009KT 10SM CLR 23/18 A2983 950 73 2200 330/09 RMK AO2
14837KMSN MSN20020626203509606/26/02 20:35:31  5-MIN KMSN 270235Z 33008KT 10SM FEW046 23/18 A2983 940 73 2200 330/08 RMK AO2
14837KMSN MSN20020626204009606/26/02 20:40:31  5-MIN KMSN 270240Z 33008KT 10SM FEW046 23/18 A2984 940 73 2100 330/08 RMK AO2
14837KMSN MSN20020626204509606/26/02 20:45:31  5-MIN KMSN 270245Z 34006KT 10SM FEW046 23/18 A2984 940 73 2100 340/06 RMK AO2
14837KMSN MSN20020626205011906/26/02 20:50:31  5-MIN KMSN 270250Z 35006KT 10SM FEW046 23/18 A2984 930 73 2100 350/06 RMK AO2 SLP102 T02280178 55008
14837KMSN MSN20020626205509306/26/02 20:55:31  5-MIN KMSN 270255Z VRB04KT 10SM CLR 22/18 A2985 930 75 2000 VRB/04 RMK AO2
14837KMSN MSN20020626210009306/26/02 21:00:31  5-MIN KMSN 270300Z 33004KT 10SM CLR 22/17 A2985 930 73 2000 330/04 RMK AO2
14837KMSN MSN20020626210509306/26/02 21:05:31  5-MIN KMSN 270305Z 33003KT 10SM CLR 22/17 A2986 920 73 2000 330/03 RMK AO2
14837KMSN MSN20020626211009306/26/02 21:10:31  5-MIN KMSN 270310Z VRB03KT 10SM CLR 22/17 A2986 920 73 2000 VRB/03 RMK AO2
14837KMSN MSN20020626211509306/26/02 21:15:31  5-MIN KMSN 270315Z 33004KT 10SM CLR 22/17 A2986 920 75 1900 330/04 RMK AO2
14837KMSN MSN20020626212009306/26/02 21:20:31  5-MIN KMSN 270320Z VRB03KT 10SM CLR 22/17 A2986 920 75 2000 VRB/03 RMK AO2
14837KMSN MSN20020626212510406/26/02 21:25:31  5-MIN KMSN 270325Z 31004KT 10SM CLR 21/17 A2986 920 78 1900 310/04 RMK AO2 LTG DSNT E
14837KMSN MSN20020626213010406/26/02 21:30:31  5-MIN KMSN 270330Z 30004KT 10SM CLR 22/17 A2986 920 75 1900 300/04 RMK AO2 LTG DSNT E
14837KMSN MSN20020626213509306/26/02 21:35:31  5-MIN KMSN 270335Z 31005KT 10SM CLR 22/17 A2986 920 75 1900 310/05 RMK AO2
14837KMSN MSN20020626214009306/26/02 21:40:31  5-MIN KMSN 270340Z 31005KT 10SM CLR 21/17 A2986 920 75 1900 310/05 RMK AO2
14837KMSN MSN20020626214509306/26/02 21:45:31  5-MIN KMSN 270345Z 32004KT 10SM CLR 21/17 A2986 920 75 1900 320/04 RMK AO2
14837KMSN MSN20020626215011006/26/02 21:50:31  5-MIN KMSN 270350Z 32006KT 10SM CLR 21/17 A2985 930 75 1900 320/06 RMK AO2 SLP105 T02110167
14837KMSN MSN20020626215509306/26/02 21:55:31  5-MIN KMSN 270355Z 32005KT 10SM CLR 21/17 A2985 930 75 1900 320/05 RMK AO2
14837KMSN MSN20020626220009306/26/02 22:00:31  5-MIN KMSN 270400Z 32006KT 10SM CLR 21/17 A2985 930 75 1900 320/06 RMK AO2
14837KMSN MSN20020626220509306/26/02 22:05:31  5-MIN KMSN 270405Z 32007KT 10SM CLR 21/17 A2985 930 78 1800 320/07 RMK AO2
14837KMSN MSN20020626221009306/26/02 22:10:31  5-MIN KMSN 270410Z 32005KT 10SM CLR 21/16 A2985 930 75 1800 320/05 RMK AO2
14837KMSN MSN20020626221509306/26/02 22:15:31  5-MIN KMSN 270415Z 32006KT 10SM CLR 21/16 A2984 940 75 1800 320/06 RMK AO2
14837KMSN MSN20020626222009306/26/02 22:20:31  5-MIN KMSN 270420Z 32005KT 10SM CLR 21/17 A2984 940 78 1800 320/05 RMK AO2
14837KMSN MSN20020626222509306/26/02 22:25:31  5-MIN KMSN 270425Z 33005KT 10SM CLR 21/16 A2984 940 75 1800 320/05 RMK AO2
14837KMSN MSN20020626223009306/26/02 22:30:31  5-MIN KMSN 270430Z 33006KT 10SM CLR 21/16 A2984 940 75 1800 320/06 RMK AO2
14837KMSN MSN20020626223509306/26/02 22:35:31  5-MIN KMSN 270435Z 32007KT 10SM CLR 21/16 A2983 940 75 1800 320/07 RMK AO2
14837KMSN MSN20020626224009306/26/02 22:40:31  5-MIN KMSN 270440Z 33007KT 10SM CLR 21/16 A2983 940 75 1800 330/07 RMK AO2
14837KMSN MSN20020626224509306/26/02 22:45:31  5-MIN KMSN 270445Z 33006KT 10SM CLR 21/16 A2983 940 75 1800 330/06 RMK AO2
14837KMSN MSN20020626225011006/26/02 22:50:31  5-MIN KMSN 270450Z 32006KT 10SM CLR 21/16 A2983 940 73 1800 320/06 RMK AO2 SLP098 T02060156
14837KMSN MSN20020626225509306/26/02 22:55:31  5-MIN KMSN 270455Z 32007KT 10SM CLR 21/16 A2983 950 73 1900 320/07 RMK AO2
14837KMSN MSN20020626230009306/26/02 23:00:31  5-MIN KMSN 270500Z 31007KT 10SM CLR 21/16 A2984 940 73 1800 310/07 RMK AO2
14837KMSN MSN20020626230509306/26/02 23:05:31  5-MIN KMSN 270505Z 32007KT 10SM CLR 21/16 A2984 940 73 1800 320/07 RMK AO2
14837KMSN MSN20020626231009306/26/02 23:10:31  5-MIN KMSN 270510Z 33005KT 10SM CLR 20/16 A2984 940 75 1800 320/05 RMK AO2
14837KMSN MSN20020626231509306/26/02 23:15:31  5-MIN KMSN 270515Z 32004KT 10SM CLR 20/16 A2984 940 75 1800 320/04 RMK AO2
14837KMSN MSN20020626232009306/26/02 23:20:31  5-MIN KMSN 270520Z 31004KT 10SM CLR 20/16 A2984 930 75 1800 310/04 RMK AO2
14837KMSN MSN20020626232509306/26/02 23:25:31  5-MIN KMSN 270525Z 30003KT 10SM CLR 20/16 A2985 930 75 1800 300/03 RMK AO2
14837KMSN MSN20020626233009306/26/02 23:30:31  5-MIN KMSN 270530Z 32003KT 10SM CLR 20/16 A2985 930 75 1800 320/03 RMK AO2
14837KMSN MSN20020626233509306/26/02 23:35:31  5-MIN KMSN 270535Z 30003KT 10SM CLR 19/16 A2985 930 78 1700 300/03 RMK AO2
14837KMSN MSN20020626234009306/26/02 23:40:31  5-MIN KMSN 270540Z 31004KT 10SM CLR 19/16 A2985 930 78 1700 300/04 RMK AO2
14837KMSN MSN20020626234509306/26/02 23:45:31  5-MIN KMSN 270545Z 32003KT 10SM CLR 19/16 A2985 930 78 1700 320/03 RMK AO2
14837KMSN MSN20020626235013706/26/02 23:50:31  5-MIN KMSN 270550Z 33003KT 9SM CLR 19/16 A2985 930 78 1700 330/03 RMK AO2 SLP102 T01940156 10261 20194 402830178 53018
14837KMSN MSN20020626235509206/26/02 23:55:31  5-MIN KMSN 270555Z 32004KT 9SM CLR 19/16 A2985 930 81 1600 320/04 RMK AO2
14837KMSN MSN20020627000009306/27/02 00:00:31  5-MIN KMSN 270600Z 31005KT 10SM CLR 19/16 A2985 930 81 1600 310/05 RMK AO2
14837KMSN MSN20020627000509306/27/02 00:05:31  5-MIN KMSN 270605Z 32005KT 10SM CLR 19/16 A2985 930 81 1600 320/05 RMK AO2
14837KMSN MSN20020627001009306/27/02 00:10:31  5-MIN KMSN 270610Z 32004KT 10SM CLR 19/16 A2985 930 81 1600 320/04 RMK AO2
14837KMSN MSN20020627001509306/27/02 00:15:31  5-MIN KMSN 270615Z 33004KT 10SM CLR 19/16 A2985 930 81 1600 330/04 RMK AO2
14837KMSN MSN20020627002009306/27/02 00:20:31  5-MIN KMSN 270620Z 00000KT 10SM CLR 19/15 A2986 920 75 1700 000/00 RMK AO2
14837KMSN MSN20020627002509306/27/02 00:25:31  5-MIN KMSN 270625Z 32003KT 10SM CLR 19/15 A2986 920 78 1600 320/03 RMK AO2
14837KMSN MSN20020627003009306/27/02 00:30:31  5-MIN KMSN 270630Z 00000KT 10SM CLR 19/16 A2986 920 81 1600 000/00 RMK AO2
14837KMSN MSN20020627003509306/27/02 00:35:31  5-MIN KMSN 270635Z 00000KT 10SM CLR 18/16 A2986 920 84 1600 000/00 RMK AO2
14837KMSN MSN20020627004009306/27/02 00:40:31  5-MIN KMSN 270640Z 00000KT 10SM CLR 18/16 A2986 920 84 1600 000/00 RMK AO2
14837KMSN MSN20020627004509306/27/02 00:45:31  5-MIN KMSN 270645Z 00000KT 10SM CLR 18/16 A2986 920 84 1600 000/00 RMK AO2
14837KMSN MSN20020627005011006/27/02 00:50:31  5-MIN KMSN 270650Z 00000KT 10SM CLR 18/16 A2986 920 84 1600 000/00 RMK AO2 SLP105 T01830156
14837KMSN MSN20020627005509306/27/02 00:55:31  5-MIN KMSN 270655Z 00000KT 10SM CLR 17/15 A2986 920 87 1400 000/00 RMK AO2
14837KMSN MSN20020627010009306/27/02 01:00:31  5-MIN KMSN 270700Z 00000KT 10SM CLR 18/16 A2986 920 87 1500 000/00 RMK AO2
14837KMSN MSN20020627010509306/27/02 01:05:31  5-MIN KMSN 270705Z 00000KT 10SM CLR 17/16 A2986 920 90 1400 000/00 RMK AO2
14837KMSN MSN20020627011009306/27/02 01:10:31  5-MIN KMSN 270710Z 00000KT 10SM CLR 17/16 A2986 920 90 1400 000/00 RMK AO2
14837KMSN MSN20020627011509306/27/02 01:15:31  5-MIN KMSN 270715Z 00000KT 10SM CLR 17/16 A2985 920 90 1400 000/00 RMK AO2
14837KMSN MSN20020627012009306/27/02 01:20:31  5-MIN KMSN 270720Z 00000KT 10SM CLR 17/16 A2985 930 90 1400 000/00 RMK AO2
14837KMSN MSN20020627012509306/27/02 01:25:31  5-MIN KMSN 270725Z 00000KT 10SM CLR 17/16 A2985 930 93 1400 000/00 RMK AO2
14837KMSN MSN20020627013009306/27/02 01:30:31  5-MIN KMSN 270730Z 00000KT 10SM CLR 17/16 A2985 930 93 1400 000/00 RMK AO2
14837KMSN MSN20020627013509306/27/02 01:35:31  5-MIN KMSN 270735Z 00000KT 10SM CLR 17/15 A2985 930 90 1400 000/00 RMK AO2
14837KMSN MSN20020627014009306/27/02 01:40:31  5-MIN KMSN 270740Z 00000KT 10SM CLR 17/15 A2985 930 90 1400 000/00 RMK AO2
14837KMSN MSN20020627014509306/27/02 01:45:31  5-MIN KMSN 270745Z 00000KT 10SM CLR 16/15 A2985 930 93 1300 000/00 RMK AO2
14837KMSN MSN20020627015011006/27/02 01:50:31  5-MIN KMSN 270750Z 00000KT 10SM CLR 16/15 A2985 930 93 1300 000/00 RMK AO2 SLP105 T01610150
14837KMSN MSN20020627015509306/27/02 01:55:31  5-MIN KMSN 270755Z 29004KT 10SM CLR 16/15 A2985 930 93 1300 290/04 RMK AO2
14837KMSN MSN20020627020009306/27/02 02:00:31  5-MIN KMSN 270800Z 29004KT 10SM CLR 16/15 A2985 930 93 1300 290/04 RMK AO2
14837KMSN MSN20020627020509306/27/02 02:05:31  5-MIN KMSN 270805Z 28004KT 10SM CLR 16/15 A2985 930 93 1300 280/04 RMK AO2
14837KMSN MSN20020627021009306/27/02 02:10:31  5-MIN KMSN 270810Z 29004KT 10SM CLR 16/15 A2985 930 93 1300 280/04 RMK AO2
14837KMSN MSN20020627021509306/27/02 02:15:31  5-MIN KMSN 270815Z 29004KT 10SM CLR 17/15 A2985 930 90 1400 290/04 RMK AO2
14837KMSN MSN20020627022009306/27/02 02:20:31  5-MIN KMSN 270820Z 27003KT 10SM CLR 17/15 A2985 930 87 1400 270/03 RMK AO2
14837KMSN MSN20020627022509306/27/02 02:25:31  5-MIN KMSN 270825Z 28003KT 10SM CLR 17/15 A2985 930 87 1400 280/03 RMK AO2
14837KMSN MSN20020627023009306/27/02 02:30:31  5-MIN KMSN 270830Z 28004KT 10SM CLR 17/15 A2986 920 87 1400 280/04 RMK AO2
14837KMSN MSN20020627023509306/27/02 02:35:31  5-MIN KMSN 270835Z 29004KT 10SM CLR 17/15 A2986 920 87 1400 280/04 RMK AO2
14837KMSN MSN20020627024009306/27/02 02:40:31  5-MIN KMSN 270840Z 27003KT 10SM CLR 18/15 A2986 920 83 1500 270/03 RMK AO2
14837KMSN MSN20020627024509306/27/02 02:45:31  5-MIN KMSN 270845Z 27003KT 10SM CLR 18/15 A2986 920 83 1500 270/03 RMK AO2
14837KMSN MSN20020627025011606/27/02 02:50:31  5-MIN KMSN 270850Z 00000KT 10SM CLR 18/16 A2986 920 87 1500 000/00 RMK AO2 SLP107 T01780156 53000
14837KMSN MSN20020627025509606/27/02 02:55:31  5-MIN KMSN 270855Z 00000KT 10SM FEW047 18/16 A2986 920 87 1500 000/00 RMK AO2
14837KMSN MSN20020627030009606/27/02 03:00:31  5-MIN KMSN 270900Z 00000KT 10SM SCT047 18/15 A2986 920 81 1600 000/00 RMK AO2
14837KMSN MSN20020627030509606/27/02 03:05:31  5-MIN KMSN 270905Z 00000KT 10SM SCT047 18/15 A2986 920 81 1600 000/00 RMK AO2
14837KMSN MSN20020627031010306/27/02 03:10:31  5-MIN KMSN 270910Z 00000KT 10SM SCT047 BKN065 18/15 A2986 920 81 1600 000/00 RMK AO2
14837KMSN MSN20020627031510306/27/02 03:15:31  5-MIN KMSN 270915Z 27003KT 10SM SCT047 BKN065 18/15 A2987 920 83 1500 260/03 RMK AO2
14837KMSN MSN20020627032010306/27/02 03:20:31  5-MIN KMSN 270920Z 28003KT 10SM SCT047 BKN065 17/15 A2986 920 87 1400 280/03 RMK AO2
14837KMSN MSN20020627032510306/27/02 03:25:31  5-MIN KMSN 270925Z 00000KT 10SM FEW047 OVC065 17/15 A2986 920 87 1400 000/00 RMK AO2
14837KMSN MSN20020627033010306/27/02 03:30:31  5-MIN KMSN 270930Z 00000KT 10SM FEW047 BKN065 17/15 A2986 920 90 1400 000/00 RMK AO2
14837KMSN MSN20020627033510306/27/02 03:35:31  5-MIN KMSN 270935Z 29003KT 10SM FEW046 BKN065 17/15 A2987 920 87 1400 290/03 RMK AO2
14837KMSN MSN20020627034010306/27/02 03:40:31  5-MIN KMSN 270940Z 29003KT 10SM FEW048 BKN065 17/15 A2986 920 87 1400 290/03 RMK AO2
14837KMSN MSN20020627034510306/27/02 03:45:31  5-MIN KMSN 270945Z 00000KT 10SM FEW050 SCT065 17/15 A2986 920 87 1400 000/00 RMK AO2
14837KMSN MSN20020627035012706/27/02 03:50:31  5-MIN KMSN 270950Z 00000KT 10SM FEW038 SCT049 BKN060 17/16 A2986 920 93 1400 000/00 RMK AO2 SLP109 T01670156
14837KMSN MSN20020627035511006/27/02 03:55:31  5-MIN KMSN 270955Z 00000KT 10SM FEW038 SCT049 BKN055 17/16 A2986 920 90 1400 000/00 RMK AO2
14837KMSN MSN20020627040010306/27/02 04:00:31  5-MIN KMSN 271000Z 00000KT 10SM FEW038 BKN060 17/16 A2986 920 90 1400 000/00 RMK AO2
14837KMSN MSN20020627040510306/27/02 04:05:31  5-MIN KMSN 271005Z 28003KT 10SM FEW040 BKN060 17/16 A2986 920 90 1400 280/03 RMK AO2
14837KMSN MSN20020627041010306/27/02 04:10:31  5-MIN KMSN 271010Z 28004KT 10SM FEW040 OVC060 17/16 A2986 920 90 1400 270/04 RMK AO2
14837KMSN MSN20020627041510306/27/02 04:15:31  5-MIN KMSN 271015Z 28004KT 10SM FEW040 OVC055 18/16 A2986 920 84 1600 270/04 RMK AO2
14837KMSN MSN20020627042009606/27/02 04:20:31  5-MIN KMSN 271020Z 28004KT 10SM OVC055 18/16 A2986 920 84 1600 270/04 RMK AO2
14837KMSN MSN20020627042509606/27/02 04:25:31  5-MIN KMSN 271025Z 28003KT 10SM BKN055 18/16 A2986 920 84 1600 280/03 RMK AO2
14837KMSN MSN20020627043009606/27/02 04:30:31  5-MIN KMSN 271030Z VRB03KT 10SM BKN055 18/16 A2985 930 84 1600 VRB/03 RMK AO2
14837KMSN MSN20020627043509606/27/02 04:35:31  5-MIN KMSN 271035Z 29004KT 10SM SCT055 18/16 A2985 930 84 1600 290/04 RMK AO2
14837KMSN MSN20020627044009606/27/02 04:40:31  5-MIN KMSN 271040Z 28005KT 10SM FEW055 18/16 A2985 930 87 1600 280/05 RMK AO2
14837KMSN MSN20020627044509606/27/02 04:45:31  5-MIN KMSN 271045Z 28005KT 10SM FEW055 18/16 A2985 930 87 1600 280/05 RMK AO2
14837KMSN MSN20020627045011006/27/02 04:50:31  5-MIN KMSN 271050Z 28005KT 10SM CLR 18/16 A2985 930 87 1600 280/05 RMK AO2 SLP103 T01830161
14837KMSN MSN20020627045509306/27/02 04:55:31  5-MIN KMSN 271055Z 29005KT 10SM CLR 18/16 A2985 930 87 1600 290/05 RMK AO2
14837KMSN MSN20020627050009306/27/02 05:00:31  5-MIN KMSN 271100Z 29005KT 10SM CLR 19/16 A2985 930 81 1600 290/05 RMK AO2
14837KMSN MSN20020627050509306/27/02 05:05:31  5-MIN KMSN 271105Z 30004KT 10SM CLR 19/16 A2985 930 81 1600 300/04 RMK AO2
14837KMSN MSN20020627051009306/27/02 05:10:31  5-MIN KMSN 271110Z 31006KT 10SM CLR 19/16 A2985 930 81 1600 310/06 RMK AO2
14837KMSN MSN20020627051509306/27/02 05:15:31  5-MIN KMSN 271115Z 32005KT 10SM CLR 19/16 A2986 920 81 1600 320/05 RMK AO2
14837KMSN MSN20020627052009306/27/02 05:20:31  5-MIN KMSN 271120Z 32006KT 10SM CLR 19/15 A2986 920 78 1600 320/06 RMK AO2
14837KMSN MSN20020627052509306/27/02 05:25:31  5-MIN KMSN 271125Z 31005KT 10SM CLR 19/15 A2986 920 78 1600 310/05 RMK AO2
14837KMSN MSN20020627053009306/27/02 05:30:31  5-MIN KMSN 271130Z 31007KT 10SM CLR 19/15 A2986 920 78 1600 310/07 RMK AO2
14837KMSN MSN20020627053509306/27/02 05:35:31  5-MIN KMSN 271135Z 31008KT 10SM CLR 19/15 A2986 920 78 1600 310/08 RMK AO2
14837KMSN MSN20020627054009306/27/02 05:40:31  5-MIN KMSN 271140Z 32007KT 10SM CLR 19/15 A2986 920 78 1600 320/07 RMK AO2
14837KMSN MSN20020627054509306/27/02 05:45:31  5-MIN KMSN 271145Z 33006KT 10SM CLR 19/15 A2986 920 78 1600 320/06 RMK AO2
14837KMSN MSN20020627055013706/27/02 05:50:31  5-MIN KMSN 271150Z 32009KT 10SM FEW050 19/15 A2986 920 78 1600 320/09 RMK AO2 SLP106 70003 T01890150 10194 20161 53005
14837KMSN MSN20020627055509306/27/02 05:55:31  5-MIN KMSN 271155Z 32007KT 10SM CLR 19/15 A2986 920 78 1600 320/07 RMK AO2
14837KMSN MSN20020627060009306/27/02 06:00:31  5-MIN KMSN 271200Z 32008KT 10SM CLR 19/14 A2986 920 72 1700 320/08 RMK AO2
14837KMSN MSN20020627060509306/27/02 06:05:31  5-MIN KMSN 271205Z 32008KT 10SM CLR 19/15 A2986 920 75 1700 320/08 RMK AO2
14837KMSN MSN20020627061009306/27/02 06:10:31  5-MIN KMSN 271210Z 32006KT 10SM CLR 19/14 A2986 920 72 1700 320/06 RMK AO2
14837KMSN MSN20020627061509306/27/02 06:15:31  5-MIN KMSN 271215Z VRB06KT 10SM CLR 19/15 A2986 920 75 1700 VRB/06 RMK AO2
14837KMSN MSN20020627062009306/27/02 06:20:31  5-MIN KMSN 271220Z 34005KT 10SM CLR 20/15 A2987 910 72 1700 340/05 RMK AO2
14837KMSN MSN20020627062509306/27/02 06:25:31  5-MIN KMSN 271225Z 33007KT 10SM CLR 20/14 A2987 910 70 1700 330/07 RMK AO2
14837KMSN MSN20020627063009306/27/02 06:30:31  5-MIN KMSN 271230Z 33010KT 10SM CLR 20/14 A2987 910 70 1700 330/10 RMK AO2
14837KMSN MSN20020627063509306/27/02 06:35:31  5-MIN KMSN 271235Z 32007KT 10SM CLR 20/14 A2987 910 70 1700 320/07 RMK AO2
14837KMSN MSN20020627064009306/27/02 06:40:31  5-MIN KMSN 271240Z 33008KT 10SM CLR 20/14 A2987 910 70 1700 330/08 RMK AO2
14837KMSN MSN20020627064509606/27/02 06:45:31  5-MIN KMSN 271245Z 34008KT 10SM FEW030 20/14 A2987 910 70 1700 340/08 RMK AO2
14837KMSN MSN20020627065011306/27/02 06:50:31  5-MIN KMSN 271250Z 33007KT 10SM FEW030 20/14 A2988 910 70 1700 330/07 RMK AO2 SLP111 T02000144
14837KMSN MSN20020627065509306/27/02 06:55:31  5-MIN KMSN 271255Z 34008KT 10SM CLR 20/14 A2988 910 70 1700 330/08 RMK AO2
14837KMSN MSN20020627070009306/27/02 07:00:31  5-MIN KMSN 271300Z 33008KT 10SM CLR 20/14 A2987 910 70 1700 330/08 RMK AO2
14837KMSN MSN20020627070509606/27/02 07:05:31  5-MIN KMSN 271305Z 34007KT 10SM FEW030 21/14 A2987 910 67 1800 340/07 RMK AO2
14837KMSN MSN20020627071009606/27/02 07:10:31  5-MIN KMSN 271310Z 35007KT 10SM FEW030 21/15 A2987 910 68 1900 340/07 RMK AO2
14837KMSN MSN20020627071509606/27/02 07:15:31  5-MIN KMSN 271315Z 35008KT 10SM FEW030 21/15 A2988 910 70 1800 340/08 RMK AO2
14837KMSN MSN20020627072009606/27/02 07:20:31  5-MIN KMSN 271320Z 32008KT 10SM FEW030 21/15 A2988 910 68 1900 320/08 RMK AO2
14837KMSN MSN20020627072509606/27/02 07:25:31  5-MIN KMSN 271325Z 32007KT 10SM FEW030 21/15 A2988 900 68 1900 320/07 RMK AO2
14837KMSN MSN20020627073009606/27/02 07:30:31  5-MIN KMSN 271330Z 33007KT 10SM FEW030 21/15 A2988 910 68 1900 330/07 RMK AO2
14837KMSN MSN20020627073510206/27/02 07:35:31  5-MIN KMSN 271335Z 33009G14KT 10SM FEW030 21/15 A2987 910 68 1900 330/09G14 RMK AO2
14837KMSN MSN20020627074009606/27/02 07:40:31  5-MIN KMSN 271340Z 34008KT 10SM FEW030 21/15 A2988 910 68 1900 330/08 RMK AO2
14837KMSN MSN20020627074510306/27/02 07:45:31  5-MIN KMSN 271345Z 34007KT 10SM FEW010 SCT035 21/15 A2988 900 68 1900 330/07 RMK AO2
14837KMSN MSN20020627075012006/27/02 07:50:31  5-MIN KMSN 271350Z 34009KT 10SM FEW010 SCT035 22/16 A2988 900 68 1900 340/09 RMK AO2 SLP112 T02170156
14837KMSN MSN20020627075509306/27/02 07:55:31  5-MIN KMSN 271355Z 33010KT 10SM CLR 21/15 A2988 900 68 1900 330/10 RMK AO2
14837KMSN MSN20020627080009306/27/02 08:00:31  5-MIN KMSN 271400Z 32010KT 10SM CLR 21/15 A2988 910 68 1900 320/10 RMK AO2
14837KMSN MSN20020627080509606/27/02 08:05:31  5-MIN KMSN 271405Z 34007KT 10SM FEW035 21/15 A2988 910 68 1900 330/07 RMK AO2
14837KMSN MSN20020627081009606/27/02 08:10:31  5-MIN KMSN 271410Z VRB06KT 10SM FEW035 21/15 A2988 910 68 1900 VRB/06 RMK AO2
14837KMSN MSN20020627081511206/27/02 08:15:31  5-MIN KMSN 271415Z 33008KT 290V360 10SM FEW035 21/15 A2988 900 68 1900 330/08 290V360 RMK AO2
14837KMSN MSN20020627082011206/27/02 08:20:31  5-MIN KMSN 271420Z 34009KT 310V020 10SM FEW035 22/15 A2988 910 65 1900 340/09 310V020 RMK AO2
14837KMSN MSN20020627082509606/27/02 08:25:31  5-MIN KMSN 271425Z 34008KT 10SM SCT035 22/15 A2988 910 65 1900 340/08 RMK AO2
14837KMSN MSN20020627083011206/27/02 08:30:31  5-MIN KMSN 271430Z 34007KT 300V360 10SM SCT035 21/14 A2988 910 65 1900 340/07 300V360 RMK AO2
14837KMSN MSN20020627083509606/27/02 08:35:31  5-MIN KMSN 271435Z 32009KT 10SM SCT030 22/15 A2988 910 65 1900 320/09 RMK AO2
14837KMSN MSN20020627084010206/27/02 08:40:31  5-MIN KMSN 271440Z 33011G16KT 10SM SCT030 22/15 A2988 900 63 2000 330/11G16 RMK AO2
14837KMSN MSN20020627084510206/27/02 08:45:31  5-MIN KMSN 271445Z 34010G16KT 10SM SCT030 22/14 A2988 900 63 1900 330/10G16 RMK AO2
14837KMSN MSN20020627085011906/27/02 08:50:31  5-MIN KMSN 271450Z 34006KT 10SM SCT030 22/15 A2988 900 65 1900 340/06 RMK AO2 SLP113 T02170150 55001
14837KMSN MSN20020627085509306/27/02 08:55:31  5-MIN KMSN 271455Z 32009KT 10SM CLR 22/15 A2988 900 63 2000 320/09 RMK AO2
14837KMSN MSN20020627090009606/27/02 09:00:31  5-MIN KMSN 271500Z 32008KT 10SM FEW030 22/15 A2988 900 63 2000 320/08 RMK AO2
14837KMSN MSN20020627090509606/27/02 09:05:31  5-MIN KMSN 271505Z 33008KT 10SM FEW030 23/15 A2988 910 61 2100 330/08 RMK AO2
14837KMSN MSN20020627091009606/27/02 09:10:31  5-MIN KMSN 271510Z 33008KT 10SM SCT030 22/15 A2988 900 63 2000 330/08 RMK AO2
14837KMSN MSN20020627091509606/27/02 09:15:31  5-MIN KMSN 271515Z 32009KT 10SM SCT030 22/15 A2988 900 63 2000 320/09 RMK AO2
14837KMSN MSN20020627092009606/27/02 09:20:31  5-MIN KMSN 271520Z 31007KT 10SM SCT030 23/16 A2988 900 63 2100 310/07 RMK AO2
14837KMSN MSN20020627092509606/27/02 09:25:31  5-MIN KMSN 271525Z 34007KT 10SM SCT030 23/16 A2988 900 63 2000 340/07 RMK AO2
14837KMSN MSN20020627093011206/27/02 09:30:31  5-MIN KMSN 271530Z 34008KT 310V010 10SM SCT030 23/16 A2988 900 61 2100 340/08 310V010 RMK AO2
14837KMSN MSN20020627093509606/27/02 09:35:31  5-MIN KMSN 271535Z 33008KT 10SM SCT030 23/15 A2988 900 61 2000 330/08 RMK AO2
14837KMSN MSN20020627094009606/27/02 09:40:31  5-MIN KMSN 271540Z 01010KT 10SM SCT030 23/16 A2988 900 61 2100 010/10 RMK AO2
14837KMSN MSN20020627094511206/27/02 09:45:31  5-MIN KMSN 271545Z 32007KT 290V360 10SM SCT032 23/16 A2988 900 61 2100 320/07 290V360 RMK AO2
14837KMSN MSN20020627095011306/27/02 09:50:31  5-MIN KMSN 271550Z 36009KT 10SM SCT032 24/16 A2988 900 59 2200 360/09 RMK AO2 SLP114 T02390156
14837KMSN MSN20020627095510206/27/02 09:55:31  5-MIN KMSN 271555Z 36011G15KT 10SM SCT032 23/15 A2988 900 59 2100 360/11G15 RMK AO2
14837KMSN MSN20020627100009606/27/02 10:00:31  5-MIN KMSN 271600Z 36013KT 10SM FEW032 24/15 A2988 900 57 2200 360/13 RMK AO2
14837KMSN MSN20020627100509606/27/02 10:05:31  5-MIN KMSN 271605Z 32007KT 10SM SCT032 23/15 A2989 900 59 2100 320/07 RMK AO2
14837KMSN MSN20020627101009606/27/02 10:10:31  5-MIN KMSN 271610Z 33007KT 10SM BKN032 24/16 A2989 890 59 2200 330/07 RMK AO2
14837KMSN MSN20020627101509606/27/02 10:15:31  5-MIN KMSN 271615Z 34008KT 10SM BKN032 23/16 A2989 890 61 2100 340/08 RMK AO2
14837KMSN MSN20020627102009606/27/02 10:20:31  5-MIN KMSN 271620Z 35008KT 10SM BKN032 23/15 A2989 890 59 2100 350/08 RMK AO2
14837KMSN MSN20020627102509606/27/02 10:25:31  5-MIN KMSN 271625Z 35009KT 10SM BKN032 24/16 A2989 890 59 2200 350/09 RMK AO2
14837KMSN MSN20020627103009606/27/02 10:30:31  5-MIN KMSN 271630Z 36008KT 10SM BKN032 23/15 A2989 890 59 2100 360/08 RMK AO2
14837KMSN MSN20020627103511206/27/02 10:35:31  5-MIN KMSN 271635Z 35007KT 310V010 10SM BKN037 23/15 A2989 890 61 2000 350/07 310V010 RMK AO2
14837KMSN MSN20020627104009606/27/02 10:40:31  5-MIN KMSN 271640Z 32006KT 10SM OVC035 23/15 A2989 890 61 2000 320/06 RMK AO2
14837KMSN MSN20020627104509606/27/02 10:45:31  5-MIN KMSN 271645Z VRB06KT 10SM BKN035 23/15 A2989 890 61 2000 VRB/06 RMK AO2
14837KMSN MSN20020627105011306/27/02 10:50:31  5-MIN KMSN 271650Z 33007KT 10SM BKN035 24/16 A2989 890 59 2200 330/07 RMK AO2 SLP118 T02390156
14837KMSN MSN20020627105509606/27/02 10:55:31  5-MIN KMSN 271655Z VRB05KT 10SM BKN035 24/16 A2989 890 59 2200 VRB/05 RMK AO2
14837KMSN MSN20020627110010306/27/02 11:00:31  5-MIN KMSN 271700Z VRB06KT 10SM BKN035 BKN042 23/15 A2989 890 59 2100 VRB/06 RMK AO2
14837KMSN MSN20020627110509606/27/02 11:05:31  5-MIN KMSN 271705Z VRB05KT 10SM BKN037 24/16 A2989 890 59 2200 VRB/05 RMK AO2
14837KMSN MSN20020627111011206/27/02 11:10:31  5-MIN KMSN 271710Z 33007KT 300V010 10SM BKN037 24/16 A2989 890 59 2200 330/07 300V010 RMK AO2
14837KMSN MSN20020627111509606/27/02 11:15:31  5-MIN KMSN 271715Z VRB05KT 10SM SCT037 24/16 A2989 890 57 2200 VRB/05 RMK AO2
14837KMSN MSN20020627112009606/27/02 11:20:31  5-MIN KMSN 271720Z 31005KT 10SM SCT037 24/16 A2989 890 57 2200 310/05 RMK AO2
14837KMSN MSN20020627112509606/27/02 11:25:31  5-MIN KMSN 271725Z 30007KT 10SM SCT039 24/15 A2989 890 55 2200 300/07 RMK AO2
14837KMSN MSN20020627113009606/27/02 11:30:31  5-MIN KMSN 271730Z 34007KT 10SM BKN039 24/16 A2989 890 57 2200 340/07 RMK AO2
14837KMSN MSN20020627113509606/27/02 11:35:31  5-MIN KMSN 271735Z 01006KT 10SM BKN039 24/15 A2989 890 55 2200 010/06 RMK AO2
14837KMSN MSN20020627114009606/27/02 11:40:31  5-MIN KMSN 271740Z 01008KT 10SM BKN039 25/16 A2989 890 55 2300 010/08 RMK AO2
14837KMSN MSN20020627114509606/27/02 11:45:31  5-MIN KMSN 271745Z 33008KT 10SM BKN039 24/16 A2989 890 57 2200 330/08 RMK AO2
14837KMSN MSN20020627115013106/27/02 11:50:31  5-MIN KMSN 271750Z VRB06KT 10SM SCT039 24/16 A2989 890 57 2200 VRB/06 RMK AO2 SLP118 T02440156 10250 20189 51006
14837KMSN MSN20020627115509606/27/02 11:55:31  5-MIN KMSN 271755Z 31006KT 10SM SCT039 25/15 A2989 890 53 2300 300/06 RMK AO2
14837KMSN MSN20020627120009606/27/02 12:00:31  5-MIN KMSN 271800Z VRB03KT 10SM SCT039 24/15 A2989 890 55 2200 VRB/03 RMK AO2
14837KMSN MSN20020627120509606/27/02 12:05:31  5-MIN KMSN 271805Z 01006KT 10SM BKN039 25/16 A2989 890 55 2300 010/06 RMK AO2
14837KMSN MSN20020627121009606/27/02 12:10:31  5-MIN KMSN 271810Z VRB05KT 10SM SCT039 26/16 A2989 890 55 2400 VRB/05 RMK AO2
14837KMSN MSN20020627121509606/27/02 12:15:31  5-MIN KMSN 271815Z VRB03KT 10SM FEW039 24/16 A2989 890 57 2200 VRB/03 RMK AO2
14837KMSN MSN20020627122009606/27/02 12:20:31  5-MIN KMSN 271820Z 32007KT 10SM SCT039 25/16 A2989 890 55 2300 320/07 RMK AO2
14837KMSN MSN20020627122509606/27/02 12:25:31  5-MIN KMSN 271825Z VRB04KT 10SM SCT039 25/15 A2989 890 53 2300 VRB/04 RMK AO2
14837KMSN MSN20020627123011206/27/02 12:30:31  5-MIN KMSN 271830Z 36007KT 320V020 10SM SCT039 25/16 A2989 890 55 2300 360/07 320V020 RMK AO2
14837KMSN MSN20020627123509606/27/02 12:35:31  5-MIN KMSN 271835Z VRB04KT 10SM SCT039 25/16 A2989 890 55 2300 VRB/04 RMK AO2
14837KMSN MSN20020627124009606/27/02 12:40:31  5-MIN KMSN 271840Z VRB04KT 10SM SCT039 25/16 A2989 900 55 2300 VRB/04 RMK AO2
14837KMSN MSN20020627124509606/27/02 12:45:31  5-MIN KMSN 271845Z VRB06KT 10SM SCT039 26/16 A2988 900 53 2400 VRB/06 RMK AO2
14837KMSN MSN20020627125011306/27/02 12:50:31  5-MIN KMSN 271850Z 31009KT 10SM SCT039 26/16 A2988 900 53 2400 310/09 RMK AO2 SLP115 T02560156
14837KMSN MSN20020627125509606/27/02 12:55:31  5-MIN KMSN 271855Z 34007KT 10SM SCT039 26/16 A2988 900 53 2400 340/07 RMK AO2
14837KMSN MSN20020627130009606/27/02 13:00:31  5-MIN KMSN 271900Z VRB05KT 10SM SCT039 26/16 A2988 900 51 2400 VRB/05 RMK AO2
14837KMSN MSN20020627130509606/27/02 13:05:31  5-MIN KMSN 271905Z VRB04KT 10SM SCT039 26/15 A2988 900 51 2400 VRB/04 RMK AO2
14837KMSN MSN20020627131009606/27/02 13:10:31  5-MIN KMSN 271910Z 34006KT 10SM SCT039 26/16 A2988 900 53 2400 340/06 RMK AO2
14837KMSN MSN20020627131509606/27/02 13:15:31  5-MIN KMSN 271915Z VRB05KT 10SM SCT039 26/15 A2988 900 51 2400 VRB/05 RMK AO2
14837KMSN MSN20020627132009606/27/02 13:20:31  5-MIN KMSN 271920Z VRB06KT 10SM SCT039 26/15 A2988 900 51 2400 VRB/06 RMK AO2
14837KMSN MSN20020627132511206/27/02 13:25:31  5-MIN KMSN 271925Z 30008KT 270V340 10SM SCT039 26/15 A2988 900 50 2400 300/08 270V340 RMK AO2
14837KMSN MSN20020627133009606/27/02 13:30:31  5-MIN KMSN 271930Z 34007KT 10SM SCT041 26/16 A2988 900 53 2400 340/07 RMK AO2
14837KMSN MSN20020627133509606/27/02 13:35:31  5-MIN KMSN 271935Z 36007KT 10SM SCT041 26/15 A2988 900 51 2400 360/07 RMK AO2
14837KMSN MSN20020627134009606/27/02 13:40:31  5-MIN KMSN 271940Z 34007KT 10SM FEW041 25/15 A2988 900 53 2300 340/07 RMK AO2
14837KMSN MSN20020627134510306/27/02 13:45:31  5-MIN KMSN 271945Z VRB03KT 10SM SCT043 SCT050 24/16 A2988 900 57 2200 VRB/03 RMK AO2
14837KMSN MSN20020627135012006/27/02 13:50:31  5-MIN KMSN 271950Z 31008KT 10SM SCT043 BKN050 26/16 A2988 900 51 2400 310/08 RMK AO2 SLP114 T02610156
14837KMSN MSN20020627135509606/27/02 13:55:31  5-MIN KMSN 271955Z VRB06KT 10SM BKN041 25/15 A2988 900 53 2300 VRB/06 RMK AO2
14837KMSN MSN20020627140010306/27/02 14:00:31  5-MIN KMSN 272000Z VRB05KT 10SM SCT041 BKN049 26/16 A2988 900 53 2400 VRB/05 RMK AO2
14837KMSN MSN20020627140510306/27/02 14:05:31  5-MIN KMSN 272005Z 34007KT 10SM SCT043 SCT049 27/15 A2988 900 48 2500 330/07 RMK AO2
14837KMSN MSN20020627141010306/27/02 14:10:31  5-MIN KMSN 272010Z 29006KT 10SM SCT043 SCT050 26/16 A2988 900 51 2400 290/06 RMK AO2
14837KMSN MSN20020627141509606/27/02 14:15:31  5-MIN KMSN 272015Z VRB06KT 10SM SCT045 26/16 A2988 910 53 2400 VRB/06 RMK AO2
14837KMSN MSN20020627142009606/27/02 14:20:31  5-MIN KMSN 272020Z 33007KT 10SM SCT045 26/16 A2988 900 51 2400 330/07 RMK AO2
14837KMSN MSN20020627142509606/27/02 14:25:31  5-MIN KMSN 272025Z 30006KT 10SM SCT047 26/15 A2988 910 50 2400 300/06 RMK AO2
14837KMSN MSN20020627143009606/27/02 14:30:31  5-MIN KMSN 272030Z 33007KT 10SM BKN049 26/15 A2987 910 50 2400 320/07 RMK AO2
14837KMSN MSN20020627143509606/27/02 14:35:31  5-MIN KMSN 272035Z 31007KT 10SM BKN049 26/15 A2987 910 50 2400 310/07 RMK AO2
14837KMSN MSN20020627144009606/27/02 14:40:31  5-MIN KMSN 272040Z VRB05KT 10SM BKN047 26/16 A2987 910 51 2400 VRB/05 RMK AO2
14837KMSN MSN20020627144511906/27/02 14:45:31  5-MIN KMSN 272045Z 31008KT 270V350 10SM BKN047 BKN055 27/16 A2987 910 50 2500 310/08 270V350 RMK AO2
14837KMSN MSN20020627145012606/27/02 14:50:31  5-MIN KMSN 272050Z 34005KT 10SM SCT047 BKN055 26/15 A2987 910 51 2400 340/05 RMK AO2 SLP111 T02560150 51004
14837KMSN MSN20020627145509606/27/02 14:55:31  5-MIN KMSN 272055Z 33005KT 10SM SCT047 26/16 A2987 910 51 2400 330/05 RMK AO2
14837KMSN MSN20020627150009606/27/02 15:00:31  5-MIN KMSN 272100Z VRB06KT 10SM SCT047 27/16 A2987 910 50 2500 VRB/06 RMK AO2
14837KMSN MSN20020627150509606/27/02 15:05:31  5-MIN KMSN 272105Z 34008KT 10SM BKN047 27/16 A2987 910 50 2500 340/08 RMK AO2
14837KMSN MSN20020627151010306/27/02 15:10:31  5-MIN KMSN 272110Z 33009KT 10SM BKN047 BKN055 26/16 A2987 910 51 2400 330/09 RMK AO2
14837KMSN MSN20020627151509606/27/02 15:15:31  5-MIN KMSN 272115Z VRB06KT 10SM BKN049 26/16 A2987 910 51 2400 VRB/06 RMK AO2
14837KMSN MSN20020627152009606/27/02 15:20:31  5-MIN KMSN 272120Z 33009KT 10SM BKN049 26/16 A2987 910 51 2400 330/09 RMK AO2
14837KMSN MSN20020627152509606/27/02 15:25:31  5-MIN KMSN 272125Z 31007KT 10SM BKN049 26/16 A2987 910 51 2400 300/07 RMK AO2
14837KMSN MSN20020627153009606/27/02 15:30:31  5-MIN KMSN 272130Z 30008KT 10SM BKN049 26/15 A2987 910 50 2400 300/08 RMK AO2
14837KMSN MSN20020627153509606/27/02 15:35:31  5-MIN KMSN 272135Z 33005KT 10SM SCT049 26/15 A2987 910 50 2400 330/05 RMK AO2
14837KMSN MSN20020627154009606/27/02 15:40:31  5-MIN KMSN 272140Z 33008KT 10SM FEW049 26/16 A2987 910 51 2400 330/08 RMK AO2
14837KMSN MSN20020627154509606/27/02 15:45:31  5-MIN KMSN 272145Z 30008KT 10SM FEW049 26/16 A2987 910 51 2400 300/08 RMK AO2
14837KMSN MSN20020627155012906/27/02 15:50:31  5-MIN KMSN 272150Z 30007KT 280V340 10SM FEW047 26/15 A2987 910 50 2400 300/07 280V340 RMK AO2 SLP109 T02610150
14837KMSN MSN20020627155509606/27/02 15:55:31  5-MIN KMSN 272155Z 34007KT 10SM FEW047 26/15 A2987 910 50 2400 340/07 RMK AO2
14837KMSN MSN20020627160011206/27/02 16:00:31  5-MIN KMSN 272200Z 32007KT 300V020 10SM FEW047 26/15 A2986 920 50 2400 320/07 300V020 RMK AO2
14837KMSN MSN20020627160509606/27/02 16:05:31  5-MIN KMSN 272205Z 30007KT 10SM FEW047 26/14 A2986 920 49 2400 300/07 RMK AO2
14837KMSN MSN20020627161009606/27/02 16:10:31  5-MIN KMSN 272210Z 34008KT 10SM FEW047 26/15 A2986 920 51 2400 340/08 RMK AO2
14837KMSN MSN20020627161509306/27/02 16:15:31  5-MIN KMSN 272215Z 34008KT 10SM CLR 26/14 A2986 920 49 2400 340/08 RMK AO2
14837KMSN MSN20020627162009606/27/02 16:20:31  5-MIN KMSN 272220Z 34007KT 10SM FEW047 26/15 A2986 920 51 2400 330/07 RMK AO2
14837KMSN MSN20020627162509606/27/02 16:25:31  5-MIN KMSN 272225Z 34006KT 10SM FEW047 26/15 A2986 920 50 2400 340/06 RMK AO2
14837KMSN MSN20020627163009606/27/02 16:30:31  5-MIN KMSN 272230Z 34007KT 10SM FEW047 26/14 A2986 920 49 2400 340/07 RMK AO2
14837KMSN MSN20020627163511206/27/02 16:35:31  5-MIN KMSN 272235Z 33008KT 280V350 10SM FEW047 26/14 A2986 920 49 2400 330/08 280V350 RMK AO2
14837KMSN MSN20020627164009606/27/02 16:40:31  5-MIN KMSN 272240Z 34006KT 10SM FEW047 26/14 A2986 920 49 2400 340/06 RMK AO2
14837KMSN MSN20020627164509606/27/02 16:45:31  5-MIN KMSN 272245Z 35006KT 10SM FEW047 26/15 A2986 920 50 2400 350/06 RMK AO2
14837KMSN MSN20020627165011306/27/02 16:50:31  5-MIN KMSN 272250Z 34005KT 10SM FEW047 26/15 A2986 920 50 2500 340/05 RMK AO2 SLP107 T02610150
14837KMSN MSN20020627165509606/27/02 16:55:31  5-MIN KMSN 272255Z 33007KT 10SM FEW047 26/15 A2986 920 50 2500 330/07 RMK AO2
14837KMSN MSN20020627170009606/27/02 17:00:31  5-MIN KMSN 272300Z 34006KT 10SM FEW047 26/15 A2986 920 51 2400 340/06 RMK AO2
14837KMSN MSN20020627170509606/27/02 17:05:31  5-MIN KMSN 272305Z 33005KT 10SM FEW047 26/15 A2986 920 51 2400 330/05 RMK AO2
14837KMSN MSN20020627171009606/27/02 17:10:31  5-MIN KMSN 272310Z 34006KT 10SM FEW047 26/16 A2986 920 53 2400 340/06 RMK AO2
14837KMSN MSN20020627171509606/27/02 17:15:31  5-MIN KMSN 272315Z 34006KT 10SM FEW047 26/16 A2986 920 53 2400 330/06 RMK AO2
14837KMSN MSN20020627172009606/27/02 17:20:31  5-MIN KMSN 272320Z 34005KT 10SM FEW047 26/16 A2986 920 53 2400 340/05 RMK AO2
14837KMSN MSN20020627172509606/27/02 17:25:31  5-MIN KMSN 272325Z 34006KT 10SM FEW047 26/16 A2986 920 53 2400 340/06 RMK AO2
14837KMSN MSN20020627173009606/27/02 17:30:31  5-MIN KMSN 272330Z 34005KT 10SM FEW047 26/15 A2986 920 51 2400 340/05 RMK AO2
14837KMSN MSN20020627173509606/27/02 17:35:31  5-MIN KMSN 272335Z 35005KT 10SM FEW047 26/15 A2986 920 51 2400 350/05 RMK AO2
14837KMSN MSN20020627174009606/27/02 17:40:31  5-MIN KMSN 272340Z 35005KT 10SM FEW047 26/16 A2987 910 53 2400 350/05 RMK AO2
14837KMSN MSN20020627174509606/27/02 17:45:31  5-MIN KMSN 272345Z 34004KT 10SM FEW047 26/15 A2987 910 51 2400 340/04 RMK AO2
14837KMSN MSN20020627175013106/27/02 17:50:31  5-MIN KMSN 272350Z 34004KT 10SM FEW047 25/15 A2987 910 53 2300 340/04 RMK AO2 SLP109 T02500150 10267 20244 56006
14837KMSN MSN20020627175509306/27/02 17:55:31  5-MIN KMSN 272355Z 35004KT 10SM CLR 25/16 A2986 920 55 2300 350/04 RMK AO2
14837KMSN MSN20020627180009306/27/02 18:00:31  5-MIN KMSN 280000Z 35005KT 10SM CLR 25/16 A2987 920 55 2300 350/05 RMK AO2
14837KMSN MSN20020627180509306/27/02 18:05:31  5-MIN KMSN 280005Z 34003KT 10SM CLR 25/16 A2987 910 55 2300 340/03 RMK AO2
14837KMSN MSN20020627181009306/27/02 18:10:31  5-MIN KMSN 280010Z VRB04KT 10SM CLR 24/16 A2987 910 57 2300 VRB/04 RMK AO2
14837KMSN MSN20020627181509306/27/02 18:15:31  5-MIN KMSN 280015Z 35004KT 10SM CLR 24/16 A2987 910 57 2200 340/04 RMK AO2
14837KMSN MSN20020627182009306/27/02 18:20:31  5-MIN KMSN 280020Z 35004KT 10SM CLR 24/16 A2987 910 57 2200 350/04 RMK AO2
14837KMSN MSN20020627182509306/27/02 18:25:31  5-MIN KMSN 280025Z 35003KT 10SM CLR 24/16 A2987 910 61 2200 350/03 RMK AO2
14837KMSN MSN20020627183009306/27/02 18:30:31  5-MIN KMSN 280030Z 01003KT 10SM CLR 24/16 A2987 910 61 2200 010/03 RMK AO2
14837KMSN MSN20020627183509306/27/02 18:35:31  5-MIN KMSN 280035Z 00000KT 10SM CLR 24/16 A2988 910 61 2200 000/00 RMK AO2
14837KMSN MSN20020627184009306/27/02 18:40:31  5-MIN KMSN 280040Z 00000KT 10SM CLR 24/16 A2988 900 61 2200 000/00 RMK AO2
14837KMSN MSN20020627184509306/27/02 18:45:31  5-MIN KMSN 280045Z 00000KT 10SM CLR 23/16 A2988 900 63 2100 000/00 RMK AO2
14837KMSN MSN20020627185011006/27/02 18:50:31  5-MIN KMSN 280050Z 00000KT 10SM CLR 23/17 A2988 900 66 2100 000/00 RMK AO2 SLP114 T02330167
14837KMSN MSN20020627185509306/27/02 18:55:31  5-MIN KMSN 280055Z 00000KT 10SM CLR 23/17 A2988 900 70 2100 000/00 RMK AO2
14837KMSN MSN20020627190009306/27/02 19:00:31  5-MIN KMSN 280100Z 00000KT 10SM CLR 23/17 A2988 900 68 2100 000/00 RMK AO2
14837KMSN MSN20020627190509306/27/02 19:05:31  5-MIN KMSN 280105Z 00000KT 10SM CLR 22/17 A2988 900 73 2000 000/00 RMK AO2
14837KMSN MSN20020627191009306/27/02 19:10:31  5-MIN KMSN 280110Z 00000KT 10SM CLR 22/17 A2988 900 73 1900 000/00 RMK AO2
14837KMSN MSN20020627191509306/27/02 19:15:31  5-MIN KMSN 280115Z 00000KT 10SM CLR 22/17 A2988 900 73 1900 000/00 RMK AO2
14837KMSN MSN20020627192009306/27/02 19:20:31  5-MIN KMSN 280120Z 00000KT 10SM CLR 21/17 A2988 900 75 1900 000/00 RMK AO2
14837KMSN MSN20020627192509306/27/02 19:25:31  5-MIN KMSN 280125Z 00000KT 10SM CLR 21/17 A2988 900 75 1900 000/00 RMK AO2
14837KMSN MSN20020627193009306/27/02 19:30:31  5-MIN KMSN 280130Z 00000KT 10SM CLR 21/17 A2988 900 78 1800 000/00 RMK AO2
14837KMSN MSN20020627193509306/27/02 19:35:31  5-MIN KMSN 280135Z 00000KT 10SM CLR 21/16 A2988 900 75 1800 000/00 RMK AO2
14837KMSN MSN20020627194009306/27/02 19:40:31  5-MIN KMSN 280140Z 00000KT 10SM CLR 21/16 A2989 900 75 1800 000/00 RMK AO2
14837KMSN MSN20020627194509306/27/02 19:45:31  5-MIN KMSN 280145Z 00000KT 10SM CLR 20/16 A2989 900 78 1700 000/00 RMK AO2
14837KMSN MSN20020627195011006/27/02 19:50:31  5-MIN KMSN 280150Z 00000KT 10SM CLR 21/16 A2989 900 75 1800 000/00 RMK AO2 SLP116 T02060161
14837KMSN MSN20020627195509306/27/02 19:55:31  5-MIN KMSN 280155Z 00000KT 10SM CLR 20/16 A2989 890 78 1700 000/00 RMK AO2
14837KMSN MSN20020627200009306/27/02 20:00:31  5-MIN KMSN 280200Z 00000KT 10SM CLR 19/16 A2989 890 81 1700 000/00 RMK AO2
14837KMSN MSN20020627200509306/27/02 20:05:31  5-MIN KMSN 280205Z 00000KT 10SM CLR 19/16 A2989 890 81 1700 000/00 RMK AO2
14837KMSN MSN20020627201009306/27/02 20:10:31  5-MIN KMSN 280210Z 00000KT 10SM CLR 19/16 A2990 890 78 1700 000/00 RMK AO2
14837KMSN MSN20020627201509306/27/02 20:15:31  5-MIN KMSN 280215Z 00000KT 10SM CLR 19/16 A2990 880 84 1600 000/00 RMK AO2
14837KMSN MSN20020627202009306/27/02 20:20:31  5-MIN KMSN 280220Z 00000KT 10SM CLR 19/16 A2990 880 81 1600 000/00 RMK AO2
14837KMSN MSN20020627202509306/27/02 20:25:31  5-MIN KMSN 280225Z 00000KT 10SM CLR 19/17 A2990 880 84 1600 000/00 RMK AO2
14837KMSN MSN20020627203009306/27/02 20:30:31  5-MIN KMSN 280230Z 00000KT 10SM CLR 19/17 A2990 880 87 1600 000/00 RMK AO2
14837KMSN MSN20020627203509306/27/02 20:35:31  5-MIN KMSN 280235Z 00000KT 10SM CLR 19/17 A2991 880 87 1600 000/00 RMK AO2
14837KMSN MSN20020627204009306/27/02 20:40:31  5-MIN KMSN 280240Z 00000KT 10SM CLR 19/17 A2991 880 87 1600 000/00 RMK AO2
14837KMSN MSN20020627204509306/27/02 20:45:31  5-MIN KMSN 280245Z 00000KT 10SM CLR 19/16 A2991 870 84 1600 000/00 RMK AO2
14837KMSN MSN20020627205011606/27/02 20:50:31  5-MIN KMSN 280250Z 00000KT 10SM CLR 18/16 A2991 870 87 1500 000/00 RMK AO2 SLP127 T01830161 55002
14837KMSN MSN20020627205509306/27/02 20:55:31  5-MIN KMSN 280255Z 00000KT 10SM CLR 18/16 A2992 870 87 1500 000/00 RMK AO2
14837KMSN MSN20020627210009306/27/02 21:00:31  5-MIN KMSN 280300Z 00000KT 10SM CLR 18/16 A2992 870 87 1500 000/00 RMK AO2
14837KMSN MSN20020627210509306/27/02 21:05:31  5-MIN KMSN 280305Z 00000KT 10SM CLR 18/16 A2992 860 84 1500 000/00 RMK AO2
14837KMSN MSN20020627211009306/27/02 21:10:31  5-MIN KMSN 280310Z 00000KT 10SM CLR 19/16 A2992 860 81 1600 000/00 RMK AO2
14837KMSN MSN20020627211509306/27/02 21:15:31  5-MIN KMSN 280315Z 00000KT 10SM CLR 18/16 A2992 860 87 1500 000/00 RMK AO2
14837KMSN MSN20020627212009306/27/02 21:20:31  5-MIN KMSN 280320Z 00000KT 10SM CLR 18/16 A2993 860 84 1500 000/00 RMK AO2
14837KMSN MSN20020627212509306/27/02 21:25:31  5-MIN KMSN 280325Z 00000KT 10SM CLR 18/16 A2993 860 90 1400 000/00 RMK AO2
14837KMSN MSN20020627213009306/27/02 21:30:31  5-MIN KMSN 280330Z 00000KT 10SM CLR 18/16 A2993 860 87 1400 000/00 RMK AO2
14837KMSN MSN20020627213509306/27/02 21:35:31  5-MIN KMSN 280335Z 00000KT 10SM CLR 17/16 A2993 860 90 1400 000/00 RMK AO2
14837KMSN MSN20020627214009306/27/02 21:40:31  5-MIN KMSN 280340Z 00000KT 10SM CLR 17/16 A2993 860 90 1400 000/00 RMK AO2
14837KMSN MSN20020627214509306/27/02 21:45:31  5-MIN KMSN 280345Z 00000KT 10SM CLR 17/16 A2993 860 90 1400 000/00 RMK AO2
14837KMSN MSN20020627215011006/27/02 21:50:31  5-MIN KMSN 280350Z 00000KT 10SM CLR 17/16 A2993 850 90 1400 000/00 RMK AO2 SLP132 T01720156
14837KMSN MSN20020627215509306/27/02 21:55:31  5-MIN KMSN 280355Z 00000KT 10SM CLR 18/16 A2993 850 90 1400 000/00 RMK AO2
14837KMSN MSN20020627220009306/27/02 22:00:31  5-MIN KMSN 280400Z 00000KT 10SM CLR 18/16 A2993 850 90 1400 000/00 RMK AO2
14837KMSN MSN20020627220509306/27/02 22:05:31  5-MIN KMSN 280405Z 00000KT 10SM CLR 18/16 A2994 850 87 1400 000/00 RMK AO2
14837KMSN MSN20020627221009306/27/02 22:10:31  5-MIN KMSN 280410Z 00000KT 10SM CLR 18/16 A2994 850 87 1400 000/00 RMK AO2
14837KMSN MSN20020627221509306/27/02 22:15:31  5-MIN KMSN 280415Z 00000KT 10SM CLR 17/16 A2994 850 90 1300 000/00 RMK AO2
14837KMSN MSN20020627222009306/27/02 22:20:31  5-MIN KMSN 280420Z 00000KT 10SM CLR 17/16 A2994 840 90 1300 000/00 RMK AO2
14837KMSN MSN20020627222509306/27/02 22:25:31  5-MIN KMSN 280425Z 00000KT 10SM CLR 18/16 A2994 840 87 1400 000/00 RMK AO2
14837KMSN MSN20020627223009306/27/02 22:30:31  5-MIN KMSN 280430Z 00000KT 10SM CLR 17/16 A2994 840 90 1300 000/00 RMK AO2
14837KMSN MSN20020627223509306/27/02 22:35:31  5-MIN KMSN 280435Z 00000KT 10SM CLR 17/16 A2994 840 90 1300 000/00 RMK AO2
14837KMSN MSN20020627224009306/27/02 22:40:31  5-MIN KMSN 280440Z 00000KT 10SM CLR 17/16 A2994 850 93 1300 000/00 RMK AO2
14837KMSN MSN20020627224509306/27/02 22:45:31  5-MIN KMSN 280445Z 00000KT 10SM CLR 17/16 A2994 850 93 1300 000/00 RMK AO2
14837KMSN MSN20020627225011006/27/02 22:50:31  5-MIN KMSN 280450Z 00000KT 10SM CLR 17/16 A2994 840 93 1300 000/00 RMK AO2 SLP136 T01670156
14837KMSN MSN20020627225509306/27/02 22:55:31  5-MIN KMSN 280455Z 00000KT 10SM CLR 17/16 A2994 840 93 1300 000/00 RMK AO2
14837KMSN MSN20020627230009306/27/02 23:00:31  5-MIN KMSN 280500Z 00000KT 10SM CLR 17/16 A2994 840 90 1300 000/00 RMK AO2
14837KMSN MSN20020627230509306/27/02 23:05:31  5-MIN KMSN 280505Z 00000KT 10SM CLR 17/16 A2994 850 90 1300 000/00 RMK AO2
14837KMSN MSN20020627231009306/27/02 23:10:31  5-MIN KMSN 280510Z 00000KT 10SM CLR 17/16 A2994 850 93 1300 000/00 RMK AO2
14837KMSN MSN20020627231509306/27/02 23:15:31  5-MIN KMSN 280515Z 00000KT 10SM CLR 17/16 A2994 850 90 1300 000/00 RMK AO2
14837KMSN MSN20020627232009306/27/02 23:20:31  5-MIN KMSN 280520Z 00000KT 10SM CLR 17/16 A2994 850 93 1300 000/00 RMK AO2
14837KMSN MSN20020627232509306/27/02 23:25:31  5-MIN KMSN 280525Z 00000KT 10SM CLR 17/16 A2994 850 93 1300 000/00 RMK AO2
14837KMSN MSN20020627233009306/27/02 23:30:31  5-MIN KMSN 280530Z 00000KT 10SM CLR 17/15 A2994 850 90 1300 000/00 RMK AO2
14837KMSN MSN20020627233509306/27/02 23:35:31  5-MIN KMSN 280535Z 00000KT 10SM CLR 17/15 A2994 850 87 1300 000/00 RMK AO2
14837KMSN MSN20020627234009306/27/02 23:40:31  5-MIN KMSN 280540Z 00000KT 10SM CLR 17/15 A2994 850 90 1300 000/00 RMK AO2
14837KMSN MSN20020627234509306/27/02 23:45:31  5-MIN KMSN 280545Z 00000KT 10SM CLR 17/15 A2994 850 87 1300 000/00 RMK AO2
14837KMSN MSN20020627235013806/27/02 23:50:31  5-MIN KMSN 280550Z 00000KT 10SM CLR 17/15 A2994 850 87 1300 000/00 RMK AO2 SLP134 T01720150 10250 20167 402670161 53017
14837KMSN MSN20020627235509306/27/02 23:55:31  5-MIN KMSN 280555Z 00000KT 10SM CLR 17/15 A2994 850 90 1300 000/00 RMK AO2
14837KMSN MSN20020628000009306/28/02 00:00:31  5-MIN KMSN 280600Z 00000KT 10SM CLR 16/15 A2994 850 93 1200 000/00 RMK AO2
14837KMSN MSN20020628000509306/28/02 00:05:31  5-MIN KMSN 280605Z 00000KT 10SM CLR 16/15 A2994 850 93 1200 000/00 RMK AO2
14837KMSN MSN20020628001009306/28/02 00:10:31  5-MIN KMSN 280610Z 00000KT 10SM CLR 16/15 A2994 850 96 1100 000/00 RMK AO2
14837KMSN MSN20020628001509306/28/02 00:15:31  5-MIN KMSN 280615Z 00000KT 10SM CLR 16/15 A2994 850 96 1100 000/00 RMK AO2
14837KMSN MSN20020628002009306/28/02 00:20:31  5-MIN KMSN 280620Z 00000KT 10SM CLR 16/15 A2994 850 93 1200 000/00 RMK AO2
14837KMSN MSN20020628002509306/28/02 00:25:31  5-MIN KMSN 280625Z 00000KT 10SM CLR 16/15 A2994 850 93 1200 000/00 RMK AO2
14837KMSN MSN20020628003009306/28/02 00:30:31  5-MIN KMSN 280630Z 00000KT 10SM CLR 16/15 A2994 850 93 1200 000/00 RMK AO2
14837KMSN MSN20020628003509206/28/02 00:35:31  5-MIN KMSN 280635Z 00000KT 9SM CLR 16/15 A2994 850 96 1100 000/00 RMK AO2
14837KMSN MSN20020628004009206/28/02 00:40:31  5-MIN KMSN 280640Z 00000KT 8SM CLR 16/15 A2994 850 96 1100 000/00 RMK AO2
14837KMSN MSN20020628004509206/28/02 00:45:31  5-MIN KMSN 280645Z 00000KT 7SM CLR 16/15 A2994 850 93 1200 000/00 RMK AO2
14837KMSN MSN20020628005011006/28/02 00:50:31  5-MIN KMSN 280650Z 00000KT 10SM CLR 16/15 A2994 850 93 1200 000/00 RMK AO2 SLP134 T01610150
14837KMSN MSN20020628005509206/28/02 00:55:31  5-MIN KMSN 280655Z 00000KT 8SM CLR 16/15 A2994 850 96 1100 000/00 RMK AO2
14837KMSN MSN20020628010009206/28/02 01:00:31  5-MIN KMSN 280700Z 00000KT 9SM CLR 16/14 A2994 850 93 1100 000/00 RMK AO2
14837KMSN MSN20020628010509206/28/02 01:05:31  5-MIN KMSN 280705Z 00000KT 8SM CLR 16/15 A2994 840 96 1100 000/00 RMK AO2
14837KMSN MSN20020628011009206/28/02 01:10:31  5-MIN KMSN 280710Z 00000KT 8SM CLR 16/15 A2994 840 93 1200 000/00 RMK AO2
14837KMSN MSN20020628011509206/28/02 01:15:31  5-MIN KMSN 280715Z 00000KT 9SM CLR 16/15 A2994 840 93 1200 000/00 RMK AO2
14837KMSN MSN20020628012009206/28/02 01:20:31  5-MIN KMSN 280720Z 00000KT 7SM CLR 16/15 A2994 850 96 1100 000/00 RMK AO2
14837KMSN MSN20020628012509506/28/02 01:25:31  5-MIN KMSN 280725Z 00000KT 5SM BR CLR 16/14 A2994 850 93 1100 000/00 RMK AO2
14837KMSN MSN20020628013009506/28/02 01:30:31  5-MIN KMSN 280730Z 00000KT 5SM BR CLR 16/14 A2994 850 93 1200 000/00 RMK AO2
14837KMSN MSN20020628013509506/28/02 01:35:31  5-MIN KMSN 280735Z 00000KT 6SM BR CLR 16/15 A2994 850 93 1200 000/00 RMK AO2
14837KMSN MSN20020628014009506/28/02 01:40:31  5-MIN KMSN 280740Z 00000KT 6SM BR CLR 16/15 A2994 850 96 1100 000/00 RMK AO2
14837KMSN MSN20020628014509506/28/02 01:45:31  5-MIN KMSN 280745Z 00000KT 6SM BR CLR 16/15 A2994 850 96 1200 000/00 RMK AO2
14837KMSN MSN20020628015011206/28/02 01:50:31  5-MIN KMSN 280750Z 00000KT 5SM BR CLR 16/15 A2993 850 96 1200 000/00 RMK AO2 SLP132 T01560150
14837KMSN MSN20020628015509506/28/02 01:55:31  5-MIN KMSN 280755Z 00000KT 6SM BR CLR 16/16 A2993 850 96 1200 000/00 RMK AO2
14837KMSN MSN20020628020009506/28/02 02:00:31  5-MIN KMSN 280800Z 00000KT 6SM BR CLR 16/15 A2994 850 96 1200 000/00 RMK AO2
14837KMSN MSN20020628020509606/28/02 02:05:31  5-MIN KMSN 280805Z 00000KT 6SM BR CLR 15/15 A2994 850 100 1100 000/00 RMK AO2
14837KMSN MSN20020628021009506/28/02 02:10:31  5-MIN KMSN 280810Z 00000KT 6SM BR CLR 16/15 A2994 850 96 1200 000/00 RMK AO2
14837KMSN MSN20020628021509506/28/02 02:15:31  5-MIN KMSN 280815Z 00000KT 6SM BR CLR 16/15 A2994 850 96 1200 000/00 RMK AO2
14837KMSN MSN20020628022009506/28/02 02:20:31  5-MIN KMSN 280820Z 00000KT 6SM BR CLR 16/15 A2994 850 96 1100 000/00 RMK AO2
14837KMSN MSN20020628022509506/28/02 02:25:31  5-MIN KMSN 280825Z 00000KT 6SM BR CLR 16/15 A2994 850 96 1100 000/00 RMK AO2
14837KMSN MSN20020628023009506/28/02 02:30:31  5-MIN KMSN 280830Z 00000KT 6SM BR CLR 16/15 A2994 850 96 1100 000/00 RMK AO2
14837KMSN MSN20020628023509506/28/02 02:35:31  5-MIN KMSN 280835Z 00000KT 6SM BR CLR 16/14 A2994 850 93 1100 000/00 RMK AO2
14837KMSN MSN20020628024009506/28/02 02:40:31  5-MIN KMSN 280840Z 00000KT 6SM BR CLR 16/15 A2994 840 96 1100 000/00 RMK AO2
14837KMSN MSN20020628024509506/28/02 02:45:31  5-MIN KMSN 280845Z 00000KT 6SM BR CLR 16/14 A2994 840 93 1100 000/00 RMK AO2
14837KMSN MSN20020628025011806/28/02 02:50:31  5-MIN KMSN 280850Z 00000KT 6SM BR CLR 15/14 A2994 840 96 1100 000/00 RMK AO2 SLP137 T01500144 50008
14837KMSN MSN20020628025509506/28/02 02:55:31  5-MIN KMSN 280855Z 00000KT 3SM BR CLR 15/14 A2994 840 96 1100 000/00 RMK AO2
14837KMSN MSN20020628030009506/28/02 03:00:31  5-MIN KMSN 280900Z 00000KT 5SM BR CLR 15/14 A2994 840 96 1100 000/00 RMK AO2
14837KMSN MSN20020628030509506/28/02 03:05:31  5-MIN KMSN 280905Z 00000KT 5SM BR CLR 15/14 A2995 840 96 1100 000/00 RMK AO2
14837KMSN MSN20020628031009506/28/02 03:10:31  5-MIN KMSN 280910Z 00000KT 5SM BR CLR 15/14 A2995 840 96 1100 000/00 RMK AO2
14837KMSN MSN20020628031509506/28/02 03:15:31  5-MIN KMSN 280915Z 00000KT 5SM BR CLR 15/14 A2994 840 96 1100 000/00 RMK AO2
14837KMSN MSN20020628032009506/28/02 03:20:31  5-MIN KMSN 280920Z 00000KT 5SM BR CLR 14/14 A2994 840 96 1000 000/00 RMK AO2
14837KMSN MSN20020628032509506/28/02 03:25:31  5-MIN KMSN 280925Z 00000KT 5SM BR CLR 16/14 A2995 840 93 1100 000/00 RMK AO2
14837KMSN MSN20020628033009506/28/02 03:30:31  5-MIN KMSN 280930Z 00000KT 5SM BR CLR 16/15 A2995 840 96 1100 000/00 RMK AO2
14837KMSN MSN20020628033509506/28/02 03:35:31  5-MIN KMSN 280935Z 00000KT 5SM BR CLR 14/14 A2995 840 96 1000 000/00 RMK AO2
14837KMSN MSN20020628034009506/28/02 03:40:31  5-MIN KMSN 280940Z 00000KT 3SM BR CLR 14/14 A2995 840 96 1000 000/00 RMK AO2
14837KMSN MSN20020628034509506/28/02 03:45:31  5-MIN KMSN 280945Z 00000KT 3SM BR CLR 15/14 A2996 830 96 1100 000/00 RMK AO2
14837KMSN MSN20020628035011406/28/02 03:50:31  5-MIN KMSN 280950Z 00000KT 3SM MIFG CLR 15/14 A2995 830 96 1100 000/00 RMK AO2 SLP140 T01500144
14837KMSN MSN20020628035509706/28/02 03:55:31  5-MIN KMSN 280955Z 00000KT 4SM MIFG CLR 15/14 A2996 830 93 1100 000/00 RMK AO2
14837KMSN MSN20020628040009706/28/02 04:00:31  5-MIN KMSN 281000Z 00000KT 6SM MIFG CLR 15/14 A2996 830 93 1100 000/00 RMK AO2
14837KMSN MSN20020628040509706/28/02 04:05:31  5-MIN KMSN 281005Z 00000KT 4SM MIFG CLR 15/14 A2996 830 96 1100 000/00 RMK AO2
14837KMSN MSN20020628041010906/28/02 04:10:31  5-MIN KMSN 281010Z 00000KT 2 1/2SM MIFG CLR 15/14 A2996 820 96 1100 000/00 RMK AO2 VIS 1V5
14837KMSN MSN20020628041509706/28/02 04:15:31  5-MIN KMSN 281015Z 00000KT 4SM MIFG CLR 15/14 A2996 820 96 1100 000/00 RMK AO2
14837KMSN MSN20020628042009706/28/02 04:20:31  5-MIN KMSN 281020Z 00000KT 4SM MIFG CLR 14/14 A2997 820 96 1000 000/00 RMK AO2
14837KMSN MSN20020628042509706/28/02 04:25:31  5-MIN KMSN 281025Z 00000KT 4SM MIFG CLR 15/14 A2997 820 96 1000 000/00 RMK AO2
14837KMSN MSN20020628043009706/28/02 04:30:31  5-MIN KMSN 281030Z 00000KT 4SM MIFG CLR 15/14 A2997 820 96 1000 000/00 RMK AO2
14837KMSN MSN20020628043509706/28/02 04:35:31  5-MIN KMSN 281035Z 00000KT 4SM MIFG CLR 15/14 A2997 810 96 1000 000/00 RMK AO2
14837KMSN MSN20020628044009806/28/02 04:40:31  5-MIN KMSN 281040Z 00000KT 4SM MIFG CLR 15/15 A2998 810 100 1000 000/00 RMK AO2
14837KMSN MSN20020628044509706/28/02 04:45:31  5-MIN KMSN 281045Z 00000KT 4SM MIFG CLR 15/14 A2998 810 96 1000 000/00 RMK AO2
14837KMSN MSN20020628045011406/28/02 04:50:31  5-MIN KMSN 281050Z 00000KT 4SM MIFG CLR 15/14 A2998 810 96 1000 000/00 RMK AO2 SLP150 T01500144
14837KMSN MSN20020628045509706/28/02 04:55:31  5-MIN KMSN 281055Z 00000KT 9SM MIFG CLR 15/14 A2999 800 96 1000 000/00 RMK AO2
14837KMSN MSN20020628050009806/28/02 05:00:31  5-MIN KMSN 281100Z 00000KT 10SM MIFG CLR 15/14 A2999 800 96 1000 000/00 RMK AO2
14837KMSN MSN20020628050509806/28/02 05:05:31  5-MIN KMSN 281105Z 00000KT 10SM MIFG CLR 16/14 A2999 800 93 1100 000/00 RMK AO2
14837KMSN MSN20020628051009806/28/02 05:10:31  5-MIN KMSN 281110Z 00000KT 10SM MIFG CLR 16/14 A2999 800 93 1100 000/00 RMK AO2
14837KMSN MSN20020628051509806/28/02 05:15:31  5-MIN KMSN 281115Z 00000KT 10SM MIFG CLR 16/14 A2999 800 93 1100 000/00 RMK AO2
14837KMSN MSN20020628052009306/28/02 05:20:31  5-MIN KMSN 281120Z 00000KT 10SM CLR 16/14 A2999 800 93 1100 000/00 RMK AO2
14837KMSN MSN20020628052509206/28/02 05:25:31  5-MIN KMSN 281125Z 00000KT 9SM CLR 16/14 A2999 800 90 1200 000/00 RMK AO2
14837KMSN MSN20020628053009206/28/02 05:30:31  5-MIN KMSN 281130Z 00000KT 9SM CLR 16/14 A3000 790 90 1200 000/00 RMK AO2
14837KMSN MSN20020628053509206/28/02 05:35:31  5-MIN KMSN 281135Z 00000KT 9SM CLR 16/15 A3000 790 93 1100 000/00 RMK AO2
14837KMSN MSN20020628054009206/28/02 05:40:31  5-MIN KMSN 281140Z 00000KT 9SM CLR 17/15 A3000 790 90 1200 000/00 RMK AO2
14837KMSN MSN20020628054509206/28/02 05:45:31  5-MIN KMSN 281145Z 00000KT 8SM CLR 17/15 A3000 790 90 1200 000/00 RMK AO2
14837KMSN MSN20020628055012706/28/02 05:50:31  5-MIN KMSN 281150Z 00000KT 8SM CLR 17/16 A3000 790 93 1200 000/00 RMK AO2 SLP155 T01670156 10167 20144 53002
14837KMSN MSN20020628055509206/28/02 05:55:31  5-MIN KMSN 281155Z 00000KT 8SM CLR 17/16 A3000 790 93 1300 000/00 RMK AO2
14837KMSN MSN20020628060009206/28/02 06:00:31  5-MIN KMSN 281200Z 00000KT 8SM CLR 18/16 A3000 790 90 1300 000/00 RMK AO2
14837KMSN MSN20020628060509206/28/02 06:05:31  5-MIN KMSN 281205Z 00000KT 7SM CLR 18/17 A3000 790 90 1400 000/00 RMK AO2
14837KMSN MSN20020628061009206/28/02 06:10:31  5-MIN KMSN 281210Z 00000KT 7SM CLR 18/17 A3001 790 90 1400 000/00 RMK AO2
14837KMSN MSN20020628061509206/28/02 06:15:31  5-MIN KMSN 281215Z 00000KT 7SM CLR 19/17 A3001 790 90 1500 000/00 RMK AO2
14837KMSN MSN20020628062009206/28/02 06:20:31  5-MIN KMSN 281220Z 00000KT 7SM CLR 19/17 A3001 780 87 1500 000/00 RMK AO2
14837KMSN MSN20020628062509206/28/02 06:25:31  5-MIN KMSN 281225Z 00000KT 7SM CLR 19/17 A3001 780 87 1500 000/00 RMK AO2
14837KMSN MSN20020628063009206/28/02 06:30:31  5-MIN KMSN 281230Z 00000KT 8SM CLR 20/17 A3001 780 84 1600 000/00 RMK AO2
14837KMSN MSN20020628063509206/28/02 06:35:31  5-MIN KMSN 281235Z 00000KT 8SM CLR 20/17 A3001 780 84 1600 000/00 RMK AO2
14837KMSN MSN20020628064009206/28/02 06:40:31  5-MIN KMSN 281240Z 00000KT 8SM CLR 21/18 A3001 780 84 1600 000/00 RMK AO2
14837KMSN MSN20020628064509206/28/02 06:45:31  5-MIN KMSN 281245Z 00000KT 8SM CLR 21/18 A3001 780 84 1600 000/00 RMK AO2
14837KMSN MSN20020628065010906/28/02 06:50:31  5-MIN KMSN 281250Z 00000KT 8SM CLR 21/18 A3001 780 81 1700 000/00 RMK AO2 SLP160 T02110178
14837KMSN MSN20020628065509206/28/02 06:55:31  5-MIN KMSN 281255Z 00000KT 8SM CLR 21/18 A3001 780 81 1700 000/00 RMK AO2
14837KMSN MSN20020628070009306/28/02 07:00:31  5-MIN KMSN 281300Z 00000KT 10SM CLR 21/18 A3001 780 81 1700 000/00 RMK AO2
14837KMSN MSN20020628070509306/28/02 07:05:31  5-MIN KMSN 281305Z 00000KT 10SM CLR 21/18 A3002 780 81 1700 000/00 RMK AO2
14837KMSN MSN20020628071009306/28/02 07:10:31  5-MIN KMSN 281310Z 00000KT 10SM CLR 21/18 A3002 770 81 1700 000/00 RMK AO2
14837KMSN MSN20020628071509306/28/02 07:15:31  5-MIN KMSN 281315Z 00000KT 10SM CLR 22/18 A3002 770 78 1800 000/00 RMK AO2
14837KMSN MSN20020628072009306/28/02 07:20:31  5-MIN KMSN 281320Z 00000KT 10SM CLR 22/18 A3002 770 78 1800 000/00 RMK AO2
14837KMSN MSN20020628072509306/28/02 07:25:31  5-MIN KMSN 281325Z VRB04KT 10SM CLR 22/18 A3002 770 78 1800 VRB/04 RMK AO2
14837KMSN MSN20020628073009306/28/02 07:30:31  5-MIN KMSN 281330Z 29004KT 10SM CLR 22/18 A3002 770 78 1800 290/04 RMK AO2
14837KMSN MSN20020628073509306/28/02 07:35:31  5-MIN KMSN 281335Z 30004KT 10SM CLR 22/18 A3002 770 78 1800 290/04 RMK AO2
14837KMSN MSN20020628074009306/28/02 07:40:31  5-MIN KMSN 281340Z 28003KT 10SM CLR 22/18 A3002 770 75 1800 280/03 RMK AO2
14837KMSN MSN20020628074509306/28/02 07:45:31  5-MIN KMSN 281345Z 31003KT 10SM CLR 22/18 A3002 770 75 1800 310/03 RMK AO2
14837KMSN MSN20020628075011006/28/02 07:50:31  5-MIN KMSN 281350Z 31004KT 10SM CLR 23/18 A3002 770 76 1900 310/04 RMK AO2 SLP161 T02280183
14837KMSN MSN20020628075509206/28/02 07:55:31  5-MIN KMSN 281355Z 00000KT 9SM CLR 23/18 A3002 770 76 1900 000/00 RMK AO2
14837KMSN MSN20020628080009306/28/02 08:00:31  5-MIN KMSN 281400Z 27004KT 10SM CLR 23/18 A3002 770 76 1900 270/04 RMK AO2
14837KMSN MSN20020628080509306/28/02 08:05:31  5-MIN KMSN 281405Z VRB03KT 10SM CLR 23/18 A3002 770 76 1900 VRB/03 RMK AO2
14837KMSN MSN20020628081009306/28/02 08:10:31  5-MIN KMSN 281410Z VRB03KT 10SM CLR 23/19 A3002 770 76 2000 VRB/03 RMK AO2
14837KMSN MSN20020628081509306/28/02 08:15:31  5-MIN KMSN 281415Z 27003KT 10SM CLR 24/18 A3002 770 71 2000 270/03 RMK AO2
14837KMSN MSN20020628082009306/28/02 08:20:31  5-MIN KMSN 281420Z VRB03KT 10SM CLR 23/18 A3002 770 73 2000 VRB/03 RMK AO2
14837KMSN MSN20020628082509306/28/02 08:25:31  5-MIN KMSN 281425Z VRB04KT 10SM CLR 24/19 A3002 770 73 2000 VRB/04 RMK AO2
14837KMSN MSN20020628083009306/28/02 08:30:31  5-MIN KMSN 281430Z 26004KT 10SM CLR 24/18 A3002 770 71 2000 260/04 RMK AO2
14837KMSN MSN20020628083509306/28/02 08:35:31  5-MIN KMSN 281435Z VRB03KT 10SM CLR 24/18 A3003 770 71 2000 VRB/03 RMK AO2
14837KMSN MSN20020628084009306/28/02 08:40:31  5-MIN KMSN 281440Z VRB03KT 10SM CLR 24/18 A3002 770 68 2100 VRB/03 RMK AO2
14837KMSN MSN20020628084509306/28/02 08:45:31  5-MIN KMSN 281445Z VRB03KT 10SM CLR 24/18 A3003 770 68 2100 VRB/03 RMK AO2
14837KMSN MSN20020628085011606/28/02 08:50:31  5-MIN KMSN 281450Z 29004KT 10SM CLR 25/18 A3003 770 66 2100 290/04 RMK AO2 SLP164 T02500183 53019
14837KMSN MSN20020628085509306/28/02 08:55:31  5-MIN KMSN 281455Z 00000KT 10SM CLR 25/18 A3003 770 66 2100 000/00 RMK AO2
14837KMSN MSN20020628090009306/28/02 09:00:31  5-MIN KMSN 281500Z VRB03KT 10SM CLR 25/18 A3003 770 66 2100 VRB/03 RMK AO2
14837KMSN MSN20020628090509306/28/02 09:05:31  5-MIN KMSN 281505Z 00000KT 10SM CLR 25/18 A3002 770 66 2100 000/00 RMK AO2
14837KMSN MSN20020628091009306/28/02 09:10:31  5-MIN KMSN 281510Z 00000KT 10SM CLR 25/18 A3003 770 66 2100 000/00 RMK AO2
14837KMSN MSN20020628091509306/28/02 09:15:31  5-MIN KMSN 281515Z VRB03KT 10SM CLR 26/18 A3003 770 62 2300 VRB/03 RMK AO2
14837KMSN MSN20020628092009306/28/02 09:20:31  5-MIN KMSN 281520Z VRB03KT 10SM CLR 26/18 A3003 760 61 2200 VRB/03 RMK AO2
14837KMSN MSN20020628092509306/28/02 09:25:31  5-MIN KMSN 281525Z VRB03KT 10SM CLR 26/18 A3003 760 61 2200 VRB/03 RMK AO2
14837KMSN MSN20020628093009306/28/02 09:30:31  5-MIN KMSN 281530Z 26004KT 10SM CLR 26/18 A3003 760 62 2300 260/04 RMK AO2
14837KMSN MSN20020628093509306/28/02 09:35:31  5-MIN KMSN 281535Z VRB03KT 10SM CLR 26/18 A3003 760 61 2200 VRB/03 RMK AO2
14837KMSN MSN20020628094009306/28/02 09:40:31  5-MIN KMSN 281540Z 00000KT 10SM CLR 26/17 A3003 760 59 2200 000/00 RMK AO2
14837KMSN MSN20020628094509306/28/02 09:45:31  5-MIN KMSN 281545Z 00000KT 10SM CLR 26/18 A3003 770 59 2300 000/00 RMK AO2
14837KMSN MSN20020628095011006/28/02 09:50:31  5-MIN KMSN 281550Z VRB05KT 10SM CLR 27/18 A3003 770 57 2300 VRB/05 RMK AO2 SLP163 T02670178
14837KMSN MSN20020628095509306/28/02 09:55:31  5-MIN KMSN 281555Z 29004KT 10SM CLR 26/17 A3003 770 57 2300 290/04 RMK AO2
14837KMSN MSN20020628100009306/28/02 10:00:31  5-MIN KMSN 281600Z 28003KT 10SM CLR 26/17 A3002 770 57 2300 280/03 RMK AO2
14837KMSN MSN20020628100509306/28/02 10:05:31  5-MIN KMSN 281605Z VRB04KT 10SM CLR 26/17 A3002 770 57 2300 VRB/04 RMK AO2
14837KMSN MSN20020628101009306/28/02 10:10:31  5-MIN KMSN 281610Z 33004KT 10SM CLR 27/17 A3002 770 55 2300 330/04 RMK AO2
14837KMSN MSN20020628101509306/28/02 10:15:31  5-MIN KMSN 281615Z 00000KT 10SM CLR 27/17 A3002 770 54 2400 000/00 RMK AO2
14837KMSN MSN20020628102009306/28/02 10:20:31  5-MIN KMSN 281620Z 36003KT 10SM CLR 27/17 A3002 770 54 2400 360/03 RMK AO2
14837KMSN MSN20020628102509306/28/02 10:25:31  5-MIN KMSN 281625Z VRB03KT 10SM CLR 27/17 A3002 770 54 2400 VRB/03 RMK AO2
14837KMSN MSN20020628103009206/28/02 10:30:31  5-MIN KMSN 281630Z 00000KT 9SM CLR 27/18 A3002 770 57 2300 000/00 RMK AO2
14837KMSN MSN20020628103509306/28/02 10:35:31  5-MIN KMSN 281635Z VRB03KT 10SM CLR 27/18 A3002 770 56 2400 VRB/03 RMK AO2
14837KMSN MSN20020628104009306/28/02 10:40:31  5-MIN KMSN 281640Z VRB04KT 10SM CLR 27/18 A3002 770 57 2300 VRB/04 RMK AO2
14837KMSN MSN20020628104509306/28/02 10:45:31  5-MIN KMSN 281645Z VRB05KT 10SM CLR 27/18 A3002 770 58 2400 VRB/05 RMK AO2
14837KMSN MSN20020628105011006/28/02 10:50:31  5-MIN KMSN 281650Z VRB03KT 10SM CLR 27/18 A3002 770 57 2300 VRB/03 RMK AO2 SLP162 T02670178
14837KMSN MSN20020628105509306/28/02 10:55:31  5-MIN KMSN 281655Z 20004KT 10SM CLR 27/18 A3002 770 57 2300 200/04 RMK AO2
14837KMSN MSN20020628110009306/28/02 11:00:31  5-MIN KMSN 281700Z VRB03KT 10SM CLR 27/18 A3002 770 57 2300 VRB/03 RMK AO2
14837KMSN MSN20020628110509306/28/02 11:05:31  5-MIN KMSN 281705Z 21005KT 10SM CLR 27/17 A3002 770 54 2400 210/05 RMK AO2
14837KMSN MSN20020628111009306/28/02 11:10:31  5-MIN KMSN 281710Z VRB03KT 10SM CLR 27/17 A3002 770 54 2400 VRB/03 RMK AO2
14837KMSN MSN20020628111509606/28/02 11:15:31  5-MIN KMSN 281715Z VRB04KT 10SM FEW045 27/17 A3002 770 54 2400 VRB/04 RMK AO2
14837KMSN MSN20020628112009606/28/02 11:20:31  5-MIN KMSN 281720Z 27005KT 10SM FEW045 27/17 A3002 770 54 2400 270/05 RMK AO2
14837KMSN MSN20020628112509606/28/02 11:25:31  5-MIN KMSN 281725Z VRB04KT 10SM FEW045 27/17 A3002 770 54 2400 VRB/04 RMK AO2
14837KMSN MSN20020628113010306/28/02 11:30:31  5-MIN KMSN 281730Z VRB05KT 10SM FEW045 SCT110 27/17 A3002 770 54 2400 VRB/05 RMK AO2
14837KMSN MSN20020628113510306/28/02 11:35:31  5-MIN KMSN 281735Z 26004KT 10SM FEW045 SCT110 27/18 A3002 770 56 2400 260/04 RMK AO2
14837KMSN MSN20020628114009606/28/02 11:40:31  5-MIN KMSN 281740Z 22006KT 10SM SCT045 27/17 A3002 770 52 2400 220/06 RMK AO2
14837KMSN MSN20020628114509606/28/02 11:45:31  5-MIN KMSN 281745Z VRB05KT 10SM SCT045 27/17 A3002 770 52 2400 VRB/05 RMK AO2
14837KMSN MSN20020628115013106/28/02 11:50:31  5-MIN KMSN 281750Z 21006KT 10SM SCT045 28/17 A3002 770 52 2500 210/06 RMK AO2 SLP162 T02780172 10278 20172 51008
14837KMSN MSN20020628115509606/28/02 11:55:31  5-MIN KMSN 281755Z 21005KT 10SM SCT045 27/16 A3002 770 50 2400 210/05 RMK AO2
14837KMSN MSN20020628120009606/28/02 12:00:31  5-MIN KMSN 281800Z VRB05KT 10SM SCT045 27/16 A3002 770 50 2400 VRB/05 RMK AO2
14837KMSN MSN20020628120509606/28/02 12:05:31  5-MIN KMSN 281805Z 22005KT 10SM SCT045 27/17 A3002 770 52 2400 220/05 RMK AO2
14837KMSN MSN20020628121009606/28/02 12:10:31  5-MIN KMSN 281810Z 22004KT 10SM SCT045 28/17 A3002 770 50 2500 220/04 RMK AO2
14837KMSN MSN20020628121509606/28/02 12:15:31  5-MIN KMSN 281815Z 26005KT 10SM SCT045 28/16 A3002 770 48 2500 250/05 RMK AO2
14837KMSN MSN20020628122009606/28/02 12:20:31  5-MIN KMSN 281820Z VRB05KT 10SM SCT045 28/17 A3002 770 50 2500 VRB/05 RMK AO2
14837KMSN MSN20020628122509606/28/02 12:25:31  5-MIN KMSN 281825Z VRB04KT 10SM SCT045 28/16 A3002 770 48 2500 VRB/04 RMK AO2
14837KMSN MSN20020628123009606/28/02 12:30:31  5-MIN KMSN 281830Z 21004KT 10SM SCT045 28/16 A3002 770 46 2500 210/04 RMK AO2
14837KMSN MSN20020628123509606/28/02 12:35:31  5-MIN KMSN 281835Z 22005KT 10SM SCT045 28/16 A3002 770 46 2500 220/05 RMK AO2
14837KMSN MSN20020628124009606/28/02 12:40:31  5-MIN KMSN 281840Z 23005KT 10SM SCT045 28/16 A3002 770 48 2500 230/05 RMK AO2
14837KMSN MSN20020628124509606/28/02 12:45:31  5-MIN KMSN 281845Z VRB04KT 10SM SCT045 28/17 A3002 770 50 2500 VRB/04 RMK AO2
14837KMSN MSN20020628125011306/28/02 12:50:31  5-MIN KMSN 281850Z 20005KT 10SM SCT045 28/17 A3002 770 50 2500 200/05 RMK AO2 SLP162 T02780167
14837KMSN MSN20020628125509306/28/02 12:55:31  5-MIN KMSN 281855Z 23005KT 10SM CLR 28/17 A3002 770 50 2500 230/05 RMK AO2
14837KMSN MSN20020628130009606/28/02 13:00:31  5-MIN KMSN 281900Z VRB03KT 10SM FEW045 28/16 A3002 770 46 2500 VRB/03 RMK AO2
14837KMSN MSN20020628130509606/28/02 13:05:31  5-MIN KMSN 281905Z 00000KT 10SM FEW045 28/16 A3002 770 46 2500 000/00 RMK AO2
14837KMSN MSN20020628131009506/28/02 13:10:31  5-MIN KMSN 281910Z VRB03KT 9SM FEW045 28/16 A3002 780 47 2500 VRB/03 RMK AO2
14837KMSN MSN20020628131509506/28/02 13:15:31  5-MIN KMSN 281915Z 22007KT 9SM FEW045 28/16 A3002 780 47 2500 220/07 RMK AO2
14837KMSN MSN20020628132009606/28/02 13:20:31  5-MIN KMSN 281920Z VRB04KT 10SM FEW045 28/16 A3002 770 48 2500 VRB/04 RMK AO2
14837KMSN MSN20020628132509606/28/02 13:25:31  5-MIN KMSN 281925Z VRB04KT 10SM FEW045 28/16 A3002 770 48 2500 VRB/04 RMK AO2
14837KMSN MSN20020628133009606/28/02 13:30:31  5-MIN KMSN 281930Z VRB04KT 10SM FEW045 28/16 A3002 770 48 2500 VRB/04 RMK AO2
14837KMSN MSN20020628133509606/28/02 13:35:31  5-MIN KMSN 281935Z 00000KT 10SM FEW045 28/16 A3002 770 46 2500 000/00 RMK AO2
14837KMSN MSN20020628134009606/28/02 13:40:31  5-MIN KMSN 281940Z VRB03KT 10SM FEW045 28/16 A3002 770 47 2500 VRB/03 RMK AO2
14837KMSN MSN20020628134509606/28/02 13:45:31  5-MIN KMSN 281945Z 24004KT 10SM FEW045 28/16 A3002 770 48 2500 240/04 RMK AO2
14837KMSN MSN20020628135011306/28/02 13:50:31  5-MIN KMSN 281950Z 26005KT 10SM FEW045 28/16 A3002 770 48 2500 260/05 RMK AO2 SLP161 T02780161
14837KMSN MSN20020628135509306/28/02 13:55:31  5-MIN KMSN 281955Z 00000KT 10SM CLR 28/16 A3002 770 48 2500 000/00 RMK AO2
14837KMSN MSN20020628140009306/28/02 14:00:31  5-MIN KMSN 282000Z 26004KT 10SM CLR 28/16 A3002 770 46 2500 260/04 RMK AO2
14837KMSN MSN20020628140509506/28/02 14:05:31  5-MIN KMSN 282005Z VRB03KT 9SM FEW045 28/16 A3002 770 46 2500 VRB/03 RMK AO2
14837KMSN MSN20020628141009506/28/02 14:10:31  5-MIN KMSN 282010Z VRB04KT 9SM FEW045 28/16 A3002 770 46 2500 VRB/04 RMK AO2
14837KMSN MSN20020628141509506/28/02 14:15:31  5-MIN KMSN 282015Z 25004KT 9SM FEW045 28/16 A3002 770 46 2500 250/04 RMK AO2
14837KMSN MSN20020628142009606/28/02 14:20:31  5-MIN KMSN 282020Z VRB05KT 10SM FEW045 28/16 A3002 770 48 2500 VRB/05 RMK AO2
14837KMSN MSN20020628142509606/28/02 14:25:31  5-MIN KMSN 282025Z 21005KT 10SM FEW045 28/16 A3002 770 46 2500 210/05 RMK AO2
14837KMSN MSN20020628143009606/28/02 14:30:31  5-MIN KMSN 282030Z VRB03KT 10SM FEW045 28/16 A3002 770 46 2500 VRB/03 RMK AO2
14837KMSN MSN20020628143509606/28/02 14:35:31  5-MIN KMSN 282035Z 26004KT 10SM FEW045 28/16 A3002 770 48 2500 260/04 RMK AO2
14837KMSN MSN20020628144009606/28/02 14:40:31  5-MIN KMSN 282040Z VRB04KT 10SM FEW045 28/16 A3002 770 46 2500 VRB/04 RMK AO2
14837KMSN MSN20020628144509606/28/02 14:45:31  5-MIN KMSN 282045Z 26005KT 10SM FEW045 28/16 A3002 770 46 2500 260/05 RMK AO2
14837KMSN MSN20020628145011906/28/02 14:50:31  5-MIN KMSN 282050Z 26005KT 10SM FEW045 28/16 A3002 770 46 2500 260/05 RMK AO2 SLP161 T02780156 55001
14837KMSN MSN20020628145509206/28/02 14:55:31  5-MIN KMSN 282055Z 26004KT 9SM CLR 28/16 A3002 780 46 2500 260/04 RMK AO2
14837KMSN MSN20020628150009606/28/02 15:00:31  5-MIN KMSN 282100Z 23004KT 10SM FEW045 28/16 A3002 780 45 2500 220/04 RMK AO2
14837KMSN MSN20020628150509606/28/02 15:05:31  5-MIN KMSN 282105Z 23004KT 10SM FEW045 28/16 A3002 770 45 2500 220/04 RMK AO2
14837KMSN MSN20020628151009606/28/02 15:10:31  5-MIN KMSN 282110Z 23004KT 10SM FEW045 28/15 A3002 780 45 2500 220/04 RMK AO2
14837KMSN MSN20020628151509606/28/02 15:15:31  5-MIN KMSN 282115Z VRB04KT 10SM FEW045 28/15 A3002 780 45 2500 VRB/04 RMK AO2
14837KMSN MSN20020628152009606/28/02 15:20:31  5-MIN KMSN 282120Z VRB03KT 10SM FEW045 28/16 A3002 780 45 2500 VRB/03 RMK AO2
14837KMSN MSN20020628152509606/28/02 15:25:31  5-MIN KMSN 282125Z VRB03KT 10SM FEW045 28/16 A3001 780 47 2500 VRB/03 RMK AO2
14837KMSN MSN20020628153009606/28/02 15:30:31  5-MIN KMSN 282130Z VRB03KT 10SM FEW045 28/16 A3001 780 47 2500 VRB/03 RMK AO2
14837KMSN MSN20020628153509606/28/02 15:35:31  5-MIN KMSN 282135Z 26004KT 10SM FEW045 28/16 A3001 780 48 2500 250/04 RMK AO2
14837KMSN MSN20020628154009606/28/02 15:40:31  5-MIN KMSN 282140Z 26005KT 10SM FEW045 28/16 A3001 780 48 2500 260/05 RMK AO2
14837KMSN MSN20020628154509606/28/02 15:45:31  5-MIN KMSN 282145Z 26005KT 10SM FEW045 28/16 A3002 780 48 2500 260/05 RMK AO2
14837KMSN MSN20020628155011306/28/02 15:50:31  5-MIN KMSN 282150Z VRB04KT 10SM FEW045 28/16 A3002 780 48 2500 VRB/04 RMK AO2 SLP160 T02780161
14837KMSN MSN20020628155509206/28/02 15:55:31  5-MIN KMSN 282155Z 25004KT 9SM CLR 28/17 A3002 780 48 2500 240/04 RMK AO2
14837KMSN MSN20020628160009206/28/02 16:00:31  5-MIN KMSN 282200Z VRB03KT 9SM CLR 28/16 A3001 780 48 2500 VRB/03 RMK AO2
14837KMSN MSN20020628160509306/28/02 16:05:31  5-MIN KMSN 282205Z 26004KT 10SM CLR 28/17 A3001 780 50 2500 260/04 RMK AO2
14837KMSN MSN20020628161009306/28/02 16:10:31  5-MIN KMSN 282210Z 25004KT 10SM CLR 28/17 A3001 780 50 2500 250/04 RMK AO2
14837KMSN MSN20020628161509306/28/02 16:15:31  5-MIN KMSN 282215Z 22004KT 10SM CLR 28/17 A3001 780 50 2500 220/04 RMK AO2
14837KMSN MSN20020628162009306/28/02 16:20:31  5-MIN KMSN 282220Z 25004KT 10SM CLR 28/17 A3001 780 50 2500 250/04 RMK AO2
14837KMSN MSN20020628162509206/28/02 16:25:31  5-MIN KMSN 282225Z 22004KT 9SM CLR 28/17 A3001 780 50 2500 220/04 RMK AO2
14837KMSN MSN20020628163009206/28/02 16:30:31  5-MIN KMSN 282230Z VRB03KT 9SM CLR 28/17 A3001 780 50 2500 VRB/03 RMK AO2
14837KMSN MSN20020628163509206/28/02 16:35:31  5-MIN KMSN 282235Z 00000KT 9SM CLR 28/16 A3001 780 48 2500 000/00 RMK AO2
14837KMSN MSN20020628164009306/28/02 16:40:31  5-MIN KMSN 282240Z 26004KT 10SM CLR 28/17 A3001 780 50 2500 260/04 RMK AO2
14837KMSN MSN20020628164509206/28/02 16:45:31  5-MIN KMSN 282245Z 25003KT 9SM CLR 28/17 A3001 780 50 2500 250/03 RMK AO2
14837KMSN MSN20020628165011006/28/02 16:50:31  5-MIN KMSN 282250Z 25003KT 10SM CLR 28/17 A3001 780 50 2500 250/03 RMK AO2 SLP158 T02780167
14837KMSN MSN20020628165509206/28/02 16:55:31  5-MIN KMSN 282255Z 24003KT 9SM CLR 28/17 A3001 780 50 2500 230/03 RMK AO2
14837KMSN MSN20020628170009206/28/02 17:00:31  5-MIN KMSN 282300Z 26004KT 9SM CLR 28/17 A3001 780 50 2500 260/04 RMK AO2
14837KMSN MSN20020628170509206/28/02 17:05:31  5-MIN KMSN 282305Z 24003KT 9SM CLR 28/17 A3001 780 52 2500 240/03 RMK AO2
14837KMSN MSN20020628171009206/28/02 17:10:31  5-MIN KMSN 282310Z 25003KT 9SM CLR 27/17 A3001 780 52 2400 250/03 RMK AO2
14837KMSN MSN20020628171509206/28/02 17:15:31  5-MIN KMSN 282315Z 26003KT 9SM CLR 27/17 A3001 780 52 2400 260/03 RMK AO2
14837KMSN MSN20020628172009206/28/02 17:20:31  5-MIN KMSN 282320Z 23004KT 9SM CLR 27/17 A3002 780 52 2400 230/04 RMK AO2
14837KMSN MSN20020628172509206/28/02 17:25:31  5-MIN KMSN 282325Z 23004KT 9SM CLR 27/16 A3002 780 50 2400 230/04 RMK AO2
14837KMSN MSN20020628173009206/28/02 17:30:31  5-MIN KMSN 282330Z 23003KT 9SM CLR 27/16 A3002 780 50 2400 230/03 RMK AO2
14837KMSN MSN20020628173509206/28/02 17:35:31  5-MIN KMSN 282335Z 23005KT 9SM CLR 27/16 A3002 770 50 2400 230/05 RMK AO2
14837KMSN MSN20020628174009206/28/02 17:40:31  5-MIN KMSN 282340Z 23003KT 9SM CLR 27/16 A3002 780 50 2400 230/03 RMK AO2
14837KMSN MSN20020628174509206/28/02 17:45:31  5-MIN KMSN 282345Z 22004KT 9SM CLR 27/17 A3002 770 52 2400 220/04 RMK AO2
14837KMSN MSN20020628175012806/28/02 17:50:31  5-MIN KMSN 282350Z VRB03KT 10SM CLR 27/17 A3002 770 52 2400 VRB/03 RMK AO2 SLP161 T02720167 10283 20272 56002
14837KMSN MSN20020628175509206/28/02 17:55:31  5-MIN KMSN 282355Z 22004KT 9SM CLR 27/16 A3002 770 50 2400 220/04 RMK AO2
14837KMSN MSN20020628180009206/28/02 18:00:31  5-MIN KMSN 290000Z VRB03KT 9SM CLR 27/17 A3002 770 52 2400 VRB/03 RMK AO2
14837KMSN MSN20020628180509206/28/02 18:05:31  5-MIN KMSN 290005Z VRB03KT 9SM CLR 27/17 A3002 770 52 2400 VRB/03 RMK AO2
14837KMSN MSN20020628181009206/28/02 18:10:31  5-MIN KMSN 290010Z 20005KT 9SM CLR 27/17 A3002 770 52 2400 200/05 RMK AO2
14837KMSN MSN20020628181509206/28/02 18:15:31  5-MIN KMSN 290015Z VRB03KT 8SM CLR 27/17 A3002 770 53 2300 VRB/03 RMK AO2
14837KMSN MSN20020628182009206/28/02 18:20:31  5-MIN KMSN 290020Z VRB04KT 8SM CLR 27/17 A3002 770 55 2300 VRB/04 RMK AO2
14837KMSN MSN20020628182509206/28/02 18:25:31  5-MIN KMSN 290025Z 21003KT 8SM CLR 27/17 A3002 770 53 2300 210/03 RMK AO2
14837KMSN MSN20020628183009206/28/02 18:30:31  5-MIN KMSN 290030Z VRB03KT 9SM CLR 26/17 A3002 770 57 2300 VRB/03 RMK AO2
14837KMSN MSN20020628183509206/28/02 18:35:31  5-MIN KMSN 290035Z 22004KT 8SM CLR 26/17 A3003 770 55 2300 220/04 RMK AO2
14837KMSN MSN20020628184009206/28/02 18:40:31  5-MIN KMSN 290040Z 22003KT 8SM CLR 26/17 A3003 770 55 2300 220/03 RMK AO2
14837KMSN MSN20020628184509206/28/02 18:45:31  5-MIN KMSN 290045Z 22003KT 8SM CLR 26/16 A3003 760 53 2300 220/03 RMK AO2
14837KMSN MSN20020628185011006/28/02 18:50:31  5-MIN KMSN 290050Z 22003KT 10SM CLR 26/17 A3003 760 57 2200 210/03 RMK AO2 SLP164 T02560167
14837KMSN MSN20020628185509206/28/02 18:55:31  5-MIN KMSN 290055Z 00000KT 8SM CLR 25/17 A3003 760 61 2100 000/00 RMK AO2
14837KMSN MSN20020628190009206/28/02 19:00:31  5-MIN KMSN 290100Z 00000KT 8SM CLR 24/18 A3003 770 68 2000 000/00 RMK AO2
14837KMSN MSN20020628190509206/28/02 19:05:31  5-MIN KMSN 290105Z 00000KT 8SM CLR 24/18 A3003 760 68 2000 000/00 RMK AO2
14837KMSN MSN20020628191009206/28/02 19:10:31  5-MIN KMSN 290110Z 00000KT 8SM CLR 23/18 A3003 760 70 1900 000/00 RMK AO2
14837KMSN MSN20020628191509206/28/02 19:15:31  5-MIN KMSN 290115Z 00000KT 8SM CLR 23/18 A3003 760 73 1900 000/00 RMK AO2
14837KMSN MSN20020628192009206/28/02 19:20:31  5-MIN KMSN 290120Z 00000KT 8SM CLR 23/18 A3003 760 70 1900 000/00 RMK AO2
14837KMSN MSN20020628192509206/28/02 19:25:31  5-MIN KMSN 290125Z 00000KT 8SM CLR 23/18 A3003 760 73 1900 000/00 RMK AO2
14837KMSN MSN20020628193009206/28/02 19:30:31  5-MIN KMSN 290130Z 00000KT 8SM CLR 23/18 A3003 760 73 1900 000/00 RMK AO2
14837KMSN MSN20020628193509206/28/02 19:35:31  5-MIN KMSN 290135Z 00000KT 8SM CLR 22/18 A3003 760 75 1800 000/00 RMK AO2
14837KMSN MSN20020628194009206/28/02 19:40:31  5-MIN KMSN 290140Z 00000KT 7SM CLR 22/18 A3003 760 75 1800 000/00 RMK AO2
14837KMSN MSN20020628194509206/28/02 19:45:31  5-MIN KMSN 290145Z 00000KT 7SM CLR 22/17 A3003 760 75 1800 000/00 RMK AO2
14837KMSN MSN20020628195011006/28/02 19:50:31  5-MIN KMSN 290150Z 00000KT 10SM CLR 22/17 A3003 760 73 1800 000/00 RMK AO2 SLP165 T02220172
14837KMSN MSN20020628195509206/28/02 19:55:31  5-MIN KMSN 290155Z 00000KT 7SM CLR 22/17 A3003 760 75 1800 000/00 RMK AO2
14837KMSN MSN20020628200009206/28/02 20:00:31  5-MIN KMSN 290200Z 00000KT 7SM CLR 22/17 A3003 760 75 1800 000/00 RMK AO2
14837KMSN MSN20020628200509206/28/02 20:05:31  5-MIN KMSN 290205Z 00000KT 7SM CLR 22/18 A3003 760 75 1800 000/00 RMK AO2
14837KMSN MSN20020628201009206/28/02 20:10:31  5-MIN KMSN 290210Z 00000KT 8SM CLR 22/18 A3004 760 75 1800 000/00 RMK AO2
14837KMSN MSN20020628201509206/28/02 20:15:31  5-MIN KMSN 290215Z 00000KT 8SM CLR 22/18 A3004 760 78 1700 000/00 RMK AO2
14837KMSN MSN20020628202009206/28/02 20:20:31  5-MIN KMSN 290220Z 00000KT 8SM CLR 22/17 A3004 750 73 1800 000/00 RMK AO2
14837KMSN MSN20020628202509206/28/02 20:25:31  5-MIN KMSN 290225Z 00000KT 8SM CLR 22/17 A3004 750 73 1800 000/00 RMK AO2
14837KMSN MSN20020628203009206/28/02 20:30:31  5-MIN KMSN 290230Z 00000KT 8SM CLR 22/17 A3004 750 75 1700 000/00 RMK AO2
14837KMSN MSN20020628203509206/28/02 20:35:31  5-MIN KMSN 290235Z 00000KT 8SM CLR 21/17 A3005 750 78 1700 000/00 RMK AO2
14837KMSN MSN20020628204009206/28/02 20:40:31  5-MIN KMSN 290240Z 00000KT 8SM CLR 21/17 A3005 750 78 1700 000/00 RMK AO2
14837KMSN MSN20020628204509206/28/02 20:45:31  5-MIN KMSN 290245Z 00000KT 8SM CLR 21/17 A3005 750 81 1600 000/00 RMK AO2
14837KMSN MSN20020628205011506/28/02 20:50:31  5-MIN KMSN 290250Z 00000KT 8SM CLR 20/17 A3005 750 84 1500 000/00 RMK AO2 SLP170 T02000172 53000
14837KMSN MSN20020628205509206/28/02 20:55:31  5-MIN KMSN 290255Z 00000KT 8SM CLR 20/17 A3005 750 84 1500 000/00 RMK AO2
14837KMSN MSN20020628210009206/28/02 21:00:31  5-MIN KMSN 290300Z 00000KT 8SM CLR 20/17 A3005 750 84 1500 000/00 RMK AO2
14837KMSN MSN20020628210509206/28/02 21:05:31  5-MIN KMSN 290305Z 00000KT 8SM CLR 21/17 A3005 750 81 1600 000/00 RMK AO2
14837KMSN MSN20020628211009206/28/02 21:10:31  5-MIN KMSN 290310Z 00000KT 8SM CLR 21/17 A3005 750 81 1600 000/00 RMK AO2
14837KMSN MSN20020628211509206/28/02 21:15:31  5-MIN KMSN 290315Z 00000KT 8SM CLR 20/17 A3005 750 84 1500 000/00 RMK AO2
14837KMSN MSN20020628212009206/28/02 21:20:31  5-MIN KMSN 290320Z 00000KT 8SM CLR 21/17 A3005 750 81 1600 000/00 RMK AO2
14837KMSN MSN20020628212509206/28/02 21:25:31  5-MIN KMSN 290325Z 00000KT 8SM CLR 20/17 A3005 750 84 1500 000/00 RMK AO2
14837KMSN MSN20020628213009206/28/02 21:30:31  5-MIN KMSN 290330Z 00000KT 8SM CLR 20/17 A3005 740 84 1500 000/00 RMK AO2
14837KMSN MSN20020628213509206/28/02 21:35:31  5-MIN KMSN 290335Z 00000KT 8SM CLR 20/17 A3005 740 84 1500 000/00 RMK AO2
14837KMSN MSN20020628214009206/28/02 21:40:31  5-MIN KMSN 290340Z 00000KT 8SM CLR 19/17 A3005 740 87 1500 000/00 RMK AO2
14837KMSN MSN20020628214509206/28/02 21:45:31  5-MIN KMSN 290345Z 00000KT 8SM CLR 19/17 A3005 740 87 1500 000/00 RMK AO2
14837KMSN MSN20020628215011006/28/02 21:50:31  5-MIN KMSN 290350Z 00000KT 10SM CLR 20/17 A3005 740 84 1500 000/00 RMK AO2 SLP171 T02000172
14837KMSN MSN20020628215509206/28/02 21:55:31  5-MIN KMSN 290355Z 00000KT 8SM CLR 20/17 A3005 740 84 1500 000/00 RMK AO2
14837KMSN MSN20020628220009206/28/02 22:00:31  5-MIN KMSN 290400Z 00000KT 8SM CLR 20/17 A3005 740 84 1500 000/00 RMK AO2
14837KMSN MSN20020628220509206/28/02 22:05:31  5-MIN KMSN 290405Z 00000KT 8SM CLR 20/17 A3005 740 84 1500 000/00 RMK AO2
14837KMSN MSN20020628221009206/28/02 22:10:31  5-MIN KMSN 290410Z 00000KT 7SM CLR 20/17 A3005 740 84 1500 000/00 RMK AO2
14837KMSN MSN20020628221509206/28/02 22:15:31  5-MIN KMSN 290415Z 00000KT 7SM CLR 20/17 A3005 740 84 1500 000/00 RMK AO2
14837KMSN MSN20020628222009206/28/02 22:20:31  5-MIN KMSN 290420Z 00000KT 7SM CLR 20/17 A3005 740 84 1500 000/00 RMK AO2
14837KMSN MSN20020628222509206/28/02 22:25:31  5-MIN KMSN 290425Z 00000KT 7SM CLR 19/17 A3005 740 90 1400 000/00 RMK AO2
14837KMSN MSN20020628223009206/28/02 22:30:31  5-MIN KMSN 290430Z 00000KT 7SM CLR 19/17 A3005 740 90 1400 000/00 RMK AO2
14837KMSN MSN20020628223509206/28/02 22:35:31  5-MIN KMSN 290435Z 00000KT 7SM CLR 19/17 A3005 740 84 1500 000/00 RMK AO2
14837KMSN MSN20020628224009206/28/02 22:40:31  5-MIN KMSN 290440Z 00000KT 7SM CLR 19/17 A3005 740 87 1400 000/00 RMK AO2
14837KMSN MSN20020628224509206/28/02 22:45:31  5-MIN KMSN 290445Z 00000KT 7SM CLR 19/17 A3006 740 90 1400 000/00 RMK AO2
14837KMSN MSN20020628225010906/28/02 22:50:31  5-MIN KMSN 290450Z 00000KT 9SM CLR 19/17 A3005 740 90 1400 000/00 RMK AO2 SLP172 T01890172
14837KMSN MSN20020628225509206/28/02 22:55:31  5-MIN KMSN 290455Z 00000KT 7SM CLR 19/17 A3005 740 90 1400 000/00 RMK AO2
14837KMSN MSN20020628230009206/28/02 23:00:31  5-MIN KMSN 290500Z 00000KT 7SM CLR 19/17 A3005 740 87 1500 000/00 RMK AO2
14837KMSN MSN20020628230509206/28/02 23:05:31  5-MIN KMSN 290505Z 00000KT 9SM CLR 19/17 A3005 740 87 1500 000/00 RMK AO2
14837KMSN MSN20020628231009206/28/02 23:10:31  5-MIN KMSN 290510Z 00000KT 9SM CLR 19/17 A3005 740 87 1500 000/00 RMK AO2
14837KMSN MSN20020628231509206/28/02 23:15:31  5-MIN KMSN 290515Z 00000KT 9SM CLR 19/17 A3005 740 90 1400 000/00 RMK AO2
14837KMSN MSN20020628232009206/28/02 23:20:31  5-MIN KMSN 290520Z 00000KT 9SM CLR 19/17 A3005 740 90 1400 000/00 RMK AO2
14837KMSN MSN20020628232509206/28/02 23:25:31  5-MIN KMSN 290525Z 00000KT 9SM CLR 19/17 A3006 740 87 1500 000/00 RMK AO2
14837KMSN MSN20020628233009206/28/02 23:30:31  5-MIN KMSN 290530Z 00000KT 9SM CLR 19/17 A3006 740 87 1500 000/00 RMK AO2
14837KMSN MSN20020628233509206/28/02 23:35:31  5-MIN KMSN 290535Z 00000KT 9SM CLR 19/17 A3005 740 87 1400 000/00 RMK AO2
14837KMSN MSN20020628234009206/28/02 23:40:31  5-MIN KMSN 290540Z 00000KT 9SM CLR 18/17 A3006 740 90 1300 000/00 RMK AO2
14837KMSN MSN20020628234509206/28/02 23:45:31  5-MIN KMSN 290545Z 00000KT 9SM CLR 18/17 A3005 740 93 1300 000/00 RMK AO2
14837KMSN MSN20020628235013706/28/02 23:50:31  5-MIN KMSN 290550Z 00000KT 8SM CLR 18/17 A3006 740 93 1300 000/00 RMK AO2 SLP173 T01780167 10272 20178 402830144 53010
14837KMSN MSN20020628235509206/28/02 23:55:31  5-MIN KMSN 290555Z 00000KT 7SM CLR 18/17 A3006 740 93 1300 000/00 RMK AO2
14837KMSN MSN20020629000009206/29/02 00:00:31  5-MIN KMSN 290600Z 00000KT 8SM CLR 19/17 A3006 740 90 1400 000/00 RMK AO2
14837KMSN MSN20020629000509206/29/02 00:05:31  5-MIN KMSN 290605Z 00000KT 8SM CLR 19/17 A3005 740 90 1400 000/00 RMK AO2
14837KMSN MSN20020629001009206/29/02 00:10:31  5-MIN KMSN 290610Z 00000KT 8SM CLR 19/17 A3005 740 90 1400 000/00 RMK AO2
14837KMSN MSN20020629001509206/29/02 00:15:31  5-MIN KMSN 290615Z 00000KT 8SM CLR 19/17 A3005 740 90 1400 000/00 RMK AO2
14837KMSN MSN20020629002009206/29/02 00:20:31  5-MIN KMSN 290620Z 00000KT 8SM CLR 18/17 A3005 740 93 1300 000/00 RMK AO2
14837KMSN MSN20020629002509206/29/02 00:25:31  5-MIN KMSN 290625Z 00000KT 8SM CLR 18/17 A3005 740 93 1300 000/00 RMK AO2
14837KMSN MSN20020629003009206/29/02 00:30:31  5-MIN KMSN 290630Z 00000KT 8SM CLR 18/17 A3005 740 93 1300 000/00 RMK AO2
14837KMSN MSN20020629003509206/29/02 00:35:31  5-MIN KMSN 290635Z 00000KT 8SM CLR 18/17 A3005 740 93 1300 000/00 RMK AO2
14837KMSN MSN20020629004009206/29/02 00:40:31  5-MIN KMSN 290640Z 00000KT 8SM CLR 18/17 A3005 740 93 1300 000/00 RMK AO2
14837KMSN MSN20020629004509206/29/02 00:45:31  5-MIN KMSN 290645Z 00000KT 8SM CLR 18/17 A3005 740 93 1300 000/00 RMK AO2
14837KMSN MSN20020629005010906/29/02 00:50:31  5-MIN KMSN 290650Z 00000KT 8SM CLR 18/17 A3005 740 93 1300 000/00 RMK AO2 SLP172 T01780167
14837KMSN MSN20020629005509206/29/02 00:55:31  5-MIN KMSN 290655Z 00000KT 8SM CLR 18/17 A3005 740 93 1300 000/00 RMK AO2
14837KMSN MSN20020629010009206/29/02 01:00:31  5-MIN KMSN 290700Z 00000KT 8SM CLR 18/17 A3005 740 93 1300 000/00 RMK AO2
14837KMSN MSN20020629010509206/29/02 01:05:31  5-MIN KMSN 290705Z 00000KT 7SM CLR 18/17 A3005 740 93 1300 000/00 RMK AO2
14837KMSN MSN20020629011009206/29/02 01:10:31  5-MIN KMSN 290710Z 00000KT 7SM CLR 18/17 A3005 750 93 1300 000/00 RMK AO2
14837KMSN MSN20020629011509206/29/02 01:15:31  5-MIN KMSN 290715Z 00000KT 7SM CLR 18/17 A3005 750 93 1300 000/00 RMK AO2
14837KMSN MSN20020629012009206/29/02 01:20:31  5-MIN KMSN 290720Z 00000KT 7SM CLR 18/17 A3005 750 93 1300 000/00 RMK AO2
14837KMSN MSN20020629012509206/29/02 01:25:31  5-MIN KMSN 290725Z 00000KT 7SM CLR 18/17 A3005 750 93 1300 000/00 RMK AO2
14837KMSN MSN20020629013009206/29/02 01:30:31  5-MIN KMSN 290730Z 00000KT 7SM CLR 18/17 A3005 750 93 1300 000/00 RMK AO2
14837KMSN MSN20020629013509206/29/02 01:35:31  5-MIN KMSN 290735Z 00000KT 7SM CLR 18/17 A3005 750 93 1300 000/00 RMK AO2
14837KMSN MSN20020629014009206/29/02 01:40:31  5-MIN KMSN 290740Z 00000KT 7SM CLR 18/17 A3005 750 93 1300 000/00 RMK AO2
14837KMSN MSN20020629014509206/29/02 01:45:31  5-MIN KMSN 290745Z 00000KT 7SM CLR 18/16 A3005 750 87 1400 000/00 RMK AO2
14837KMSN MSN20020629015010906/29/02 01:50:31  5-MIN KMSN 290750Z 00000KT 7SM CLR 18/16 A3005 750 90 1300 000/00 RMK AO2 SLP170 T01780161
14837KMSN MSN20020629015509206/29/02 01:55:31  5-MIN KMSN 290755Z 00000KT 7SM CLR 18/16 A3005 750 90 1300 000/00 RMK AO2
14837KMSN MSN20020629020009206/29/02 02:00:31  5-MIN KMSN 290800Z 00000KT 7SM CLR 17/16 A3005 740 93 1200 000/00 RMK AO2
14837KMSN MSN20020629020509206/29/02 02:05:31  5-MIN KMSN 290805Z 00000KT 7SM CLR 17/16 A3005 740 93 1200 000/00 RMK AO2
14837KMSN MSN20020629021009206/29/02 02:10:31  5-MIN KMSN 290810Z 00000KT 7SM CLR 17/16 A3005 740 93 1100 000/00 RMK AO2
14837KMSN MSN20020629021509206/29/02 02:15:31  5-MIN KMSN 290815Z 00000KT 7SM CLR 17/16 A3006 740 93 1100 000/00 RMK AO2
14837KMSN MSN20020629022009206/29/02 02:20:31  5-MIN KMSN 290820Z 00000KT 7SM CLR 17/16 A3006 740 93 1200 000/00 RMK AO2
14837KMSN MSN20020629022509206/29/02 02:25:31  5-MIN KMSN 290825Z 00000KT 7SM CLR 17/16 A3006 730 93 1200 000/00 RMK AO2
14837KMSN MSN20020629023009206/29/02 02:30:31  5-MIN KMSN 290830Z 00000KT 7SM CLR 17/16 A3007 730 96 1100 000/00 RMK AO2
14837KMSN MSN20020629023509206/29/02 02:35:31  5-MIN KMSN 290835Z 00000KT 7SM CLR 17/16 A3007 730 96 1100 000/00 RMK AO2
14837KMSN MSN20020629024009206/29/02 02:40:31  5-MIN KMSN 290840Z 00000KT 7SM CLR 17/16 A3007 730 93 1200 000/00 RMK AO2
14837KMSN MSN20020629024509206/29/02 02:45:31  5-MIN KMSN 290845Z 00000KT 7SM CLR 17/16 A3007 720 90 1200 000/00 RMK AO2
14837KMSN MSN20020629025011506/29/02 02:50:31  5-MIN KMSN 290850Z 00000KT 7SM CLR 17/16 A3008 720 93 1200 000/00 RMK AO2 SLP179 T01720161 52003
14837KMSN MSN20020629025509206/29/02 02:55:31  5-MIN KMSN 290855Z 00000KT 7SM CLR 18/16 A3008 720 90 1300 000/00 RMK AO2
14837KMSN MSN20020629030009206/29/02 03:00:31  5-MIN KMSN 290900Z 00000KT 7SM CLR 18/16 A3008 720 87 1300 000/00 RMK AO2
14837KMSN MSN20020629030509206/29/02 03:05:31  5-MIN KMSN 290905Z 00000KT 7SM CLR 18/16 A3008 710 87 1300 000/00 RMK AO2
14837KMSN MSN20020629031009206/29/02 03:10:31  5-MIN KMSN 290910Z 00000KT 7SM CLR 18/16 A3009 710 87 1300 000/00 RMK AO2
14837KMSN MSN20020629031509206/29/02 03:15:31  5-MIN KMSN 290915Z 00000KT 7SM CLR 18/16 A3009 710 84 1300 000/00 RMK AO2
14837KMSN MSN20020629032009206/29/02 03:20:31  5-MIN KMSN 290920Z 00000KT 7SM CLR 18/16 A3009 710 84 1300 000/00 RMK AO2
14837KMSN MSN20020629032509206/29/02 03:25:31  5-MIN KMSN 290925Z 00000KT 7SM CLR 19/16 A3009 710 81 1400 000/00 RMK AO2
14837KMSN MSN20020629033009206/29/02 03:30:31  5-MIN KMSN 290930Z 00000KT 7SM CLR 18/16 A3009 710 84 1300 000/00 RMK AO2
14837KMSN MSN20020629033509206/29/02 03:35:31  5-MIN KMSN 290935Z 00000KT 7SM CLR 18/16 A3010 700 87 1200 000/00 RMK AO2
14837KMSN MSN20020629034009206/29/02 03:40:31  5-MIN KMSN 290940Z 00000KT 7SM CLR 18/15 A3010 700 83 1200 000/00 RMK AO2
14837KMSN MSN20020629034509206/29/02 03:45:31  5-MIN KMSN 290945Z 00000KT 7SM CLR 17/15 A3010 700 87 1200 000/00 RMK AO2
14837KMSN MSN20020629035010906/29/02 03:50:31  5-MIN KMSN 290950Z 00000KT 7SM CLR 17/15 A3010 700 87 1200 000/00 RMK AO2 SLP187 T01720150
14837KMSN MSN20020629035509206/29/02 03:55:31  5-MIN KMSN 290955Z 00000KT 7SM CLR 17/16 A3010 700 90 1200 000/00 RMK AO2
14837KMSN MSN20020629040009206/29/02 04:00:31  5-MIN KMSN 291000Z 00000KT 7SM CLR 17/15 A3010 700 87 1200 000/00 RMK AO2
14837KMSN MSN20020629040509206/29/02 04:05:31  5-MIN KMSN 291005Z 00000KT 7SM CLR 17/15 A3010 700 87 1200 000/00 RMK AO2
14837KMSN MSN20020629041009206/29/02 04:10:31  5-MIN KMSN 291010Z 00000KT 7SM CLR 18/16 A3011 690 87 1200 000/00 RMK AO2
14837KMSN MSN20020629041509206/29/02 04:15:31  5-MIN KMSN 291015Z 00000KT 7SM CLR 17/15 A3011 690 87 1200 000/00 RMK AO2
14837KMSN MSN20020629042009206/29/02 04:20:31  5-MIN KMSN 291020Z 00000KT 7SM CLR 17/15 A3011 690 87 1200 000/00 RMK AO2
14837KMSN MSN20020629042509206/29/02 04:25:31  5-MIN KMSN 291025Z 00000KT 7SM CLR 17/15 A3011 690 87 1200 000/00 RMK AO2
14837KMSN MSN20020629043009506/29/02 04:30:31  5-MIN KMSN 291030Z 00000KT 6SM BR CLR 17/15 A3011 690 87 1200 000/00 RMK AO2
14837KMSN MSN20020629043509506/29/02 04:35:31  5-MIN KMSN 291035Z 00000KT 6SM BR CLR 17/15 A3011 690 87 1200 000/00 RMK AO2
14837KMSN MSN20020629044009506/29/02 04:40:31  5-MIN KMSN 291040Z 00000KT 6SM BR CLR 17/15 A3011 690 90 1100 000/00 RMK AO2
14837KMSN MSN20020629044509506/29/02 04:45:31  5-MIN KMSN 291045Z 00000KT 6SM BR CLR 17/15 A3011 690 87 1200 000/00 RMK AO2
14837KMSN MSN20020629045011206/29/02 04:50:31  5-MIN KMSN 291050Z 00000KT 6SM BR CLR 17/15 A3011 690 90 1100 000/00 RMK AO2 SLP192 T01670150
14837KMSN MSN20020629045509506/29/02 04:55:31  5-MIN KMSN 291055Z 00000KT 6SM BR CLR 17/15 A3011 690 87 1100 000/00 RMK AO2
14837KMSN MSN20020629050009506/29/02 05:00:31  5-MIN KMSN 291100Z 00000KT 6SM BR CLR 17/15 A3011 690 87 1100 000/00 RMK AO2
14837KMSN MSN20020629050509506/29/02 05:05:31  5-MIN KMSN 291105Z 00000KT 6SM BR CLR 17/15 A3011 690 87 1100 000/00 RMK AO2
14837KMSN MSN20020629051009506/29/02 05:10:31  5-MIN KMSN 291110Z 00000KT 6SM BR CLR 17/15 A3011 690 87 1100 000/00 RMK AO2
14837KMSN MSN20020629051509206/29/02 05:15:31  5-MIN KMSN 291115Z 00000KT 7SM CLR 17/15 A3011 690 90 1100 000/00 RMK AO2
14837KMSN MSN20020629052009206/29/02 05:20:31  5-MIN KMSN 291120Z 00000KT 7SM CLR 18/15 A3011 690 83 1200 000/00 RMK AO2
14837KMSN MSN20020629052509206/29/02 05:25:31  5-MIN KMSN 291125Z 00000KT 7SM CLR 18/15 A3011 690 81 1300 000/00 RMK AO2
14837KMSN MSN20020629053009506/29/02 05:30:31  5-MIN KMSN 291130Z 16003KT 6SM BR CLR 18/16 A3011 690 87 1200 150/03 RMK AO2
14837KMSN MSN20020629053509506/29/02 05:35:31  5-MIN KMSN 291135Z 15003KT 6SM HZ CLR 18/16 A3011 690 84 1300 150/03 RMK AO2
14837KMSN MSN20020629054009506/29/02 05:40:31  5-MIN KMSN 291140Z 16004KT 6SM HZ CLR 19/16 A3011 690 84 1300 160/04 RMK AO2
14837KMSN MSN20020629054509206/29/02 05:45:31  5-MIN KMSN 291145Z 16004KT 7SM CLR 19/16 A3011 690 81 1400 160/04 RMK AO2
14837KMSN MSN20020629055013006/29/02 05:50:31  5-MIN KMSN 291150Z 16004KT 6SM HZ CLR 19/16 A3011 690 81 1400 160/04 RMK AO2 SLP192 T01940161 10194 20167 53007
14837KMSN MSN20020629055509206/29/02 05:55:31  5-MIN KMSN 291155Z 17004KT 7SM CLR 20/16 A3011 690 78 1500 170/04 RMK AO2
14837KMSN MSN20020629060009206/29/02 06:00:31  5-MIN KMSN 291200Z 17004KT 7SM CLR 20/16 A3011 690 78 1500 170/04 RMK AO2
14837KMSN MSN20020629060509206/29/02 06:05:31  5-MIN KMSN 291205Z 17005KT 7SM CLR 20/16 A3011 690 78 1500 170/05 RMK AO2
14837KMSN MSN20020629061009206/29/02 06:10:31  5-MIN KMSN 291210Z 18004KT 7SM CLR 20/16 A3012 680 78 1500 170/04 RMK AO2
14837KMSN MSN20020629061509206/29/02 06:15:31  5-MIN KMSN 291215Z 17005KT 7SM CLR 20/17 A3012 680 81 1500 160/05 RMK AO2
14837KMSN MSN20020629062009206/29/02 06:20:31  5-MIN KMSN 291220Z 17004KT 7SM CLR 20/16 A3012 680 78 1500 170/04 RMK AO2
14837KMSN MSN20020629062509206/29/02 06:25:31  5-MIN KMSN 291225Z 17004KT 7SM CLR 20/17 A3012 680 81 1500 160/04 RMK AO2
14837KMSN MSN20020629063009206/29/02 06:30:31  5-MIN KMSN 291230Z 17004KT 7SM CLR 21/17 A3012 680 78 1500 170/04 RMK AO2
14837KMSN MSN20020629063509206/29/02 06:35:31  5-MIN KMSN 291235Z 17004KT 7SM CLR 21/17 A3012 680 78 1500 170/04 RMK AO2
14837KMSN MSN20020629064009206/29/02 06:40:31  5-MIN KMSN 291240Z 17004KT 7SM CLR 21/17 A3012 680 81 1500 160/04 RMK AO2
14837KMSN MSN20020629064509206/29/02 06:45:31  5-MIN KMSN 291245Z 17003KT 7SM CLR 21/17 A3013 680 78 1600 170/03 RMK AO2
14837KMSN MSN20020629065010906/29/02 06:50:31  5-MIN KMSN 291250Z 18003KT 7SM CLR 21/17 A3013 670 78 1600 180/03 RMK AO2 SLP197 T02110172
14837KMSN MSN20020629065509206/29/02 06:55:31  5-MIN KMSN 291255Z 17004KT 7SM CLR 22/17 A3013 670 75 1600 170/04 RMK AO2
14837KMSN MSN20020629070009206/29/02 07:00:31  5-MIN KMSN 291300Z 20004KT 8SM CLR 22/17 A3013 670 73 1700 200/04 RMK AO2
14837KMSN MSN20020629070509206/29/02 07:05:31  5-MIN KMSN 291305Z 17003KT 8SM CLR 22/17 A3013 670 73 1700 170/03 RMK AO2
14837KMSN MSN20020629071009206/29/02 07:10:31  5-MIN KMSN 291310Z 17007KT 9SM CLR 22/17 A3012 680 73 1700 170/07 RMK AO2
14837KMSN MSN20020629071509206/29/02 07:15:31  5-MIN KMSN 291315Z 19007KT 9SM CLR 22/17 A3012 680 70 1700 190/07 RMK AO2
14837KMSN MSN20020629072009306/29/02 07:20:31  5-MIN KMSN 291320Z 18005KT 10SM CLR 22/16 A3012 680 68 1700 180/05 RMK AO2
14837KMSN MSN20020629072509306/29/02 07:25:31  5-MIN KMSN 291325Z VRB04KT 10SM CLR 23/17 A3012 680 68 1800 VRB/04 RMK AO2
14837KMSN MSN20020629073009306/29/02 07:30:31  5-MIN KMSN 291330Z 18006KT 10SM CLR 23/17 A3012 680 70 1800 180/06 RMK AO2
14837KMSN MSN20020629073509306/29/02 07:35:31  5-MIN KMSN 291335Z 18006KT 10SM CLR 23/17 A3012 680 68 1800 170/06 RMK AO2
14837KMSN MSN20020629074009306/29/02 07:40:31  5-MIN KMSN 291340Z 19006KT 10SM CLR 23/17 A3013 680 68 1800 190/06 RMK AO2
14837KMSN MSN20020629074509306/29/02 07:45:31  5-MIN KMSN 291345Z 18006KT 10SM CLR 23/17 A3012 680 68 1800 180/06 RMK AO2
14837KMSN MSN20020629075011006/29/02 07:50:31  5-MIN KMSN 291350Z 18007KT 10SM CLR 23/17 A3012 680 68 1800 180/07 RMK AO2 SLP194 T02330172
14837KMSN MSN20020629075509306/29/02 07:55:31  5-MIN KMSN 291355Z 19007KT 10SM CLR 23/17 A3012 680 66 1800 190/07 RMK AO2
14837KMSN MSN20020629080009306/29/02 08:00:31  5-MIN KMSN 291400Z 19007KT 10SM CLR 24/17 A3012 680 63 1900 190/07 RMK AO2
14837KMSN MSN20020629080509306/29/02 08:05:31  5-MIN KMSN 291405Z 18008KT 10SM CLR 24/17 A3012 680 63 1900 180/08 RMK AO2
14837KMSN MSN20020629081009306/29/02 08:10:31  5-MIN KMSN 291410Z 19007KT 10SM CLR 24/17 A3012 680 66 1900 180/07 RMK AO2
14837KMSN MSN20020629081509306/29/02 08:15:31  5-MIN KMSN 291415Z VRB05KT 10SM CLR 24/17 A3012 680 63 2000 VRB/05 RMK AO2
14837KMSN MSN20020629082009306/29/02 08:20:31  5-MIN KMSN 291420Z 18006KT 10SM CLR 24/17 A3012 680 63 2000 180/06 RMK AO2
14837KMSN MSN20020629082509306/29/02 08:25:31  5-MIN KMSN 291425Z 22006KT 10SM CLR 24/17 A3012 680 63 2000 220/06 RMK AO2
14837KMSN MSN20020629083009306/29/02 08:30:31  5-MIN KMSN 291430Z 19006KT 10SM CLR 25/17 A3013 680 61 2000 190/06 RMK AO2
14837KMSN MSN20020629083510906/29/02 08:35:31  5-MIN KMSN 291435Z 20007KT 170V240 10SM CLR 25/17 A3013 680 61 2000 200/07 170V240 RMK AO2
14837KMSN MSN20020629084009306/29/02 08:40:31  5-MIN KMSN 291440Z VRB06KT 10SM CLR 25/17 A3012 680 61 2000 VRB/06 RMK AO2
14837KMSN MSN20020629084509306/29/02 08:45:31  5-MIN KMSN 291445Z 19006KT 10SM CLR 25/17 A3013 670 61 2000 190/06 RMK AO2
14837KMSN MSN20020629085011606/29/02 08:50:31  5-MIN KMSN 291450Z 21007KT 10SM CLR 26/17 A3013 680 59 2100 210/07 RMK AO2 SLP196 T02560172 51012
14837KMSN MSN20020629085509306/29/02 08:55:31  5-MIN KMSN 291455Z 21007KT 10SM CLR 26/18 A3012 680 59 2200 210/07 RMK AO2
14837KMSN MSN20020629090009306/29/02 09:00:31  5-MIN KMSN 291500Z 23008KT 10SM CLR 26/17 A3013 680 59 2100 230/08 RMK AO2
14837KMSN MSN20020629090509306/29/02 09:05:31  5-MIN KMSN 291505Z VRB06KT 10SM CLR 26/17 A3012 680 59 2100 VRB/06 RMK AO2
14837KMSN MSN20020629091009306/29/02 09:10:31  5-MIN KMSN 291510Z VRB05KT 10SM CLR 26/17 A3012 680 57 2200 VRB/05 RMK AO2
14837KMSN MSN20020629091509306/29/02 09:15:31  5-MIN KMSN 291515Z 21008KT 10SM CLR 26/17 A3012 680 59 2100 210/08 RMK AO2
14837KMSN MSN20020629092009306/29/02 09:20:31  5-MIN KMSN 291520Z 20007KT 10SM CLR 26/17 A3012 680 57 2200 200/07 RMK AO2
14837KMSN MSN20020629092510906/29/02 09:25:31  5-MIN KMSN 291525Z 19007KT 170V230 10SM CLR 26/17 A3011 690 57 2200 190/07 170V230 RMK AO2
14837KMSN MSN20020629093009306/29/02 09:30:31  5-MIN KMSN 291530Z 21007KT 10SM CLR 27/17 A3011 690 55 2200 210/07 RMK AO2
14837KMSN MSN20020629093509306/29/02 09:35:31  5-MIN KMSN 291535Z 18009KT 10SM CLR 27/18 A3011 690 57 2200 170/09 RMK AO2
14837KMSN MSN20020629094009306/29/02 09:40:31  5-MIN KMSN 291540Z 16010KT 10SM CLR 27/17 A3011 690 55 2200 160/10 RMK AO2
14837KMSN MSN20020629094509306/29/02 09:45:31  5-MIN KMSN 291545Z 18008KT 10SM CLR 27/18 A3011 690 57 2200 180/08 RMK AO2
14837KMSN MSN20020629095011006/29/02 09:50:31  5-MIN KMSN 291550Z 17011KT 10SM CLR 27/18 A3010 690 57 2200 170/11 RMK AO2 SLP189 T02670178
14837KMSN MSN20020629095509306/29/02 09:55:31  5-MIN KMSN 291555Z 19009KT 10SM CLR 27/17 A3010 690 55 2200 190/09 RMK AO2
14837KMSN MSN20020629100009306/29/02 10:00:31  5-MIN KMSN 291600Z 18009KT 10SM CLR 27/17 A3010 700 55 2200 180/09 RMK AO2
14837KMSN MSN20020629100509306/29/02 10:05:31  5-MIN KMSN 291605Z 18007KT 10SM CLR 27/17 A3010 700 55 2200 170/07 RMK AO2
14837KMSN MSN20020629101009306/29/02 10:10:31  5-MIN KMSN 291610Z 18009KT 10SM CLR 27/18 A3010 700 56 2300 180/09 RMK AO2
14837KMSN MSN20020629101509306/29/02 10:15:31  5-MIN KMSN 291615Z 18010KT 10SM CLR 27/17 A3010 690 52 2300 180/10 RMK AO2
14837KMSN MSN20020629102009306/29/02 10:20:31  5-MIN KMSN 291620Z 16008KT 10SM CLR 27/17 A3010 700 55 2200 160/08 RMK AO2
14837KMSN MSN20020629102509306/29/02 10:25:31  5-MIN KMSN 291625Z 17008KT 10SM CLR 27/18 A3010 700 56 2300 160/08 RMK AO2
14837KMSN MSN20020629103009306/29/02 10:30:31  5-MIN KMSN 291630Z 18010KT 10SM CLR 27/18 A3010 700 56 2300 170/10 RMK AO2
14837KMSN MSN20020629103509306/29/02 10:35:31  5-MIN KMSN 291635Z 19008KT 10SM CLR 27/18 A3010 700 56 2300 190/08 RMK AO2
14837KMSN MSN20020629104009306/29/02 10:40:31  5-MIN KMSN 291640Z 17009KT 10SM CLR 27/17 A3010 700 54 2300 170/09 RMK AO2
14837KMSN MSN20020629104509606/29/02 10:45:31  5-MIN KMSN 291645Z 17009KT 10SM FEW065 27/17 A3010 700 54 2300 170/09 RMK AO2
14837KMSN MSN20020629105011306/29/02 10:50:31  5-MIN KMSN 291650Z 20009KT 10SM FEW065 27/17 A3010 700 54 2300 200/09 RMK AO2 SLP189 T02720172
14837KMSN MSN20020629105509306/29/02 10:55:31  5-MIN KMSN 291655Z 19011KT 10SM CLR 28/17 A3010 700 52 2400 180/11 RMK AO2
14837KMSN MSN20020629110009306/29/02 11:00:31  5-MIN KMSN 291700Z 18008KT 10SM CLR 28/17 A3010 700 52 2400 180/08 RMK AO2
14837KMSN MSN20020629110509306/29/02 11:05:31  5-MIN KMSN 291705Z VRB06KT 10SM CLR 28/17 A3010 700 52 2400 VRB/06 RMK AO2
14837KMSN MSN20020629111009906/29/02 11:10:31  5-MIN KMSN 291710Z 16008G14KT 10SM CLR 28/17 A3010 700 52 2400 160/08G14 RMK AO2
14837KMSN MSN20020629111509306/29/02 11:15:31  5-MIN KMSN 291715Z 17008KT 10SM CLR 28/17 A3010 700 52 2400 170/08 RMK AO2
14837KMSN MSN20020629112009306/29/02 11:20:31  5-MIN KMSN 291720Z 19010KT 10SM CLR 28/17 A3010 700 50 2400 190/10 RMK AO2
14837KMSN MSN20020629112509306/29/02 11:25:31  5-MIN KMSN 291725Z 15009KT 10SM CLR 28/17 A3009 710 52 2400 140/09 RMK AO2
14837KMSN MSN20020629113009606/29/02 11:30:31  5-MIN KMSN 291730Z 17010KT 10SM FEW040 28/18 A3009 710 54 2400 170/10 RMK AO2
14837KMSN MSN20020629113509606/29/02 11:35:31  5-MIN KMSN 291735Z 17011KT 10SM FEW040 28/18 A3009 710 52 2400 170/11 RMK AO2
14837KMSN MSN20020629114011206/29/02 11:40:31  5-MIN KMSN 291740Z 19008KT 160V240 10SM FEW040 28/17 A3009 710 50 2400 190/08 160V240 RMK AO2
14837KMSN MSN20020629114511206/29/02 11:45:31  5-MIN KMSN 291745Z 20007KT 160V230 10SM SCT040 28/17 A3009 710 52 2400 200/07 160V230 RMK AO2
14837KMSN MSN20020629115013106/29/02 11:50:31  5-MIN KMSN 291750Z 18010KT 10SM SCT040 28/17 A3009 710 50 2400 180/10 RMK AO2 SLP184 T02830172 10283 20200 51004
14837KMSN MSN20020629115509606/29/02 11:55:31  5-MIN KMSN 291755Z 19009KT 10SM FEW040 28/17 A3009 710 50 2400 190/09 RMK AO2
14837KMSN MSN20020629120009606/29/02 12:00:31  5-MIN KMSN 291800Z 18009KT 10SM FEW042 28/17 A3009 710 50 2400 180/09 RMK AO2
14837KMSN MSN20020629120509606/29/02 12:05:31  5-MIN KMSN 291805Z 18010KT 10SM FEW042 28/17 A3008 710 50 2400 180/10 RMK AO2
14837KMSN MSN20020629121009606/29/02 12:10:31  5-MIN KMSN 291810Z 19009KT 10SM FEW042 28/17 A3008 710 50 2400 190/09 RMK AO2
14837KMSN MSN20020629121509906/29/02 12:15:31  5-MIN KMSN 291815Z 19011G14KT 10SM CLR 28/17 A3008 720 50 2400 190/11G14 RMK AO2
14837KMSN MSN20020629122009906/29/02 12:20:31  5-MIN KMSN 291820Z VRB06G14KT 10SM CLR 28/17 A3008 720 50 2400 VRB/06G14 RMK AO2
14837KMSN MSN20020629122509906/29/02 12:25:31  5-MIN KMSN 291825Z 18012G15KT 10SM CLR 28/17 A3008 720 50 2500 180/12G15 RMK AO2
14837KMSN MSN20020629123009606/29/02 12:30:31  5-MIN KMSN 291830Z 17010KT 10SM FEW043 28/18 A3008 720 52 2500 170/10 RMK AO2
14837KMSN MSN20020629123509606/29/02 12:35:31  5-MIN KMSN 291835Z 20008KT 10SM FEW043 28/18 A3008 720 52 2500 200/08 RMK AO2
14837KMSN MSN20020629124009606/29/02 12:40:31  5-MIN KMSN 291840Z 18009KT 10SM FEW043 28/17 A3007 720 50 2500 180/09 RMK AO2
14837KMSN MSN20020629124509606/29/02 12:45:31  5-MIN KMSN 291845Z 16010KT 10SM FEW043 28/18 A3007 720 52 2500 160/10 RMK AO2
14837KMSN MSN20020629125011306/29/02 12:50:31  5-MIN KMSN 291850Z 20011KT 10SM FEW043 29/17 A3007 720 48 2500 200/11 RMK AO2 SLP179 T02890172
14837KMSN MSN20020629125509606/29/02 12:55:31  5-MIN KMSN 291855Z 18009KT 10SM FEW043 29/17 A3007 730 48 2500 180/09 RMK AO2
14837KMSN MSN20020629130009606/29/02 13:00:31  5-MIN KMSN 291900Z 18010KT 10SM FEW043 29/18 A3007 730 50 2500 170/10 RMK AO2
14837KMSN MSN20020629130510206/29/02 13:05:31  5-MIN KMSN 291905Z 17007G15KT 10SM FEW045 29/17 A3007 730 48 2500 170/07G15 RMK AO2
14837KMSN MSN20020629131010206/29/02 13:10:31  5-MIN KMSN 291910Z 17011G15KT 10SM FEW045 29/17 A3007 730 48 2500 170/11G15 RMK AO2
14837KMSN MSN20020629131509606/29/02 13:15:31  5-MIN KMSN 291915Z 17012KT 10SM FEW045 29/18 A3007 730 49 2600 170/12 RMK AO2
14837KMSN MSN20020629132009606/29/02 13:20:31  5-MIN KMSN 291920Z 16009KT 10SM FEW045 29/18 A3007 730 50 2500 160/09 RMK AO2
14837KMSN MSN20020629132509606/29/02 13:25:31  5-MIN KMSN 291925Z 16010KT 10SM FEW045 29/17 A3007 730 48 2500 160/10 RMK AO2
14837KMSN MSN20020629133009606/29/02 13:30:31  5-MIN KMSN 291930Z 17014KT 10SM FEW045 29/17 A3007 730 48 2500 170/14 RMK AO2
14837KMSN MSN20020629133509306/29/02 13:35:31  5-MIN KMSN 291935Z 18011KT 10SM CLR 29/17 A3006 730 48 2500 180/11 RMK AO2
14837KMSN MSN20020629134009306/29/02 13:40:31  5-MIN KMSN 291940Z 18009KT 10SM CLR 29/17 A3006 730 48 2500 180/09 RMK AO2
14837KMSN MSN20020629134509606/29/02 13:45:31  5-MIN KMSN 291945Z 17011KT 10SM FEW040 29/17 A3006 730 47 2600 170/11 RMK AO2
14837KMSN MSN20020629135011906/29/02 13:50:31  5-MIN KMSN 291950Z 20007G15KT 10SM FEW040 29/17 A3006 730 47 2600 200/07G15 RMK AO2 SLP175 T02940172
14837KMSN MSN20020629135509306/29/02 13:55:31  5-MIN KMSN 291955Z 17014KT 10SM CLR 29/17 A3006 740 47 2600 170/14 RMK AO2
14837KMSN MSN20020629140009306/29/02 14:00:31  5-MIN KMSN 292000Z 17010KT 10SM CLR 29/17 A3006 740 45 2600 170/10 RMK AO2
14837KMSN MSN20020629140509306/29/02 14:05:31  5-MIN KMSN 292005Z 17010KT 10SM CLR 29/17 A3006 740 47 2600 170/10 RMK AO2
14837KMSN MSN20020629141009306/29/02 14:10:31  5-MIN KMSN 292010Z 17011KT 10SM CLR 29/17 A3006 740 47 2600 170/11 RMK AO2
14837KMSN MSN20020629141509306/29/02 14:15:31  5-MIN KMSN 292015Z 19010KT 10SM CLR 29/17 A3006 740 47 2500 190/10 RMK AO2
14837KMSN MSN20020629142009306/29/02 14:20:31  5-MIN KMSN 292020Z 17011KT 10SM CLR 30/17 A3006 740 45 2700 170/11 RMK AO2
14837KMSN MSN20020629142509306/29/02 14:25:31  5-MIN KMSN 292025Z 17011KT 10SM CLR 29/17 A3006 740 47 2600 160/11 RMK AO2
14837KMSN MSN20020629143009306/29/02 14:30:31  5-MIN KMSN 292030Z 17012KT 10SM CLR 29/17 A3005 740 47 2600 170/12 RMK AO2
14837KMSN MSN20020629143509306/29/02 14:35:31  5-MIN KMSN 292035Z 18010KT 10SM CLR 29/17 A3005 740 47 2600 180/10 RMK AO2
14837KMSN MSN20020629144009306/29/02 14:40:31  5-MIN KMSN 292040Z 17012KT 10SM CLR 30/17 A3005 740 45 2700 170/12 RMK AO2
14837KMSN MSN20020629144509306/29/02 14:45:31  5-MIN KMSN 292045Z 18013KT 10SM CLR 29/17 A3005 740 45 2600 180/13 RMK AO2
14837KMSN MSN20020629145011606/29/02 14:50:31  5-MIN KMSN 292050Z 17012KT 10SM CLR 29/17 A3005 740 47 2600 170/12 RMK AO2 SLP171 T02940172 56012
14837KMSN MSN20020629145509306/29/02 14:55:31  5-MIN KMSN 292055Z 17012KT 10SM CLR 30/17 A3005 750 45 2700 170/12 RMK AO2
14837KMSN MSN20020629150009306/29/02 15:00:31  5-MIN KMSN 292100Z 19013KT 10SM CLR 30/17 A3005 750 45 2700 190/13 RMK AO2
14837KMSN MSN20020629150509606/29/02 15:05:31  5-MIN KMSN 292105Z 18010KT 10SM FEW055 29/17 A3005 750 47 2600 180/10 RMK AO2
14837KMSN MSN20020629151009606/29/02 15:10:31  5-MIN KMSN 292110Z 18010KT 10SM FEW055 29/17 A3005 750 47 2600 180/10 RMK AO2
14837KMSN MSN20020629151510206/29/02 15:15:31  5-MIN KMSN 292115Z 17013G17KT 10SM FEW055 29/17 A3005 750 47 2600 170/13G17 RMK AO2
14837KMSN MSN20020629152010206/29/02 15:20:31  5-MIN KMSN 292120Z 18010G17KT 10SM FEW055 29/17 A3005 750 47 2600 170/10G17 RMK AO2
14837KMSN MSN20020629152509606/29/02 15:25:31  5-MIN KMSN 292125Z 18012KT 10SM FEW055 30/17 A3005 750 45 2700 180/12 RMK AO2
14837KMSN MSN20020629153009606/29/02 15:30:31  5-MIN KMSN 292130Z 17013KT 10SM FEW055 29/17 A3005 750 47 2600 170/13 RMK AO2
14837KMSN MSN20020629153509606/29/02 15:35:31  5-MIN KMSN 292135Z 17012KT 10SM FEW055 30/18 A3005 750 47 2700 170/12 RMK AO2
14837KMSN MSN20020629154011206/29/02 15:40:31  5-MIN KMSN 292140Z 19010KT 160V230 10SM FEW055 30/18 A3005 750 47 2700 190/10 160V230 RMK AO2
14837KMSN MSN20020629154509606/29/02 15:45:31  5-MIN KMSN 292145Z 19010KT 10SM FEW055 29/17 A3004 750 47 2600 180/10 RMK AO2
14837KMSN MSN20020629155011306/29/02 15:50:31  5-MIN KMSN 292150Z 20009KT 10SM FEW055 29/18 A3004 750 49 2600 200/09 RMK AO2 SLP168 T02940178
14837KMSN MSN20020629155509606/29/02 15:55:31  5-MIN KMSN 292155Z 19008KT 10SM FEW055 29/18 A3004 750 49 2600 190/08 RMK AO2
14837KMSN MSN20020629160009606/29/02 16:00:31  5-MIN KMSN 292200Z 19011KT 10SM FEW055 29/17 A3004 750 47 2600 190/11 RMK AO2
14837KMSN MSN20020629160509606/29/02 16:05:31  5-MIN KMSN 292205Z 18011KT 10SM FEW055 29/18 A3004 750 49 2600 180/11 RMK AO2
14837KMSN MSN20020629161009606/29/02 16:10:31  5-MIN KMSN 292210Z 19010KT 10SM FEW055 29/17 A3004 750 47 2600 190/10 RMK AO2
14837KMSN MSN20020629161510206/29/02 16:15:31  5-MIN KMSN 292215Z 18012G17KT 10SM FEW055 29/17 A3004 750 47 2600 180/12G17 RMK AO2
14837KMSN MSN20020629162010206/29/02 16:20:31  5-MIN KMSN 292220Z 17010G17KT 10SM FEW055 29/18 A3004 750 49 2600 170/10G17 RMK AO2
14837KMSN MSN20020629162510206/29/02 16:25:31  5-MIN KMSN 292225Z 18013G16KT 10SM FEW055 29/17 A3004 750 47 2600 180/13G16 RMK AO2
14837KMSN MSN20020629163009606/29/02 16:30:31  5-MIN KMSN 292230Z 18009KT 10SM FEW055 29/17 A3004 750 48 2600 180/09 RMK AO2
14837KMSN MSN20020629163509506/29/02 16:35:31  5-MIN KMSN 292235Z 18010KT 9SM FEW055 29/18 A3004 750 49 2600 170/10 RMK AO2
14837KMSN MSN20020629164009606/29/02 16:40:31  5-MIN KMSN 292240Z 19012KT 10SM FEW055 29/18 A3004 750 50 2600 190/12 RMK AO2
14837KMSN MSN20020629164509606/29/02 16:45:31  5-MIN KMSN 292245Z 17009KT 10SM FEW055 29/17 A3004 750 48 2600 170/09 RMK AO2
14837KMSN MSN20020629165011006/29/02 16:50:31  5-MIN KMSN 292250Z 18009KT 10SM CLR 29/18 A3004 750 49 2600 180/09 RMK AO2 SLP167 T02940178
14837KMSN MSN20020629165509306/29/02 16:55:31  5-MIN KMSN 292255Z 18011KT 10SM CLR 29/18 A3004 750 50 2600 180/11 RMK AO2
14837KMSN MSN20020629170009206/29/02 17:00:31  5-MIN KMSN 292300Z 18013KT 9SM CLR 29/18 A3004 750 50 2600 180/13 RMK AO2
14837KMSN MSN20020629170509206/29/02 17:05:31  5-MIN KMSN 292305Z 18011KT 9SM CLR 29/18 A3004 750 50 2600 180/11 RMK AO2
14837KMSN MSN20020629171009206/29/02 17:10:31  5-MIN KMSN 292310Z 18010KT 9SM CLR 29/18 A3004 750 50 2600 170/10 RMK AO2
14837KMSN MSN20020629171509306/29/02 17:15:31  5-MIN KMSN 292315Z 17010KT 10SM CLR 29/18 A3004 750 50 2600 170/10 RMK AO2
14837KMSN MSN20020629172009206/29/02 17:20:31  5-MIN KMSN 292320Z 18010KT 9SM CLR 29/18 A3004 760 50 2600 180/10 RMK AO2
14837KMSN MSN20020629172509206/29/02 17:25:31  5-MIN KMSN 292325Z 17010KT 9SM CLR 29/18 A3004 750 52 2600 170/10 RMK AO2
14837KMSN MSN20020629173009206/29/02 17:30:31  5-MIN KMSN 292330Z 18010KT 9SM CLR 29/18 A3004 760 52 2600 170/10 RMK AO2
14837KMSN MSN20020629173509206/29/02 17:35:31  5-MIN KMSN 292335Z 18010KT 9SM CLR 29/18 A3004 750 52 2600 180/10 RMK AO2
14837KMSN MSN20020629174009206/29/02 17:40:31  5-MIN KMSN 292340Z 18011KT 9SM CLR 29/18 A3004 750 50 2600 180/11 RMK AO2
14837KMSN MSN20020629174509206/29/02 17:45:31  5-MIN KMSN 292345Z 17010KT 9SM CLR 28/18 A3004 760 54 2500 170/10 RMK AO2
14837KMSN MSN20020629175012706/29/02 17:50:31  5-MIN KMSN 292350Z 17010KT 9SM CLR 28/18 A3004 760 54 2500 170/10 RMK AO2 SLP167 T02830183 10300 20283 56013
14837KMSN MSN20020629175509206/29/02 17:55:31  5-MIN KMSN 292355Z 17009KT 9SM CLR 28/18 A3004 760 54 2500 170/09 RMK AO2
14837KMSN MSN20020629180009206/29/02 18:00:31  5-MIN KMSN 300000Z 17008KT 9SM CLR 28/18 A3004 760 54 2500 170/08 RMK AO2
14837KMSN MSN20020629180509206/29/02 18:05:31  5-MIN KMSN 300005Z 17010KT 9SM CLR 28/19 A3004 760 56 2500 170/10 RMK AO2
14837KMSN MSN20020629181009206/29/02 18:10:31  5-MIN KMSN 300010Z 17008KT 9SM CLR 28/18 A3004 760 54 2500 170/08 RMK AO2
14837KMSN MSN20020629181509206/29/02 18:15:31  5-MIN KMSN 300015Z 17008KT 9SM CLR 28/19 A3004 760 56 2500 170/08 RMK AO2
14837KMSN MSN20020629182009206/29/02 18:20:31  5-MIN KMSN 300020Z 17008KT 9SM CLR 28/19 A3003 760 56 2500 170/08 RMK AO2
14837KMSN MSN20020629182509206/29/02 18:25:31  5-MIN KMSN 300025Z 17008KT 8SM CLR 28/19 A3003 760 58 2400 170/08 RMK AO2
14837KMSN MSN20020629183009206/29/02 18:30:31  5-MIN KMSN 300030Z 17008KT 9SM CLR 28/19 A3003 760 58 2400 170/08 RMK AO2
14837KMSN MSN20020629183509206/29/02 18:35:31  5-MIN KMSN 300035Z 17007KT 9SM CLR 28/19 A3003 760 58 2400 170/07 RMK AO2
14837KMSN MSN20020629184009206/29/02 18:40:31  5-MIN KMSN 300040Z 17006KT 8SM CLR 28/19 A3003 760 58 2400 170/06 RMK AO2
14837KMSN MSN20020629184509206/29/02 18:45:31  5-MIN KMSN 300045Z 17008KT 8SM CLR 28/19 A3003 760 58 2400 170/08 RMK AO2
14837KMSN MSN20020629185010906/29/02 18:50:31  5-MIN KMSN 300050Z 17007KT 8SM CLR 27/19 A3004 760 60 2400 170/07 RMK AO2 SLP166 T02720189
14837KMSN MSN20020629185509206/29/02 18:55:31  5-MIN KMSN 300055Z 18007KT 8SM CLR 27/19 A3004 760 60 2400 180/07 RMK AO2
14837KMSN MSN20020629190009206/29/02 19:00:31  5-MIN KMSN 300100Z 17007KT 8SM CLR 27/19 A3004 760 60 2400 170/07 RMK AO2
14837KMSN MSN20020629190509206/29/02 19:05:31  5-MIN KMSN 300105Z 17007KT 8SM CLR 27/19 A3004 760 62 2400 170/07 RMK AO2
14837KMSN MSN20020629191009206/29/02 19:10:31  5-MIN KMSN 300110Z 17007KT 8SM CLR 27/19 A3004 760 64 2300 170/07 RMK AO2
14837KMSN MSN20020629191509206/29/02 19:15:31  5-MIN KMSN 300115Z 17007KT 8SM CLR 27/19 A3004 760 62 2300 170/07 RMK AO2
14837KMSN MSN20020629192009506/29/02 19:20:31  5-MIN KMSN 300120Z 17006KT 8SM FEW049 27/19 A3004 760 64 2300 170/06 RMK AO2
14837KMSN MSN20020629192509506/29/02 19:25:31  5-MIN KMSN 300125Z 18007KT 8SM SCT049 27/19 A3004 760 64 2300 180/07 RMK AO2
14837KMSN MSN20020629193009506/29/02 19:30:31  5-MIN KMSN 300130Z 17007KT 8SM SCT049 27/19 A3004 760 62 2400 160/07 RMK AO2
14837KMSN MSN20020629193509506/29/02 19:35:31  5-MIN KMSN 300135Z 16006KT 8SM SCT049 27/19 A3004 760 64 2300 160/06 RMK AO2
14837KMSN MSN20020629194009506/29/02 19:40:31  5-MIN KMSN 300140Z 17007KT 8SM FEW049 27/19 A3004 760 64 2300 170/07 RMK AO2
14837KMSN MSN20020629194509506/29/02 19:45:31  5-MIN KMSN 300145Z 17006KT 8SM FEW049 27/19 A3004 760 62 2300 160/06 RMK AO2
14837KMSN MSN20020629195011206/29/02 19:50:31  5-MIN KMSN 300150Z 17006KT 8SM FEW049 26/19 A3004 760 64 2200 170/06 RMK AO2 SLP166 T02610189
14837KMSN MSN20020629195509506/29/02 19:55:31  5-MIN KMSN 300155Z 16007KT 8SM FEW049 26/19 A3004 760 64 2200 160/07 RMK AO2
14837KMSN MSN20020629200009206/29/02 20:00:31  5-MIN KMSN 300200Z 17007KT 8SM CLR 26/19 A3004 760 66 2200 170/07 RMK AO2
14837KMSN MSN20020629200509206/29/02 20:05:31  5-MIN KMSN 300205Z 17006KT 9SM CLR 26/19 A3004 750 66 2200 170/06 RMK AO2
14837KMSN MSN20020629201009206/29/02 20:10:31  5-MIN KMSN 300210Z 17006KT 9SM CLR 26/19 A3004 750 68 2200 170/06 RMK AO2
14837KMSN MSN20020629201509206/29/02 20:15:31  5-MIN KMSN 300215Z 17005KT 8SM CLR 26/19 A3004 750 68 2200 170/05 RMK AO2
14837KMSN MSN20020629202009206/29/02 20:20:31  5-MIN KMSN 300220Z 17005KT 8SM CLR 26/19 A3004 750 68 2200 170/05 RMK AO2
14837KMSN MSN20020629202509206/29/02 20:25:31  5-MIN KMSN 300225Z 16005KT 8SM CLR 26/19 A3005 750 68 2200 160/05 RMK AO2
14837KMSN MSN20020629203009206/29/02 20:30:31  5-MIN KMSN 300230Z 16006KT 8SM CLR 26/19 A3005 750 68 2200 160/06 RMK AO2
14837KMSN MSN20020629203509206/29/02 20:35:31  5-MIN KMSN 300235Z 17006KT 8SM CLR 26/19 A3005 750 68 2200 170/06 RMK AO2
14837KMSN MSN20020629204009206/29/02 20:40:31  5-MIN KMSN 300240Z 17006KT 8SM CLR 26/19 A3005 750 68 2200 170/06 RMK AO2
14837KMSN MSN20020629204509206/29/02 20:45:31  5-MIN KMSN 300245Z 17006KT 8SM CLR 26/19 A3005 750 68 2200 170/06 RMK AO2
14837KMSN MSN20020629205011506/29/02 20:50:31  5-MIN KMSN 300250Z 17006KT 8SM CLR 26/19 A3005 750 68 2200 170/06 RMK AO2 SLP169 T02560194 56004
14837KMSN MSN20020629205509206/29/02 20:55:31  5-MIN KMSN 300255Z 17005KT 8SM CLR 26/19 A3005 750 68 2200 170/05 RMK AO2
14837KMSN MSN20020629210009206/29/02 21:00:31  5-MIN KMSN 300300Z 17005KT 8SM CLR 26/19 A3005 750 68 2200 170/05 RMK AO2
14837KMSN MSN20020629210509206/29/02 21:05:31  5-MIN KMSN 300305Z 17005KT 8SM CLR 25/19 A3005 750 71 2100 170/05 RMK AO2
14837KMSN MSN20020629211009206/29/02 21:10:31  5-MIN KMSN 300310Z 18006KT 8SM CLR 25/19 A3005 750 71 2100 170/06 RMK AO2
14837KMSN MSN20020629211509206/29/02 21:15:31  5-MIN KMSN 300315Z 17007KT 8SM CLR 25/19 A3005 750 71 2100 170/07 RMK AO2
14837KMSN MSN20020629212009206/29/02 21:20:31  5-MIN KMSN 300320Z 18007KT 8SM CLR 25/19 A3005 750 71 2100 180/07 RMK AO2
14837KMSN MSN20020629212509206/29/02 21:25:31  5-MIN KMSN 300325Z 18008KT 8SM CLR 26/19 A3005 750 68 2200 180/08 RMK AO2
14837KMSN MSN20020629213009206/29/02 21:30:31  5-MIN KMSN 300330Z 18008KT 8SM CLR 26/19 A3005 750 68 2200 180/08 RMK AO2
14837KMSN MSN20020629213509206/29/02 21:35:31  5-MIN KMSN 300335Z 18008KT 8SM CLR 26/19 A3005 750 68 2200 180/08 RMK AO2
14837KMSN MSN20020629214009206/29/02 21:40:31  5-MIN KMSN 300340Z 18007KT 8SM CLR 26/19 A3005 750 68 2200 180/07 RMK AO2
14837KMSN MSN20020629214509206/29/02 21:45:31  5-MIN KMSN 300345Z 17008KT 8SM CLR 25/19 A3005 750 71 2100 170/08 RMK AO2
14837KMSN MSN20020629215010906/29/02 21:50:31  5-MIN KMSN 300350Z 18007KT 8SM CLR 26/19 A3005 750 68 2200 180/07 RMK AO2 SLP168 T02560194
14837KMSN MSN20020629215509206/29/02 21:55:31  5-MIN KMSN 300355Z 17008KT 8SM CLR 25/19 A3004 750 71 2100 170/08 RMK AO2
14837KMSN MSN20020629220009206/29/02 22:00:31  5-MIN KMSN 300400Z 17007KT 8SM CLR 25/19 A3004 750 71 2100 170/07 RMK AO2
14837KMSN MSN20020629220509206/29/02 22:05:31  5-MIN KMSN 300405Z 18008KT 8SM CLR 25/19 A3005 750 71 2100 180/08 RMK AO2
14837KMSN MSN20020629221009206/29/02 22:10:31  5-MIN KMSN 300410Z 18007KT 7SM CLR 25/19 A3005 750 71 2100 180/07 RMK AO2
14837KMSN MSN20020629221509206/29/02 22:15:31  5-MIN KMSN 300415Z 18007KT 8SM CLR 25/19 A3005 750 71 2100 180/07 RMK AO2
14837KMSN MSN20020629222009206/29/02 22:20:31  5-MIN KMSN 300420Z 18008KT 7SM CLR 25/19 A3005 750 71 2100 180/08 RMK AO2
14837KMSN MSN20020629222509206/29/02 22:25:31  5-MIN KMSN 300425Z 18007KT 7SM CLR 25/19 A3005 750 71 2100 180/07 RMK AO2
14837KMSN MSN20020629223009206/29/02 22:30:31  5-MIN KMSN 300430Z 18007KT 7SM CLR 25/19 A3005 750 71 2100 180/07 RMK AO2
14837KMSN MSN20020629223509206/29/02 22:35:31  5-MIN KMSN 300435Z 18007KT 7SM CLR 25/19 A3005 750 71 2100 170/07 RMK AO2
14837KMSN MSN20020629224009206/29/02 22:40:31  5-MIN KMSN 300440Z 17006KT 7SM CLR 25/19 A3005 750 71 2100 170/06 RMK AO2
14837KMSN MSN20020629224509206/29/02 22:45:31  5-MIN KMSN 300445Z 17006KT 7SM CLR 24/19 A3005 740 73 2000 170/06 RMK AO2
14837KMSN MSN20020629225010906/29/02 22:50:31  5-MIN KMSN 300450Z VRB06KT 7SM CLR 24/19 A3005 740 73 2000 VRB/06 RMK AO2 SLP170 T02440194
14837KMSN MSN20020629225509206/29/02 22:55:31  5-MIN KMSN 300455Z 20006KT 7SM CLR 24/19 A3005 740 73 2000 200/06 RMK AO2
14837KMSN MSN20020629230009206/29/02 23:00:31  5-MIN KMSN 300500Z VRB05KT 7SM CLR 24/19 A3005 740 73 2000 VRB/05 RMK AO2
14837KMSN MSN20020629230509206/29/02 23:05:31  5-MIN KMSN 300505Z VRB06KT 7SM CLR 24/19 A3005 740 73 2000 VRB/06 RMK AO2
14837KMSN MSN20020629231009206/29/02 23:10:31  5-MIN KMSN 300510Z VRB06KT 7SM CLR 24/19 A3005 740 73 2000 VRB/06 RMK AO2
14837KMSN MSN20020629231509206/29/02 23:15:31  5-MIN KMSN 300515Z VRB05KT 7SM CLR 24/19 A3005 740 76 2000 VRB/05 RMK AO2
14837KMSN MSN20020629232009206/29/02 23:20:31  5-MIN KMSN 300520Z VRB06KT 7SM CLR 24/19 A3005 740 76 2000 VRB/06 RMK AO2
14837KMSN MSN20020629232509206/29/02 23:25:31  5-MIN KMSN 300525Z VRB05KT 7SM CLR 24/19 A3005 740 73 2000 VRB/05 RMK AO2
14837KMSN MSN20020629233009206/29/02 23:30:31  5-MIN KMSN 300530Z 19006KT 7SM CLR 24/19 A3005 740 76 2000 190/06 RMK AO2
14837KMSN MSN20020629233509206/29/02 23:35:31  5-MIN KMSN 300535Z 19006KT 7SM CLR 24/19 A3005 740 76 2000 190/06 RMK AO2
14837KMSN MSN20020629234009206/29/02 23:40:31  5-MIN KMSN 300540Z 18006KT 7SM CLR 24/19 A3005 740 76 2000 180/06 RMK AO2
14837KMSN MSN20020629234509506/29/02 23:45:31  5-MIN KMSN 300545Z 18006KT 6SM HZ CLR 24/19 A3005 750 76 2000 180/06 RMK AO2
14837KMSN MSN20020629235014006/29/02 23:50:31  5-MIN KMSN 300550Z VRB05KT 6SM HZ CLR 24/19 A3005 750 76 2000 VRB/05 RMK AO2 SLP169 T02390194 10283 20239 403000167 53003
14837KMSN MSN20020629235509506/29/02 23:55:31  5-MIN KMSN 300555Z 17005KT 6SM HZ CLR 24/19 A3005 750 76 2000 170/05 RMK AO2
14837KMSN MSN20020630000009506/30/02 00:00:31  5-MIN KMSN 300600Z 17006KT 6SM HZ CLR 24/19 A3005 750 76 2000 170/06 RMK AO2
14837KMSN MSN20020630000509506/30/02 00:05:31  5-MIN KMSN 300605Z 17006KT 6SM HZ CLR 24/19 A3005 750 76 2000 170/06 RMK AO2
14837KMSN MSN20020630001009506/30/02 00:10:31  5-MIN KMSN 300610Z 18006KT 6SM HZ CLR 24/19 A3005 750 76 2000 170/06 RMK AO2
14837KMSN MSN20020630001509206/30/02 00:15:31  5-MIN KMSN 300615Z 18008KT 7SM CLR 24/19 A3005 750 76 2000 180/08 RMK AO2
14837KMSN MSN20020630002009206/30/02 00:20:31  5-MIN KMSN 300620Z 18007KT 7SM CLR 24/19 A3005 750 73 2100 180/07 RMK AO2
14837KMSN MSN20020630002509206/30/02 00:25:31  5-MIN KMSN 300625Z 18007KT 7SM CLR 24/19 A3005 750 73 2100 180/07 RMK AO2
14837KMSN MSN20020630003009206/30/02 00:30:31  5-MIN KMSN 300630Z 18007KT 7SM CLR 24/19 A3005 750 73 2100 180/07 RMK AO2
14837KMSN MSN20020630003509506/30/02 00:35:31  5-MIN KMSN 300635Z 18007KT 6SM HZ CLR 24/19 A3005 750 73 2100 180/07 RMK AO2
14837KMSN MSN20020630004009506/30/02 00:40:31  5-MIN KMSN 300640Z 18008KT 6SM HZ CLR 24/19 A3004 750 73 2100 180/08 RMK AO2
14837KMSN MSN20020630004509506/30/02 00:45:31  5-MIN KMSN 300645Z 18007KT 6SM HZ CLR 24/19 A3004 750 76 2000 180/07 RMK AO2
14837KMSN MSN20020630005011206/30/02 00:50:31  5-MIN KMSN 300650Z 18007KT 6SM HZ CLR 24/19 A3004 750 73 2100 180/07 RMK AO2 SLP167 T02440194
14837KMSN MSN20020630005509506/30/02 00:55:31  5-MIN KMSN 300655Z 18006KT 6SM HZ CLR 24/19 A3004 750 76 2000 180/06 RMK AO2
14837KMSN MSN20020630010009506/30/02 01:00:31  5-MIN KMSN 300700Z 18007KT 6SM HZ CLR 24/19 A3005 750 76 2000 180/07 RMK AO2
14837KMSN MSN20020630010509506/30/02 01:05:31  5-MIN KMSN 300705Z 18007KT 6SM HZ CLR 24/19 A3004 750 76 2000 180/07 RMK AO2
14837KMSN MSN20020630011009506/30/02 01:10:31  5-MIN KMSN 300710Z 18007KT 6SM HZ CLR 24/19 A3005 750 76 2000 180/07 RMK AO2
14837KMSN MSN20020630011509506/30/02 01:15:31  5-MIN KMSN 300715Z 19007KT 6SM HZ CLR 24/19 A3004 750 76 2000 180/07 RMK AO2
14837KMSN MSN20020630012009506/30/02 01:20:31  5-MIN KMSN 300720Z 18007KT 6SM HZ CLR 24/19 A3004 750 76 2000 180/07 RMK AO2
14837KMSN MSN20020630012509506/30/02 01:25:31  5-MIN KMSN 300725Z 19006KT 6SM HZ CLR 24/19 A3004 750 76 2000 190/06 RMK AO2
14837KMSN MSN20020630013009506/30/02 01:30:31  5-MIN KMSN 300730Z 19007KT 6SM HZ CLR 24/19 A3004 750 76 2000 180/07 RMK AO2
14837KMSN MSN20020630013509506/30/02 01:35:31  5-MIN KMSN 300735Z 17006KT 6SM HZ CLR 24/19 A3004 760 76 2000 170/06 RMK AO2
14837KMSN MSN20020630014009506/30/02 01:40:31  5-MIN KMSN 300740Z 18006KT 6SM HZ CLR 24/19 A3004 760 76 2000 180/06 RMK AO2
14837KMSN MSN20020630014509506/30/02 01:45:31  5-MIN KMSN 300745Z 18006KT 6SM HZ CLR 24/19 A3004 760 76 2000 180/06 RMK AO2
14837KMSN MSN20020630015011206/30/02 01:50:31  5-MIN KMSN 300750Z 18006KT 6SM HZ CLR 23/19 A3004 760 78 1900 180/06 RMK AO2 SLP165 T02330194
14837KMSN MSN20020630015509506/30/02 01:55:31  5-MIN KMSN 300755Z 18006KT 6SM HZ CLR 23/19 A3004 760 78 1900 180/06 RMK AO2
14837KMSN MSN20020630020009506/30/02 02:00:31  5-MIN KMSN 300800Z 18006KT 6SM HZ CLR 23/19 A3004 760 78 1900 180/06 RMK AO2
14837KMSN MSN20020630020509506/30/02 02:05:31  5-MIN KMSN 300805Z 18007KT 6SM HZ CLR 23/19 A3004 750 78 1900 180/07 RMK AO2
14837KMSN MSN20020630021009506/30/02 02:10:31  5-MIN KMSN 300810Z 18006KT 6SM HZ CLR 23/19 A3004 750 78 1900 180/06 RMK AO2
14837KMSN MSN20020630021509506/30/02 02:15:31  5-MIN KMSN 300815Z 18006KT 6SM HZ CLR 23/19 A3004 750 78 1900 180/06 RMK AO2
14837KMSN MSN20020630022009506/30/02 02:20:31  5-MIN KMSN 300820Z 18007KT 6SM HZ CLR 23/19 A3004 750 78 1900 180/07 RMK AO2
14837KMSN MSN20020630022509506/30/02 02:25:31  5-MIN KMSN 300825Z VRB03KT 6SM HZ CLR 23/19 A3004 750 78 1900 VRB/03 RMK AO2
14837KMSN MSN20020630023009506/30/02 02:30:31  5-MIN KMSN 300830Z 19006KT 6SM HZ CLR 23/19 A3005 750 78 1900 190/06 RMK AO2
14837KMSN MSN20020630023509506/30/02 02:35:31  5-MIN KMSN 300835Z 19004KT 6SM HZ CLR 23/19 A3005 750 78 1900 180/04 RMK AO2
14837KMSN MSN20020630024009506/30/02 02:40:31  5-MIN KMSN 300840Z 00000KT 6SM HZ CLR 23/19 A3005 750 78 1900 000/00 RMK AO2
14837KMSN MSN20020630024509506/30/02 02:45:31  5-MIN KMSN 300845Z 19003KT 6SM HZ CLR 23/19 A3004 750 78 1900 190/03 RMK AO2
14837KMSN MSN20020630025011806/30/02 02:50:31  5-MIN KMSN 300850Z 19006KT 6SM HZ CLR 23/19 A3004 750 78 1900 190/06 RMK AO2 SLP166 T02330194 50000
14837KMSN MSN20020630025509506/30/02 02:55:31  5-MIN KMSN 300855Z 18005KT 6SM HZ CLR 23/19 A3004 750 78 1900 180/05 RMK AO2
14837KMSN MSN20020630030009506/30/02 03:00:31  5-MIN KMSN 300900Z VRB04KT 6SM HZ CLR 23/19 A3004 750 78 1900 VRB/04 RMK AO2
14837KMSN MSN20020630030509506/30/02 03:05:31  5-MIN KMSN 300905Z 18005KT 5SM HZ CLR 23/19 A3004 750 81 1900 180/05 RMK AO2
14837KMSN MSN20020630031009506/30/02 03:10:31  5-MIN KMSN 300910Z 18005KT 5SM HZ CLR 23/19 A3004 750 78 1900 180/05 RMK AO2
14837KMSN MSN20020630031509506/30/02 03:15:31  5-MIN KMSN 300915Z 18003KT 5SM HZ CLR 23/19 A3005 750 78 1900 180/03 RMK AO2
14837KMSN MSN20020630032009506/30/02 03:20:31  5-MIN KMSN 300920Z 17003KT 5SM HZ CLR 22/19 A3005 750 84 1800 170/03 RMK AO2
14837KMSN MSN20020630032509506/30/02 03:25:31  5-MIN KMSN 300925Z 16004KT 5SM BR CLR 22/19 A3005 750 87 1700 160/04 RMK AO2
14837KMSN MSN20020630033009506/30/02 03:30:31  5-MIN KMSN 300930Z 17003KT 5SM HZ CLR 22/19 A3005 750 84 1800 170/03 RMK AO2
14837KMSN MSN20020630033509506/30/02 03:35:31  5-MIN KMSN 300935Z 17004KT 5SM HZ CLR 23/19 A3005 750 81 1900 170/04 RMK AO2
14837KMSN MSN20020630034009506/30/02 03:40:31  5-MIN KMSN 300940Z 17004KT 5SM HZ CLR 22/19 A3005 750 84 1800 170/04 RMK AO2
14837KMSN MSN20020630034509506/30/02 03:45:31  5-MIN KMSN 300945Z 18004KT 5SM HZ CLR 23/19 A3005 740 81 1900 180/04 RMK AO2
14837KMSN MSN20020630035011206/30/02 03:50:31  5-MIN KMSN 300950Z 18005KT 5SM HZ CLR 23/19 A3005 740 81 1900 180/05 RMK AO2 SLP170 T02280194
14837KMSN MSN20020630035509506/30/02 03:55:31  5-MIN KMSN 300955Z 18005KT 5SM HZ CLR 23/19 A3005 740 81 1900 180/05 RMK AO2
14837KMSN MSN20020630040009506/30/02 04:00:31  5-MIN KMSN 301000Z 19004KT 5SM HZ CLR 23/19 A3005 740 81 1900 190/04 RMK AO2
14837KMSN MSN20020630040509506/30/02 04:05:31  5-MIN KMSN 301005Z 18004KT 4SM HZ CLR 23/19 A3005 740 81 1900 180/04 RMK AO2
14837KMSN MSN20020630041009506/30/02 04:10:31  5-MIN KMSN 301010Z 18005KT 4SM HZ CLR 23/19 A3005 740 81 1900 180/05 RMK AO2
14837KMSN MSN20020630041509506/30/02 04:15:31  5-MIN KMSN 301015Z 17005KT 3SM HZ CLR 23/19 A3005 740 81 1900 170/05 RMK AO2
14837KMSN MSN20020630042009506/30/02 04:20:31  5-MIN KMSN 301020Z 17005KT 3SM HZ CLR 22/19 A3005 740 84 1800 170/05 RMK AO2
14837KMSN MSN20020630042509506/30/02 04:25:31  5-MIN KMSN 301025Z 17004KT 3SM HZ CLR 22/19 A3005 740 84 1800 170/04 RMK AO2
14837KMSN MSN20020630043009506/30/02 04:30:31  5-MIN KMSN 301030Z 16005KT 3SM HZ CLR 22/19 A3005 740 84 1800 160/05 RMK AO2
14837KMSN MSN20020630043509506/30/02 04:35:31  5-MIN KMSN 301035Z 16006KT 3SM BR CLR 22/19 A3005 740 87 1700 160/06 RMK AO2
14837KMSN MSN20020630044009506/30/02 04:40:31  5-MIN KMSN 301040Z 16006KT 3SM BR CLR 22/19 A3005 740 87 1700 160/06 RMK AO2
14837KMSN MSN20020630044509506/30/02 04:45:31  5-MIN KMSN 301045Z 16006KT 3SM HZ CLR 22/19 A3006 740 84 1800 160/06 RMK AO2
14837KMSN MSN20020630045011206/30/02 04:50:31  5-MIN KMSN 301050Z 16007KT 3SM HZ CLR 22/19 A3006 740 84 1800 160/07 RMK AO2 SLP172 T02220194
14837KMSN MSN20020630045509506/30/02 04:55:31  5-MIN KMSN 301055Z 17006KT 3SM HZ CLR 22/19 A3006 740 84 1800 160/06 RMK AO2
14837KMSN MSN20020630050009506/30/02 05:00:31  5-MIN KMSN 301100Z 17006KT 3SM HZ CLR 22/19 A3006 740 84 1800 170/06 RMK AO2
14837KMSN MSN20020630050509506/30/02 05:05:31  5-MIN KMSN 301105Z 17005KT 3SM HZ CLR 22/19 A3006 740 84 1800 170/05 RMK AO2
14837KMSN MSN20020630051009506/30/02 05:10:31  5-MIN KMSN 301110Z 18005KT 3SM HZ CLR 22/19 A3006 740 84 1800 180/05 RMK AO2
14837KMSN MSN20020630051509506/30/02 05:15:31  5-MIN KMSN 301115Z 17005KT 3SM HZ CLR 22/19 A3006 740 84 1800 170/05 RMK AO2
14837KMSN MSN20020630052009506/30/02 05:20:31  5-MIN KMSN 301120Z 17004KT 3SM HZ CLR 22/19 A3006 740 84 1800 170/04 RMK AO2
14837KMSN MSN20020630052509506/30/02 05:25:31  5-MIN KMSN 301125Z 18005KT 3SM BR CLR 22/20 A3006 740 87 1800 180/05 RMK AO2
14837KMSN MSN20020630053009506/30/02 05:30:31  5-MIN KMSN 301130Z 18005KT 3SM HZ CLR 23/20 A3006 740 84 1800 180/05 RMK AO2
14837KMSN MSN20020630053509506/30/02 05:35:31  5-MIN KMSN 301135Z 18004KT 3SM HZ CLR 23/20 A3006 730 84 1800 180/04 RMK AO2
14837KMSN MSN20020630054009506/30/02 05:40:31  5-MIN KMSN 301140Z 18005KT 3SM HZ CLR 23/20 A3007 730 81 1900 180/05 RMK AO2
14837KMSN MSN20020630054509506/30/02 05:45:31  5-MIN KMSN 301145Z 18005KT 3SM HZ CLR 23/20 A3007 730 81 1900 180/05 RMK AO2
14837KMSN MSN20020630055013006/30/02 05:50:31  5-MIN KMSN 301150Z 19005KT 3SM HZ CLR 23/20 A3007 730 81 1900 190/05 RMK AO2 SLP176 T02330200 10244 20217 55002
14837KMSN MSN20020630055509506/30/02 05:55:31  5-MIN KMSN 301155Z 18007KT 3SM HZ CLR 23/20 A3007 730 81 1900 180/07 RMK AO2
14837KMSN MSN20020630060009506/30/02 06:00:31  5-MIN KMSN 301200Z 19007KT 3SM HZ CLR 23/20 A3007 730 81 1900 190/07 RMK AO2
14837KMSN MSN20020630060509506/30/02 06:05:31  5-MIN KMSN 301205Z 18006KT 3SM HZ CLR 24/20 A3007 730 78 2000 180/06 RMK AO2
14837KMSN MSN20020630061009506/30/02 06:10:31  5-MIN KMSN 301210Z 18007KT 3SM HZ CLR 24/20 A3007 730 78 2000 180/07 RMK AO2
14837KMSN MSN20020630061509506/30/02 06:15:31  5-MIN KMSN 301215Z 18007KT 3SM HZ CLR 24/20 A3007 730 78 2000 180/07 RMK AO2
14837KMSN MSN20020630062009506/30/02 06:20:31  5-MIN KMSN 301220Z 19007KT 3SM HZ CLR 24/21 A3007 730 81 2000 180/07 RMK AO2
14837KMSN MSN20020630062509506/30/02 06:25:31  5-MIN KMSN 301225Z 19007KT 3SM HZ CLR 24/21 A3007 730 81 2000 180/07 RMK AO2
14837KMSN MSN20020630063009506/30/02 06:30:31  5-MIN KMSN 301230Z 19007KT 3SM HZ CLR 24/21 A3007 730 78 2000 190/07 RMK AO2
14837KMSN MSN20020630063509506/30/02 06:35:31  5-MIN KMSN 301235Z 19007KT 3SM HZ CLR 24/21 A3007 730 78 2000 190/07 RMK AO2
14837KMSN MSN20020630064009506/30/02 06:40:31  5-MIN KMSN 301240Z 19007KT 4SM HZ CLR 24/21 A3007 730 78 2000 190/07 RMK AO2
14837KMSN MSN20020630064509506/30/02 06:45:31  5-MIN KMSN 301245Z 18008KT 4SM HZ CLR 24/21 A3007 730 78 2000 180/08 RMK AO2
14837KMSN MSN20020630065011206/30/02 06:50:31  5-MIN KMSN 301250Z 19007KT 4SM HZ CLR 25/21 A3007 730 76 2100 190/07 RMK AO2 SLP177 T02500206
14837KMSN MSN20020630065509506/30/02 06:55:31  5-MIN KMSN 301255Z 19008KT 4SM HZ CLR 25/21 A3007 720 76 2100 190/08 RMK AO2
14837KMSN MSN20020630070009506/30/02 07:00:31  5-MIN KMSN 301300Z 19008KT 5SM HZ CLR 25/21 A3007 720 79 2100 180/08 RMK AO2
14837KMSN MSN20020630070509506/30/02 07:05:31  5-MIN KMSN 301305Z 19007KT 5SM HZ CLR 26/21 A3008 720 76 2100 190/07 RMK AO2
14837KMSN MSN20020630071009506/30/02 07:10:31  5-MIN KMSN 301310Z 19008KT 5SM HZ CLR 26/21 A3008 720 76 2100 190/08 RMK AO2
14837KMSN MSN20020630071509506/30/02 07:15:31  5-MIN KMSN 301315Z 20005KT 5SM HZ CLR 26/21 A3008 720 76 2100 200/05 RMK AO2
14837KMSN MSN20020630072009506/30/02 07:20:31  5-MIN KMSN 301320Z 20007KT 5SM HZ CLR 26/21 A3008 720 73 2200 200/07 RMK AO2
14837KMSN MSN20020630072509506/30/02 07:25:31  5-MIN KMSN 301325Z 19008KT 5SM HZ CLR 26/21 A3007 720 73 2200 180/08 RMK AO2
14837KMSN MSN20020630073009506/30/02 07:30:31  5-MIN KMSN 301330Z 19008KT 5SM HZ CLR 26/21 A3008 720 73 2200 190/08 RMK AO2
14837KMSN MSN20020630073509506/30/02 07:35:31  5-MIN KMSN 301335Z 20005KT 5SM HZ CLR 27/22 A3008 720 73 2300 200/05 RMK AO2
14837KMSN MSN20020630074009506/30/02 07:40:31  5-MIN KMSN 301340Z 21005KT 5SM HZ CLR 27/22 A3008 720 71 2300 210/05 RMK AO2
14837KMSN MSN20020630074509506/30/02 07:45:31  5-MIN KMSN 301345Z 20006KT 6SM HZ CLR 27/22 A3008 720 71 2300 200/06 RMK AO2
14837KMSN MSN20020630075011206/30/02 07:50:31  5-MIN KMSN 301350Z 21007KT 6SM HZ CLR 27/22 A3008 720 71 2300 200/07 RMK AO2 SLP178 T02720217
14837KMSN MSN20020630075509506/30/02 07:55:31  5-MIN KMSN 301355Z 21008KT 6SM HZ CLR 27/22 A3008 720 71 2300 210/08 RMK AO2
14837KMSN MSN20020630080009506/30/02 08:00:31  5-MIN KMSN 301400Z 22006KT 6SM HZ CLR 27/22 A3008 720 71 2300 220/06 RMK AO2
14837KMSN MSN20020630080509506/30/02 08:05:31  5-MIN KMSN 301405Z 21006KT 6SM HZ CLR 28/22 A3008 720 71 2400 210/06 RMK AO2
14837KMSN MSN20020630081009506/30/02 08:10:31  5-MIN KMSN 301410Z 21006KT 6SM HZ CLR 27/22 A3008 720 71 2300 210/06 RMK AO2
14837KMSN MSN20020630081509506/30/02 08:15:31  5-MIN KMSN 301415Z VRB04KT 6SM HZ CLR 28/22 A3008 720 71 2400 VRB/04 RMK AO2
14837KMSN MSN20020630082009506/30/02 08:20:31  5-MIN KMSN 301420Z VRB06KT 6SM HZ CLR 28/22 A3008 720 69 2400 VRB/06 RMK AO2
14837KMSN MSN20020630082509506/30/02 08:25:31  5-MIN KMSN 301425Z 19007KT 6SM HZ CLR 28/22 A3008 720 69 2400 190/07 RMK AO2
14837KMSN MSN20020630083009506/30/02 08:30:31  5-MIN KMSN 301430Z 19005KT 6SM HZ CLR 28/22 A3008 720 69 2500 190/05 RMK AO2
14837KMSN MSN20020630083509506/30/02 08:35:31  5-MIN KMSN 301435Z VRB03KT 6SM HZ CLR 28/22 A3008 720 69 2400 VRB/03 RMK AO2
14837KMSN MSN20020630084009206/30/02 08:40:31  5-MIN KMSN 301440Z VRB05KT 7SM CLR 28/22 A3008 710 69 2400 VRB/05 RMK AO2
14837KMSN MSN20020630084509206/30/02 08:45:31  5-MIN KMSN 301445Z VRB05KT 7SM CLR 29/22 A3008 720 67 2500 VRB/05 RMK AO2
14837KMSN MSN20020630085011506/30/02 08:50:31  5-MIN KMSN 301450Z 22007KT 7SM CLR 29/22 A3008 720 67 2500 220/07 RMK AO2 SLP179 T02890222 53009
14837KMSN MSN20020630085509206/30/02 08:55:31  5-MIN KMSN 301455Z 21005KT 7SM CLR 29/22 A3008 720 67 2500 210/05 RMK AO2
14837KMSN MSN20020630090009206/30/02 09:00:31  5-MIN KMSN 301500Z 21005KT 7SM CLR 29/22 A3008 720 67 2500 210/05 RMK AO2
14837KMSN MSN20020630090509206/30/02 09:05:31  5-MIN KMSN 301505Z 22005KT 7SM CLR 29/22 A3008 720 67 2500 220/05 RMK AO2
14837KMSN MSN20020630091009206/30/02 09:10:31  5-MIN KMSN 301510Z VRB04KT 7SM CLR 29/22 A3008 720 67 2500 VRB/04 RMK AO2
14837KMSN MSN20020630091509206/30/02 09:15:31  5-MIN KMSN 301515Z VRB04KT 7SM CLR 29/23 A3008 710 67 2600 VRB/04 RMK AO2
14837KMSN MSN20020630092009206/30/02 09:20:31  5-MIN KMSN 301520Z VRB04KT 7SM CLR 30/23 A3008 710 65 2600 VRB/04 RMK AO2
14837KMSN MSN20020630092509206/30/02 09:25:31  5-MIN KMSN 301525Z VRB04KT 7SM CLR 29/23 A3008 710 67 2600 VRB/04 RMK AO2
14837KMSN MSN20020630093009206/30/02 09:30:31  5-MIN KMSN 301530Z 22005KT 8SM CLR 30/23 A3008 710 65 2600 220/05 RMK AO2
14837KMSN MSN20020630093509206/30/02 09:35:31  5-MIN KMSN 301535Z 21005KT 7SM CLR 30/23 A3008 710 65 2600 210/05 RMK AO2
14837KMSN MSN20020630094009206/30/02 09:40:31  5-MIN KMSN 301540Z VRB04KT 7SM CLR 30/23 A3008 720 65 2600 VRB/04 RMK AO2
14837KMSN MSN20020630094510806/30/02 09:45:31  5-MIN KMSN 301545Z 23007KT 170V260 8SM CLR 31/23 A3008 720 62 2700 220/07 170V260 RMK AO2
14837KMSN MSN20020630095010906/30/02 09:50:31  5-MIN KMSN 301550Z 23005KT 8SM CLR 30/22 A3008 720 62 2600 230/05 RMK AO2 SLP179 T03000222
14837KMSN MSN20020630095509206/30/02 09:55:31  5-MIN KMSN 301555Z VRB04KT 8SM CLR 31/23 A3008 720 62 2700 VRB/04 RMK AO2
14837KMSN MSN20020630100009206/30/02 10:00:31  5-MIN KMSN 301600Z 23004KT 8SM CLR 31/23 A3008 720 60 2800 230/04 RMK AO2
14837KMSN MSN20020630100509206/30/02 10:05:31  5-MIN KMSN 301605Z 18005KT 9SM CLR 31/23 A3008 720 62 2700 180/05 RMK AO2
14837KMSN MSN20020630101009206/30/02 10:10:31  5-MIN KMSN 301610Z VRB06KT 8SM CLR 32/23 A3008 720 61 2800 VRB/06 RMK AO2
14837KMSN MSN20020630101509206/30/02 10:15:31  5-MIN KMSN 301615Z VRB04KT 8SM CLR 31/23 A3008 720 60 2800 VRB/04 RMK AO2
14837KMSN MSN20020630102009206/30/02 10:20:31  5-MIN KMSN 301620Z VRB05KT 9SM CLR 31/22 A3008 720 58 2800 VRB/05 RMK AO2
14837KMSN MSN20020630102509206/30/02 10:25:31  5-MIN KMSN 301625Z VRB04KT 9SM CLR 31/23 A3008 710 60 2800 VRB/04 RMK AO2
14837KMSN MSN20020630103009206/30/02 10:30:31  5-MIN KMSN 301630Z VRB05KT 9SM CLR 31/23 A3008 720 60 2800 VRB/05 RMK AO2
14837KMSN MSN20020630103509206/30/02 10:35:31  5-MIN KMSN 301635Z VRB06KT 9SM CLR 32/23 A3008 720 58 2800 VRB/06 RMK AO2
14837KMSN MSN20020630104009206/30/02 10:40:31  5-MIN KMSN 301640Z VRB04KT 9SM CLR 31/23 A3008 720 60 2800 VRB/04 RMK AO2
14837KMSN MSN20020630104509506/30/02 10:45:31  5-MIN KMSN 301645Z 22006KT 8SM FEW050 31/23 A3008 710 60 2800 220/06 RMK AO2
14837KMSN MSN20020630105011206/30/02 10:50:31  5-MIN KMSN 301650Z VRB05KT 9SM FEW050 31/23 A3008 720 60 2800 VRB/05 RMK AO2 SLP179 T03110228
14837KMSN MSN20020630105509206/30/02 10:55:31  5-MIN KMSN 301655Z 23006KT 9SM CLR 32/23 A3008 720 58 2800 220/06 RMK AO2
14837KMSN MSN20020630110009206/30/02 11:00:31  5-MIN KMSN 301700Z VRB06KT 9SM CLR 32/23 A3008 720 58 2800 VRB/06 RMK AO2
14837KMSN MSN20020630110509206/30/02 11:05:31  5-MIN KMSN 301705Z 24007KT 9SM CLR 32/23 A3008 720 58 2800 240/07 RMK AO2
14837KMSN MSN20020630111009206/30/02 11:10:31  5-MIN KMSN 301710Z 22007KT 9SM CLR 32/23 A3008 720 58 2800 220/07 RMK AO2
14837KMSN MSN20020630111509206/30/02 11:15:31  5-MIN KMSN 301715Z 22005KT 9SM CLR 32/23 A3007 720 58 2800 220/05 RMK AO2
14837KMSN MSN20020630112009206/30/02 11:20:31  5-MIN KMSN 301720Z VRB06KT 9SM CLR 32/23 A3008 720 57 2900 VRB/06 RMK AO2
14837KMSN MSN20020630112509206/30/02 11:25:31  5-MIN KMSN 301725Z 22006KT 9SM CLR 32/23 A3007 720 57 2900 210/06 RMK AO2
14837KMSN MSN20020630113009206/30/02 11:30:31  5-MIN KMSN 301730Z 23005KT 9SM CLR 32/22 A3007 720 56 2800 230/05 RMK AO2
14837KMSN MSN20020630113509206/30/02 11:35:31  5-MIN KMSN 301735Z 22006KT 9SM CLR 32/23 A3007 730 57 2900 210/06 RMK AO2
14837KMSN MSN20020630114010806/30/02 11:40:31  5-MIN KMSN 301740Z 24007KT 190V280 9SM CLR 32/23 A3007 730 57 2900 240/07 190V280 RMK AO2
14837KMSN MSN20020630114509206/30/02 11:45:31  5-MIN KMSN 301745Z 24007KT 9SM CLR 32/22 A3007 730 55 2900 240/07 RMK AO2
14837KMSN MSN20020630115013006/30/02 11:50:31  5-MIN KMSN 301750Z 22007KT 9SM SCT050 32/23 A3007 730 57 2900 220/07 RMK AO2 SLP175 T03220228 10322 20233 50003
14837KMSN MSN20020630115509506/30/02 11:55:31  5-MIN KMSN 301755Z VRB06KT 9SM FEW047 32/23 A3007 730 57 2900 VRB/06 RMK AO2
14837KMSN MSN20020630120009606/30/02 12:00:31  5-MIN KMSN 301800Z VRB05KT 10SM FEW047 33/22 A3006 730 53 3000 VRB/05 RMK AO2
14837KMSN MSN20020630120509306/30/02 12:05:31  5-MIN KMSN 301805Z VRB06KT 10SM CLR 33/22 A3006 730 51 3000 VRB/06 RMK AO2
14837KMSN MSN20020630121009606/30/02 12:10:31  5-MIN KMSN 301810Z 20007KT 10SM FEW050 32/22 A3006 730 55 2900 200/07 RMK AO2
14837KMSN MSN20020630121509506/30/02 12:15:31  5-MIN KMSN 301815Z 21007KT 9SM FEW050 33/22 A3006 730 53 3000 200/07 RMK AO2
14837KMSN MSN20020630122009606/30/02 12:20:31  5-MIN KMSN 301820Z 23007KT 10SM FEW050 32/22 A3006 730 55 2900 220/07 RMK AO2
14837KMSN MSN20020630122509606/30/02 12:25:31  5-MIN KMSN 301825Z 24006KT 10SM FEW049 32/22 A3006 740 53 2900 240/06 RMK AO2
14837KMSN MSN20020630123010306/30/02 12:30:31  5-MIN KMSN 301830Z 24007KT 10SM FEW046 SCT065 32/22 A3006 740 53 2900 230/07 RMK AO2
14837KMSN MSN20020630123509606/30/02 12:35:31  5-MIN KMSN 301835Z VRB06KT 10SM FEW046 32/22 A3006 740 55 2900 VRB/06 RMK AO2
14837KMSN MSN20020630124010306/30/02 12:40:31  5-MIN KMSN 301840Z 24007KT 10SM FEW047 SCT080 32/22 A3006 740 55 2900 240/07 RMK AO2
14837KMSN MSN20020630124511906/30/02 12:45:31  5-MIN KMSN 301845Z 23007KT 200V260 10SM SCT047 SCT080 33/22 A3005 740 51 3000 230/07 200V260 RMK AO2
14837KMSN MSN20020630125012006/30/02 12:50:31  5-MIN KMSN 301850Z 23010KT 10SM SCT047 SCT080 33/22 A3005 740 50 3000 220/10 RMK AO2 SLP169 T03330217
14837KMSN MSN20020630125511206/30/02 12:55:31  5-MIN KMSN 301855Z 22007KT 180V260 10SM FEW049 33/22 A3005 740 50 3000 220/07 180V260 RMK AO2
14837KMSN MSN20020630130011206/30/02 13:00:31  5-MIN KMSN 301900Z 22009KT 190V250 10SM FEW049 33/21 A3005 740 48 3000 220/09 190V250 RMK AO2
14837KMSN MSN20020630130509306/30/02 13:05:31  5-MIN KMSN 301905Z 21009KT 10SM CLR 33/21 A3005 750 48 3000 210/09 RMK AO2
14837KMSN MSN20020630131009606/30/02 13:10:31  5-MIN KMSN 301910Z 22009KT 10SM FEW055 33/21 A3005 750 49 3000 220/09 RMK AO2
14837KMSN MSN20020630131509606/30/02 13:15:31  5-MIN KMSN 301915Z 23009KT 10SM SCT055 32/21 A3005 750 51 2900 230/09 RMK AO2
14837KMSN MSN20020630132009606/30/02 13:20:31  5-MIN KMSN 301920Z 23008KT 10SM SCT055 33/21 A3005 750 49 3000 230/08 RMK AO2
14837KMSN MSN20020630132509606/30/02 13:25:31  5-MIN KMSN 301925Z 23007KT 10SM SCT055 33/22 A3004 750 51 3000 230/07 RMK AO2
14837KMSN MSN20020630133009606/30/02 13:30:31  5-MIN KMSN 301930Z 23007KT 10SM SCT055 33/22 A3004 750 50 3000 230/07 RMK AO2
14837KMSN MSN20020630133509606/30/02 13:35:31  5-MIN KMSN 301935Z 24007KT 10SM SCT055 33/22 A3004 750 50 3000 240/07 RMK AO2
14837KMSN MSN20020630134011906/30/02 13:40:31  5-MIN KMSN 301940Z 22007KT 200V260 10SM FEW050 SCT070 33/21 A3004 750 49 3000 220/07 200V260 RMK AO2
14837KMSN MSN20020630134509606/30/02 13:45:31  5-MIN KMSN 301945Z 23007KT 10SM FEW050 33/22 A3004 750 50 3000 230/07 RMK AO2
14837KMSN MSN20020630135011306/30/02 13:50:31  5-MIN KMSN 301950Z 23007KT 10SM SCT050 33/22 A3004 750 53 3000 230/07 RMK AO2 SLP165 T03280222
14837KMSN MSN20020630135509606/30/02 13:55:31  5-MIN KMSN 301955Z 24007KT 10SM FEW060 33/22 A3004 750 51 3000 240/07 RMK AO2
14837KMSN MSN20020630140011206/30/02 14:00:31  5-MIN KMSN 302000Z 23007KT 180V250 10SM SCT060 32/22 A3004 750 53 2900 230/07 180V250 RMK AO2
14837KMSN MSN20020630140509606/30/02 14:05:31  5-MIN KMSN 302005Z 22007KT 10SM SCT060 32/22 A3004 760 53 2900 220/07 RMK AO2
14837KMSN MSN20020630141010306/30/02 14:10:31  5-MIN KMSN 302010Z 22007KT 10SM SCT060 SCT075 32/21 A3004 760 53 2900 220/07 RMK AO2
14837KMSN MSN20020630141511006/30/02 14:15:31  5-MIN KMSN 302015Z 23008KT 10SM FEW050 SCT060 BKN075 32/22 A3003 760 53 2900 230/08 RMK AO2
14837KMSN MSN20020630142011906/30/02 14:20:31  5-MIN KMSN 302020Z 21009KT 160V250 10SM FEW050 SCT060 33/22 A3003 760 51 3000 210/09 160V250 RMK AO2
14837KMSN MSN20020630142510306/30/02 14:25:31  5-MIN KMSN 302025Z 23008KT 10SM FEW050 SCT060 33/21 A3003 760 49 3000 230/08 RMK AO2
14837KMSN MSN20020630143010306/30/02 14:30:31  5-MIN KMSN 302030Z 23009KT 10SM SCT055 SCT070 33/22 A3003 760 51 3000 230/09 RMK AO2
14837KMSN MSN20020630143509606/30/02 14:35:31  5-MIN KMSN 302035Z 23010KT 10SM FEW055 33/22 A3003 760 51 3000 230/10 RMK AO2
14837KMSN MSN20020630144009606/30/02 14:40:31  5-MIN KMSN 302040Z 23009KT 10SM FEW049 33/21 A3003 760 49 3000 230/09 RMK AO2
14837KMSN MSN20020630144509606/30/02 14:45:31  5-MIN KMSN 302045Z 22008KT 10SM FEW049 33/21 A3003 760 48 3100 220/08 RMK AO2
14837KMSN MSN20020630145011906/30/02 14:50:31  5-MIN KMSN 302050Z 24007KT 10SM SCT049 33/22 A3003 760 50 3100 230/07 RMK AO2 SLP162 T03330217 58004
14837KMSN MSN20020630145509306/30/02 14:55:31  5-MIN KMSN 302055Z 23009KT 10SM CLR 33/22 A3003 770 50 3100 230/09 RMK AO2
14837KMSN MSN20020630150009606/30/02 15:00:31  5-MIN KMSN 302100Z 23007KT 10SM SCT049 33/22 A3003 770 50 3100 230/07 RMK AO2
14837KMSN MSN20020630150509606/30/02 15:05:31  5-MIN KMSN 302105Z 23007KT 10SM SCT049 33/22 A3003 770 50 3100 230/07 RMK AO2
14837KMSN MSN20020630151009606/30/02 15:10:31  5-MIN KMSN 302110Z 23007KT 10SM SCT049 33/22 A3003 770 50 3100 230/07 RMK AO2
14837KMSN MSN20020630151509606/30/02 15:15:31  5-MIN KMSN 302115Z 23007KT 10SM SCT049 33/22 A3003 770 51 3100 230/07 RMK AO2
14837KMSN MSN20020630152009606/30/02 15:20:31  5-MIN KMSN 302120Z 22008KT 10SM SCT049 33/22 A3002 770 50 3100 220/08 RMK AO2
14837KMSN MSN20020630152511206/30/02 15:25:31  5-MIN KMSN 302125Z 22009KT 200V260 10SM SCT049 33/22 A3002 770 50 3100 220/09 200V260 RMK AO2
14837KMSN MSN20020630153009606/30/02 15:30:31  5-MIN KMSN 302130Z 23009KT 10SM SCT049 33/21 A3002 770 48 3100 220/09 RMK AO2
14837KMSN MSN20020630153509606/30/02 15:35:31  5-MIN KMSN 302135Z 24008KT 10SM SCT049 33/22 A3002 770 50 3100 240/08 RMK AO2
14837KMSN MSN20020630154009606/30/02 15:40:31  5-MIN KMSN 302140Z 22010KT 10SM SCT049 33/22 A3002 770 51 3000 220/10 RMK AO2
14837KMSN MSN20020630154509606/30/02 15:45:31  5-MIN KMSN 302145Z 23008KT 10SM SCT049 33/22 A3002 780 51 3000 230/08 RMK AO2
14837KMSN MSN20020630155011306/30/02 15:50:31  5-MIN KMSN 302150Z 22008KT 10SM SCT049 33/21 A3002 770 49 3000 220/08 RMK AO2 SLP158 T03280211
14837KMSN MSN20020630155509606/30/02 15:55:31  5-MIN KMSN 302155Z 22008KT 10SM SCT049 32/21 A3002 770 51 2900 220/08 RMK AO2
14837KMSN MSN20020630160009606/30/02 16:00:31  5-MIN KMSN 302200Z 22009KT 10SM SCT049 33/21 A3002 780 49 3000 210/09 RMK AO2
14837KMSN MSN20020630160509606/30/02 16:05:31  5-MIN KMSN 302205Z 22007KT 10SM SCT049 33/21 A3002 780 49 3000 220/07 RMK AO2
14837KMSN MSN20020630161009606/30/02 16:10:31  5-MIN KMSN 302210Z 23007KT 10SM SCT049 33/21 A3001 780 49 3000 230/07 RMK AO2
14837KMSN MSN20020630161509606/30/02 16:15:31  5-MIN KMSN 302215Z 23007KT 10SM SCT049 33/21 A3001 780 49 3000 230/07 RMK AO2
14837KMSN MSN20020630162009606/30/02 16:20:31  5-MIN KMSN 302220Z 22009KT 10SM SCT049 32/21 A3001 780 51 3000 220/09 RMK AO2
14837KMSN MSN20020630162509606/30/02 16:25:31  5-MIN KMSN 302225Z 22008KT 10SM SCT049 33/21 A3001 780 49 3000 220/08 RMK AO2
14837KMSN MSN20020630163009606/30/02 16:30:31  5-MIN KMSN 302230Z 23007KT 10SM SCT049 33/21 A3001 780 49 3000 230/07 RMK AO2
14837KMSN MSN20020630163509606/30/02 16:35:31  5-MIN KMSN 302235Z 24006KT 10SM SCT049 32/21 A3001 780 51 3000 240/06 RMK AO2
14837KMSN MSN20020630164010306/30/02 16:40:31  5-MIN KMSN 302240Z 23007KT 10SM FEW049 SCT055 32/21 A3001 780 51 3000 230/07 RMK AO2
14837KMSN MSN20020630164509606/30/02 16:45:31  5-MIN KMSN 302245Z VRB06KT 10SM SCT055 32/21 A3001 780 51 3000 VRB/06 RMK AO2
14837KMSN MSN20020630165011306/30/02 16:50:31  5-MIN KMSN 302250Z VRB06KT 10SM SCT055 32/21 A3001 780 51 3000 VRB/06 RMK AO2 SLP157 T03220211
14837KMSN MSN20020630165509606/30/02 16:55:31  5-MIN KMSN 302255Z 22008KT 10SM SCT055 32/21 A3001 780 51 3000 220/08 RMK AO2
14837KMSN MSN20020630170011206/30/02 17:00:31  5-MIN KMSN 302300Z 23008KT 190V260 10SM SCT055 32/21 A3001 780 53 2900 230/08 190V260 RMK AO2
14837KMSN MSN20020630170509606/30/02 17:05:31  5-MIN KMSN 302305Z 23008KT 10SM FEW055 32/21 A3001 780 53 2900 230/08 RMK AO2
14837KMSN MSN20020630171009606/30/02 17:10:31  5-MIN KMSN 302310Z 23008KT 10SM FEW055 32/21 A3001 780 53 2900 230/08 RMK AO2
14837KMSN MSN20020630171509606/30/02 17:15:31  5-MIN KMSN 302315Z 22006KT 10SM FEW055 32/21 A3001 780 51 2900 220/06 RMK AO2
14837KMSN MSN20020630172009606/30/02 17:20:31  5-MIN KMSN 302320Z 23006KT 10SM FEW055 32/21 A3001 780 51 2900 220/06 RMK AO2
14837KMSN MSN20020630172509606/30/02 17:25:31  5-MIN KMSN 302325Z VRB06KT 10SM FEW055 32/21 A3001 780 53 2900 VRB/06 RMK AO2
14837KMSN MSN20020630173009606/30/02 17:30:31  5-MIN KMSN 302330Z 23005KT 10SM FEW055 32/21 A3002 780 53 2900 220/05 RMK AO2
14837KMSN MSN20020630173509606/30/02 17:35:31  5-MIN KMSN 302335Z 23006KT 10SM FEW055 32/21 A3002 780 53 2900 230/06 RMK AO2
14837KMSN MSN20020630174009606/30/02 17:40:31  5-MIN KMSN 302340Z 23005KT 10SM FEW055 31/21 A3002 780 54 2800 220/05 RMK AO2
14837KMSN MSN20020630174509606/30/02 17:45:31  5-MIN KMSN 302345Z VRB06KT 10SM FEW055 32/21 A3002 780 53 2900 VRB/06 RMK AO2
14837KMSN MSN20020630175013106/30/02 17:50:31  5-MIN KMSN 302350Z 23006KT 10SM FEW055 31/21 A3001 780 54 2800 220/06 RMK AO2 SLP157 T03110211 10339 20311 56012
14837KMSN MSN20020630175509606/30/02 17:55:31  5-MIN KMSN 302355Z 22007KT 10SM FEW055 31/21 A3001 780 54 2800 220/07 RMK AO2
14837KMSN MSN20020630180009606/30/02 18:00:31  5-MIN KMSN 010000Z VRB05KT 10SM FEW055 31/22 A3001 780 56 2800 VRB/05 RMK AO2
14837KMSN MSN20020630180509606/30/02 18:05:31  5-MIN KMSN 010005Z 24005KT 10SM FEW055 31/22 A3001 780 56 2800 240/05 RMK AO2
14837KMSN MSN20020630181009606/30/02 18:10:31  5-MIN KMSN 010010Z 23005KT 10SM FEW055 31/21 A3001 780 54 2800 230/05 RMK AO2
14837KMSN MSN20020630181509606/30/02 18:15:31  5-MIN KMSN 010015Z 23005KT 10SM FEW055 31/22 A3001 780 58 2800 230/05 RMK AO2
14837KMSN MSN20020630182009606/30/02 18:20:31  5-MIN KMSN 010020Z 23005KT 10SM FEW055 31/22 A3001 780 58 2800 230/05 RMK AO2
14837KMSN MSN20020630182509606/30/02 18:25:31  5-MIN KMSN 010025Z 23004KT 10SM FEW055 31/22 A3001 780 58 2800 220/04 RMK AO2
14837KMSN MSN20020630183009606/30/02 18:30:31  5-MIN KMSN 010030Z 22005KT 10SM FEW055 31/22 A3001 780 58 2800 220/05 RMK AO2
14837KMSN MSN20020630183509606/30/02 18:35:31  5-MIN KMSN 010035Z 22005KT 10SM FEW055 31/22 A3001 780 58 2800 220/05 RMK AO2
14837KMSN MSN20020630184009606/30/02 18:40:31  5-MIN KMSN 010040Z 22006KT 10SM FEW055 31/22 A3001 780 58 2800 220/06 RMK AO2
14837KMSN MSN20020630184509606/30/02 18:45:31  5-MIN KMSN 010045Z 22004KT 10SM FEW055 31/22 A3001 780 58 2800 210/04 RMK AO2
14837KMSN MSN20020630185011306/30/02 18:50:31  5-MIN KMSN 010050Z VRB06KT 10SM FEW055 31/22 A3001 780 58 2800 VRB/06 RMK AO2 SLP156 T03060217
14837KMSN MSN20020630185509606/30/02 18:55:31  5-MIN KMSN 010055Z 22008KT 10SM FEW055 31/21 A3001 780 56 2800 220/08 RMK AO2
14837KMSN MSN20020630190009606/30/02 19:00:31  5-MIN KMSN 010100Z 21007KT 10SM FEW055 31/21 A3001 780 56 2800 210/07 RMK AO2
14837KMSN MSN20020630190509606/30/02 19:05:31  5-MIN KMSN 010105Z 22006KT 10SM FEW055 31/21 A3002 780 56 2800 220/06 RMK AO2
14837KMSN MSN20020630191009606/30/02 19:10:31  5-MIN KMSN 010110Z 21006KT 10SM FEW055 30/21 A3002 780 58 2700 210/06 RMK AO2
14837KMSN MSN20020630191509606/30/02 19:15:31  5-MIN KMSN 010115Z 21007KT 10SM FEW055 30/21 A3002 780 58 2700 210/07 RMK AO2
14837KMSN MSN20020630192009606/30/02 19:20:31  5-MIN KMSN 010120Z 21005KT 10SM FEW055 30/21 A3002 780 56 2700 210/05 RMK AO2
14837KMSN MSN20020630192509606/30/02 19:25:31  5-MIN KMSN 010125Z 21005KT 10SM FEW055 30/21 A3002 780 56 2700 210/05 RMK AO2
14837KMSN MSN20020630193009606/30/02 19:30:31  5-MIN KMSN 010130Z 21006KT 10SM FEW055 30/21 A3001 780 56 2700 210/06 RMK AO2
14837KMSN MSN20020630193509606/30/02 19:35:31  5-MIN KMSN 010135Z 21006KT 10SM FEW055 30/21 A3002 780 56 2700 210/06 RMK AO2
14837KMSN MSN20020630194009606/30/02 19:40:31  5-MIN KMSN 010140Z 20004KT 10SM FEW055 30/21 A3002 780 58 2700 200/04 RMK AO2
14837KMSN MSN20020630194509306/30/02 19:45:31  5-MIN KMSN 010145Z 20006KT 10SM CLR 29/21 A3002 780 60 2600 200/06 RMK AO2
14837KMSN MSN20020630195011006/30/02 19:50:31  5-MIN KMSN 010150Z 20006KT 10SM CLR 29/22 A3002 780 62 2600 200/06 RMK AO2 SLP157 T02940217
14837KMSN MSN20020630195509306/30/02 19:55:31  5-MIN KMSN 010155Z 19006KT 10SM CLR 29/22 A3002 780 64 2600 190/06 RMK AO2
14837KMSN MSN20020630200009206/30/02 20:00:31  5-MIN KMSN 010200Z VRB05KT 9SM CLR 29/22 A3002 770 64 2600 VRB/05 RMK AO2
14837KMSN MSN20020630200509306/30/02 20:05:31  5-MIN KMSN 010205Z 20006KT 10SM CLR 29/22 A3002 770 64 2600 200/06 RMK AO2
14837KMSN MSN20020630201009306/30/02 20:10:31  5-MIN KMSN 010210Z 20008KT 10SM CLR 29/22 A3002 770 64 2600 200/08 RMK AO2
14837KMSN MSN20020630201509306/30/02 20:15:31  5-MIN KMSN 010215Z 18006KT 10SM CLR 29/22 A3002 770 62 2600 180/06 RMK AO2
14837KMSN MSN20020630202009306/30/02 20:20:31  5-MIN KMSN 010220Z 18008KT 10SM CLR 29/22 A3002 770 62 2600 180/08 RMK AO2
14837KMSN MSN20020630202509306/30/02 20:25:31  5-MIN KMSN 010225Z 19006KT 10SM CLR 29/22 A3003 770 64 2600 190/06 RMK AO2
14837KMSN MSN20020630203009306/30/02 20:30:31  5-MIN KMSN 010230Z 18007KT 10SM CLR 29/22 A3003 770 64 2600 180/07 RMK AO2
14837KMSN MSN20020630203509306/30/02 20:35:31  5-MIN KMSN 010235Z 19008KT 10SM CLR 29/22 A3003 770 64 2600 190/08 RMK AO2
14837KMSN MSN20020630204009306/30/02 20:40:31  5-MIN KMSN 010240Z 19008KT 10SM CLR 29/22 A3003 770 64 2600 190/08 RMK AO2
14837KMSN MSN20020630204509306/30/02 20:45:31  5-MIN KMSN 010245Z 20007KT 10SM CLR 29/22 A3003 760 64 2600 190/07 RMK AO2
14837KMSN MSN20020630205011606/30/02 20:50:31  5-MIN KMSN 010250Z 20007KT 10SM CLR 29/22 A3003 760 64 2600 200/07 RMK AO2 SLP161 T02890217 56005
14837KMSN MSN20020630205509306/30/02 20:55:31  5-MIN KMSN 010255Z 20006KT 10SM CLR 29/22 A3003 760 64 2600 200/06 RMK AO2
14837KMSN MSN20020630210009306/30/02 21:00:31  5-MIN KMSN 010300Z 20007KT 10SM CLR 29/22 A3003 760 64 2600 200/07 RMK AO2
14837KMSN MSN20020630210509306/30/02 21:05:31  5-MIN KMSN 010305Z 21006KT 10SM CLR 28/22 A3004 760 66 2500 210/06 RMK AO2
14837KMSN MSN20020630211009306/30/02 21:10:31  5-MIN KMSN 010310Z 20007KT 10SM CLR 28/22 A3004 760 66 2500 200/07 RMK AO2
14837KMSN MSN20020630211509306/30/02 21:15:31  5-MIN KMSN 010315Z 20008KT 10SM CLR 28/22 A3004 760 66 2500 200/08 RMK AO2
14837KMSN MSN20020630212009306/30/02 21:20:31  5-MIN KMSN 010320Z 20007KT 10SM CLR 28/22 A3003 760 66 2500 200/07 RMK AO2
14837KMSN MSN20020630212509306/30/02 21:25:31  5-MIN KMSN 010325Z 20007KT 10SM CLR 28/22 A3004 760 66 2500 200/07 RMK AO2
14837KMSN MSN20020630213009306/30/02 21:30:31  5-MIN KMSN 010330Z 21006KT 10SM CLR 28/22 A3004 760 66 2500 210/06 RMK AO2
14837KMSN MSN20020630213509306/30/02 21:35:31  5-MIN KMSN 010335Z 20006KT 10SM CLR 28/22 A3004 760 66 2500 200/06 RMK AO2
14837KMSN MSN20020630214009306/30/02 21:40:31  5-MIN KMSN 010340Z 21006KT 10SM CLR 28/22 A3004 750 69 2400 210/06 RMK AO2
14837KMSN MSN20020630214509306/30/02 21:45:31  5-MIN KMSN 010345Z 22006KT 10SM CLR 28/22 A3004 750 69 2400 210/06 RMK AO2
14837KMSN MSN20020630215011006/30/02 21:50:31  5-MIN KMSN 010350Z 21006KT 10SM CLR 28/22 A3004 750 69 2400 210/06 RMK AO2 SLP165 T02780217
14837KMSN MSN20020630215509306/30/02 21:55:31  5-MIN KMSN 010355Z 21005KT 10SM CLR 28/22 A3004 750 69 2400 210/05 RMK AO2
14837KMSN MSN20020630220009306/30/02 22:00:31  5-MIN KMSN 010400Z 22005KT 10SM CLR 28/22 A3005 750 69 2400 220/05 RMK AO2
14837KMSN MSN20020630220509306/30/02 22:05:31  5-MIN KMSN 010405Z 23006KT 10SM CLR 28/22 A3005 750 69 2400 220/06 RMK AO2
14837KMSN MSN20020630221009306/30/02 22:10:31  5-MIN KMSN 010410Z 23005KT 10SM CLR 28/21 A3005 750 66 2400 230/05 RMK AO2
14837KMSN MSN20020630221509306/30/02 22:15:31  5-MIN KMSN 010415Z 22005KT 10SM CLR 27/21 A3005 750 69 2400 220/05 RMK AO2
14837KMSN MSN20020630222009306/30/02 22:20:31  5-MIN KMSN 010420Z 23005KT 10SM CLR 27/21 A3005 750 69 2400 230/05 RMK AO2
14837KMSN MSN20020630222509306/30/02 22:25:31  5-MIN KMSN 010425Z 22007KT 10SM CLR 27/22 A3005 740 71 2400 220/07 RMK AO2
14837KMSN MSN20020630223009306/30/02 22:30:31  5-MIN KMSN 010430Z 22005KT 10SM CLR 27/21 A3005 740 69 2400 220/05 RMK AO2
14837KMSN MSN20020630223509306/30/02 22:35:31  5-MIN KMSN 010435Z 22005KT 10SM CLR 27/21 A3005 740 69 2400 220/05 RMK AO2
14837KMSN MSN20020630224009306/30/02 22:40:31  5-MIN KMSN 010440Z 22006KT 10SM CLR 27/21 A3005 740 69 2400 220/06 RMK AO2
14837KMSN MSN20020630224509306/30/02 22:45:31  5-MIN KMSN 010445Z 22005KT 10SM CLR 27/21 A3005 740 69 2400 220/05 RMK AO2
14837KMSN MSN20020630225011006/30/02 22:50:31  5-MIN KMSN 010450Z 22004KT 10SM CLR 27/21 A3005 740 71 2300 220/04 RMK AO2 SLP169 T02670211
14837KMSN MSN20020630225509306/30/02 22:55:31  5-MIN KMSN 010455Z 23005KT 10SM CLR 27/21 A3005 740 71 2300 230/05 RMK AO2
14837KMSN MSN20020630230009306/30/02 23:00:31  5-MIN KMSN 010500Z 22005KT 10SM CLR 27/22 A3005 740 73 2300 220/05 RMK AO2
14837KMSN MSN20020630230509306/30/02 23:05:31  5-MIN KMSN 010505Z 21005KT 10SM CLR 27/22 A3005 740 73 2300 210/05 RMK AO2
14837KMSN MSN20020630231009306/30/02 23:10:31  5-MIN KMSN 010510Z 22006KT 10SM CLR 27/22 A3005 740 73 2300 210/06 RMK AO2
14837KMSN MSN20020630231509306/30/02 23:15:31  5-MIN KMSN 010515Z 21005KT 10SM CLR 27/22 A3005 740 73 2300 210/05 RMK AO2
14837KMSN MSN20020630232009306/30/02 23:20:31  5-MIN KMSN 010520Z 22006KT 10SM CLR 27/22 A3005 740 73 2300 220/06 RMK AO2
14837KMSN MSN20020630232509306/30/02 23:25:31  5-MIN KMSN 010525Z 21006KT 10SM CLR 27/22 A3005 740 73 2300 210/06 RMK AO2
14837KMSN MSN20020630233009306/30/02 23:30:31  5-MIN KMSN 010530Z 22006KT 10SM CLR 27/22 A3005 750 73 2300 220/06 RMK AO2
14837KMSN MSN20020630233509306/30/02 23:35:31  5-MIN KMSN 010535Z 22006KT 10SM CLR 27/22 A3005 750 73 2300 210/06 RMK AO2
14837KMSN MSN20020630234009306/30/02 23:40:31  5-MIN KMSN 010540Z 22007KT 10SM CLR 27/21 A3005 750 71 2300 220/07 RMK AO2
14837KMSN MSN20020630234509306/30/02 23:45:31  5-MIN KMSN 010545Z 22007KT 10SM CLR 27/21 A3005 750 71 2300 220/07 RMK AO2
14837KMSN MSN20020630235013806/30/02 23:50:31  5-MIN KMSN 010550Z 22006KT 10SM CLR 27/21 A3005 750 71 2300 220/06 RMK AO2 SLP167 T02670211 10311 20267 403390217 53006
14837KMSN MSN20020630235509306/30/02 23:55:31  5-MIN KMSN 010555Z VRB05KT 10SM CLR 26/22 A3005 750 76 2200 VRB/05 RMK AO2
